<?xml version="1.0" encoding="UTF-8"?>
<gpx creator="Wikiloc - https://www.wikiloc.com" version="1.1" xmlns="http://www.topografix.com/GPX/1/1" xmlns:xsi="http://www.w3.org/2001/XMLSchema-instance" xsi:schemaLocation="http://www.topografix.com/GPX/1/1 http://www.topografix.com/GPX/1/1/gpx.xsd">
  <metadata>
    <name>Wikiloc - Lineal Tamadaba por Degollada las Lajas - Pico de la Bandera...</name>
    <link href="https://www.wikiloc.com/hiking-trails/lineal-tamadaba-por-degollada-las-lajas-pico-de-la-bandera-mirador-llanos-de-la-mimbre-presa-de-la-155875344">
      <text>Lineal Tamadaba por Degollada las Lajas - Pico de la Bandera... on Wikiloc</text>
    </link>
    <time>2023-12-16T17:02:04Z</time>
  </metadata>
  <trk>
    <name>Lineal Tamadaba por Degollada las Lajas - Pico de la Bandera... - Wikiloc</name>
    <cmt></cmt>
    <desc></desc>
    <trkseg>
      <trkpt lat="28.040677" lon="-15.688742">
        <ele>1235.846</ele>
        <time>2023-12-16T10:24:25Z</time>
      </trkpt>
      <trkpt lat="28.041221" lon="-15.688777">
        <ele>1235.688</ele>
        <time>2023-12-16T10:26:15Z</time>
      </trkpt>
      <trkpt lat="28.041802" lon="-15.688616">
        <ele>1258.916</ele>
        <time>2023-12-16T10:28:07Z</time>
      </trkpt>
      <trkpt lat="28.042031" lon="-15.688723">
        <ele>1270.309</ele>
        <time>2023-12-16T10:28:58Z</time>
      </trkpt>
      <trkpt lat="28.042094" lon="-15.688915">
        <ele>1274.075</ele>
        <time>2023-12-16T10:29:19Z</time>
      </trkpt>
      <trkpt lat="28.042037" lon="-15.688808">
        <ele>1314.969</ele>
        <time>2023-12-16T10:29:31Z</time>
      </trkpt>
      <trkpt lat="28.042423" lon="-15.688693">
        <ele>1276.999</ele>
        <time>2023-12-16T10:35:31Z</time>
      </trkpt>
      <trkpt lat="28.043060" lon="-15.688718">
        <ele>1289.922</ele>
        <time>2023-12-16T10:36:57Z</time>
      </trkpt>
      <trkpt lat="28.043316" lon="-15.688581">
        <ele>1295.711</ele>
        <time>2023-12-16T10:37:37Z</time>
      </trkpt>
      <trkpt lat="28.044235" lon="-15.688445">
        <ele>1326.679</ele>
        <time>2023-12-16T10:40:10Z</time>
      </trkpt>
      <trkpt lat="28.045011" lon="-15.688523">
        <ele>1343.757</ele>
        <time>2023-12-16T10:42:05Z</time>
      </trkpt>
      <trkpt lat="28.045101" lon="-15.688412">
        <ele>1346.658</ele>
        <time>2023-12-16T10:42:15Z</time>
      </trkpt>
      <trkpt lat="28.045465" lon="-15.689004">
        <ele>1363.868</ele>
        <time>2023-12-16T10:43:40Z</time>
      </trkpt>
      <trkpt lat="28.045130" lon="-15.689478">
        <ele>1378.158</ele>
        <time>2023-12-16T10:47:41Z</time>
      </trkpt>
      <trkpt lat="28.045430" lon="-15.689897">
        <ele>1386.452</ele>
        <time>2023-12-16T10:48:51Z</time>
      </trkpt>
      <trkpt lat="28.045822" lon="-15.690097">
        <ele>1396.217</ele>
        <time>2023-12-16T10:49:40Z</time>
      </trkpt>
      <trkpt lat="28.046197" lon="-15.689657">
        <ele>1400.409</ele>
        <time>2023-12-16T10:50:50Z</time>
      </trkpt>
      <trkpt lat="28.046361" lon="-15.689772">
        <ele>1408.536</ele>
        <time>2023-12-16T10:51:11Z</time>
      </trkpt>
      <trkpt lat="28.047719" lon="-15.689632">
        <ele>1425.990</ele>
        <time>2023-12-16T10:53:35Z</time>
      </trkpt>
      <trkpt lat="28.048078" lon="-15.689067">
        <ele>1427.250</ele>
        <time>2023-12-16T10:54:42Z</time>
      </trkpt>
      <trkpt lat="28.048105" lon="-15.689244">
        <ele>1427.193</ele>
        <time>2023-12-16T10:54:49Z</time>
      </trkpt>
      <trkpt lat="28.048075" lon="-15.689042">
        <ele>1424.052</ele>
        <time>2023-12-16T10:57:51Z</time>
      </trkpt>
      <trkpt lat="28.048439" lon="-15.688114">
        <ele>1435.810</ele>
        <time>2023-12-16T11:00:05Z</time>
      </trkpt>
      <trkpt lat="28.048857" lon="-15.688028">
        <ele>1438.258</ele>
        <time>2023-12-16T11:01:14Z</time>
      </trkpt>
      <trkpt lat="28.049083" lon="-15.687814">
        <ele>1436.539</ele>
        <time>2023-12-16T11:01:53Z</time>
      </trkpt>
      <trkpt lat="28.049370" lon="-15.687786">
        <ele>1437.439</ele>
        <time>2023-12-16T11:02:51Z</time>
      </trkpt>
      <trkpt lat="28.049495" lon="-15.687698">
        <ele>1449.925</ele>
        <time>2023-12-16T11:04:52Z</time>
      </trkpt>
      <trkpt lat="28.049463" lon="-15.687563">
        <ele>1446.526</ele>
        <time>2023-12-16T11:10:54Z</time>
      </trkpt>
      <trkpt lat="28.049478" lon="-15.687718">
        <ele>1462.908</ele>
        <time>2023-12-16T11:10:59Z</time>
      </trkpt>
      <trkpt lat="28.049223" lon="-15.687814">
        <ele>1442.809</ele>
        <time>2023-12-16T11:12:14Z</time>
      </trkpt>
      <trkpt lat="28.048851" lon="-15.687553">
        <ele>1430.543</ele>
        <time>2023-12-16T11:13:25Z</time>
      </trkpt>
      <trkpt lat="28.048392" lon="-15.687758">
        <ele>1427.757</ele>
        <time>2023-12-16T11:14:43Z</time>
      </trkpt>
      <trkpt lat="28.048319" lon="-15.687983">
        <ele>1426.967</ele>
        <time>2023-12-16T11:15:03Z</time>
      </trkpt>
      <trkpt lat="28.048363" lon="-15.688467">
        <ele>1430.730</ele>
        <time>2023-12-16T11:15:39Z</time>
      </trkpt>
      <trkpt lat="28.048176" lon="-15.689041">
        <ele>1422.759</ele>
        <time>2023-12-16T11:16:34Z</time>
      </trkpt>
      <trkpt lat="28.048677" lon="-15.689025">
        <ele>1425.487</ele>
        <time>2023-12-16T11:18:08Z</time>
      </trkpt>
      <trkpt lat="28.049103" lon="-15.688899">
        <ele>1417.045</ele>
        <time>2023-12-16T11:18:58Z</time>
      </trkpt>
      <trkpt lat="28.049486" lon="-15.688654">
        <ele>1403.136</ele>
        <time>2023-12-16T11:19:51Z</time>
      </trkpt>
      <trkpt lat="28.049919" lon="-15.688741">
        <ele>1394.446</ele>
        <time>2023-12-16T11:20:51Z</time>
      </trkpt>
      <trkpt lat="28.050483" lon="-15.689152">
        <ele>1376.288</ele>
        <time>2023-12-16T11:22:09Z</time>
      </trkpt>
      <trkpt lat="28.051673" lon="-15.688733">
        <ele>1349.224</ele>
        <time>2023-12-16T11:24:29Z</time>
      </trkpt>
      <trkpt lat="28.051770" lon="-15.688794">
        <ele>1349.126</ele>
        <time>2023-12-16T11:24:52Z</time>
      </trkpt>
      <trkpt lat="28.051973" lon="-15.689414">
        <ele>1332.609</ele>
        <time>2023-12-16T11:25:56Z</time>
      </trkpt>
      <trkpt lat="28.051794" lon="-15.690007">
        <ele>1325.719</ele>
        <time>2023-12-16T11:26:50Z</time>
      </trkpt>
      <trkpt lat="28.052301" lon="-15.689855">
        <ele>1315.943</ele>
        <time>2023-12-16T11:28:09Z</time>
      </trkpt>
      <trkpt lat="28.052521" lon="-15.689973">
        <ele>1309.523</ele>
        <time>2023-12-16T11:28:36Z</time>
      </trkpt>
      <trkpt lat="28.053063" lon="-15.690611">
        <ele>1339.156</ele>
        <time>2023-12-16T11:30:32Z</time>
      </trkpt>
      <trkpt lat="28.052969" lon="-15.690529">
        <ele>1345.735</ele>
        <time>2023-12-16T11:30:45Z</time>
      </trkpt>
      <trkpt lat="28.053063" lon="-15.690544">
        <ele>1318.583</ele>
        <time>2023-12-16T11:30:58Z</time>
      </trkpt>
      <trkpt lat="28.053378" lon="-15.691447">
        <ele>1282.971</ele>
        <time>2023-12-16T11:32:48Z</time>
      </trkpt>
      <trkpt lat="28.053769" lon="-15.691827">
        <ele>1271.082</ele>
        <time>2023-12-16T11:33:49Z</time>
      </trkpt>
      <trkpt lat="28.053834" lon="-15.690909">
        <ele>1281.692</ele>
        <time>2023-12-16T11:34:08Z</time>
      </trkpt>
      <trkpt lat="28.053713" lon="-15.691571">
        <ele>1316.633</ele>
        <time>2023-12-16T11:34:20Z</time>
      </trkpt>
      <trkpt lat="28.053705" lon="-15.691478">
        <ele>1316.623</ele>
        <time>2023-12-16T11:34:25Z</time>
      </trkpt>
      <trkpt lat="28.053715" lon="-15.691980">
        <ele>1304.715</ele>
        <time>2023-12-16T11:35:06Z</time>
      </trkpt>
      <trkpt lat="28.053803" lon="-15.691920">
        <ele>1283.909</ele>
        <time>2023-12-16T11:38:22Z</time>
      </trkpt>
      <trkpt lat="28.054120" lon="-15.692072">
        <ele>1265.284</ele>
        <time>2023-12-16T11:39:27Z</time>
      </trkpt>
      <trkpt lat="28.054112" lon="-15.691990">
        <ele>1266.148</ele>
        <time>2023-12-16T11:39:30Z</time>
      </trkpt>
      <trkpt lat="28.054288" lon="-15.692053">
        <ele>1272.648</ele>
        <time>2023-12-16T11:39:56Z</time>
      </trkpt>
      <trkpt lat="28.054532" lon="-15.691883">
        <ele>1258.781</ele>
        <time>2023-12-16T11:40:33Z</time>
      </trkpt>
      <trkpt lat="28.054616" lon="-15.691682">
        <ele>1255.160</ele>
        <time>2023-12-16T11:41:12Z</time>
      </trkpt>
      <trkpt lat="28.054367" lon="-15.691077">
        <ele>1248.088</ele>
        <time>2023-12-16T11:42:41Z</time>
      </trkpt>
      <trkpt lat="28.054461" lon="-15.690942">
        <ele>1244.736</ele>
        <time>2023-12-16T11:42:53Z</time>
      </trkpt>
      <trkpt lat="28.054867" lon="-15.691084">
        <ele>1243.967</ele>
        <time>2023-12-16T11:43:48Z</time>
      </trkpt>
      <trkpt lat="28.055069" lon="-15.690942">
        <ele>1243.087</ele>
        <time>2023-12-16T11:44:30Z</time>
      </trkpt>
      <trkpt lat="28.055279" lon="-15.690971">
        <ele>1235.266</ele>
        <time>2023-12-16T11:45:03Z</time>
      </trkpt>
      <trkpt lat="28.055825" lon="-15.690605">
        <ele>1229.629</ele>
        <time>2023-12-16T11:46:18Z</time>
      </trkpt>
      <trkpt lat="28.055950" lon="-15.690623">
        <ele>1228.621</ele>
        <time>2023-12-16T11:47:48Z</time>
      </trkpt>
      <trkpt lat="28.056194" lon="-15.690320">
        <ele>1223.209</ele>
        <time>2023-12-16T11:48:27Z</time>
      </trkpt>
      <trkpt lat="28.056326" lon="-15.690261">
        <ele>1224.317</ele>
        <time>2023-12-16T11:48:51Z</time>
      </trkpt>
      <trkpt lat="28.056549" lon="-15.690341">
        <ele>1229.771</ele>
        <time>2023-12-16T11:49:26Z</time>
      </trkpt>
      <trkpt lat="28.056672" lon="-15.690556">
        <ele>1223.151</ele>
        <time>2023-12-16T11:49:54Z</time>
      </trkpt>
      <trkpt lat="28.056715" lon="-15.691288">
        <ele>1215.234</ele>
        <time>2023-12-16T11:51:06Z</time>
      </trkpt>
      <trkpt lat="28.056366" lon="-15.691752">
        <ele>1214.553</ele>
        <time>2023-12-16T11:52:01Z</time>
      </trkpt>
      <trkpt lat="28.056287" lon="-15.692197">
        <ele>1207.931</ele>
        <time>2023-12-16T11:52:47Z</time>
      </trkpt>
      <trkpt lat="28.056037" lon="-15.692516">
        <ele>1206.789</ele>
        <time>2023-12-16T11:53:29Z</time>
      </trkpt>
      <trkpt lat="28.055988" lon="-15.693218">
        <ele>1202.590</ele>
        <time>2023-12-16T11:55:02Z</time>
      </trkpt>
      <trkpt lat="28.055764" lon="-15.694076">
        <ele>1197.890</ele>
        <time>2023-12-16T11:56:15Z</time>
      </trkpt>
      <trkpt lat="28.055739" lon="-15.695086">
        <ele>1208.611</ele>
        <time>2023-12-16T11:58:42Z</time>
      </trkpt>
      <trkpt lat="28.056056" lon="-15.695252">
        <ele>1194.521</ele>
        <time>2023-12-16T11:59:37Z</time>
      </trkpt>
      <trkpt lat="28.056183" lon="-15.695539">
        <ele>1191.403</ele>
        <time>2023-12-16T11:59:57Z</time>
      </trkpt>
      <trkpt lat="28.056490" lon="-15.695757">
        <ele>1192.309</ele>
        <time>2023-12-16T12:00:38Z</time>
      </trkpt>
      <trkpt lat="28.056608" lon="-15.695704">
        <ele>1193.082</ele>
        <time>2023-12-16T12:00:57Z</time>
      </trkpt>
      <trkpt lat="28.056778" lon="-15.695839">
        <ele>1189.356</ele>
        <time>2023-12-16T12:01:42Z</time>
      </trkpt>
      <trkpt lat="28.057185" lon="-15.695664">
        <ele>1187.116</ele>
        <time>2023-12-16T12:02:30Z</time>
      </trkpt>
      <trkpt lat="28.057593" lon="-15.695728">
        <ele>1181.939</ele>
        <time>2023-12-16T12:03:01Z</time>
      </trkpt>
      <trkpt lat="28.058035" lon="-15.695653">
        <ele>1183.168</ele>
        <time>2023-12-16T12:03:42Z</time>
      </trkpt>
      <trkpt lat="28.058416" lon="-15.695863">
        <ele>1180.026</ele>
        <time>2023-12-16T12:04:25Z</time>
      </trkpt>
      <trkpt lat="28.058887" lon="-15.695965">
        <ele>1172.514</ele>
        <time>2023-12-16T12:05:17Z</time>
      </trkpt>
      <trkpt lat="28.059294" lon="-15.696266">
        <ele>1172.435</ele>
        <time>2023-12-16T12:06:11Z</time>
      </trkpt>
      <trkpt lat="28.060320" lon="-15.696375">
        <ele>1169.635</ele>
        <time>2023-12-16T12:07:57Z</time>
      </trkpt>
      <trkpt lat="28.060995" lon="-15.696599">
        <ele>1167.751</ele>
        <time>2023-12-16T12:09:15Z</time>
      </trkpt>
      <trkpt lat="28.061059" lon="-15.696697">
        <ele>1165.301</ele>
        <time>2023-12-16T12:10:27Z</time>
      </trkpt>
      <trkpt lat="28.060777" lon="-15.696615">
        <ele>1170.311</ele>
        <time>2023-12-16T12:51:57Z</time>
      </trkpt>
      <trkpt lat="28.060405" lon="-15.696270">
        <ele>1171.109</ele>
        <time>2023-12-16T12:53:45Z</time>
      </trkpt>
      <trkpt lat="28.060344" lon="-15.695826">
        <ele>1173.746</ele>
        <time>2023-12-16T12:54:20Z</time>
      </trkpt>
      <trkpt lat="28.059805" lon="-15.695173">
        <ele>1167.780</ele>
        <time>2023-12-16T12:55:46Z</time>
      </trkpt>
      <trkpt lat="28.059943" lon="-15.694742">
        <ele>1160.240</ele>
        <time>2023-12-16T12:58:04Z</time>
      </trkpt>
      <trkpt lat="28.059903" lon="-15.694604">
        <ele>1156.363</ele>
        <time>2023-12-16T12:58:55Z</time>
      </trkpt>
      <trkpt lat="28.060312" lon="-15.694246">
        <ele>1153.692</ele>
        <time>2023-12-16T13:00:06Z</time>
      </trkpt>
      <trkpt lat="28.060220" lon="-15.694179">
        <ele>1146.880</ele>
        <time>2023-12-16T13:01:03Z</time>
      </trkpt>
      <trkpt lat="28.060320" lon="-15.694039">
        <ele>1145.638</ele>
        <time>2023-12-16T13:01:18Z</time>
      </trkpt>
      <trkpt lat="28.060100" lon="-15.694109">
        <ele>1145.049</ele>
        <time>2023-12-16T13:03:17Z</time>
      </trkpt>
      <trkpt lat="28.060139" lon="-15.693954">
        <ele>1145.019</ele>
        <time>2023-12-16T13:04:24Z</time>
      </trkpt>
      <trkpt lat="28.059361" lon="-15.693175">
        <ele>1146.158</ele>
        <time>2023-12-16T13:08:23Z</time>
      </trkpt>
      <trkpt lat="28.059146" lon="-15.692743">
        <ele>1146.252</ele>
        <time>2023-12-16T13:09:38Z</time>
      </trkpt>
      <trkpt lat="28.058917" lon="-15.692604">
        <ele>1151.417</ele>
        <time>2023-12-16T13:10:50Z</time>
      </trkpt>
      <trkpt lat="28.058982" lon="-15.692547">
        <ele>1152.009</ele>
        <time>2023-12-16T13:11:20Z</time>
      </trkpt>
      <trkpt lat="28.058437" lon="-15.692186">
        <ele>1163.656</ele>
        <time>2023-12-16T13:14:04Z</time>
      </trkpt>
      <trkpt lat="28.058501" lon="-15.692061">
        <ele>1164.510</ele>
        <time>2023-12-16T13:14:58Z</time>
      </trkpt>
      <trkpt lat="28.058402" lon="-15.691689">
        <ele>1173.770</ele>
        <time>2023-12-16T13:16:13Z</time>
      </trkpt>
      <trkpt lat="28.058267" lon="-15.691539">
        <ele>1171.693</ele>
        <time>2023-12-16T13:16:32Z</time>
      </trkpt>
      <trkpt lat="28.058310" lon="-15.691439">
        <ele>1171.562</ele>
        <time>2023-12-16T13:16:33Z</time>
      </trkpt>
      <trkpt lat="28.058064" lon="-15.691354">
        <ele>1173.960</ele>
        <time>2023-12-16T13:17:08Z</time>
      </trkpt>
      <trkpt lat="28.058003" lon="-15.691116">
        <ele>1168.038</ele>
        <time>2023-12-16T13:17:22Z</time>
      </trkpt>
      <trkpt lat="28.058204" lon="-15.690949">
        <ele>1172.589</ele>
        <time>2023-12-16T13:17:39Z</time>
      </trkpt>
      <trkpt lat="28.058350" lon="-15.690405">
        <ele>1161.779</ele>
        <time>2023-12-16T13:20:25Z</time>
      </trkpt>
      <trkpt lat="28.058551" lon="-15.690219">
        <ele>1163.618</ele>
        <time>2023-12-16T13:21:26Z</time>
      </trkpt>
      <trkpt lat="28.058643" lon="-15.690272">
        <ele>1168.698</ele>
        <time>2023-12-16T13:21:48Z</time>
      </trkpt>
      <trkpt lat="28.058636" lon="-15.690117">
        <ele>1179.517</ele>
        <time>2023-12-16T13:21:56Z</time>
      </trkpt>
      <trkpt lat="28.058839" lon="-15.689860">
        <ele>1168.809</ele>
        <time>2023-12-16T13:22:33Z</time>
      </trkpt>
      <trkpt lat="28.058422" lon="-15.689649">
        <ele>1174.472</ele>
        <time>2023-12-16T13:23:37Z</time>
      </trkpt>
      <trkpt lat="28.058712" lon="-15.689608">
        <ele>1181.276</ele>
        <time>2023-12-16T13:24:12Z</time>
      </trkpt>
      <trkpt lat="28.058846" lon="-15.689266">
        <ele>1173.936</ele>
        <time>2023-12-16T13:24:39Z</time>
      </trkpt>
      <trkpt lat="28.059196" lon="-15.689048">
        <ele>1171.799</ele>
        <time>2023-12-16T13:25:14Z</time>
      </trkpt>
      <trkpt lat="28.059429" lon="-15.689102">
        <ele>1170.328</ele>
        <time>2023-12-16T13:25:33Z</time>
      </trkpt>
      <trkpt lat="28.060210" lon="-15.688897">
        <ele>1166.936</ele>
        <time>2023-12-16T13:26:43Z</time>
      </trkpt>
      <trkpt lat="28.060570" lon="-15.688931">
        <ele>1167.594</ele>
        <time>2023-12-16T13:27:19Z</time>
      </trkpt>
      <trkpt lat="28.061078" lon="-15.689162">
        <ele>1164.675</ele>
        <time>2023-12-16T13:28:08Z</time>
      </trkpt>
      <trkpt lat="28.061523" lon="-15.688989">
        <ele>1158.575</ele>
        <time>2023-12-16T13:30:45Z</time>
      </trkpt>
      <trkpt lat="28.061521" lon="-15.688838">
        <ele>1158.535</ele>
        <time>2023-12-16T13:31:07Z</time>
      </trkpt>
      <trkpt lat="28.061684" lon="-15.688978">
        <ele>1147.286</ele>
        <time>2023-12-16T13:33:17Z</time>
      </trkpt>
      <trkpt lat="28.061538" lon="-15.688854">
        <ele>1158.914</ele>
        <time>2023-12-16T13:35:28Z</time>
      </trkpt>
      <trkpt lat="28.061588" lon="-15.688804">
        <ele>1158.909</ele>
        <time>2023-12-16T13:35:52Z</time>
      </trkpt>
      <trkpt lat="28.061462" lon="-15.688882">
        <ele>1152.664</ele>
        <time>2023-12-16T13:36:13Z</time>
      </trkpt>
      <trkpt lat="28.061379" lon="-15.688830">
        <ele>1162.648</ele>
        <time>2023-12-16T13:36:22Z</time>
      </trkpt>
      <trkpt lat="28.061080" lon="-15.687653">
        <ele>1159.778</ele>
        <time>2023-12-16T13:39:39Z</time>
      </trkpt>
      <trkpt lat="28.060977" lon="-15.687538">
        <ele>1159.791</ele>
        <time>2023-12-16T13:39:57Z</time>
      </trkpt>
      <trkpt lat="28.061029" lon="-15.686870">
        <ele>1154.050</ele>
        <time>2023-12-16T13:40:53Z</time>
      </trkpt>
      <trkpt lat="28.060585" lon="-15.685959">
        <ele>1149.388</ele>
        <time>2023-12-16T13:42:25Z</time>
      </trkpt>
      <trkpt lat="28.060745" lon="-15.685632">
        <ele>1147.526</ele>
        <time>2023-12-16T13:42:33Z</time>
      </trkpt>
      <trkpt lat="28.060850" lon="-15.685629">
        <ele>1182.687</ele>
        <time>2023-12-16T13:42:38Z</time>
      </trkpt>
      <trkpt lat="28.060546" lon="-15.685926">
        <ele>1151.487</ele>
        <time>2023-12-16T13:46:02Z</time>
      </trkpt>
      <trkpt lat="28.060325" lon="-15.685501">
        <ele>1143.531</ele>
        <time>2023-12-16T13:47:01Z</time>
      </trkpt>
      <trkpt lat="28.060443" lon="-15.685098">
        <ele>1144.861</ele>
        <time>2023-12-16T13:47:32Z</time>
      </trkpt>
      <trkpt lat="28.060950" lon="-15.684644">
        <ele>1141.607</ele>
        <time>2023-12-16T13:48:38Z</time>
      </trkpt>
      <trkpt lat="28.060997" lon="-15.684329">
        <ele>1134.209</ele>
        <time>2023-12-16T13:49:14Z</time>
      </trkpt>
      <trkpt lat="28.061227" lon="-15.684017">
        <ele>1129.974</ele>
        <time>2023-12-16T13:49:52Z</time>
      </trkpt>
      <trkpt lat="28.061594" lon="-15.683741">
        <ele>1127.348</ele>
        <time>2023-12-16T13:50:49Z</time>
      </trkpt>
      <trkpt lat="28.061691" lon="-15.683781">
        <ele>1123.928</ele>
        <time>2023-12-16T13:51:21Z</time>
      </trkpt>
      <trkpt lat="28.061687" lon="-15.683606">
        <ele>1123.911</ele>
        <time>2023-12-16T13:51:36Z</time>
      </trkpt>
      <trkpt lat="28.061947" lon="-15.683441">
        <ele>1119.820</ele>
        <time>2023-12-16T13:52:20Z</time>
      </trkpt>
      <trkpt lat="28.063088" lon="-15.683458">
        <ele>1109.898</ele>
        <time>2023-12-16T13:55:41Z</time>
      </trkpt>
      <trkpt lat="28.063662" lon="-15.683162">
        <ele>1102.176</ele>
        <time>2023-12-16T13:56:34Z</time>
      </trkpt>
      <trkpt lat="28.063935" lon="-15.682613">
        <ele>1103.017</ele>
        <time>2023-12-16T13:57:34Z</time>
      </trkpt>
      <trkpt lat="28.063899" lon="-15.682866">
        <ele>1104.297</ele>
        <time>2023-12-16T14:02:28Z</time>
      </trkpt>
      <trkpt lat="28.063997" lon="-15.683049">
        <ele>1104.214</ele>
        <time>2023-12-16T14:02:57Z</time>
      </trkpt>
      <trkpt lat="28.064485" lon="-15.683402">
        <ele>1098.154</ele>
        <time>2023-12-16T14:04:34Z</time>
      </trkpt>
      <trkpt lat="28.065060" lon="-15.684115">
        <ele>1084.209</ele>
        <time>2023-12-16T14:08:51Z</time>
      </trkpt>
      <trkpt lat="28.065699" lon="-15.684209">
        <ele>1077.909</ele>
        <time>2023-12-16T14:09:57Z</time>
      </trkpt>
      <trkpt lat="28.066720" lon="-15.684124">
        <ele>1066.862</ele>
        <time>2023-12-16T14:11:30Z</time>
      </trkpt>
      <trkpt lat="28.066853" lon="-15.684234">
        <ele>1064.356</ele>
        <time>2023-12-16T14:13:38Z</time>
      </trkpt>
      <trkpt lat="28.066811" lon="-15.684341">
        <ele>1064.366</ele>
        <time>2023-12-16T14:13:43Z</time>
      </trkpt>
      <trkpt lat="28.066947" lon="-15.684139">
        <ele>1092.849</ele>
        <time>2023-12-16T14:14:20Z</time>
      </trkpt>
      <trkpt lat="28.066792" lon="-15.683781">
        <ele>1063.638</ele>
        <time>2023-12-16T14:15:15Z</time>
      </trkpt>
      <trkpt lat="28.066996" lon="-15.683518">
        <ele>1061.466</ele>
        <time>2023-12-16T14:15:44Z</time>
      </trkpt>
      <trkpt lat="28.067258" lon="-15.683371">
        <ele>1053.754</ele>
        <time>2023-12-16T14:16:17Z</time>
      </trkpt>
      <trkpt lat="28.068283" lon="-15.683339">
        <ele>1047.465</ele>
        <time>2023-12-16T14:18:26Z</time>
      </trkpt>
      <trkpt lat="28.068203" lon="-15.683299">
        <ele>1052.665</ele>
        <time>2023-12-16T14:18:57Z</time>
      </trkpt>
      <trkpt lat="28.068386" lon="-15.682807">
        <ele>1035.152</ele>
        <time>2023-12-16T14:20:52Z</time>
      </trkpt>
      <trkpt lat="28.068306" lon="-15.682685">
        <ele>1033.353</ele>
        <time>2023-12-16T14:21:19Z</time>
      </trkpt>
      <trkpt lat="28.068915" lon="-15.682426">
        <ele>1001.708</ele>
        <time>2023-12-16T14:25:19Z</time>
      </trkpt>
      <trkpt lat="28.069080" lon="-15.682146">
        <ele>984.509</ele>
        <time>2023-12-16T14:28:21Z</time>
      </trkpt>
      <trkpt lat="28.069217" lon="-15.682083">
        <ele>984.576</ele>
        <time>2023-12-16T14:28:48Z</time>
      </trkpt>
      <trkpt lat="28.069680" lon="-15.682169">
        <ele>961.760</ele>
        <time>2023-12-16T14:32:51Z</time>
      </trkpt>
      <trkpt lat="28.069702" lon="-15.682309">
        <ele>958.450</ele>
        <time>2023-12-16T14:33:36Z</time>
      </trkpt>
      <trkpt lat="28.069790" lon="-15.682244">
        <ele>951.543</ele>
        <time>2023-12-16T14:34:22Z</time>
      </trkpt>
      <trkpt lat="28.069914" lon="-15.682434">
        <ele>940.672</ele>
        <time>2023-12-16T14:36:14Z</time>
      </trkpt>
      <trkpt lat="28.070092" lon="-15.682421">
        <ele>940.380</ele>
        <time>2023-12-16T14:36:51Z</time>
      </trkpt>
      <trkpt lat="28.069983" lon="-15.682314">
        <ele>976.568</ele>
        <time>2023-12-16T14:37:05Z</time>
      </trkpt>
      <trkpt lat="28.070068" lon="-15.682270">
        <ele>939.899</ele>
        <time>2023-12-16T14:41:24Z</time>
      </trkpt>
      <trkpt lat="28.070121" lon="-15.682345">
        <ele>927.959</ele>
        <time>2023-12-16T14:41:48Z</time>
      </trkpt>
      <trkpt lat="28.070678" lon="-15.682340">
        <ele>907.025</ele>
        <time>2023-12-16T14:43:56Z</time>
      </trkpt>
      <trkpt lat="28.070962" lon="-15.682573">
        <ele>886.126</ele>
        <time>2023-12-16T14:45:56Z</time>
      </trkpt>
      <trkpt lat="28.070952" lon="-15.682765">
        <ele>872.008</ele>
        <time>2023-12-16T14:47:26Z</time>
      </trkpt>
      <trkpt lat="28.071036" lon="-15.682833">
        <ele>865.109</ele>
        <time>2023-12-16T14:48:06Z</time>
      </trkpt>
      <trkpt lat="28.070897" lon="-15.682940">
        <ele>859.363</ele>
        <time>2023-12-16T14:49:39Z</time>
      </trkpt>
      <trkpt lat="28.070945" lon="-15.683147">
        <ele>859.247</ele>
        <time>2023-12-16T14:50:39Z</time>
      </trkpt>
      <trkpt lat="28.071390" lon="-15.683346">
        <ele>840.777</ele>
        <time>2023-12-16T14:53:58Z</time>
      </trkpt>
      <trkpt lat="28.071490" lon="-15.683616">
        <ele>832.650</ele>
        <time>2023-12-16T14:54:46Z</time>
      </trkpt>
      <trkpt lat="28.071673" lon="-15.683744">
        <ele>819.769</ele>
        <time>2023-12-16T14:55:43Z</time>
      </trkpt>
      <trkpt lat="28.072162" lon="-15.683826">
        <ele>810.027</ele>
        <time>2023-12-16T14:57:50Z</time>
      </trkpt>
      <trkpt lat="28.072505" lon="-15.683712">
        <ele>797.785</ele>
        <time>2023-12-16T14:59:01Z</time>
      </trkpt>
      <trkpt lat="28.072355" lon="-15.683722">
        <ele>801.796</ele>
        <time>2023-12-16T15:05:04Z</time>
      </trkpt>
      <trkpt lat="28.072284" lon="-15.683617">
        <ele>787.826</ele>
        <time>2023-12-16T15:05:51Z</time>
      </trkpt>
      <trkpt lat="28.072295" lon="-15.683467">
        <ele>782.926</ele>
        <time>2023-12-16T15:06:21Z</time>
      </trkpt>
      <trkpt lat="28.072449" lon="-15.683411">
        <ele>779.947</ele>
        <time>2023-12-16T15:07:35Z</time>
      </trkpt>
      <trkpt lat="28.072959" lon="-15.683567">
        <ele>768.011</ele>
        <time>2023-12-16T15:09:03Z</time>
      </trkpt>
      <trkpt lat="28.073143" lon="-15.683508">
        <ele>753.109</ele>
        <time>2023-12-16T15:09:37Z</time>
      </trkpt>
      <trkpt lat="28.072731" lon="-15.683140">
        <ele>749.123</ele>
        <time>2023-12-16T15:11:00Z</time>
      </trkpt>
      <trkpt lat="28.072603" lon="-15.682794">
        <ele>740.867</ele>
        <time>2023-12-16T15:11:55Z</time>
      </trkpt>
      <trkpt lat="28.072892" lon="-15.682368">
        <ele>728.497</ele>
        <time>2023-12-16T15:13:00Z</time>
      </trkpt>
      <trkpt lat="28.073129" lon="-15.681613">
        <ele>714.840</ele>
        <time>2023-12-16T15:15:19Z</time>
      </trkpt>
      <trkpt lat="28.072981" lon="-15.681220">
        <ele>705.729</ele>
        <time>2023-12-16T15:17:03Z</time>
      </trkpt>
      <trkpt lat="28.073095" lon="-15.681167">
        <ele>701.827</ele>
        <time>2023-12-16T15:17:20Z</time>
      </trkpt>
      <trkpt lat="28.073178" lon="-15.680858">
        <ele>691.275</ele>
        <time>2023-12-16T15:18:14Z</time>
      </trkpt>
      <trkpt lat="28.073143" lon="-15.680478">
        <ele>683.746</ele>
        <time>2023-12-16T15:19:00Z</time>
      </trkpt>
      <trkpt lat="28.073191" lon="-15.680383">
        <ele>679.346</ele>
        <time>2023-12-16T15:19:13Z</time>
      </trkpt>
      <trkpt lat="28.073342" lon="-15.680613">
        <ele>670.521</ele>
        <time>2023-12-16T15:19:49Z</time>
      </trkpt>
      <trkpt lat="28.073378" lon="-15.680425">
        <ele>668.441</ele>
        <time>2023-12-16T15:20:15Z</time>
      </trkpt>
      <trkpt lat="28.073682" lon="-15.680195">
        <ele>658.905</ele>
        <time>2023-12-16T15:22:06Z</time>
      </trkpt>
      <trkpt lat="28.073860" lon="-15.679898">
        <ele>648.109</ele>
        <time>2023-12-16T15:23:08Z</time>
      </trkpt>
      <trkpt lat="28.074110" lon="-15.680026">
        <ele>642.363</ele>
        <time>2023-12-16T15:26:06Z</time>
      </trkpt>
      <trkpt lat="28.074221" lon="-15.679933">
        <ele>635.047</ele>
        <time>2023-12-16T15:26:28Z</time>
      </trkpt>
      <trkpt lat="28.074326" lon="-15.679962">
        <ele>634.477</ele>
        <time>2023-12-16T15:27:50Z</time>
      </trkpt>
      <trkpt lat="28.073922" lon="-15.680662">
        <ele>631.130</ele>
        <time>2023-12-16T15:33:06Z</time>
      </trkpt>
      <trkpt lat="28.074201" lon="-15.681219">
        <ele>632.819</ele>
        <time>2023-12-16T15:34:21Z</time>
      </trkpt>
      <trkpt lat="28.074157" lon="-15.681657">
        <ele>638.247</ele>
        <time>2023-12-16T15:35:00Z</time>
      </trkpt>
      <trkpt lat="28.073906" lon="-15.681886">
        <ele>638.185</ele>
        <time>2023-12-16T15:36:04Z</time>
      </trkpt>
      <trkpt lat="28.074234" lon="-15.682038">
        <ele>633.136</ele>
        <time>2023-12-16T15:36:38Z</time>
      </trkpt>
      <trkpt lat="28.074314" lon="-15.682196">
        <ele>634.366</ele>
        <time>2023-12-16T15:36:49Z</time>
      </trkpt>
      <trkpt lat="28.074759" lon="-15.682209">
        <ele>637.824</ele>
        <time>2023-12-16T15:37:24Z</time>
      </trkpt>
      <trkpt lat="28.075067" lon="-15.682443">
        <ele>639.604</ele>
        <time>2023-12-16T15:38:30Z</time>
      </trkpt>
      <trkpt lat="28.075040" lon="-15.683076">
        <ele>635.314</ele>
        <time>2023-12-16T15:39:23Z</time>
      </trkpt>
      <trkpt lat="28.075144" lon="-15.683349">
        <ele>632.109</ele>
        <time>2023-12-16T15:39:46Z</time>
      </trkpt>
      <trkpt lat="28.075515" lon="-15.683325">
        <ele>630.263</ele>
        <time>2023-12-16T15:40:18Z</time>
      </trkpt>
      <trkpt lat="28.075585" lon="-15.683597">
        <ele>632.667</ele>
        <time>2023-12-16T15:40:56Z</time>
      </trkpt>
      <trkpt lat="28.075788" lon="-15.683739">
        <ele>626.447</ele>
        <time>2023-12-16T15:41:16Z</time>
      </trkpt>
      <trkpt lat="28.076822" lon="-15.684096">
        <ele>622.190</ele>
        <time>2023-12-16T15:42:59Z</time>
      </trkpt>
      <trkpt lat="28.077223" lon="-15.684089">
        <ele>621.549</ele>
        <time>2023-12-16T15:43:32Z</time>
      </trkpt>
      <trkpt lat="28.077663" lon="-15.684387">
        <ele>617.737</ele>
        <time>2023-12-16T15:44:19Z</time>
      </trkpt>
      <trkpt lat="28.077977" lon="-15.684382">
        <ele>619.585</ele>
        <time>2023-12-16T15:44:55Z</time>
      </trkpt>
      <trkpt lat="28.078545" lon="-15.684552">
        <ele>620.236</ele>
        <time>2023-12-16T15:45:45Z</time>
      </trkpt>
      <trkpt lat="28.078569" lon="-15.685255">
        <ele>617.546</ele>
        <time>2023-12-16T15:46:56Z</time>
      </trkpt>
      <trkpt lat="28.078664" lon="-15.685435">
        <ele>615.989</ele>
        <time>2023-12-16T15:47:18Z</time>
      </trkpt>
      <trkpt lat="28.078962" lon="-15.685587">
        <ele>615.906</ele>
        <time>2023-12-16T15:47:45Z</time>
      </trkpt>
      <trkpt lat="28.080206" lon="-15.685544">
        <ele>592.526</ele>
        <time>2023-12-16T15:50:49Z</time>
      </trkpt>
      <trkpt lat="28.080300" lon="-15.685755">
        <ele>589.309</ele>
        <time>2023-12-16T15:51:11Z</time>
      </trkpt>
      <trkpt lat="28.079878" lon="-15.686668">
        <ele>567.899</ele>
        <time>2023-12-16T15:52:29Z</time>
      </trkpt>
      <trkpt lat="28.080021" lon="-15.687054">
        <ele>559.263</ele>
        <time>2023-12-16T15:53:51Z</time>
      </trkpt>
      <trkpt lat="28.080188" lon="-15.687165">
        <ele>560.863</ele>
        <time>2023-12-16T15:54:11Z</time>
      </trkpt>
      <trkpt lat="28.080437" lon="-15.687152">
        <ele>552.466</ele>
        <time>2023-12-16T15:54:32Z</time>
      </trkpt>
      <trkpt lat="28.080650" lon="-15.687302">
        <ele>548.895</ele>
        <time>2023-12-16T15:54:49Z</time>
      </trkpt>
      <trkpt lat="28.081868" lon="-15.687555">
        <ele>537.813</ele>
        <time>2023-12-16T15:57:09Z</time>
      </trkpt>
      <trkpt lat="28.081725" lon="-15.687740">
        <ele>533.911</ele>
        <time>2023-12-16T15:57:32Z</time>
      </trkpt>
      <trkpt lat="28.081324" lon="-15.687869">
        <ele>533.912</ele>
        <time>2023-12-16T15:58:08Z</time>
      </trkpt>
      <trkpt lat="28.081122" lon="-15.688322">
        <ele>526.732</ele>
        <time>2023-12-16T15:58:45Z</time>
      </trkpt>
      <trkpt lat="28.081042" lon="-15.688955">
        <ele>517.415</ele>
        <time>2023-12-16T15:59:33Z</time>
      </trkpt>
      <trkpt lat="28.081177" lon="-15.689178">
        <ele>509.665</ele>
        <time>2023-12-16T16:00:11Z</time>
      </trkpt>
      <trkpt lat="28.081201" lon="-15.690032">
        <ele>493.811</ele>
        <time>2023-12-16T16:01:34Z</time>
      </trkpt>
      <trkpt lat="28.081835" lon="-15.690756">
        <ele>472.209</ele>
        <time>2023-12-16T16:03:32Z</time>
      </trkpt>
      <trkpt lat="28.081939" lon="-15.691126">
        <ele>469.582</ele>
        <time>2023-12-16T16:05:06Z</time>
      </trkpt>
      <trkpt lat="28.082204" lon="-15.691266">
        <ele>460.036</ele>
        <time>2023-12-16T16:05:58Z</time>
      </trkpt>
      <trkpt lat="28.082795" lon="-15.692039">
        <ele>454.176</ele>
        <time>2023-12-16T16:07:26Z</time>
      </trkpt>
      <trkpt lat="28.083246" lon="-15.692148">
        <ele>451.429</ele>
        <time>2023-12-16T16:08:07Z</time>
      </trkpt>
      <trkpt lat="28.083973" lon="-15.692518">
        <ele>432.358</ele>
        <time>2023-12-16T16:09:15Z</time>
      </trkpt>
      <trkpt lat="28.084122" lon="-15.692686">
        <ele>434.026</ele>
        <time>2023-12-16T16:09:32Z</time>
      </trkpt>
      <trkpt lat="28.084510" lon="-15.692811">
        <ele>429.424</ele>
        <time>2023-12-16T16:10:04Z</time>
      </trkpt>
      <trkpt lat="28.086182" lon="-15.694416">
        <ele>410.755</ele>
        <time>2023-12-16T16:13:36Z</time>
      </trkpt>
      <trkpt lat="28.086820" lon="-15.694793">
        <ele>399.765</ele>
        <time>2023-12-16T16:15:07Z</time>
      </trkpt>
      <trkpt lat="28.087478" lon="-15.694976">
        <ele>382.148</ele>
        <time>2023-12-16T16:16:32Z</time>
      </trkpt>
      <trkpt lat="28.087329" lon="-15.695294">
        <ele>377.361</ele>
        <time>2023-12-16T16:17:30Z</time>
      </trkpt>
      <trkpt lat="28.087086" lon="-15.695377">
        <ele>372.617</ele>
        <time>2023-12-16T16:17:57Z</time>
      </trkpt>
      <trkpt lat="28.086617" lon="-15.695771">
        <ele>361.709</ele>
        <time>2023-12-16T16:19:01Z</time>
      </trkpt>
      <trkpt lat="28.086465" lon="-15.695997">
        <ele>356.375</ele>
        <time>2023-12-16T16:19:27Z</time>
      </trkpt>
      <trkpt lat="28.086515" lon="-15.696205">
        <ele>352.379</ele>
        <time>2023-12-16T16:21:20Z</time>
      </trkpt>
      <trkpt lat="28.086599" lon="-15.696150">
        <ele>358.649</ele>
        <time>2023-12-16T16:22:17Z</time>
      </trkpt>
      <trkpt lat="28.086891" lon="-15.696297">
        <ele>353.342</ele>
        <time>2023-12-16T16:22:59Z</time>
      </trkpt>
      <trkpt lat="28.087630" lon="-15.696375">
        <ele>323.481</ele>
        <time>2023-12-16T16:24:47Z</time>
      </trkpt>
      <trkpt lat="28.088269" lon="-15.696650">
        <ele>299.969</ele>
        <time>2023-12-16T16:27:48Z</time>
      </trkpt>
      <trkpt lat="28.088962" lon="-15.697096">
        <ele>267.547</ele>
        <time>2023-12-16T16:31:16Z</time>
      </trkpt>
      <trkpt lat="28.089793" lon="-15.697062">
        <ele>238.418</ele>
        <time>2023-12-16T16:33:41Z</time>
      </trkpt>
      <trkpt lat="28.090288" lon="-15.696892">
        <ele>223.538</ele>
        <time>2023-12-16T16:35:02Z</time>
      </trkpt>
      <trkpt lat="28.090875" lon="-15.697321">
        <ele>194.296</ele>
        <time>2023-12-16T16:37:53Z</time>
      </trkpt>
      <trkpt lat="28.091215" lon="-15.697310">
        <ele>180.531</ele>
        <time>2023-12-16T16:38:52Z</time>
      </trkpt>
      <trkpt lat="28.091447" lon="-15.697522">
        <ele>176.124</ele>
        <time>2023-12-16T16:39:25Z</time>
      </trkpt>
      <trkpt lat="28.092024" lon="-15.697587">
        <ele>162.509</ele>
        <time>2023-12-16T16:40:51Z</time>
      </trkpt>
      <trkpt lat="28.092197" lon="-15.697690">
        <ele>157.420</ele>
        <time>2023-12-16T16:41:21Z</time>
      </trkpt>
      <trkpt lat="28.092723" lon="-15.697584">
        <ele>150.294</ele>
        <time>2023-12-16T16:42:18Z</time>
      </trkpt>
      <trkpt lat="28.093125" lon="-15.697617">
        <ele>145.514</ele>
        <time>2023-12-16T16:43:00Z</time>
      </trkpt>
      <trkpt lat="28.093458" lon="-15.697501">
        <ele>141.297</ele>
        <time>2023-12-16T16:44:26Z</time>
      </trkpt>
      <trkpt lat="28.093878" lon="-15.697574">
        <ele>129.496</ele>
        <time>2023-12-16T16:45:57Z</time>
      </trkpt>
      <trkpt lat="28.094409" lon="-15.697514">
        <ele>124.664</ele>
        <time>2023-12-16T16:47:53Z</time>
      </trkpt>
      <trkpt lat="28.094528" lon="-15.697612">
        <ele>115.492</ele>
        <time>2023-12-16T16:48:57Z</time>
      </trkpt>
      <trkpt lat="28.094877" lon="-15.697640">
        <ele>106.923</ele>
        <time>2023-12-16T16:49:41Z</time>
      </trkpt>
      <trkpt lat="28.095007" lon="-15.697847">
        <ele>100.393</ele>
        <time>2023-12-16T16:50:26Z</time>
      </trkpt>
      <trkpt lat="28.095312" lon="-15.698021">
        <ele>90.891</ele>
        <time>2023-12-16T16:51:23Z</time>
      </trkpt>
      <trkpt lat="28.095757" lon="-15.697931">
        <ele>81.581</ele>
        <time>2023-12-16T16:52:26Z</time>
      </trkpt>
      <trkpt lat="28.096039" lon="-15.697713">
        <ele>77.119</ele>
        <time>2023-12-16T16:53:10Z</time>
      </trkpt>
      <trkpt lat="28.096439" lon="-15.697614">
        <ele>68.509</ele>
        <time>2023-12-16T16:53:47Z</time>
      </trkpt>
      <trkpt lat="28.096599" lon="-15.697935">
        <ele>61.350</ele>
        <time>2023-12-16T16:54:47Z</time>
      </trkpt>
      <trkpt lat="28.097220" lon="-15.697924">
        <ele>50.224</ele>
        <time>2023-12-16T16:56:10Z</time>
      </trkpt>
      <trkpt lat="28.097501" lon="-15.698128">
        <ele>46.744</ele>
        <time>2023-12-16T16:56:41Z</time>
      </trkpt>
      <trkpt lat="28.097613" lon="-15.699079">
        <ele>43.557</ele>
        <time>2023-12-16T16:58:00Z</time>
      </trkpt>
      <trkpt lat="28.098286" lon="-15.699976">
        <ele>41.236</ele>
        <time>2023-12-16T16:59:58Z</time>
      </trkpt>
      <trkpt lat="28.098571" lon="-15.700583">
        <ele>36.164</ele>
        <time>2023-12-16T17:00:56Z</time>
      </trkpt>
      <trkpt lat="28.098624" lon="-15.700508">
        <ele>36.262</ele>
        <time>2023-12-16T17:01:01Z</time>
      </trkpt>
      <trkpt lat="28.098694" lon="-15.700818">
        <ele>40.473</ele>
        <time>2023-12-16T17:01:22Z</time>
      </trkpt>
      <trkpt lat="28.099008" lon="-15.701094">
        <ele>31.413</ele>
        <time>2023-12-16T17:02:04Z</time>
      </trkpt>
    </trkseg>
  </trk></gpx>