<?xml version="1.0" encoding="UTF-8"?>
<gpx creator="Wikiloc - https://www.wikiloc.com" version="1.1" xmlns="http://www.topografix.com/GPX/1/1" xmlns:xsi="http://www.w3.org/2001/XMLSchema-instance" xsi:schemaLocation="http://www.topografix.com/GPX/1/1 http://www.topografix.com/GPX/1/1/gpx.xsd">
  <metadata>
    <name>Wikiloc - Fuerteventura Puerto del Rosario Montaña de las Veredas Mont...</name>
    <link href="https://www.wikiloc.com/hiking-trails/puerto-del-rosario-montana-de-las-veredas-montana-de-enmedio-107370461">
      <text>Fuerteventura Puerto del Rosario Montaña de las Veredas Mont... on Wikiloc</text>
    </link>
    <time>2022-07-08T14:02:44Z</time>
  </metadata>
  <trk>
    <name>Fuerteventura Puerto del Rosario Montaña de las Veredas Mont... - Wikiloc</name>
    <cmt></cmt>
    <desc></desc>
    <trkseg>
      <trkpt lat="28.494872" lon="-13.862540">
        <ele>18.021</ele>
        <time>2022-07-08T11:14:25Z</time>
      </trkpt>
      <trkpt lat="28.494898" lon="-13.862792">
        <ele>31.041</ele>
        <time>2022-07-08T11:14:31Z</time>
      </trkpt>
      <trkpt lat="28.494705" lon="-13.862777">
        <ele>-7.005</ele>
        <time>2022-07-08T11:14:47Z</time>
      </trkpt>
      <trkpt lat="28.494753" lon="-13.863004">
        <ele>2.009</ele>
        <time>2022-07-08T11:15:03Z</time>
      </trkpt>
      <trkpt lat="28.494642" lon="-13.863138">
        <ele>10.053</ele>
        <time>2022-07-08T11:15:15Z</time>
      </trkpt>
      <trkpt lat="28.494251" lon="-13.863315">
        <ele>8.012</ele>
        <time>2022-07-08T11:15:41Z</time>
      </trkpt>
      <trkpt lat="28.494202" lon="-13.863433">
        <ele>6.039</ele>
        <time>2022-07-08T11:15:47Z</time>
      </trkpt>
      <trkpt lat="28.493115" lon="-13.863817">
        <ele>18.085</ele>
        <time>2022-07-08T11:17:02Z</time>
      </trkpt>
      <trkpt lat="28.492983" lon="-13.863999">
        <ele>17.019</ele>
        <time>2022-07-08T11:17:17Z</time>
      </trkpt>
      <trkpt lat="28.492468" lon="-13.864189">
        <ele>15.082</ele>
        <time>2022-07-08T11:17:53Z</time>
      </trkpt>
      <trkpt lat="28.492179" lon="-13.864457">
        <ele>15.086</ele>
        <time>2022-07-08T11:18:16Z</time>
      </trkpt>
      <trkpt lat="28.492321" lon="-13.864898">
        <ele>15.038</ele>
        <time>2022-07-08T11:18:48Z</time>
      </trkpt>
      <trkpt lat="28.492263" lon="-13.865654">
        <ele>13.023</ele>
        <time>2022-07-08T11:19:28Z</time>
      </trkpt>
      <trkpt lat="28.492659" lon="-13.866878">
        <ele>7.028</ele>
        <time>2022-07-08T11:20:44Z</time>
      </trkpt>
      <trkpt lat="28.492709" lon="-13.867480">
        <ele>10.589</ele>
        <time>2022-07-08T11:21:15Z</time>
      </trkpt>
      <trkpt lat="28.492558" lon="-13.867995">
        <ele>15.017</ele>
        <time>2022-07-08T11:21:46Z</time>
      </trkpt>
      <trkpt lat="28.492682" lon="-13.868061">
        <ele>15.009</ele>
        <time>2022-07-08T11:22:01Z</time>
      </trkpt>
      <trkpt lat="28.492879" lon="-13.868546">
        <ele>10.023</ele>
        <time>2022-07-08T11:22:29Z</time>
      </trkpt>
      <trkpt lat="28.492739" lon="-13.869009">
        <ele>11.062</ele>
        <time>2022-07-08T11:22:52Z</time>
      </trkpt>
      <trkpt lat="28.492744" lon="-13.869449">
        <ele>16.039</ele>
        <time>2022-07-08T11:23:17Z</time>
      </trkpt>
      <trkpt lat="28.492040" lon="-13.870048">
        <ele>20.085</ele>
        <time>2022-07-08T11:24:11Z</time>
      </trkpt>
      <trkpt lat="28.491641" lon="-13.870890">
        <ele>19.069</ele>
        <time>2022-07-08T11:25:09Z</time>
      </trkpt>
      <trkpt lat="28.491742" lon="-13.872473">
        <ele>22.072</ele>
        <time>2022-07-08T11:26:38Z</time>
      </trkpt>
      <trkpt lat="28.491029" lon="-13.874813">
        <ele>26.076</ele>
        <time>2022-07-08T11:28:57Z</time>
      </trkpt>
      <trkpt lat="28.490753" lon="-13.875292">
        <ele>29.078</ele>
        <time>2022-07-08T11:29:35Z</time>
      </trkpt>
      <trkpt lat="28.490721" lon="-13.875977">
        <ele>30.033</ele>
        <time>2022-07-08T11:30:16Z</time>
      </trkpt>
      <trkpt lat="28.491358" lon="-13.877262">
        <ele>27.081</ele>
        <time>2022-07-08T11:31:40Z</time>
      </trkpt>
      <trkpt lat="28.491421" lon="-13.877837">
        <ele>28.061</ele>
        <time>2022-07-08T11:32:14Z</time>
      </trkpt>
      <trkpt lat="28.491159" lon="-13.878504">
        <ele>31.017</ele>
        <time>2022-07-08T11:32:56Z</time>
      </trkpt>
      <trkpt lat="28.490694" lon="-13.878673">
        <ele>34.009</ele>
        <time>2022-07-08T11:33:23Z</time>
      </trkpt>
      <trkpt lat="28.490498" lon="-13.878890">
        <ele>41.049</ele>
        <time>2022-07-08T11:33:38Z</time>
      </trkpt>
      <trkpt lat="28.490413" lon="-13.879421">
        <ele>45.068</ele>
        <time>2022-07-08T11:34:11Z</time>
      </trkpt>
      <trkpt lat="28.490505" lon="-13.879948">
        <ele>41.035</ele>
        <time>2022-07-08T11:34:41Z</time>
      </trkpt>
      <trkpt lat="28.490849" lon="-13.880483">
        <ele>41.091</ele>
        <time>2022-07-08T11:35:19Z</time>
      </trkpt>
      <trkpt lat="28.490880" lon="-13.880782">
        <ele>41.045</ele>
        <time>2022-07-08T11:35:35Z</time>
      </trkpt>
      <trkpt lat="28.491370" lon="-13.881439">
        <ele>44.038</ele>
        <time>2022-07-08T11:36:23Z</time>
      </trkpt>
      <trkpt lat="28.491396" lon="-13.881802">
        <ele>43.022</ele>
        <time>2022-07-08T11:36:44Z</time>
      </trkpt>
      <trkpt lat="28.491329" lon="-13.881718">
        <ele>45.024</ele>
        <time>2022-07-08T11:36:55Z</time>
      </trkpt>
      <trkpt lat="28.491044" lon="-13.881960">
        <ele>44.089</ele>
        <time>2022-07-08T11:36:59Z</time>
      </trkpt>
      <trkpt lat="28.491186" lon="-13.881980">
        <ele>43.025</ele>
        <time>2022-07-08T11:37:04Z</time>
      </trkpt>
      <trkpt lat="28.491285" lon="-13.882181">
        <ele>41.026</ele>
        <time>2022-07-08T11:37:08Z</time>
      </trkpt>
      <trkpt lat="28.491239" lon="-13.882373">
        <ele>41.008</ele>
        <time>2022-07-08T11:37:16Z</time>
      </trkpt>
      <trkpt lat="28.491107" lon="-13.882453">
        <ele>42.009</ele>
        <time>2022-07-08T11:37:23Z</time>
      </trkpt>
      <trkpt lat="28.491120" lon="-13.882742">
        <ele>42.093</ele>
        <time>2022-07-08T11:37:36Z</time>
      </trkpt>
      <trkpt lat="28.490994" lon="-13.883056">
        <ele>45.062</ele>
        <time>2022-07-08T11:38:00Z</time>
      </trkpt>
      <trkpt lat="28.491346" lon="-13.883780">
        <ele>45.039</ele>
        <time>2022-07-08T11:38:45Z</time>
      </trkpt>
      <trkpt lat="28.491591" lon="-13.883985">
        <ele>51.065</ele>
        <time>2022-07-08T11:39:09Z</time>
      </trkpt>
      <trkpt lat="28.491324" lon="-13.884496">
        <ele>68.599</ele>
        <time>2022-07-08T11:40:57Z</time>
      </trkpt>
      <trkpt lat="28.490670" lon="-13.885067">
        <ele>103.042</ele>
        <time>2022-07-08T11:44:14Z</time>
      </trkpt>
      <trkpt lat="28.490544" lon="-13.885752">
        <ele>108.096</ele>
        <time>2022-07-08T11:45:08Z</time>
      </trkpt>
      <trkpt lat="28.490720" lon="-13.886304">
        <ele>113.048</ele>
        <time>2022-07-08T11:45:52Z</time>
      </trkpt>
      <trkpt lat="28.490759" lon="-13.887034">
        <ele>114.053</ele>
        <time>2022-07-08T11:46:41Z</time>
      </trkpt>
      <trkpt lat="28.490590" lon="-13.887749">
        <ele>119.086</ele>
        <time>2022-07-08T11:47:27Z</time>
      </trkpt>
      <trkpt lat="28.489958" lon="-13.888894">
        <ele>128.060</ele>
        <time>2022-07-08T11:49:02Z</time>
      </trkpt>
      <trkpt lat="28.488732" lon="-13.889792">
        <ele>152.526</ele>
        <time>2022-07-08T11:51:00Z</time>
      </trkpt>
      <trkpt lat="28.488333" lon="-13.890578">
        <ele>162.009</ele>
        <time>2022-07-08T11:51:56Z</time>
      </trkpt>
      <trkpt lat="28.488240" lon="-13.891105">
        <ele>158.049</ele>
        <time>2022-07-08T11:52:29Z</time>
      </trkpt>
      <trkpt lat="28.487892" lon="-13.891627">
        <ele>163.048</ele>
        <time>2022-07-08T11:53:09Z</time>
      </trkpt>
      <trkpt lat="28.487322" lon="-13.891927">
        <ele>170.065</ele>
        <time>2022-07-08T11:53:53Z</time>
      </trkpt>
      <trkpt lat="28.486163" lon="-13.892123">
        <ele>168.091</ele>
        <time>2022-07-08T11:55:11Z</time>
      </trkpt>
      <trkpt lat="28.485872" lon="-13.892379">
        <ele>174.015</ele>
        <time>2022-07-08T11:55:36Z</time>
      </trkpt>
      <trkpt lat="28.485738" lon="-13.893371">
        <ele>183.078</ele>
        <time>2022-07-08T11:56:37Z</time>
      </trkpt>
      <trkpt lat="28.485806" lon="-13.895315">
        <ele>202.092</ele>
        <time>2022-07-08T11:58:42Z</time>
      </trkpt>
      <trkpt lat="28.485988" lon="-13.896003">
        <ele>204.094</ele>
        <time>2022-07-08T11:59:26Z</time>
      </trkpt>
      <trkpt lat="28.485960" lon="-13.896587">
        <ele>200.089</ele>
        <time>2022-07-08T11:59:58Z</time>
      </trkpt>
      <trkpt lat="28.486110" lon="-13.897437">
        <ele>197.037</ele>
        <time>2022-07-08T12:00:52Z</time>
      </trkpt>
      <trkpt lat="28.486444" lon="-13.898464">
        <ele>227.049</ele>
        <time>2022-07-08T12:03:41Z</time>
      </trkpt>
      <trkpt lat="28.486647" lon="-13.898769">
        <ele>229.013</ele>
        <time>2022-07-08T12:04:48Z</time>
      </trkpt>
      <trkpt lat="28.486719" lon="-13.900065">
        <ele>262.009</ele>
        <time>2022-07-08T12:07:28Z</time>
      </trkpt>
      <trkpt lat="28.487105" lon="-13.900859">
        <ele>279.044</ele>
        <time>2022-07-08T12:10:12Z</time>
      </trkpt>
      <trkpt lat="28.487656" lon="-13.901112">
        <ele>270.093</ele>
        <time>2022-07-08T12:11:46Z</time>
      </trkpt>
      <trkpt lat="28.488303" lon="-13.901886">
        <ele>256.050</ele>
        <time>2022-07-08T12:12:41Z</time>
      </trkpt>
      <trkpt lat="28.489356" lon="-13.902743">
        <ele>244.066</ele>
        <time>2022-07-08T12:13:55Z</time>
      </trkpt>
      <trkpt lat="28.489926" lon="-13.903353">
        <ele>237.040</ele>
        <time>2022-07-08T12:15:17Z</time>
      </trkpt>
      <trkpt lat="28.491108" lon="-13.903531">
        <ele>221.013</ele>
        <time>2022-07-08T12:16:27Z</time>
      </trkpt>
      <trkpt lat="28.491240" lon="-13.903796">
        <ele>215.057</ele>
        <time>2022-07-08T12:16:49Z</time>
      </trkpt>
      <trkpt lat="28.491494" lon="-13.903771">
        <ele>206.599</ele>
        <time>2022-07-08T12:17:07Z</time>
      </trkpt>
      <trkpt lat="28.491925" lon="-13.904143">
        <ele>192.034</ele>
        <time>2022-07-08T12:17:46Z</time>
      </trkpt>
      <trkpt lat="28.492956" lon="-13.904678">
        <ele>159.032</ele>
        <time>2022-07-08T12:18:53Z</time>
      </trkpt>
      <trkpt lat="28.492988" lon="-13.905064">
        <ele>152.092</ele>
        <time>2022-07-08T12:19:11Z</time>
      </trkpt>
      <trkpt lat="28.492752" lon="-13.905481">
        <ele>153.011</ele>
        <time>2022-07-08T12:19:31Z</time>
      </trkpt>
      <trkpt lat="28.492632" lon="-13.906097">
        <ele>147.009</ele>
        <time>2022-07-08T12:20:00Z</time>
      </trkpt>
      <trkpt lat="28.492056" lon="-13.907551">
        <ele>145.084</ele>
        <time>2022-07-08T12:21:23Z</time>
      </trkpt>
      <trkpt lat="28.492069" lon="-13.907845">
        <ele>147.053</ele>
        <time>2022-07-08T12:21:41Z</time>
      </trkpt>
      <trkpt lat="28.492182" lon="-13.907981">
        <ele>148.040</ele>
        <time>2022-07-08T12:21:48Z</time>
      </trkpt>
      <trkpt lat="28.491578" lon="-13.909449">
        <ele>150.056</ele>
        <time>2022-07-08T12:23:19Z</time>
      </trkpt>
      <trkpt lat="28.491548" lon="-13.910271">
        <ele>154.070</ele>
        <time>2022-07-08T12:24:06Z</time>
      </trkpt>
      <trkpt lat="28.492588" lon="-13.912325">
        <ele>167.573</ele>
        <time>2022-07-08T12:26:30Z</time>
      </trkpt>
      <trkpt lat="28.492784" lon="-13.912377">
        <ele>167.547</ele>
        <time>2022-07-08T12:26:46Z</time>
      </trkpt>
      <trkpt lat="28.493018" lon="-13.912244">
        <ele>168.099</ele>
        <time>2022-07-08T12:27:04Z</time>
      </trkpt>
      <trkpt lat="28.493295" lon="-13.912428">
        <ele>167.024</ele>
        <time>2022-07-08T12:27:27Z</time>
      </trkpt>
      <trkpt lat="28.494572" lon="-13.914876">
        <ele>220.551</ele>
        <time>2022-07-08T12:33:23Z</time>
      </trkpt>
      <trkpt lat="28.495077" lon="-13.915367">
        <ele>233.001</ele>
        <time>2022-07-08T12:35:00Z</time>
      </trkpt>
      <trkpt lat="28.495306" lon="-13.916027">
        <ele>250.011</ele>
        <time>2022-07-08T12:36:46Z</time>
      </trkpt>
      <trkpt lat="28.495333" lon="-13.916769">
        <ele>263.009</ele>
        <time>2022-07-08T12:39:35Z</time>
      </trkpt>
      <trkpt lat="28.495426" lon="-13.916819">
        <ele>265.046</ele>
        <time>2022-07-08T12:39:51Z</time>
      </trkpt>
      <trkpt lat="28.495355" lon="-13.916909">
        <ele>265.045</ele>
        <time>2022-07-08T12:40:18Z</time>
      </trkpt>
      <trkpt lat="28.495487" lon="-13.917019">
        <ele>283.032</ele>
        <time>2022-07-08T12:41:22Z</time>
      </trkpt>
      <trkpt lat="28.495380" lon="-13.917095">
        <ele>289.098</ele>
        <time>2022-07-08T12:42:07Z</time>
      </trkpt>
      <trkpt lat="28.495384" lon="-13.917257">
        <ele>292.052</ele>
        <time>2022-07-08T12:42:55Z</time>
      </trkpt>
      <trkpt lat="28.495706" lon="-13.917424">
        <ele>309.025</ele>
        <time>2022-07-08T12:44:55Z</time>
      </trkpt>
      <trkpt lat="28.495826" lon="-13.917605">
        <ele>317.039</ele>
        <time>2022-07-08T12:45:45Z</time>
      </trkpt>
      <trkpt lat="28.495674" lon="-13.917684">
        <ele>318.051</ele>
        <time>2022-07-08T12:46:06Z</time>
      </trkpt>
      <trkpt lat="28.495648" lon="-13.917584">
        <ele>318.066</ele>
        <time>2022-07-08T12:46:21Z</time>
      </trkpt>
      <trkpt lat="28.495734" lon="-13.917543">
        <ele>322.017</ele>
        <time>2022-07-08T12:46:38Z</time>
      </trkpt>
      <trkpt lat="28.495639" lon="-13.917764">
        <ele>334.087</ele>
        <time>2022-07-08T12:48:00Z</time>
      </trkpt>
      <trkpt lat="28.495515" lon="-13.917667">
        <ele>340.015</ele>
        <time>2022-07-08T12:48:36Z</time>
      </trkpt>
      <trkpt lat="28.495537" lon="-13.917763">
        <ele>344.009</ele>
        <time>2022-07-08T12:49:03Z</time>
      </trkpt>
      <trkpt lat="28.495439" lon="-13.917527">
        <ele>330.062</ele>
        <time>2022-07-08T12:55:29Z</time>
      </trkpt>
      <trkpt lat="28.495485" lon="-13.917613">
        <ele>328.541</ele>
        <time>2022-07-08T12:56:00Z</time>
      </trkpt>
      <trkpt lat="28.495458" lon="-13.917508">
        <ele>322.068</ele>
        <time>2022-07-08T12:56:23Z</time>
      </trkpt>
      <trkpt lat="28.495709" lon="-13.917337">
        <ele>316.034</ele>
        <time>2022-07-08T12:59:24Z</time>
      </trkpt>
      <trkpt lat="28.495651" lon="-13.917183">
        <ele>307.048</ele>
        <time>2022-07-08T13:00:47Z</time>
      </trkpt>
      <trkpt lat="28.496025" lon="-13.916887">
        <ele>289.031</ele>
        <time>2022-07-08T13:03:10Z</time>
      </trkpt>
      <trkpt lat="28.496212" lon="-13.916380">
        <ele>267.075</ele>
        <time>2022-07-08T13:04:42Z</time>
      </trkpt>
      <trkpt lat="28.496086" lon="-13.915234">
        <ele>248.047</ele>
        <time>2022-07-08T13:05:57Z</time>
      </trkpt>
      <trkpt lat="28.496180" lon="-13.914842">
        <ele>241.072</ele>
        <time>2022-07-08T13:06:30Z</time>
      </trkpt>
      <trkpt lat="28.496080" lon="-13.914494">
        <ele>231.097</ele>
        <time>2022-07-08T13:06:57Z</time>
      </trkpt>
      <trkpt lat="28.496566" lon="-13.912728">
        <ele>201.023</ele>
        <time>2022-07-08T13:08:39Z</time>
      </trkpt>
      <trkpt lat="28.496602" lon="-13.912276">
        <ele>192.025</ele>
        <time>2022-07-08T13:08:58Z</time>
      </trkpt>
      <trkpt lat="28.496310" lon="-13.911736">
        <ele>179.509</ele>
        <time>2022-07-08T13:09:38Z</time>
      </trkpt>
      <trkpt lat="28.496238" lon="-13.910945">
        <ele>162.020</ele>
        <time>2022-07-08T13:10:32Z</time>
      </trkpt>
      <trkpt lat="28.495972" lon="-13.910282">
        <ele>156.079</ele>
        <time>2022-07-08T13:11:13Z</time>
      </trkpt>
      <trkpt lat="28.495900" lon="-13.909740">
        <ele>154.036</ele>
        <time>2022-07-08T13:11:45Z</time>
      </trkpt>
      <trkpt lat="28.496045" lon="-13.909493">
        <ele>154.012</ele>
        <time>2022-07-08T13:12:08Z</time>
      </trkpt>
      <trkpt lat="28.496557" lon="-13.909091">
        <ele>153.036</ele>
        <time>2022-07-08T13:12:54Z</time>
      </trkpt>
      <trkpt lat="28.496773" lon="-13.907922">
        <ele>136.089</ele>
        <time>2022-07-08T13:14:22Z</time>
      </trkpt>
      <trkpt lat="28.497377" lon="-13.906744">
        <ele>142.073</ele>
        <time>2022-07-08T13:15:33Z</time>
      </trkpt>
      <trkpt lat="28.497465" lon="-13.906099">
        <ele>142.035</ele>
        <time>2022-07-08T13:16:07Z</time>
      </trkpt>
      <trkpt lat="28.497254" lon="-13.905289">
        <ele>139.010</ele>
        <time>2022-07-08T13:16:56Z</time>
      </trkpt>
      <trkpt lat="28.497064" lon="-13.904950">
        <ele>137.087</ele>
        <time>2022-07-08T13:17:18Z</time>
      </trkpt>
      <trkpt lat="28.496570" lon="-13.904407">
        <ele>137.042</ele>
        <time>2022-07-08T13:18:10Z</time>
      </trkpt>
      <trkpt lat="28.495939" lon="-13.904025">
        <ele>131.026</ele>
        <time>2022-07-08T13:18:55Z</time>
      </trkpt>
      <trkpt lat="28.495608" lon="-13.903421">
        <ele>131.009</ele>
        <time>2022-07-08T13:19:33Z</time>
      </trkpt>
      <trkpt lat="28.495241" lon="-13.901313">
        <ele>125.089</ele>
        <time>2022-07-08T13:21:32Z</time>
      </trkpt>
      <trkpt lat="28.495441" lon="-13.900539">
        <ele>127.098</ele>
        <time>2022-07-08T13:22:17Z</time>
      </trkpt>
      <trkpt lat="28.495289" lon="-13.899776">
        <ele>127.025</ele>
        <time>2022-07-08T13:22:57Z</time>
      </trkpt>
      <trkpt lat="28.495322" lon="-13.898436">
        <ele>133.081</ele>
        <time>2022-07-08T13:24:07Z</time>
      </trkpt>
      <trkpt lat="28.495380" lon="-13.897543">
        <ele>126.065</ele>
        <time>2022-07-08T13:24:57Z</time>
      </trkpt>
      <trkpt lat="28.496370" lon="-13.892824">
        <ele>115.098</ele>
        <time>2022-07-08T13:29:10Z</time>
      </trkpt>
      <trkpt lat="28.496495" lon="-13.891548">
        <ele>109.052</ele>
        <time>2022-07-08T13:30:16Z</time>
      </trkpt>
      <trkpt lat="28.497012" lon="-13.889217">
        <ele>101.014</ele>
        <time>2022-07-08T13:32:21Z</time>
      </trkpt>
      <trkpt lat="28.497193" lon="-13.887908">
        <ele>93.079</ele>
        <time>2022-07-08T13:33:35Z</time>
      </trkpt>
      <trkpt lat="28.497473" lon="-13.887051">
        <ele>92.048</ele>
        <time>2022-07-08T13:34:17Z</time>
      </trkpt>
      <trkpt lat="28.497322" lon="-13.886553">
        <ele>90.061</ele>
        <time>2022-07-08T13:34:36Z</time>
      </trkpt>
      <trkpt lat="28.497007" lon="-13.886161">
        <ele>93.017</ele>
        <time>2022-07-08T13:34:57Z</time>
      </trkpt>
      <trkpt lat="28.497081" lon="-13.885686">
        <ele>95.009</ele>
        <time>2022-07-08T13:35:26Z</time>
      </trkpt>
      <trkpt lat="28.497415" lon="-13.885144">
        <ele>95.035</ele>
        <time>2022-07-08T13:36:06Z</time>
      </trkpt>
      <trkpt lat="28.497627" lon="-13.884294">
        <ele>93.084</ele>
        <time>2022-07-08T13:36:51Z</time>
      </trkpt>
      <trkpt lat="28.497823" lon="-13.884116">
        <ele>91.071</ele>
        <time>2022-07-08T13:37:12Z</time>
      </trkpt>
      <trkpt lat="28.498131" lon="-13.882644">
        <ele>81.097</ele>
        <time>2022-07-08T13:38:33Z</time>
      </trkpt>
      <trkpt lat="28.497955" lon="-13.879136">
        <ele>74.021</ele>
        <time>2022-07-08T13:41:39Z</time>
      </trkpt>
      <trkpt lat="28.497674" lon="-13.878639">
        <ele>70.094</ele>
        <time>2022-07-08T13:42:07Z</time>
      </trkpt>
      <trkpt lat="28.497951" lon="-13.877917">
        <ele>70.028</ele>
        <time>2022-07-08T13:42:46Z</time>
      </trkpt>
      <trkpt lat="28.497847" lon="-13.876413">
        <ele>64.080</ele>
        <time>2022-07-08T13:44:06Z</time>
      </trkpt>
      <trkpt lat="28.498108" lon="-13.876190">
        <ele>60.075</ele>
        <time>2022-07-08T13:44:26Z</time>
      </trkpt>
      <trkpt lat="28.498024" lon="-13.874743">
        <ele>59.084</ele>
        <time>2022-07-08T13:45:45Z</time>
      </trkpt>
      <trkpt lat="28.498114" lon="-13.874124">
        <ele>50.007</ele>
        <time>2022-07-08T13:46:22Z</time>
      </trkpt>
      <trkpt lat="28.498083" lon="-13.873287">
        <ele>48.017</ele>
        <time>2022-07-08T13:47:06Z</time>
      </trkpt>
      <trkpt lat="28.497922" lon="-13.872918">
        <ele>50.009</ele>
        <time>2022-07-08T13:47:29Z</time>
      </trkpt>
      <trkpt lat="28.498014" lon="-13.871440">
        <ele>49.019</ele>
        <time>2022-07-08T13:48:48Z</time>
      </trkpt>
      <trkpt lat="28.497852" lon="-13.868255">
        <ele>42.028</ele>
        <time>2022-07-08T13:51:41Z</time>
      </trkpt>
      <trkpt lat="28.497492" lon="-13.864977">
        <ele>39.055</ele>
        <time>2022-07-08T13:54:35Z</time>
      </trkpt>
      <trkpt lat="28.497602" lon="-13.864189">
        <ele>33.021</ele>
        <time>2022-07-08T13:55:19Z</time>
      </trkpt>
      <trkpt lat="28.497390" lon="-13.864038">
        <ele>32.095</ele>
        <time>2022-07-08T13:55:34Z</time>
      </trkpt>
      <trkpt lat="28.497176" lon="-13.864047">
        <ele>32.068</ele>
        <time>2022-07-08T13:55:47Z</time>
      </trkpt>
      <trkpt lat="28.496999" lon="-13.863824">
        <ele>34.042</ele>
        <time>2022-07-08T13:56:02Z</time>
      </trkpt>
      <trkpt lat="28.495666" lon="-13.864469">
        <ele>34.054</ele>
        <time>2022-07-08T13:57:27Z</time>
      </trkpt>
      <trkpt lat="28.495266" lon="-13.864481">
        <ele>32.049</ele>
        <time>2022-07-08T13:57:52Z</time>
      </trkpt>
      <trkpt lat="28.495105" lon="-13.864050">
        <ele>26.022</ele>
        <time>2022-07-08T13:58:17Z</time>
      </trkpt>
      <trkpt lat="28.494898" lon="-13.863858">
        <ele>24.062</ele>
        <time>2022-07-08T13:58:35Z</time>
      </trkpt>
      <trkpt lat="28.494524" lon="-13.862767">
        <ele>22.008</ele>
        <time>2022-07-08T13:59:38Z</time>
      </trkpt>
      <trkpt lat="28.494260" lon="-13.862584">
        <ele>17.009</ele>
        <time>2022-07-08T13:59:59Z</time>
      </trkpt>
      <trkpt lat="28.494367" lon="-13.862325">
        <ele>13.033</ele>
        <time>2022-07-08T14:00:15Z</time>
      </trkpt>
      <trkpt lat="28.494380" lon="-13.861801">
        <ele>13.052</ele>
        <time>2022-07-08T14:00:43Z</time>
      </trkpt>
      <trkpt lat="28.493120" lon="-13.861022">
        <ele>12.069</ele>
        <time>2022-07-08T14:02:20Z</time>
      </trkpt>
      <trkpt lat="28.493251" lon="-13.861066">
        <ele>11.035</ele>
        <time>2022-07-08T14:02:44Z</time>
      </trkpt>
    </trkseg>
  </trk></gpx>