<?xml version="1.0" encoding="UTF-8"?>
<gpx creator="Wikiloc - https://www.wikiloc.com" version="1.1" xmlns="http://www.topografix.com/GPX/1/1" xmlns:xsi="http://www.w3.org/2001/XMLSchema-instance" xsi:schemaLocation="http://www.topografix.com/GPX/1/1 http://www.topografix.com/GPX/1/1/gpx.xsd">
  <metadata>
    <name>Wikiloc - Caldera Blanca desde Tinajo. Lanzarote.</name>
    <link href="https://www.wikiloc.com/hiking-trails/caldera-blanca-desde-tinajo-lanzarote-30661592">
      <text>Caldera Blanca desde Tinajo. Lanzarote. - Wikiloc on Wikiloc</text>
    </link>
    <time>2018-11-18T17:26:45Z</time>
  </metadata>
  <trk>
    <name>Caldera Blanca desde Tinajo. Lanzarote. - Wikiloc</name>
    <cmt></cmt>
    <desc></desc>
    <trkseg>
      <trkpt lat="29.043745" lon="-13.692673">
        <ele>252.067</ele>
        <time>2018-11-18T12:13:43Z</time>
      </trkpt>
      <trkpt lat="29.043462" lon="-13.693525">
        <ele>253.081</ele>
        <time>2018-11-18T12:14:48Z</time>
      </trkpt>
      <trkpt lat="29.043448" lon="-13.694073">
        <ele>252.819</ele>
        <time>2018-11-18T12:15:24Z</time>
      </trkpt>
      <trkpt lat="29.043496" lon="-13.695224">
        <ele>252.308</ele>
        <time>2018-11-18T12:16:48Z</time>
      </trkpt>
      <trkpt lat="29.043636" lon="-13.695533">
        <ele>255.119</ele>
        <time>2018-11-18T12:17:10Z</time>
      </trkpt>
      <trkpt lat="29.043822" lon="-13.696673">
        <ele>254.026</ele>
        <time>2018-11-18T12:18:26Z</time>
      </trkpt>
      <trkpt lat="29.043612" lon="-13.697537">
        <ele>254.412</ele>
        <time>2018-11-18T12:22:31Z</time>
      </trkpt>
      <trkpt lat="29.044031" lon="-13.699928">
        <ele>254.452</ele>
        <time>2018-11-18T12:25:24Z</time>
      </trkpt>
      <trkpt lat="29.043449" lon="-13.702724">
        <ele>252.677</ele>
        <time>2018-11-18T12:28:51Z</time>
      </trkpt>
      <trkpt lat="29.043206" lon="-13.702998">
        <ele>252.531</ele>
        <time>2018-11-18T12:29:20Z</time>
      </trkpt>
      <trkpt lat="29.043097" lon="-13.703477">
        <ele>251.635</ele>
        <time>2018-11-18T12:30:06Z</time>
      </trkpt>
      <trkpt lat="29.043192" lon="-13.703888">
        <ele>248.618</ele>
        <time>2018-11-18T12:31:45Z</time>
      </trkpt>
      <trkpt lat="29.043532" lon="-13.703818">
        <ele>249.648</ele>
        <time>2018-11-18T12:34:06Z</time>
      </trkpt>
      <trkpt lat="29.043886" lon="-13.703942">
        <ele>249.261</ele>
        <time>2018-11-18T12:35:21Z</time>
      </trkpt>
      <trkpt lat="29.043869" lon="-13.704702">
        <ele>246.017</ele>
        <time>2018-11-18T12:39:52Z</time>
      </trkpt>
      <trkpt lat="29.043686" lon="-13.705200">
        <ele>240.208</ele>
        <time>2018-11-18T12:42:00Z</time>
      </trkpt>
      <trkpt lat="29.043808" lon="-13.705661">
        <ele>240.257</ele>
        <time>2018-11-18T12:44:07Z</time>
      </trkpt>
      <trkpt lat="29.043588" lon="-13.705870">
        <ele>240.284</ele>
        <time>2018-11-18T12:44:33Z</time>
      </trkpt>
      <trkpt lat="29.043780" lon="-13.706016">
        <ele>240.280</ele>
        <time>2018-11-18T12:45:01Z</time>
      </trkpt>
      <trkpt lat="29.043587" lon="-13.706327">
        <ele>240.240</ele>
        <time>2018-11-18T12:45:35Z</time>
      </trkpt>
      <trkpt lat="29.043867" lon="-13.707254">
        <ele>240.295</ele>
        <time>2018-11-18T12:46:59Z</time>
      </trkpt>
      <trkpt lat="29.043873" lon="-13.708005">
        <ele>240.249</ele>
        <time>2018-11-18T12:48:10Z</time>
      </trkpt>
      <trkpt lat="29.044306" lon="-13.708489">
        <ele>240.613</ele>
        <time>2018-11-18T12:51:36Z</time>
      </trkpt>
      <trkpt lat="29.044276" lon="-13.709593">
        <ele>240.816</ele>
        <time>2018-11-18T12:52:55Z</time>
      </trkpt>
      <trkpt lat="29.044565" lon="-13.709880">
        <ele>242.034</ele>
        <time>2018-11-18T12:53:30Z</time>
      </trkpt>
      <trkpt lat="29.044653" lon="-13.710401">
        <ele>241.855</ele>
        <time>2018-11-18T12:54:19Z</time>
      </trkpt>
      <trkpt lat="29.044879" lon="-13.710511">
        <ele>241.610</ele>
        <time>2018-11-18T12:54:46Z</time>
      </trkpt>
      <trkpt lat="29.044905" lon="-13.710924">
        <ele>243.408</ele>
        <time>2018-11-18T12:55:43Z</time>
      </trkpt>
      <trkpt lat="29.045148" lon="-13.711355">
        <ele>241.836</ele>
        <time>2018-11-18T12:56:37Z</time>
      </trkpt>
      <trkpt lat="29.045077" lon="-13.711584">
        <ele>240.713</ele>
        <time>2018-11-18T12:56:53Z</time>
      </trkpt>
      <trkpt lat="29.045239" lon="-13.711994">
        <ele>235.859</ele>
        <time>2018-11-18T12:58:19Z</time>
      </trkpt>
      <trkpt lat="29.045150" lon="-13.712202">
        <ele>235.129</ele>
        <time>2018-11-18T12:59:15Z</time>
      </trkpt>
      <trkpt lat="29.045405" lon="-13.712356">
        <ele>234.844</ele>
        <time>2018-11-18T12:59:39Z</time>
      </trkpt>
      <trkpt lat="29.045534" lon="-13.712580">
        <ele>235.188</ele>
        <time>2018-11-18T12:59:59Z</time>
      </trkpt>
      <trkpt lat="29.045240" lon="-13.713179">
        <ele>233.852</ele>
        <time>2018-11-18T13:00:51Z</time>
      </trkpt>
      <trkpt lat="29.045212" lon="-13.713459">
        <ele>233.835</ele>
        <time>2018-11-18T13:01:13Z</time>
      </trkpt>
      <trkpt lat="29.044996" lon="-13.713780">
        <ele>231.849</ele>
        <time>2018-11-18T13:01:49Z</time>
      </trkpt>
      <trkpt lat="29.044864" lon="-13.714385">
        <ele>229.202</ele>
        <time>2018-11-18T13:02:34Z</time>
      </trkpt>
      <trkpt lat="29.044484" lon="-13.714512">
        <ele>232.922</ele>
        <time>2018-11-18T13:03:13Z</time>
      </trkpt>
      <trkpt lat="29.044192" lon="-13.715107">
        <ele>233.408</ele>
        <time>2018-11-18T13:05:45Z</time>
      </trkpt>
      <trkpt lat="29.044333" lon="-13.715821">
        <ele>231.027</ele>
        <time>2018-11-18T13:06:44Z</time>
      </trkpt>
      <trkpt lat="29.044258" lon="-13.716163">
        <ele>230.594</ele>
        <time>2018-11-18T13:07:21Z</time>
      </trkpt>
      <trkpt lat="29.044469" lon="-13.716915">
        <ele>222.060</ele>
        <time>2018-11-18T13:08:25Z</time>
      </trkpt>
      <trkpt lat="29.043980" lon="-13.718440">
        <ele>216.420</ele>
        <time>2018-11-18T13:12:36Z</time>
      </trkpt>
      <trkpt lat="29.043835" lon="-13.718595">
        <ele>211.815</ele>
        <time>2018-11-18T13:13:01Z</time>
      </trkpt>
      <trkpt lat="29.043336" lon="-13.718619">
        <ele>213.819</ele>
        <time>2018-11-18T13:13:52Z</time>
      </trkpt>
      <trkpt lat="29.043201" lon="-13.718452">
        <ele>219.233</ele>
        <time>2018-11-18T13:16:01Z</time>
      </trkpt>
      <trkpt lat="29.042799" lon="-13.718412">
        <ele>211.396</ele>
        <time>2018-11-18T13:16:48Z</time>
      </trkpt>
      <trkpt lat="29.042477" lon="-13.717867">
        <ele>210.535</ele>
        <time>2018-11-18T13:17:40Z</time>
      </trkpt>
      <trkpt lat="29.042811" lon="-13.718361">
        <ele>211.986</ele>
        <time>2018-11-18T13:21:58Z</time>
      </trkpt>
      <trkpt lat="29.043231" lon="-13.718504">
        <ele>211.714</ele>
        <time>2018-11-18T13:22:43Z</time>
      </trkpt>
      <trkpt lat="29.043229" lon="-13.719023">
        <ele>222.008</ele>
        <time>2018-11-18T13:23:30Z</time>
      </trkpt>
      <trkpt lat="29.042472" lon="-13.720078">
        <ele>243.136</ele>
        <time>2018-11-18T13:26:29Z</time>
      </trkpt>
      <trkpt lat="29.041765" lon="-13.720395">
        <ele>257.293</ele>
        <time>2018-11-18T13:28:15Z</time>
      </trkpt>
      <trkpt lat="29.041754" lon="-13.720608">
        <ele>257.589</ele>
        <time>2018-11-18T13:28:47Z</time>
      </trkpt>
      <trkpt lat="29.041499" lon="-13.720779">
        <ele>259.669</ele>
        <time>2018-11-18T13:31:11Z</time>
      </trkpt>
      <trkpt lat="29.041555" lon="-13.720818">
        <ele>257.064</ele>
        <time>2018-11-18T13:31:42Z</time>
      </trkpt>
      <trkpt lat="29.041113" lon="-13.721876">
        <ele>262.658</ele>
        <time>2018-11-18T13:34:00Z</time>
      </trkpt>
      <trkpt lat="29.041144" lon="-13.722639">
        <ele>260.182</ele>
        <time>2018-11-18T13:35:26Z</time>
      </trkpt>
      <trkpt lat="29.041556" lon="-13.722824">
        <ele>258.965</ele>
        <time>2018-11-18T13:36:46Z</time>
      </trkpt>
      <trkpt lat="29.041561" lon="-13.722995">
        <ele>259.154</ele>
        <time>2018-11-18T13:37:43Z</time>
      </trkpt>
      <trkpt lat="29.042124" lon="-13.723722">
        <ele>271.656</ele>
        <time>2018-11-18T13:39:34Z</time>
      </trkpt>
      <trkpt lat="29.042977" lon="-13.725241">
        <ele>287.711</ele>
        <time>2018-11-18T13:43:04Z</time>
      </trkpt>
      <trkpt lat="29.042898" lon="-13.725301">
        <ele>287.108</ele>
        <time>2018-11-18T13:43:22Z</time>
      </trkpt>
      <trkpt lat="29.042808" lon="-13.725163">
        <ele>288.528</ele>
        <time>2018-11-18T13:45:14Z</time>
      </trkpt>
      <trkpt lat="29.041040" lon="-13.724073">
        <ele>314.825</ele>
        <time>2018-11-18T13:48:26Z</time>
      </trkpt>
      <trkpt lat="29.040260" lon="-13.723831">
        <ele>327.551</ele>
        <time>2018-11-18T13:50:13Z</time>
      </trkpt>
      <trkpt lat="29.039191" lon="-13.723741">
        <ele>338.081</ele>
        <time>2018-11-18T13:52:17Z</time>
      </trkpt>
      <trkpt lat="29.037987" lon="-13.723999">
        <ele>348.476</ele>
        <time>2018-11-18T13:54:16Z</time>
      </trkpt>
      <trkpt lat="29.036838" lon="-13.724627">
        <ele>355.240</ele>
        <time>2018-11-18T13:56:43Z</time>
      </trkpt>
      <trkpt lat="29.035650" lon="-13.725856">
        <ele>383.134</ele>
        <time>2018-11-18T14:00:20Z</time>
      </trkpt>
      <trkpt lat="29.034662" lon="-13.727446">
        <ele>409.337</ele>
        <time>2018-11-18T14:03:44Z</time>
      </trkpt>
      <trkpt lat="29.034235" lon="-13.728944">
        <ele>409.316</ele>
        <time>2018-11-18T14:06:28Z</time>
      </trkpt>
      <trkpt lat="29.034286" lon="-13.731111">
        <ele>409.376</ele>
        <time>2018-11-18T14:09:45Z</time>
      </trkpt>
      <trkpt lat="29.034519" lon="-13.731850">
        <ele>409.313</ele>
        <time>2018-11-18T14:10:49Z</time>
      </trkpt>
      <trkpt lat="29.034448" lon="-13.731783">
        <ele>409.308</ele>
        <time>2018-11-18T14:11:06Z</time>
      </trkpt>
      <trkpt lat="29.034695" lon="-13.732262">
        <ele>473.724</ele>
        <time>2018-11-18T14:20:23Z</time>
      </trkpt>
      <trkpt lat="29.036171" lon="-13.734251">
        <ele>421.981</ele>
        <time>2018-11-18T14:24:35Z</time>
      </trkpt>
      <trkpt lat="29.036836" lon="-13.734721">
        <ele>415.337</ele>
        <time>2018-11-18T14:25:45Z</time>
      </trkpt>
      <trkpt lat="29.037695" lon="-13.735074">
        <ele>383.137</ele>
        <time>2018-11-18T14:29:42Z</time>
      </trkpt>
      <trkpt lat="29.037282" lon="-13.737171">
        <ele>367.432</ele>
        <time>2018-11-18T14:32:49Z</time>
      </trkpt>
      <trkpt lat="29.037249" lon="-13.738219">
        <ele>367.456</ele>
        <time>2018-11-18T14:34:17Z</time>
      </trkpt>
      <trkpt lat="29.037464" lon="-13.738914">
        <ele>367.420</ele>
        <time>2018-11-18T14:35:19Z</time>
      </trkpt>
      <trkpt lat="29.037407" lon="-13.739302">
        <ele>367.453</ele>
        <time>2018-11-18T14:35:44Z</time>
      </trkpt>
      <trkpt lat="29.037680" lon="-13.739905">
        <ele>367.426</ele>
        <time>2018-11-18T14:36:34Z</time>
      </trkpt>
      <trkpt lat="29.038247" lon="-13.740287">
        <ele>400.947</ele>
        <time>2018-11-18T14:37:35Z</time>
      </trkpt>
      <trkpt lat="29.038526" lon="-13.740352">
        <ele>397.111</ele>
        <time>2018-11-18T14:37:58Z</time>
      </trkpt>
      <trkpt lat="29.037734" lon="-13.739937">
        <ele>407.408</ele>
        <time>2018-11-18T14:40:24Z</time>
      </trkpt>
      <trkpt lat="29.037517" lon="-13.739638">
        <ele>402.765</ele>
        <time>2018-11-18T14:41:33Z</time>
      </trkpt>
      <trkpt lat="29.037416" lon="-13.739249">
        <ele>399.542</ele>
        <time>2018-11-18T14:41:57Z</time>
      </trkpt>
      <trkpt lat="29.037362" lon="-13.737511">
        <ele>392.428</ele>
        <time>2018-11-18T14:43:53Z</time>
      </trkpt>
      <trkpt lat="29.037596" lon="-13.736040">
        <ele>365.898</ele>
        <time>2018-11-18T14:45:25Z</time>
      </trkpt>
      <trkpt lat="29.037980" lon="-13.735394">
        <ele>365.853</ele>
        <time>2018-11-18T14:46:15Z</time>
      </trkpt>
      <trkpt lat="29.038624" lon="-13.734924">
        <ele>365.887</ele>
        <time>2018-11-18T14:47:16Z</time>
      </trkpt>
      <trkpt lat="29.039394" lon="-13.734603">
        <ele>365.851</ele>
        <time>2018-11-18T14:48:29Z</time>
      </trkpt>
      <trkpt lat="29.039903" lon="-13.734659">
        <ele>365.864</ele>
        <time>2018-11-18T14:49:04Z</time>
      </trkpt>
      <trkpt lat="29.041480" lon="-13.733790">
        <ele>365.829</ele>
        <time>2018-11-18T14:51:47Z</time>
      </trkpt>
      <trkpt lat="29.040369" lon="-13.733460">
        <ele>365.800</ele>
        <time>2018-11-18T15:05:01Z</time>
      </trkpt>
      <trkpt lat="29.040418" lon="-13.733336">
        <ele>365.820</ele>
        <time>2018-11-18T15:05:22Z</time>
      </trkpt>
      <trkpt lat="29.039812" lon="-13.732997">
        <ele>365.808</ele>
        <time>2018-11-18T15:06:16Z</time>
      </trkpt>
      <trkpt lat="29.039188" lon="-13.732145">
        <ele>365.865</ele>
        <time>2018-11-18T15:07:43Z</time>
      </trkpt>
      <trkpt lat="29.039341" lon="-13.731336">
        <ele>365.822</ele>
        <time>2018-11-18T15:08:37Z</time>
      </trkpt>
      <trkpt lat="29.039541" lon="-13.731134">
        <ele>365.868</ele>
        <time>2018-11-18T15:08:57Z</time>
      </trkpt>
      <trkpt lat="29.040139" lon="-13.729945">
        <ele>165.498</ele>
        <time>2018-11-18T15:10:29Z</time>
      </trkpt>
      <trkpt lat="29.040136" lon="-13.730116">
        <ele>170.373</ele>
        <time>2018-11-18T15:12:49Z</time>
      </trkpt>
      <trkpt lat="29.039678" lon="-13.730811">
        <ele>175.127</ele>
        <time>2018-11-18T15:14:09Z</time>
      </trkpt>
      <trkpt lat="29.039610" lon="-13.731105">
        <ele>175.121</ele>
        <time>2018-11-18T15:14:30Z</time>
      </trkpt>
      <trkpt lat="29.039357" lon="-13.731331">
        <ele>175.184</ele>
        <time>2018-11-18T15:14:53Z</time>
      </trkpt>
      <trkpt lat="29.039134" lon="-13.732143">
        <ele>175.134</ele>
        <time>2018-11-18T15:16:09Z</time>
      </trkpt>
      <trkpt lat="29.039766" lon="-13.732963">
        <ele>175.155</ele>
        <time>2018-11-18T15:18:48Z</time>
      </trkpt>
      <trkpt lat="29.040467" lon="-13.733403">
        <ele>175.110</ele>
        <time>2018-11-18T15:20:40Z</time>
      </trkpt>
      <trkpt lat="29.040338" lon="-13.733454">
        <ele>175.108</ele>
        <time>2018-11-18T15:21:05Z</time>
      </trkpt>
      <trkpt lat="29.040511" lon="-13.733559">
        <ele>175.136</ele>
        <time>2018-11-18T15:21:33Z</time>
      </trkpt>
      <trkpt lat="29.040845" lon="-13.733559">
        <ele>175.173</ele>
        <time>2018-11-18T15:22:13Z</time>
      </trkpt>
      <trkpt lat="29.041478" lon="-13.733744">
        <ele>175.199</ele>
        <time>2018-11-18T15:40:23Z</time>
      </trkpt>
      <trkpt lat="29.041949" lon="-13.733549">
        <ele>274.189</ele>
        <time>2018-11-18T15:54:12Z</time>
      </trkpt>
      <trkpt lat="29.041619" lon="-13.733853">
        <ele>264.614</ele>
        <time>2018-11-18T15:55:16Z</time>
      </trkpt>
      <trkpt lat="29.041742" lon="-13.733816">
        <ele>255.688</ele>
        <time>2018-11-18T15:55:44Z</time>
      </trkpt>
      <trkpt lat="29.041807" lon="-13.733907">
        <ele>251.462</ele>
        <time>2018-11-18T15:56:12Z</time>
      </trkpt>
      <trkpt lat="29.041679" lon="-13.734138">
        <ele>244.385</ele>
        <time>2018-11-18T15:56:45Z</time>
      </trkpt>
      <trkpt lat="29.041758" lon="-13.734195">
        <ele>241.659</ele>
        <time>2018-11-18T15:56:58Z</time>
      </trkpt>
      <trkpt lat="29.042457" lon="-13.734078">
        <ele>225.903</ele>
        <time>2018-11-18T15:59:16Z</time>
      </trkpt>
      <trkpt lat="29.043156" lon="-13.733729">
        <ele>217.223</ele>
        <time>2018-11-18T16:00:54Z</time>
      </trkpt>
      <trkpt lat="29.043915" lon="-13.733537">
        <ele>211.108</ele>
        <time>2018-11-18T16:03:04Z</time>
      </trkpt>
      <trkpt lat="29.044317" lon="-13.733581">
        <ele>198.448</ele>
        <time>2018-11-18T16:05:58Z</time>
      </trkpt>
      <trkpt lat="29.045276" lon="-13.733352">
        <ele>182.865</ele>
        <time>2018-11-18T16:07:46Z</time>
      </trkpt>
      <trkpt lat="29.045547" lon="-13.733475">
        <ele>174.331</ele>
        <time>2018-11-18T16:08:09Z</time>
      </trkpt>
      <trkpt lat="29.045966" lon="-13.732938">
        <ele>168.451</ele>
        <time>2018-11-18T16:09:19Z</time>
      </trkpt>
      <trkpt lat="29.046422" lon="-13.732028">
        <ele>167.196</ele>
        <time>2018-11-18T16:10:48Z</time>
      </trkpt>
      <trkpt lat="29.046425" lon="-13.731523">
        <ele>169.130</ele>
        <time>2018-11-18T16:14:04Z</time>
      </trkpt>
      <trkpt lat="29.046569" lon="-13.731207">
        <ele>170.884</ele>
        <time>2018-11-18T16:14:32Z</time>
      </trkpt>
      <trkpt lat="29.046629" lon="-13.730672">
        <ele>170.767</ele>
        <time>2018-11-18T16:15:34Z</time>
      </trkpt>
      <trkpt lat="29.046656" lon="-13.729979">
        <ele>170.719</ele>
        <time>2018-11-18T16:16:30Z</time>
      </trkpt>
      <trkpt lat="29.046312" lon="-13.727880">
        <ele>170.709</ele>
        <time>2018-11-18T16:19:10Z</time>
      </trkpt>
      <trkpt lat="29.045735" lon="-13.726510">
        <ele>170.719</ele>
        <time>2018-11-18T16:22:38Z</time>
      </trkpt>
      <trkpt lat="29.044986" lon="-13.725181">
        <ele>170.708</ele>
        <time>2018-11-18T16:24:25Z</time>
      </trkpt>
      <trkpt lat="29.044400" lon="-13.724467">
        <ele>170.764</ele>
        <time>2018-11-18T16:25:38Z</time>
      </trkpt>
      <trkpt lat="29.044339" lon="-13.723161">
        <ele>210.791</ele>
        <time>2018-11-18T16:27:52Z</time>
      </trkpt>
      <trkpt lat="29.044198" lon="-13.722811">
        <ele>213.617</ele>
        <time>2018-11-18T16:28:25Z</time>
      </trkpt>
      <trkpt lat="29.044250" lon="-13.721756">
        <ele>211.167</ele>
        <time>2018-11-18T16:29:48Z</time>
      </trkpt>
      <trkpt lat="29.044118" lon="-13.721324">
        <ele>210.972</ele>
        <time>2018-11-18T16:30:23Z</time>
      </trkpt>
      <trkpt lat="29.043876" lon="-13.721113">
        <ele>213.476</ele>
        <time>2018-11-18T16:30:54Z</time>
      </trkpt>
      <trkpt lat="29.043984" lon="-13.720635">
        <ele>214.020</ele>
        <time>2018-11-18T16:31:40Z</time>
      </trkpt>
      <trkpt lat="29.043771" lon="-13.720219">
        <ele>214.013</ele>
        <time>2018-11-18T16:34:52Z</time>
      </trkpt>
      <trkpt lat="29.043859" lon="-13.718566">
        <ele>219.432</ele>
        <time>2018-11-18T16:41:08Z</time>
      </trkpt>
      <trkpt lat="29.044164" lon="-13.718126">
        <ele>221.592</ele>
        <time>2018-11-18T16:41:50Z</time>
      </trkpt>
      <trkpt lat="29.044489" lon="-13.716993">
        <ele>229.811</ele>
        <time>2018-11-18T16:43:22Z</time>
      </trkpt>
      <trkpt lat="29.044248" lon="-13.716059">
        <ele>236.608</ele>
        <time>2018-11-18T16:44:43Z</time>
      </trkpt>
      <trkpt lat="29.044297" lon="-13.715784">
        <ele>239.656</ele>
        <time>2018-11-18T16:45:08Z</time>
      </trkpt>
      <trkpt lat="29.044168" lon="-13.715068">
        <ele>241.913</ele>
        <time>2018-11-18T16:46:18Z</time>
      </trkpt>
      <trkpt lat="29.044481" lon="-13.714439">
        <ele>241.929</ele>
        <time>2018-11-18T16:47:14Z</time>
      </trkpt>
      <trkpt lat="29.044847" lon="-13.714328">
        <ele>241.959</ele>
        <time>2018-11-18T16:47:47Z</time>
      </trkpt>
      <trkpt lat="29.044980" lon="-13.713738">
        <ele>241.964</ele>
        <time>2018-11-18T16:48:36Z</time>
      </trkpt>
      <trkpt lat="29.045475" lon="-13.712567">
        <ele>241.988</ele>
        <time>2018-11-18T16:50:24Z</time>
      </trkpt>
      <trkpt lat="29.045393" lon="-13.712345">
        <ele>241.972</ele>
        <time>2018-11-18T16:50:43Z</time>
      </trkpt>
      <trkpt lat="29.045139" lon="-13.712162">
        <ele>241.915</ele>
        <time>2018-11-18T16:51:10Z</time>
      </trkpt>
      <trkpt lat="29.045182" lon="-13.711902">
        <ele>241.992</ele>
        <time>2018-11-18T16:51:32Z</time>
      </trkpt>
      <trkpt lat="29.045052" lon="-13.711524">
        <ele>241.973</ele>
        <time>2018-11-18T16:52:07Z</time>
      </trkpt>
      <trkpt lat="29.045118" lon="-13.711369">
        <ele>241.920</ele>
        <time>2018-11-18T16:52:21Z</time>
      </trkpt>
      <trkpt lat="29.044855" lon="-13.710857">
        <ele>241.908</ele>
        <time>2018-11-18T16:53:11Z</time>
      </trkpt>
      <trkpt lat="29.044822" lon="-13.710483">
        <ele>241.912</ele>
        <time>2018-11-18T16:53:39Z</time>
      </trkpt>
      <trkpt lat="29.044612" lon="-13.710368">
        <ele>241.929</ele>
        <time>2018-11-18T16:54:03Z</time>
      </trkpt>
      <trkpt lat="29.044509" lon="-13.709809">
        <ele>241.925</ele>
        <time>2018-11-18T16:54:49Z</time>
      </trkpt>
      <trkpt lat="29.044239" lon="-13.709492">
        <ele>241.935</ele>
        <time>2018-11-18T16:55:22Z</time>
      </trkpt>
      <trkpt lat="29.044289" lon="-13.708539">
        <ele>241.930</ele>
        <time>2018-11-18T16:56:36Z</time>
      </trkpt>
      <trkpt lat="29.044076" lon="-13.708164">
        <ele>241.994</ele>
        <time>2018-11-18T16:57:12Z</time>
      </trkpt>
      <trkpt lat="29.043841" lon="-13.707975">
        <ele>241.918</ele>
        <time>2018-11-18T16:57:43Z</time>
      </trkpt>
      <trkpt lat="29.043839" lon="-13.707375">
        <ele>241.961</ele>
        <time>2018-11-18T16:58:36Z</time>
      </trkpt>
      <trkpt lat="29.043548" lon="-13.706292">
        <ele>241.959</ele>
        <time>2018-11-18T17:00:07Z</time>
      </trkpt>
      <trkpt lat="29.043731" lon="-13.705970">
        <ele>241.903</ele>
        <time>2018-11-18T17:00:34Z</time>
      </trkpt>
      <trkpt lat="29.043559" lon="-13.705774">
        <ele>241.923</ele>
        <time>2018-11-18T17:00:57Z</time>
      </trkpt>
      <trkpt lat="29.043755" lon="-13.705642">
        <ele>241.908</ele>
        <time>2018-11-18T17:01:18Z</time>
      </trkpt>
      <trkpt lat="29.043673" lon="-13.705028">
        <ele>241.918</ele>
        <time>2018-11-18T17:02:07Z</time>
      </trkpt>
      <trkpt lat="29.043804" lon="-13.704929">
        <ele>241.955</ele>
        <time>2018-11-18T17:02:22Z</time>
      </trkpt>
      <trkpt lat="29.043859" lon="-13.704635">
        <ele>241.991</ele>
        <time>2018-11-18T17:02:49Z</time>
      </trkpt>
      <trkpt lat="29.043933" lon="-13.702346">
        <ele>241.971</ele>
        <time>2018-11-18T17:05:55Z</time>
      </trkpt>
      <trkpt lat="29.043730" lon="-13.701129">
        <ele>241.936</ele>
        <time>2018-11-18T17:11:37Z</time>
      </trkpt>
      <trkpt lat="29.043969" lon="-13.699955">
        <ele>241.980</ele>
        <time>2018-11-18T17:13:03Z</time>
      </trkpt>
      <trkpt lat="29.043929" lon="-13.699067">
        <ele>263.344</ele>
        <time>2018-11-18T17:14:03Z</time>
      </trkpt>
      <trkpt lat="29.043731" lon="-13.698522">
        <ele>260.677</ele>
        <time>2018-11-18T17:14:43Z</time>
      </trkpt>
      <trkpt lat="29.043597" lon="-13.697596">
        <ele>264.994</ele>
        <time>2018-11-18T17:15:56Z</time>
      </trkpt>
      <trkpt lat="29.043822" lon="-13.696711">
        <ele>265.257</ele>
        <time>2018-11-18T17:17:02Z</time>
      </trkpt>
      <trkpt lat="29.043507" lon="-13.694953">
        <ele>264.022</ele>
        <time>2018-11-18T17:19:33Z</time>
      </trkpt>
      <trkpt lat="29.043459" lon="-13.693563">
        <ele>263.208</ele>
        <time>2018-11-18T17:22:54Z</time>
      </trkpt>
      <trkpt lat="29.043686" lon="-13.692988">
        <ele>263.292</ele>
        <time>2018-11-18T17:23:44Z</time>
      </trkpt>
      <trkpt lat="29.043873" lon="-13.691991">
        <ele>263.219</ele>
        <time>2018-11-18T17:26:45Z</time>
      </trkpt>
    </trkseg>
  </trk></gpx>