<?xml version="1.0" encoding="UTF-8"?>
<gpx creator="Wikiloc - https://www.wikiloc.com" version="1.1" xmlns="http://www.topografix.com/GPX/1/1" xmlns:xsi="http://www.w3.org/2001/XMLSchema-instance" xsi:schemaLocation="http://www.topografix.com/GPX/1/1 http://www.topografix.com/GPX/1/1/gpx.xsd">
  <metadata>
    <name>Wikiloc - GC 24/47 Caldera de Los Marteles - Roque Grande - SL GC 01 -...</name>
    <link href="https://www.wikiloc.com/hiking-trails/cueva-con-manantial-von-mirador-caldera-de-los-marteles-190445449">
      <text>GC 24/47 Caldera de Los Marteles - Roque Grande - SL GC 01 -... on Wikiloc</text>
    </link>
    <time>2024-11-02T15:02:18.998Z</time>
  </metadata>
  <trk>
    <name>GC 24/47 Caldera de Los Marteles - Roque Grande - SL GC 01 -... - Wikiloc</name>
    <cmt></cmt>
    <desc></desc>
    <trkseg>
      <trkpt lat="27.961010" lon="-15.535137">
        <ele>1525.962</ele>
        <time>2024-11-02T08:54:00.001Z</time>
      </trkpt>
      <trkpt lat="27.960939" lon="-15.535520">
        <ele>1529.483</ele>
        <time>2024-11-02T08:55:49.003Z</time>
      </trkpt>
      <trkpt lat="27.961035" lon="-15.536037">
        <ele>1525.211</ele>
        <time>2024-11-02T08:56:33.003Z</time>
      </trkpt>
      <trkpt lat="27.961136" lon="-15.535477">
        <ele>1524.409</ele>
        <time>2024-11-02T08:57:20.003Z</time>
      </trkpt>
      <trkpt lat="27.961643" lon="-15.534782">
        <ele>1505.987</ele>
        <time>2024-11-02T08:58:51.003Z</time>
      </trkpt>
      <trkpt lat="27.961518" lon="-15.534210">
        <ele>1498.325</ele>
        <time>2024-11-02T09:00:27.003Z</time>
      </trkpt>
      <trkpt lat="27.961580" lon="-15.533851">
        <ele>1494.996</ele>
        <time>2024-11-02T09:01:05.003Z</time>
      </trkpt>
      <trkpt lat="27.961549" lon="-15.533955">
        <ele>1493.690</ele>
        <time>2024-11-02T09:01:21.003Z</time>
      </trkpt>
      <trkpt lat="27.961797" lon="-15.534316">
        <ele>1489.190</ele>
        <time>2024-11-02T09:01:59.003Z</time>
      </trkpt>
      <trkpt lat="27.962052" lon="-15.534386">
        <ele>1482.641</ele>
        <time>2024-11-02T09:02:23.003Z</time>
      </trkpt>
      <trkpt lat="27.962113" lon="-15.534529">
        <ele>1478.890</ele>
        <time>2024-11-02T09:02:40.003Z</time>
      </trkpt>
      <trkpt lat="27.962229" lon="-15.535459">
        <ele>1463.680</ele>
        <time>2024-11-02T09:04:31.003Z</time>
      </trkpt>
      <trkpt lat="27.962815" lon="-15.535214">
        <ele>1464.765</ele>
        <time>2024-11-02T09:05:42.003Z</time>
      </trkpt>
      <trkpt lat="27.962951" lon="-15.535015">
        <ele>1463.721</ele>
        <time>2024-11-02T09:05:59.003Z</time>
      </trkpt>
      <trkpt lat="27.962848" lon="-15.535068">
        <ele>1460.941</ele>
        <time>2024-11-02T09:06:06.003Z</time>
      </trkpt>
      <trkpt lat="27.962910" lon="-15.535171">
        <ele>1460.905</ele>
        <time>2024-11-02T09:06:14.003Z</time>
      </trkpt>
      <trkpt lat="27.963044" lon="-15.534955">
        <ele>1464.009</ele>
        <time>2024-11-02T09:06:30.003Z</time>
      </trkpt>
      <trkpt lat="27.963557" lon="-15.534689">
        <ele>1462.553</ele>
        <time>2024-11-02T09:07:52.003Z</time>
      </trkpt>
      <trkpt lat="27.963748" lon="-15.534402">
        <ele>1463.851</ele>
        <time>2024-11-02T09:08:28.003Z</time>
      </trkpt>
      <trkpt lat="27.964386" lon="-15.534328">
        <ele>1468.572</ele>
        <time>2024-11-02T09:09:47.003Z</time>
      </trkpt>
      <trkpt lat="27.964533" lon="-15.533978">
        <ele>1466.916</ele>
        <time>2024-11-02T09:11:37.003Z</time>
      </trkpt>
      <trkpt lat="27.964663" lon="-15.533906">
        <ele>1461.816</ele>
        <time>2024-11-02T09:11:56.003Z</time>
      </trkpt>
      <trkpt lat="27.965183" lon="-15.534090">
        <ele>1452.457</ele>
        <time>2024-11-02T09:13:32.003Z</time>
      </trkpt>
      <trkpt lat="27.965258" lon="-15.534349">
        <ele>1449.556</ele>
        <time>2024-11-02T09:14:00.003Z</time>
      </trkpt>
      <trkpt lat="27.965454" lon="-15.534387">
        <ele>1452.766</ele>
        <time>2024-11-02T09:14:23.003Z</time>
      </trkpt>
      <trkpt lat="27.965583" lon="-15.534552">
        <ele>1451.191</ele>
        <time>2024-11-02T09:14:49.003Z</time>
      </trkpt>
      <trkpt lat="27.966026" lon="-15.534741">
        <ele>1452.388</ele>
        <time>2024-11-02T09:15:58.003Z</time>
      </trkpt>
      <trkpt lat="27.966239" lon="-15.534710">
        <ele>1453.324</ele>
        <time>2024-11-02T09:16:31.003Z</time>
      </trkpt>
      <trkpt lat="27.966161" lon="-15.534021">
        <ele>1435.526</ele>
        <time>2024-11-02T09:18:04.003Z</time>
      </trkpt>
      <trkpt lat="27.966407" lon="-15.533560">
        <ele>1428.809</ele>
        <time>2024-11-02T09:19:03.002Z</time>
      </trkpt>
      <trkpt lat="27.966678" lon="-15.533288">
        <ele>1424.989</ele>
        <time>2024-11-02T09:19:47.002Z</time>
      </trkpt>
      <trkpt lat="27.966691" lon="-15.532373">
        <ele>1427.657</ele>
        <time>2024-11-02T09:21:31.001Z</time>
      </trkpt>
      <trkpt lat="27.966838" lon="-15.532182">
        <ele>1428.688</ele>
        <time>2024-11-02T09:22:20.001Z</time>
      </trkpt>
      <trkpt lat="27.966765" lon="-15.532263">
        <ele>1428.422</ele>
        <time>2024-11-02T09:22:37.001Z</time>
      </trkpt>
      <trkpt lat="27.966834" lon="-15.531598">
        <ele>1423.012</ele>
        <time>2024-11-02T09:24:36Z</time>
      </trkpt>
      <trkpt lat="27.966738" lon="-15.530966">
        <ele>1407.833</ele>
        <time>2024-11-02T09:26:44.999Z</time>
      </trkpt>
      <trkpt lat="27.967043" lon="-15.530443">
        <ele>1387.212</ele>
        <time>2024-11-02T09:29:55.997Z</time>
      </trkpt>
      <trkpt lat="27.967120" lon="-15.529937">
        <ele>1378.022</ele>
        <time>2024-11-02T09:31:13.996Z</time>
      </trkpt>
      <trkpt lat="27.967161" lon="-15.530030">
        <ele>1377.287</ele>
        <time>2024-11-02T09:32:02.996Z</time>
      </trkpt>
      <trkpt lat="27.967274" lon="-15.529863">
        <ele>1368.014</ele>
        <time>2024-11-02T09:32:42.996Z</time>
      </trkpt>
      <trkpt lat="27.967489" lon="-15.529772">
        <ele>1362.854</ele>
        <time>2024-11-02T09:33:30.995Z</time>
      </trkpt>
      <trkpt lat="27.967717" lon="-15.529511">
        <ele>1353.109</ele>
        <time>2024-11-02T09:34:50.995Z</time>
      </trkpt>
      <trkpt lat="27.967899" lon="-15.528996">
        <ele>1339.609</ele>
        <time>2024-11-02T09:36:20.994Z</time>
      </trkpt>
      <trkpt lat="27.968162" lon="-15.528869">
        <ele>1330.472</ele>
        <time>2024-11-02T09:37:34.993Z</time>
      </trkpt>
      <trkpt lat="27.968373" lon="-15.528841">
        <ele>1320.760</ele>
        <time>2024-11-02T09:38:44.993Z</time>
      </trkpt>
      <trkpt lat="27.968428" lon="-15.528983">
        <ele>1315.231</ele>
        <time>2024-11-02T09:39:55.992Z</time>
      </trkpt>
      <trkpt lat="27.968582" lon="-15.528882">
        <ele>1311.295</ele>
        <time>2024-11-02T09:40:39.992Z</time>
      </trkpt>
      <trkpt lat="27.968690" lon="-15.529011">
        <ele>1305.085</ele>
        <time>2024-11-02T09:41:35.991Z</time>
      </trkpt>
      <trkpt lat="27.968794" lon="-15.528799">
        <ele>1300.296</ele>
        <time>2024-11-02T09:42:44.991Z</time>
      </trkpt>
      <trkpt lat="27.969057" lon="-15.529191">
        <ele>1288.475</ele>
        <time>2024-11-02T09:44:01.990Z</time>
      </trkpt>
      <trkpt lat="27.969142" lon="-15.529504">
        <ele>1280.065</ele>
        <time>2024-11-02T09:44:37.990Z</time>
      </trkpt>
      <trkpt lat="27.968762" lon="-15.529507">
        <ele>1278.480</ele>
        <time>2024-11-02T09:45:58.988Z</time>
      </trkpt>
      <trkpt lat="27.968741" lon="-15.530224">
        <ele>1269.528</ele>
        <time>2024-11-02T09:51:17.987Z</time>
      </trkpt>
      <trkpt lat="27.968918" lon="-15.530253">
        <ele>1270.289</ele>
        <time>2024-11-02T09:52:08.986Z</time>
      </trkpt>
      <trkpt lat="27.969253" lon="-15.530590">
        <ele>1258.817</ele>
        <time>2024-11-02T09:53:07.986Z</time>
      </trkpt>
      <trkpt lat="27.969599" lon="-15.530530">
        <ele>1243.909</ele>
        <time>2024-11-02T09:55:09.985Z</time>
      </trkpt>
      <trkpt lat="27.969780" lon="-15.530817">
        <ele>1236.893</ele>
        <time>2024-11-02T09:55:48.985Z</time>
      </trkpt>
      <trkpt lat="27.969913" lon="-15.530804">
        <ele>1236.411</ele>
        <time>2024-11-02T09:56:04.985Z</time>
      </trkpt>
      <trkpt lat="27.970102" lon="-15.531150">
        <ele>1236.482</ele>
        <time>2024-11-02T09:56:51.984Z</time>
      </trkpt>
      <trkpt lat="27.970317" lon="-15.531239">
        <ele>1236.996</ele>
        <time>2024-11-02T10:00:39.983Z</time>
      </trkpt>
      <trkpt lat="27.970549" lon="-15.531059">
        <ele>1234.936</ele>
        <time>2024-11-02T10:01:22.983Z</time>
      </trkpt>
      <trkpt lat="27.970662" lon="-15.531274">
        <ele>1240.097</ele>
        <time>2024-11-02T10:02:25.983Z</time>
      </trkpt>
      <trkpt lat="27.971230" lon="-15.531073">
        <ele>1246.476</ele>
        <time>2024-11-02T10:04:33.982Z</time>
      </trkpt>
      <trkpt lat="27.971347" lon="-15.531174">
        <ele>1241.966</ele>
        <time>2024-11-02T10:04:56.981Z</time>
      </trkpt>
      <trkpt lat="27.971312" lon="-15.530910">
        <ele>1237.791</ele>
        <time>2024-11-02T10:05:42.981Z</time>
      </trkpt>
      <trkpt lat="27.971426" lon="-15.530862">
        <ele>1233.253</ele>
        <time>2024-11-02T10:06:21.981Z</time>
      </trkpt>
      <trkpt lat="27.971432" lon="-15.530760">
        <ele>1229.904</ele>
        <time>2024-11-02T10:06:44.980Z</time>
      </trkpt>
      <trkpt lat="27.971559" lon="-15.530663">
        <ele>1221.414</ele>
        <time>2024-11-02T10:07:33.980Z</time>
      </trkpt>
      <trkpt lat="27.971651" lon="-15.530787">
        <ele>1216.209</ele>
        <time>2024-11-02T10:08:13.980Z</time>
      </trkpt>
      <trkpt lat="27.971843" lon="-15.530284">
        <ele>1201.126</ele>
        <time>2024-11-02T10:09:57.979Z</time>
      </trkpt>
      <trkpt lat="27.971958" lon="-15.530305">
        <ele>1195.484</ele>
        <time>2024-11-02T10:10:33.979Z</time>
      </trkpt>
      <trkpt lat="27.972062" lon="-15.530145">
        <ele>1191.435</ele>
        <time>2024-11-02T10:11:24.978Z</time>
      </trkpt>
      <trkpt lat="27.972168" lon="-15.530172">
        <ele>1186.199</ele>
        <time>2024-11-02T10:11:51.978Z</time>
      </trkpt>
      <trkpt lat="27.972106" lon="-15.530026">
        <ele>1182.279</ele>
        <time>2024-11-02T10:12:11.978Z</time>
      </trkpt>
      <trkpt lat="27.972209" lon="-15.530047">
        <ele>1178.620</ele>
        <time>2024-11-02T10:12:37.978Z</time>
      </trkpt>
      <trkpt lat="27.972254" lon="-15.529954">
        <ele>1176.559</ele>
        <time>2024-11-02T10:12:56.978Z</time>
      </trkpt>
      <trkpt lat="27.972171" lon="-15.529826">
        <ele>1170.299</ele>
        <time>2024-11-02T10:13:27.977Z</time>
      </trkpt>
      <trkpt lat="27.972370" lon="-15.529800">
        <ele>1162.864</ele>
        <time>2024-11-02T10:14:10.977Z</time>
      </trkpt>
      <trkpt lat="27.972472" lon="-15.529912">
        <ele>1159.895</ele>
        <time>2024-11-02T10:14:36.977Z</time>
      </trkpt>
      <trkpt lat="27.972647" lon="-15.529893">
        <ele>1154.449</ele>
        <time>2024-11-02T10:15:24.976Z</time>
      </trkpt>
      <trkpt lat="27.972738" lon="-15.529975">
        <ele>1147.623</ele>
        <time>2024-11-02T10:16:26.976Z</time>
      </trkpt>
      <trkpt lat="27.972815" lon="-15.529784">
        <ele>1142.009</ele>
        <time>2024-11-02T10:17:15.975Z</time>
      </trkpt>
      <trkpt lat="27.972961" lon="-15.529775">
        <ele>1138.090</ele>
        <time>2024-11-02T10:18:04.975Z</time>
      </trkpt>
      <trkpt lat="27.973017" lon="-15.529996">
        <ele>1131.358</ele>
        <time>2024-11-02T10:18:46.975Z</time>
      </trkpt>
      <trkpt lat="27.973240" lon="-15.529654">
        <ele>1119.079</ele>
        <time>2024-11-02T10:20:12.974Z</time>
      </trkpt>
      <trkpt lat="27.973393" lon="-15.529718">
        <ele>1113.313</ele>
        <time>2024-11-02T10:20:55.974Z</time>
      </trkpt>
      <trkpt lat="27.973475" lon="-15.529448">
        <ele>1104.993</ele>
        <time>2024-11-02T10:22:05.973Z</time>
      </trkpt>
      <trkpt lat="27.973499" lon="-15.529534">
        <ele>1103.084</ele>
        <time>2024-11-02T10:22:13.973Z</time>
      </trkpt>
      <trkpt lat="27.973583" lon="-15.529422">
        <ele>1100.693</ele>
        <time>2024-11-02T10:22:31.973Z</time>
      </trkpt>
      <trkpt lat="27.973637" lon="-15.529518">
        <ele>1099.263</ele>
        <time>2024-11-02T10:22:45.973Z</time>
      </trkpt>
      <trkpt lat="27.973691" lon="-15.529339">
        <ele>1092.648</ele>
        <time>2024-11-02T10:23:13.973Z</time>
      </trkpt>
      <trkpt lat="27.973784" lon="-15.529411">
        <ele>1088.879</ele>
        <time>2024-11-02T10:23:39.972Z</time>
      </trkpt>
      <trkpt lat="27.973758" lon="-15.529227">
        <ele>1087.205</ele>
        <time>2024-11-02T10:23:50.972Z</time>
      </trkpt>
      <trkpt lat="27.973904" lon="-15.529305">
        <ele>1082.625</ele>
        <time>2024-11-02T10:24:19.972Z</time>
      </trkpt>
      <trkpt lat="27.974055" lon="-15.529030">
        <ele>1073.509</ele>
        <time>2024-11-02T10:26:48.972Z</time>
      </trkpt>
      <trkpt lat="27.974226" lon="-15.529421">
        <ele>1068.568</ele>
        <time>2024-11-02T10:27:50.971Z</time>
      </trkpt>
      <trkpt lat="27.974621" lon="-15.529718">
        <ele>1059.216</ele>
        <time>2024-11-02T10:29:02.971Z</time>
      </trkpt>
      <trkpt lat="27.975149" lon="-15.530701">
        <ele>1056.587</ele>
        <time>2024-11-02T10:31:38.970Z</time>
      </trkpt>
      <trkpt lat="27.975485" lon="-15.530743">
        <ele>1045.331</ele>
        <time>2024-11-02T10:32:14.969Z</time>
      </trkpt>
      <trkpt lat="27.975902" lon="-15.530984">
        <ele>1041.451</ele>
        <time>2024-11-02T10:33:35.969Z</time>
      </trkpt>
      <trkpt lat="27.975819" lon="-15.530938">
        <ele>1040.792</ele>
        <time>2024-11-02T10:34:37.968Z</time>
      </trkpt>
      <trkpt lat="27.975936" lon="-15.530460">
        <ele>1034.971</ele>
        <time>2024-11-02T10:36:12.967Z</time>
      </trkpt>
      <trkpt lat="27.976210" lon="-15.530228">
        <ele>1033.771</ele>
        <time>2024-11-02T10:37:45.967Z</time>
      </trkpt>
      <trkpt lat="27.976368" lon="-15.529903">
        <ele>1027.936</ele>
        <time>2024-11-02T10:39:01.966Z</time>
      </trkpt>
      <trkpt lat="27.976679" lon="-15.529647">
        <ele>1017.595</ele>
        <time>2024-11-02T10:39:45.966Z</time>
      </trkpt>
      <trkpt lat="27.976837" lon="-15.529639">
        <ele>1013.649</ele>
        <time>2024-11-02T10:40:02.966Z</time>
      </trkpt>
      <trkpt lat="27.977126" lon="-15.529254">
        <ele>1002.823</ele>
        <time>2024-11-02T10:40:57.966Z</time>
      </trkpt>
      <trkpt lat="27.977389" lon="-15.529362">
        <ele>996.909</ele>
        <time>2024-11-02T10:41:29.966Z</time>
      </trkpt>
      <trkpt lat="27.977472" lon="-15.529203">
        <ele>996.240</ele>
        <time>2024-11-02T10:41:42.966Z</time>
      </trkpt>
      <trkpt lat="27.977444" lon="-15.529021">
        <ele>992.918</ele>
        <time>2024-11-02T10:42:08.966Z</time>
      </trkpt>
      <trkpt lat="27.977728" lon="-15.528876">
        <ele>988.869</ele>
        <time>2024-11-02T10:43:16.966Z</time>
      </trkpt>
      <trkpt lat="27.977757" lon="-15.529001">
        <ele>988.893</ele>
        <time>2024-11-02T10:45:40.966Z</time>
      </trkpt>
      <trkpt lat="27.977639" lon="-15.528919">
        <ele>988.043</ele>
        <time>2024-11-02T10:46:06.966Z</time>
      </trkpt>
      <trkpt lat="27.977422" lon="-15.529008">
        <ele>989.034</ele>
        <time>2024-11-02T10:46:33.966Z</time>
      </trkpt>
      <trkpt lat="27.977372" lon="-15.529321">
        <ele>991.893</ele>
        <time>2024-11-02T10:47:17.966Z</time>
      </trkpt>
      <trkpt lat="27.977050" lon="-15.529256">
        <ele>999.483</ele>
        <time>2024-11-02T10:48:02.966Z</time>
      </trkpt>
      <trkpt lat="27.976842" lon="-15.529610">
        <ele>1003.478</ele>
        <time>2024-11-02T10:48:58.966Z</time>
      </trkpt>
      <trkpt lat="27.976696" lon="-15.529623">
        <ele>1008.176</ele>
        <time>2024-11-02T10:49:22.966Z</time>
      </trkpt>
      <trkpt lat="27.976402" lon="-15.529899">
        <ele>1015.090</ele>
        <time>2024-11-02T10:50:18.966Z</time>
      </trkpt>
      <trkpt lat="27.976301" lon="-15.529762">
        <ele>1019.719</ele>
        <time>2024-11-02T10:50:36.966Z</time>
      </trkpt>
      <trkpt lat="27.976276" lon="-15.529384">
        <ele>1017.809</ele>
        <time>2024-11-02T10:52:10.966Z</time>
      </trkpt>
      <trkpt lat="27.976498" lon="-15.529267">
        <ele>1014.878</ele>
        <time>2024-11-02T10:52:41.966Z</time>
      </trkpt>
      <trkpt lat="27.976495" lon="-15.529160">
        <ele>1012.896</ele>
        <time>2024-11-02T10:52:51.966Z</time>
      </trkpt>
      <trkpt lat="27.976380" lon="-15.528964">
        <ele>1007.577</ele>
        <time>2024-11-02T10:53:10.966Z</time>
      </trkpt>
      <trkpt lat="27.976179" lon="-15.527891">
        <ele>1001.421</ele>
        <time>2024-11-02T10:54:46.966Z</time>
      </trkpt>
      <trkpt lat="27.976215" lon="-15.527747">
        <ele>999.641</ele>
        <time>2024-11-02T10:55:08.966Z</time>
      </trkpt>
      <trkpt lat="27.976449" lon="-15.527734">
        <ele>994.662</ele>
        <time>2024-11-02T10:55:42.966Z</time>
      </trkpt>
      <trkpt lat="27.976167" lon="-15.527766">
        <ele>996.731</ele>
        <time>2024-11-02T10:56:56.966Z</time>
      </trkpt>
      <trkpt lat="27.975664" lon="-15.528090">
        <ele>1000.191</ele>
        <time>2024-11-02T10:59:29.966Z</time>
      </trkpt>
      <trkpt lat="27.975578" lon="-15.528053">
        <ele>1001.426</ele>
        <time>2024-11-02T10:59:41.966Z</time>
      </trkpt>
      <trkpt lat="27.975588" lon="-15.527895">
        <ele>1002.149</ele>
        <time>2024-11-02T11:01:14.966Z</time>
      </trkpt>
      <trkpt lat="27.975444" lon="-15.527685">
        <ele>997.802</ele>
        <time>2024-11-02T11:01:41.966Z</time>
      </trkpt>
      <trkpt lat="27.975451" lon="-15.527474">
        <ele>995.922</ele>
        <time>2024-11-02T11:02:02.966Z</time>
      </trkpt>
      <trkpt lat="27.975533" lon="-15.527406">
        <ele>993.709</ele>
        <time>2024-11-02T11:02:20.966Z</time>
      </trkpt>
      <trkpt lat="27.975721" lon="-15.527423">
        <ele>989.975</ele>
        <time>2024-11-02T11:02:44.966Z</time>
      </trkpt>
      <trkpt lat="27.975830" lon="-15.527614">
        <ele>985.653</ele>
        <time>2024-11-02T11:03:24.966Z</time>
      </trkpt>
      <trkpt lat="27.975928" lon="-15.527559">
        <ele>984.044</ele>
        <time>2024-11-02T11:03:40.966Z</time>
      </trkpt>
      <trkpt lat="27.976045" lon="-15.526873">
        <ele>970.968</ele>
        <time>2024-11-02T11:04:56.966Z</time>
      </trkpt>
      <trkpt lat="27.977072" lon="-15.525281">
        <ele>935.848</ele>
        <time>2024-11-02T11:08:40.966Z</time>
      </trkpt>
      <trkpt lat="27.977396" lon="-15.524600">
        <ele>929.819</ele>
        <time>2024-11-02T11:10:14.966Z</time>
      </trkpt>
      <trkpt lat="27.977382" lon="-15.524332">
        <ele>925.718</ele>
        <time>2024-11-02T11:10:32.966Z</time>
      </trkpt>
      <trkpt lat="27.977633" lon="-15.524075">
        <ele>919.458</ele>
        <time>2024-11-02T11:11:33.966Z</time>
      </trkpt>
      <trkpt lat="27.978302" lon="-15.524201">
        <ele>918.593</ele>
        <time>2024-11-02T11:12:50.966Z</time>
      </trkpt>
      <trkpt lat="27.978903" lon="-15.524134">
        <ele>909.355</ele>
        <time>2024-11-02T11:13:56.966Z</time>
      </trkpt>
      <trkpt lat="27.979483" lon="-15.523801">
        <ele>896.407</ele>
        <time>2024-11-02T11:15:35.966Z</time>
      </trkpt>
      <trkpt lat="27.980001" lon="-15.523841">
        <ele>892.717</ele>
        <time>2024-11-02T11:16:25.966Z</time>
      </trkpt>
      <trkpt lat="27.980584" lon="-15.523709">
        <ele>883.809</ele>
        <time>2024-11-02T11:17:36.966Z</time>
      </trkpt>
      <trkpt lat="27.980874" lon="-15.523824">
        <ele>877.956</ele>
        <time>2024-11-02T11:18:59.966Z</time>
      </trkpt>
      <trkpt lat="27.981184" lon="-15.523567">
        <ele>866.974</ele>
        <time>2024-11-02T11:20:13.966Z</time>
      </trkpt>
      <trkpt lat="27.981666" lon="-15.523447">
        <ele>862.925</ele>
        <time>2024-11-02T11:21:10.966Z</time>
      </trkpt>
      <trkpt lat="27.981983" lon="-15.523040">
        <ele>856.679</ele>
        <time>2024-11-02T11:22:10.966Z</time>
      </trkpt>
      <trkpt lat="27.982862" lon="-15.522341">
        <ele>837.059</ele>
        <time>2024-11-02T11:24:45.966Z</time>
      </trkpt>
      <trkpt lat="27.983417" lon="-15.522310">
        <ele>829.880</ele>
        <time>2024-11-02T11:25:48.966Z</time>
      </trkpt>
      <trkpt lat="27.983982" lon="-15.522077">
        <ele>818.339</ele>
        <time>2024-11-02T11:26:55.965Z</time>
      </trkpt>
      <trkpt lat="27.984718" lon="-15.520946">
        <ele>799.859</ele>
        <time>2024-11-02T11:29:38.964Z</time>
      </trkpt>
      <trkpt lat="27.984945" lon="-15.520839">
        <ele>796.654</ele>
        <time>2024-11-02T11:30:19.964Z</time>
      </trkpt>
      <trkpt lat="27.985102" lon="-15.521054">
        <ele>793.356</ele>
        <time>2024-11-02T11:31:24.963Z</time>
      </trkpt>
      <trkpt lat="27.985090" lon="-15.520739">
        <ele>794.559</ele>
        <time>2024-11-02T11:32:45.963Z</time>
      </trkpt>
      <trkpt lat="27.984952" lon="-15.520683">
        <ele>792.014</ele>
        <time>2024-11-02T11:32:59.962Z</time>
      </trkpt>
      <trkpt lat="27.984548" lon="-15.520887">
        <ele>788.909</ele>
        <time>2024-11-02T11:33:38.962Z</time>
      </trkpt>
      <trkpt lat="27.984162" lon="-15.520962">
        <ele>790.596</ele>
        <time>2024-11-02T11:34:20.962Z</time>
      </trkpt>
      <trkpt lat="27.983709" lon="-15.520823">
        <ele>788.444</ele>
        <time>2024-11-02T11:35:04.962Z</time>
      </trkpt>
      <trkpt lat="27.983485" lon="-15.520673">
        <ele>787.415</ele>
        <time>2024-11-02T11:35:30.962Z</time>
      </trkpt>
      <trkpt lat="27.983463" lon="-15.520494">
        <ele>786.979</ele>
        <time>2024-11-02T11:35:45.962Z</time>
      </trkpt>
      <trkpt lat="27.983587" lon="-15.520392">
        <ele>784.419</ele>
        <time>2024-11-02T11:36:01.962Z</time>
      </trkpt>
      <trkpt lat="27.983947" lon="-15.520385">
        <ele>781.750</ele>
        <time>2024-11-02T11:37:18.962Z</time>
      </trkpt>
      <trkpt lat="27.984014" lon="-15.520161">
        <ele>783.929</ele>
        <time>2024-11-02T11:39:55.962Z</time>
      </trkpt>
      <trkpt lat="27.983689" lon="-15.520209">
        <ele>790.729</ele>
        <time>2024-11-02T11:41:40.961Z</time>
      </trkpt>
      <trkpt lat="27.983764" lon="-15.520076">
        <ele>794.244</ele>
        <time>2024-11-02T11:42:12.961Z</time>
      </trkpt>
      <trkpt lat="27.983704" lon="-15.519819">
        <ele>803.299</ele>
        <time>2024-11-02T11:43:28.960Z</time>
      </trkpt>
      <trkpt lat="27.983563" lon="-15.520006">
        <ele>806.207</ele>
        <time>2024-11-02T11:44:41.960Z</time>
      </trkpt>
      <trkpt lat="27.983158" lon="-15.519812">
        <ele>807.327</ele>
        <time>2024-11-02T11:45:58.959Z</time>
      </trkpt>
      <trkpt lat="27.982626" lon="-15.519764">
        <ele>808.709</ele>
        <time>2024-11-02T11:46:56.959Z</time>
      </trkpt>
      <trkpt lat="27.982278" lon="-15.519905">
        <ele>814.780</ele>
        <time>2024-11-02T11:47:50.958Z</time>
      </trkpt>
      <trkpt lat="27.981544" lon="-15.519789">
        <ele>829.918</ele>
        <time>2024-11-02T11:50:28.957Z</time>
      </trkpt>
      <trkpt lat="27.981408" lon="-15.519964">
        <ele>833.479</ele>
        <time>2024-11-02T11:51:52.956Z</time>
      </trkpt>
      <trkpt lat="27.981198" lon="-15.520049">
        <ele>839.183</ele>
        <time>2024-11-02T11:52:21.956Z</time>
      </trkpt>
      <trkpt lat="27.981214" lon="-15.520248">
        <ele>842.143</ele>
        <time>2024-11-02T11:52:49.956Z</time>
      </trkpt>
      <trkpt lat="27.981026" lon="-15.520168">
        <ele>846.744</ele>
        <time>2024-11-02T11:54:32.956Z</time>
      </trkpt>
      <trkpt lat="27.980459" lon="-15.520347">
        <ele>856.343</ele>
        <time>2024-11-02T11:58:16.956Z</time>
      </trkpt>
      <trkpt lat="27.979685" lon="-15.520813">
        <ele>881.293</ele>
        <time>2024-11-02T12:01:52.955Z</time>
      </trkpt>
      <trkpt lat="27.979244" lon="-15.520797">
        <ele>895.148</ele>
        <time>2024-11-02T12:03:57.954Z</time>
      </trkpt>
      <trkpt lat="27.979178" lon="-15.520939">
        <ele>896.994</ele>
        <time>2024-11-02T12:04:31.953Z</time>
      </trkpt>
      <trkpt lat="27.979087" lon="-15.520895">
        <ele>898.057</ele>
        <time>2024-11-02T12:05:02.953Z</time>
      </trkpt>
      <trkpt lat="27.979020" lon="-15.520976">
        <ele>900.822</ele>
        <time>2024-11-02T12:05:20.953Z</time>
      </trkpt>
      <trkpt lat="27.978839" lon="-15.520857">
        <ele>905.109</ele>
        <time>2024-11-02T12:06:20.953Z</time>
      </trkpt>
      <trkpt lat="27.978648" lon="-15.520913">
        <ele>911.270</ele>
        <time>2024-11-02T12:07:07.952Z</time>
      </trkpt>
      <trkpt lat="27.978559" lon="-15.520849">
        <ele>914.338</ele>
        <time>2024-11-02T12:07:29.952Z</time>
      </trkpt>
      <trkpt lat="27.978458" lon="-15.520964">
        <ele>917.479</ele>
        <time>2024-11-02T12:08:00.952Z</time>
      </trkpt>
      <trkpt lat="27.978168" lon="-15.520974">
        <ele>926.823</ele>
        <time>2024-11-02T12:09:27.951Z</time>
      </trkpt>
      <trkpt lat="27.978139" lon="-15.520873">
        <ele>929.293</ele>
        <time>2024-11-02T12:09:40.951Z</time>
      </trkpt>
      <trkpt lat="27.977929" lon="-15.521054">
        <ele>931.294</ele>
        <time>2024-11-02T12:10:45.950Z</time>
      </trkpt>
      <trkpt lat="27.977853" lon="-15.520919">
        <ele>937.183</ele>
        <time>2024-11-02T12:11:19.950Z</time>
      </trkpt>
      <trkpt lat="27.977768" lon="-15.521032">
        <ele>938.013</ele>
        <time>2024-11-02T12:12:00.950Z</time>
      </trkpt>
      <trkpt lat="27.977717" lon="-15.520932">
        <ele>939.728</ele>
        <time>2024-11-02T12:12:27.950Z</time>
      </trkpt>
      <trkpt lat="27.977618" lon="-15.521035">
        <ele>943.096</ele>
        <time>2024-11-02T12:12:52.949Z</time>
      </trkpt>
      <trkpt lat="27.977566" lon="-15.520899">
        <ele>945.031</ele>
        <time>2024-11-02T12:13:17.949Z</time>
      </trkpt>
      <trkpt lat="27.977484" lon="-15.521019">
        <ele>948.224</ele>
        <time>2024-11-02T12:13:43.949Z</time>
      </trkpt>
      <trkpt lat="27.977456" lon="-15.520909">
        <ele>949.009</ele>
        <time>2024-11-02T12:14:05.949Z</time>
      </trkpt>
      <trkpt lat="27.977344" lon="-15.520848">
        <ele>952.190</ele>
        <time>2024-11-02T12:14:45.949Z</time>
      </trkpt>
      <trkpt lat="27.977267" lon="-15.520951">
        <ele>956.368</ele>
        <time>2024-11-02T12:15:12.949Z</time>
      </trkpt>
      <trkpt lat="27.977181" lon="-15.520809">
        <ele>957.759</ele>
        <time>2024-11-02T12:15:53.949Z</time>
      </trkpt>
      <trkpt lat="27.977120" lon="-15.520923">
        <ele>961.333</ele>
        <time>2024-11-02T12:16:20.949Z</time>
      </trkpt>
      <trkpt lat="27.977087" lon="-15.520784">
        <ele>962.613</ele>
        <time>2024-11-02T12:17:13.949Z</time>
      </trkpt>
      <trkpt lat="27.976954" lon="-15.520898">
        <ele>966.554</ele>
        <time>2024-11-02T12:17:49.949Z</time>
      </trkpt>
      <trkpt lat="27.976922" lon="-15.520749">
        <ele>969.563</ele>
        <time>2024-11-02T12:18:26.949Z</time>
      </trkpt>
      <trkpt lat="27.976686" lon="-15.520929">
        <ele>974.883</ele>
        <time>2024-11-02T12:20:27.949Z</time>
      </trkpt>
      <trkpt lat="27.976678" lon="-15.520724">
        <ele>977.248</ele>
        <time>2024-11-02T12:21:00.949Z</time>
      </trkpt>
      <trkpt lat="27.976471" lon="-15.520809">
        <ele>981.085</ele>
        <time>2024-11-02T12:24:20.948Z</time>
      </trkpt>
      <trkpt lat="27.976437" lon="-15.520715">
        <ele>984.689</ele>
        <time>2024-11-02T12:24:51.948Z</time>
      </trkpt>
      <trkpt lat="27.976195" lon="-15.520732">
        <ele>993.317</ele>
        <time>2024-11-02T12:26:28.948Z</time>
      </trkpt>
      <trkpt lat="27.976223" lon="-15.520636">
        <ele>995.309</ele>
        <time>2024-11-02T12:26:56.948Z</time>
      </trkpt>
      <trkpt lat="27.975787" lon="-15.520529">
        <ele>1008.079</ele>
        <time>2024-11-02T12:45:59.948Z</time>
      </trkpt>
      <trkpt lat="27.975821" lon="-15.520407">
        <ele>1013.277</ele>
        <time>2024-11-02T12:46:56.948Z</time>
      </trkpt>
      <trkpt lat="27.975493" lon="-15.520231">
        <ele>1028.638</ele>
        <time>2024-11-02T12:49:19.948Z</time>
      </trkpt>
      <trkpt lat="27.975519" lon="-15.520381">
        <ele>1033.192</ele>
        <time>2024-11-02T12:49:50.948Z</time>
      </trkpt>
      <trkpt lat="27.975267" lon="-15.520186">
        <ele>1040.892</ele>
        <time>2024-11-02T12:51:39.948Z</time>
      </trkpt>
      <trkpt lat="27.975216" lon="-15.520262">
        <ele>1044.393</ele>
        <time>2024-11-02T12:51:58.948Z</time>
      </trkpt>
      <trkpt lat="27.974991" lon="-15.520233">
        <ele>1050.342</ele>
        <time>2024-11-02T12:53:28.948Z</time>
      </trkpt>
      <trkpt lat="27.974853" lon="-15.520103">
        <ele>1060.182</ele>
        <time>2024-11-02T12:54:59.948Z</time>
      </trkpt>
      <trkpt lat="27.974782" lon="-15.520168">
        <ele>1062.597</ele>
        <time>2024-11-02T12:55:16.948Z</time>
      </trkpt>
      <trkpt lat="27.974814" lon="-15.519990">
        <ele>1064.318</ele>
        <time>2024-11-02T12:55:53.948Z</time>
      </trkpt>
      <trkpt lat="27.974715" lon="-15.519873">
        <ele>1069.298</ele>
        <time>2024-11-02T12:56:29.948Z</time>
      </trkpt>
      <trkpt lat="27.974661" lon="-15.520009">
        <ele>1074.917</ele>
        <time>2024-11-02T12:56:56.948Z</time>
      </trkpt>
      <trkpt lat="27.974634" lon="-15.519908">
        <ele>1075.309</ele>
        <time>2024-11-02T12:57:33.948Z</time>
      </trkpt>
      <trkpt lat="27.974597" lon="-15.519958">
        <ele>1079.172</ele>
        <time>2024-11-02T12:57:57.948Z</time>
      </trkpt>
      <trkpt lat="27.974511" lon="-15.519688">
        <ele>1085.770</ele>
        <time>2024-11-02T12:59:02.948Z</time>
      </trkpt>
      <trkpt lat="27.974348" lon="-15.519975">
        <ele>1090.941</ele>
        <time>2024-11-02T13:00:15.948Z</time>
      </trkpt>
      <trkpt lat="27.974335" lon="-15.519689">
        <ele>1097.555</ele>
        <time>2024-11-02T13:01:18.948Z</time>
      </trkpt>
      <trkpt lat="27.974180" lon="-15.519861">
        <ele>1101.245</ele>
        <time>2024-11-02T13:02:17.948Z</time>
      </trkpt>
      <trkpt lat="27.974088" lon="-15.519851">
        <ele>1104.086</ele>
        <time>2024-11-02T13:02:40.948Z</time>
      </trkpt>
      <trkpt lat="27.974155" lon="-15.519724">
        <ele>1107.975</ele>
        <time>2024-11-02T13:03:24.948Z</time>
      </trkpt>
      <trkpt lat="27.973928" lon="-15.519680">
        <ele>1117.515</ele>
        <time>2024-11-02T13:05:09.948Z</time>
      </trkpt>
      <trkpt lat="27.973875" lon="-15.519552">
        <ele>1123.130</ele>
        <time>2024-11-02T13:05:55.947Z</time>
      </trkpt>
      <trkpt lat="27.973780" lon="-15.519576">
        <ele>1126.976</ele>
        <time>2024-11-02T13:06:29.947Z</time>
      </trkpt>
      <trkpt lat="27.973868" lon="-15.519463">
        <ele>1129.090</ele>
        <time>2024-11-02T13:07:12.947Z</time>
      </trkpt>
      <trkpt lat="27.973740" lon="-15.519349">
        <ele>1136.719</ele>
        <time>2024-11-02T13:08:37.947Z</time>
      </trkpt>
      <trkpt lat="27.973756" lon="-15.519150">
        <ele>1142.909</ele>
        <time>2024-11-02T13:09:19.947Z</time>
      </trkpt>
      <trkpt lat="27.973654" lon="-15.519238">
        <ele>1144.938</ele>
        <time>2024-11-02T13:09:54.947Z</time>
      </trkpt>
      <trkpt lat="27.973628" lon="-15.519186">
        <ele>1146.316</ele>
        <time>2024-11-02T13:10:06.947Z</time>
      </trkpt>
      <trkpt lat="27.973690" lon="-15.518887">
        <ele>1153.917</ele>
        <time>2024-11-02T13:11:06.947Z</time>
      </trkpt>
      <trkpt lat="27.973425" lon="-15.519030">
        <ele>1159.031</ele>
        <time>2024-11-02T13:12:11.947Z</time>
      </trkpt>
      <trkpt lat="27.973373" lon="-15.518946">
        <ele>1161.551</ele>
        <time>2024-11-02T13:12:32.947Z</time>
      </trkpt>
      <trkpt lat="27.973487" lon="-15.518707">
        <ele>1168.072</ele>
        <time>2024-11-02T13:13:25.947Z</time>
      </trkpt>
      <trkpt lat="27.973316" lon="-15.518769">
        <ele>1172.631</ele>
        <time>2024-11-02T13:14:26.947Z</time>
      </trkpt>
      <trkpt lat="27.973346" lon="-15.518559">
        <ele>1179.941</ele>
        <time>2024-11-02T13:15:09.947Z</time>
      </trkpt>
      <trkpt lat="27.973255" lon="-15.518534">
        <ele>1181.246</ele>
        <time>2024-11-02T13:15:45.947Z</time>
      </trkpt>
      <trkpt lat="27.973401" lon="-15.518208">
        <ele>1190.115</ele>
        <time>2024-11-02T13:17:08.947Z</time>
      </trkpt>
      <trkpt lat="27.973286" lon="-15.518154">
        <ele>1194.065</ele>
        <time>2024-11-02T13:17:40.947Z</time>
      </trkpt>
      <trkpt lat="27.973377" lon="-15.517933">
        <ele>1197.811</ele>
        <time>2024-11-02T13:18:24.947Z</time>
      </trkpt>
      <trkpt lat="27.973293" lon="-15.517999">
        <ele>1200.609</ele>
        <time>2024-11-02T13:18:48.947Z</time>
      </trkpt>
      <trkpt lat="27.972987" lon="-15.517485">
        <ele>1212.022</ele>
        <time>2024-11-02T13:22:32.947Z</time>
      </trkpt>
      <trkpt lat="27.972922" lon="-15.517548">
        <ele>1212.360</ele>
        <time>2024-11-02T13:22:44.947Z</time>
      </trkpt>
      <trkpt lat="27.972862" lon="-15.517386">
        <ele>1213.451</ele>
        <time>2024-11-02T13:23:36.947Z</time>
      </trkpt>
      <trkpt lat="27.972772" lon="-15.517424">
        <ele>1216.845</ele>
        <time>2024-11-02T13:24:04.947Z</time>
      </trkpt>
      <trkpt lat="27.972819" lon="-15.517229">
        <ele>1219.885</ele>
        <time>2024-11-02T13:24:51.947Z</time>
      </trkpt>
      <trkpt lat="27.972685" lon="-15.517325">
        <ele>1224.676</ele>
        <time>2024-11-02T13:25:32.947Z</time>
      </trkpt>
      <trkpt lat="27.972915" lon="-15.516744">
        <ele>1235.825</ele>
        <time>2024-11-02T13:27:34.947Z</time>
      </trkpt>
      <trkpt lat="27.972822" lon="-15.516725">
        <ele>1237.935</ele>
        <time>2024-11-02T13:28:06.947Z</time>
      </trkpt>
      <trkpt lat="27.972839" lon="-15.516360">
        <ele>1246.980</ele>
        <time>2024-11-02T13:29:08.947Z</time>
      </trkpt>
      <trkpt lat="27.972698" lon="-15.516624">
        <ele>1252.516</ele>
        <time>2024-11-02T13:30:07.947Z</time>
      </trkpt>
      <trkpt lat="27.972566" lon="-15.516588">
        <ele>1254.276</ele>
        <time>2024-11-02T13:30:53.947Z</time>
      </trkpt>
      <trkpt lat="27.972497" lon="-15.516701">
        <ele>1256.813</ele>
        <time>2024-11-02T13:31:23.947Z</time>
      </trkpt>
      <trkpt lat="27.972165" lon="-15.516531">
        <ele>1260.709</ele>
        <time>2024-11-02T13:32:50.947Z</time>
      </trkpt>
      <trkpt lat="27.971152" lon="-15.516370">
        <ele>1278.192</ele>
        <time>2024-11-02T13:35:40.947Z</time>
      </trkpt>
      <trkpt lat="27.970359" lon="-15.516882">
        <ele>1281.580</ele>
        <time>2024-11-02T13:37:46.947Z</time>
      </trkpt>
      <trkpt lat="27.969979" lon="-15.516988">
        <ele>1282.411</ele>
        <time>2024-11-02T13:38:40.947Z</time>
      </trkpt>
      <trkpt lat="27.969460" lon="-15.517567">
        <ele>1276.585</ele>
        <time>2024-11-02T13:40:14.947Z</time>
      </trkpt>
      <trkpt lat="27.969290" lon="-15.517890">
        <ele>1278.225</ele>
        <time>2024-11-02T13:41:18.947Z</time>
      </trkpt>
      <trkpt lat="27.968748" lon="-15.518170">
        <ele>1274.846</ele>
        <time>2024-11-02T13:43:40.947Z</time>
      </trkpt>
      <trkpt lat="27.968411" lon="-15.518690">
        <ele>1269.615</ele>
        <time>2024-11-02T13:44:59.947Z</time>
      </trkpt>
      <trkpt lat="27.967453" lon="-15.519514">
        <ele>1271.055</ele>
        <time>2024-11-02T13:47:58.947Z</time>
      </trkpt>
      <trkpt lat="27.966986" lon="-15.519535">
        <ele>1280.250</ele>
        <time>2024-11-02T13:49:55.947Z</time>
      </trkpt>
      <trkpt lat="27.966669" lon="-15.519699">
        <ele>1283.625</ele>
        <time>2024-11-02T13:50:45.947Z</time>
      </trkpt>
      <trkpt lat="27.966491" lon="-15.519998">
        <ele>1284.226</ele>
        <time>2024-11-02T13:51:31.947Z</time>
      </trkpt>
      <trkpt lat="27.966031" lon="-15.520421">
        <ele>1282.308</ele>
        <time>2024-11-02T13:52:59.947Z</time>
      </trkpt>
      <trkpt lat="27.965073" lon="-15.521073">
        <ele>1283.709</ele>
        <time>2024-11-02T13:55:46.947Z</time>
      </trkpt>
      <trkpt lat="27.964495" lon="-15.521329">
        <ele>1290.243</ele>
        <time>2024-11-02T13:57:22.947Z</time>
      </trkpt>
      <trkpt lat="27.964175" lon="-15.521026">
        <ele>1296.911</ele>
        <time>2024-11-02T13:58:50.947Z</time>
      </trkpt>
      <trkpt lat="27.964039" lon="-15.521012">
        <ele>1299.312</ele>
        <time>2024-11-02T13:59:16.947Z</time>
      </trkpt>
      <trkpt lat="27.963685" lon="-15.521290">
        <ele>1304.856</ele>
        <time>2024-11-02T14:00:24.947Z</time>
      </trkpt>
      <trkpt lat="27.962907" lon="-15.521684">
        <ele>1310.416</ele>
        <time>2024-11-02T14:02:40.947Z</time>
      </trkpt>
      <trkpt lat="27.962857" lon="-15.521486">
        <ele>1315.917</ele>
        <time>2024-11-02T14:03:47.947Z</time>
      </trkpt>
      <trkpt lat="27.962699" lon="-15.521357">
        <ele>1318.656</ele>
        <time>2024-11-02T14:04:22.947Z</time>
      </trkpt>
      <trkpt lat="27.962534" lon="-15.521464">
        <ele>1319.526</ele>
        <time>2024-11-02T14:05:04.947Z</time>
      </trkpt>
      <trkpt lat="27.962084" lon="-15.521325">
        <ele>1329.841</ele>
        <time>2024-11-02T14:06:29.947Z</time>
      </trkpt>
      <trkpt lat="27.960241" lon="-15.526192">
        <ele>1489.453</ele>
        <time>2024-11-02T14:41:09Z</time>
      </trkpt>
      <trkpt lat="27.960653" lon="-15.528529">
        <ele>1508.604</ele>
        <time>2024-11-02T14:46:00Z</time>
      </trkpt>
      <trkpt lat="27.961008" lon="-15.529518">
        <ele>1514.214</ele>
        <time>2024-11-02T14:48:01Z</time>
      </trkpt>
      <trkpt lat="27.961376" lon="-15.530000">
        <ele>1512.709</ele>
        <time>2024-11-02T14:49:26Z</time>
      </trkpt>
      <trkpt lat="27.961724" lon="-15.531028">
        <ele>1513.156</ele>
        <time>2024-11-02T14:53:41Z</time>
      </trkpt>
      <trkpt lat="27.961773" lon="-15.531695">
        <ele>1521.084</ele>
        <time>2024-11-02T14:55:03Z</time>
      </trkpt>
      <trkpt lat="27.961553" lon="-15.532093">
        <ele>1525.725</ele>
        <time>2024-11-02T14:56:11.999Z</time>
      </trkpt>
      <trkpt lat="27.961677" lon="-15.532184">
        <ele>1528.829</ele>
        <time>2024-11-02T14:56:34.999Z</time>
      </trkpt>
      <trkpt lat="27.961650" lon="-15.532500">
        <ele>1526.819</ele>
        <time>2024-11-02T14:57:12.999Z</time>
      </trkpt>
      <trkpt lat="27.961498" lon="-15.532879">
        <ele>1533.410</ele>
        <time>2024-11-02T14:58:00.998Z</time>
      </trkpt>
      <trkpt lat="27.961315" lon="-15.532970">
        <ele>1532.159</ele>
        <time>2024-11-02T14:58:17.998Z</time>
      </trkpt>
      <trkpt lat="27.960975" lon="-15.534153">
        <ele>1534.559</ele>
        <time>2024-11-02T15:00:24.998Z</time>
      </trkpt>
      <trkpt lat="27.961206" lon="-15.534729">
        <ele>1529.794</ele>
        <time>2024-11-02T15:01:25.998Z</time>
      </trkpt>
      <trkpt lat="27.961127" lon="-15.535119">
        <ele>1531.046</ele>
        <time>2024-11-02T15:02:18.998Z</time>
      </trkpt>
    </trkseg>
  </trk></gpx>