<?xml version="1.0" encoding="UTF-8"?>
<gpx creator="Wikiloc - https://www.wikiloc.com" version="1.1" xmlns="http://www.topografix.com/GPX/1/1" xmlns:xsi="http://www.w3.org/2001/XMLSchema-instance" xsi:schemaLocation="http://www.topografix.com/GPX/1/1 http://www.topografix.com/GPX/1/1/gpx.xsd">
  <metadata>
    <name>Wikiloc - Caminando las Canarias, etapa 17 (GR-131). Gran Canaria (3):...</name>
    <link href="https://www.wikiloc.com/hiking-trails/gr-131-gran-canaria-tercera-etapa-cruz-de-tejeda-galdar-playa-de-bocabarranco-206041561">
      <text>Caminando las Canarias, etapa 17 (GR-131). Gran Canaria (3):... on Wikiloc</text>
    </link>
    <time>2026-07-28T20:45:56.330Z</time>
  </metadata>
  <trk>
    <name>Caminando las Canarias, etapa 17 (GR-131). Gran Canaria (3):... - Wikiloc</name>
    <cmt></cmt>
    <desc></desc>
    <trkseg>
      <trkpt lat="28.006039" lon="-15.599663">
        <ele>1521.012</ele>
        <time>2026-07-28T20:45:56.329Z</time>
      </trkpt>
      <trkpt lat="28.006097" lon="-15.599446">
        <ele>1520.032</ele>
        <time>2026-07-28T20:46:36.329Z</time>
      </trkpt>
      <trkpt lat="28.007167" lon="-15.599665">
        <ele>1520.405</ele>
        <time>2026-07-28T20:47:16.329Z</time>
      </trkpt>
      <trkpt lat="28.007636" lon="-15.600490">
        <ele>1538.209</ele>
        <time>2026-07-28T20:47:56.329Z</time>
      </trkpt>
      <trkpt lat="28.007946" lon="-15.600645">
        <ele>1547.253</ele>
        <time>2026-07-28T20:48:36.329Z</time>
      </trkpt>
      <trkpt lat="28.008186" lon="-15.600984">
        <ele>1545.931</ele>
        <time>2026-07-28T20:49:16.329Z</time>
      </trkpt>
      <trkpt lat="28.008335" lon="-15.600867">
        <ele>1546.857</ele>
        <time>2026-07-28T20:49:56.329Z</time>
      </trkpt>
      <trkpt lat="28.008653" lon="-15.600962">
        <ele>1552.641</ele>
        <time>2026-07-28T20:50:36.329Z</time>
      </trkpt>
      <trkpt lat="28.009309" lon="-15.600914">
        <ele>1576.745</ele>
        <time>2026-07-28T20:51:16.329Z</time>
      </trkpt>
      <trkpt lat="28.009469" lon="-15.600699">
        <ele>1585.182</ele>
        <time>2026-07-28T20:51:56.329Z</time>
      </trkpt>
      <trkpt lat="28.009948" lon="-15.600672">
        <ele>1606.466</ele>
        <time>2026-07-28T20:52:36.329Z</time>
      </trkpt>
      <trkpt lat="28.010194" lon="-15.600768">
        <ele>1620.817</ele>
        <time>2026-07-28T20:53:16.329Z</time>
      </trkpt>
      <trkpt lat="28.010547" lon="-15.601261">
        <ele>1623.682</ele>
        <time>2026-07-28T20:53:56.329Z</time>
      </trkpt>
      <trkpt lat="28.010977" lon="-15.601088">
        <ele>1632.634</ele>
        <time>2026-07-28T20:54:36.329Z</time>
      </trkpt>
      <trkpt lat="28.011471" lon="-15.601096">
        <ele>1649.055</ele>
        <time>2026-07-28T20:55:16.329Z</time>
      </trkpt>
      <trkpt lat="28.012099" lon="-15.601551">
        <ele>1627.510</ele>
        <time>2026-07-28T20:55:56.329Z</time>
      </trkpt>
      <trkpt lat="28.012475" lon="-15.601344">
        <ele>1653.909</ele>
        <time>2026-07-28T20:56:36.329Z</time>
      </trkpt>
      <trkpt lat="28.013402" lon="-15.601482">
        <ele>1640.725</ele>
        <time>2026-07-28T20:57:16.329Z</time>
      </trkpt>
      <trkpt lat="28.015197" lon="-15.602666">
        <ele>1635.963</ele>
        <time>2026-07-28T20:57:56.329Z</time>
      </trkpt>
      <trkpt lat="28.015792" lon="-15.602784">
        <ele>1629.819</ele>
        <time>2026-07-28T20:58:36.329Z</time>
      </trkpt>
      <trkpt lat="28.016850" lon="-15.604546">
        <ele>1649.143</ele>
        <time>2026-07-28T20:59:16.329Z</time>
      </trkpt>
      <trkpt lat="28.017220" lon="-15.605447">
        <ele>1659.147</ele>
        <time>2026-07-28T20:59:56.329Z</time>
      </trkpt>
      <trkpt lat="28.017565" lon="-15.605825">
        <ele>1664.444</ele>
        <time>2026-07-28T21:00:36.329Z</time>
      </trkpt>
      <trkpt lat="28.017739" lon="-15.606817">
        <ele>1684.498</ele>
        <time>2026-07-28T21:01:16.329Z</time>
      </trkpt>
      <trkpt lat="28.018217" lon="-15.607240">
        <ele>1686.449</ele>
        <time>2026-07-28T21:01:56.329Z</time>
      </trkpt>
      <trkpt lat="28.018281" lon="-15.608148">
        <ele>1701.434</ele>
        <time>2026-07-28T21:02:36.329Z</time>
      </trkpt>
      <trkpt lat="28.018832" lon="-15.609858">
        <ele>1709.663</ele>
        <time>2026-07-28T21:03:16.329Z</time>
      </trkpt>
      <trkpt lat="28.019160" lon="-15.610065">
        <ele>1702.644</ele>
        <time>2026-07-28T21:03:56.329Z</time>
      </trkpt>
      <trkpt lat="28.019447" lon="-15.610751">
        <ele>1697.418</ele>
        <time>2026-07-28T21:04:36.329Z</time>
      </trkpt>
      <trkpt lat="28.020329" lon="-15.611164">
        <ele>1684.309</ele>
        <time>2026-07-28T21:05:16.329Z</time>
      </trkpt>
      <trkpt lat="28.020928" lon="-15.611779">
        <ele>1690.168</ele>
        <time>2026-07-28T21:05:56.329Z</time>
      </trkpt>
      <trkpt lat="28.021494" lon="-15.611955">
        <ele>1679.596</ele>
        <time>2026-07-28T21:06:36.329Z</time>
      </trkpt>
      <trkpt lat="28.021602" lon="-15.612493">
        <ele>1683.662</ele>
        <time>2026-07-28T21:07:16.329Z</time>
      </trkpt>
      <trkpt lat="28.021316" lon="-15.613253">
        <ele>1688.966</ele>
        <time>2026-07-28T21:07:56.329Z</time>
      </trkpt>
      <trkpt lat="28.021427" lon="-15.615020">
        <ele>1681.810</ele>
        <time>2026-07-28T21:08:36.329Z</time>
      </trkpt>
      <trkpt lat="28.021309" lon="-15.616034">
        <ele>1701.077</ele>
        <time>2026-07-28T21:09:16.329Z</time>
      </trkpt>
      <trkpt lat="28.022354" lon="-15.615928">
        <ele>1693.271</ele>
        <time>2026-07-28T21:09:56.329Z</time>
      </trkpt>
      <trkpt lat="28.022662" lon="-15.616181">
        <ele>1689.032</ele>
        <time>2026-07-28T21:10:36.329Z</time>
      </trkpt>
      <trkpt lat="28.023666" lon="-15.616087">
        <ele>1687.227</ele>
        <time>2026-07-28T21:11:16.329Z</time>
      </trkpt>
      <trkpt lat="28.024125" lon="-15.615888">
        <ele>1679.167</ele>
        <time>2026-07-28T21:11:56.329Z</time>
      </trkpt>
      <trkpt lat="28.024408" lon="-15.616118">
        <ele>1675.481</ele>
        <time>2026-07-28T21:12:36.329Z</time>
      </trkpt>
      <trkpt lat="28.025011" lon="-15.616152">
        <ele>1662.519</ele>
        <time>2026-07-28T21:13:16.329Z</time>
      </trkpt>
      <trkpt lat="28.025281" lon="-15.616380">
        <ele>1656.709</ele>
        <time>2026-07-28T21:13:56.329Z</time>
      </trkpt>
      <trkpt lat="28.025688" lon="-15.616358">
        <ele>1633.348</ele>
        <time>2026-07-28T21:14:36.329Z</time>
      </trkpt>
      <trkpt lat="28.025684" lon="-15.616094">
        <ele>1630.296</ele>
        <time>2026-07-28T21:15:16.329Z</time>
      </trkpt>
      <trkpt lat="28.026476" lon="-15.616305">
        <ele>1616.352</ele>
        <time>2026-07-28T21:15:56.329Z</time>
      </trkpt>
      <trkpt lat="28.026846" lon="-15.616261">
        <ele>1608.716</ele>
        <time>2026-07-28T21:16:36.329Z</time>
      </trkpt>
      <trkpt lat="28.027786" lon="-15.616800">
        <ele>1611.070</ele>
        <time>2026-07-28T21:17:16.329Z</time>
      </trkpt>
      <trkpt lat="28.028491" lon="-15.617018">
        <ele>1609.127</ele>
        <time>2026-07-28T21:17:56.329Z</time>
      </trkpt>
      <trkpt lat="28.028756" lon="-15.617250">
        <ele>1610.681</ele>
        <time>2026-07-28T21:18:36.329Z</time>
      </trkpt>
      <trkpt lat="28.030155" lon="-15.617484">
        <ele>1591.432</ele>
        <time>2026-07-28T21:19:16.329Z</time>
      </trkpt>
      <trkpt lat="28.030326" lon="-15.617692">
        <ele>1590.917</ele>
        <time>2026-07-28T21:19:56.329Z</time>
      </trkpt>
      <trkpt lat="28.030627" lon="-15.617648">
        <ele>1594.934</ele>
        <time>2026-07-28T21:20:36.329Z</time>
      </trkpt>
      <trkpt lat="28.031320" lon="-15.617995">
        <ele>1603.255</ele>
        <time>2026-07-28T21:21:16.329Z</time>
      </trkpt>
      <trkpt lat="28.032440" lon="-15.618243">
        <ele>1611.610</ele>
        <time>2026-07-28T21:21:56.329Z</time>
      </trkpt>
      <trkpt lat="28.032896" lon="-15.618521">
        <ele>1609.109</ele>
        <time>2026-07-28T21:22:36.329Z</time>
      </trkpt>
      <trkpt lat="28.033885" lon="-15.618635">
        <ele>1606.885</ele>
        <time>2026-07-28T21:23:16.329Z</time>
      </trkpt>
      <trkpt lat="28.034800" lon="-15.618489">
        <ele>1595.693</ele>
        <time>2026-07-28T21:23:56.329Z</time>
      </trkpt>
      <trkpt lat="28.035374" lon="-15.618615">
        <ele>1588.929</ele>
        <time>2026-07-28T21:24:36.329Z</time>
      </trkpt>
      <trkpt lat="28.035826" lon="-15.618963">
        <ele>1574.993</ele>
        <time>2026-07-28T21:25:16.329Z</time>
      </trkpt>
      <trkpt lat="28.036315" lon="-15.618906">
        <ele>1564.917</ele>
        <time>2026-07-28T21:25:56.329Z</time>
      </trkpt>
      <trkpt lat="28.036852" lon="-15.619044">
        <ele>1546.884</ele>
        <time>2026-07-28T21:26:36.329Z</time>
      </trkpt>
      <trkpt lat="28.037799" lon="-15.619065">
        <ele>1535.048</ele>
        <time>2026-07-28T21:27:16.329Z</time>
      </trkpt>
      <trkpt lat="28.038242" lon="-15.619374">
        <ele>1518.949</ele>
        <time>2026-07-28T21:27:56.329Z</time>
      </trkpt>
      <trkpt lat="28.038937" lon="-15.620279">
        <ele>1482.334</ele>
        <time>2026-07-28T21:28:36.329Z</time>
      </trkpt>
      <trkpt lat="28.038965" lon="-15.620694">
        <ele>1464.783</ele>
        <time>2026-07-28T21:29:16.329Z</time>
      </trkpt>
      <trkpt lat="28.038450" lon="-15.620953">
        <ele>1461.225</ele>
        <time>2026-07-28T21:29:56.329Z</time>
      </trkpt>
      <trkpt lat="28.038481" lon="-15.621223">
        <ele>1454.617</ele>
        <time>2026-07-28T21:30:36.329Z</time>
      </trkpt>
      <trkpt lat="28.038823" lon="-15.621710">
        <ele>1437.609</ele>
        <time>2026-07-28T21:31:16.329Z</time>
      </trkpt>
      <trkpt lat="28.040209" lon="-15.621515">
        <ele>1399.260</ele>
        <time>2026-07-28T21:31:56.329Z</time>
      </trkpt>
      <trkpt lat="28.040785" lon="-15.621863">
        <ele>1375.928</ele>
        <time>2026-07-28T21:32:36.329Z</time>
      </trkpt>
      <trkpt lat="28.040704" lon="-15.621914">
        <ele>1376.044</ele>
        <time>2026-07-28T21:33:16.329Z</time>
      </trkpt>
      <trkpt lat="28.041380" lon="-15.622237">
        <ele>1368.918</ele>
        <time>2026-07-28T21:33:56.329Z</time>
      </trkpt>
      <trkpt lat="28.043378" lon="-15.622841">
        <ele>1324.362</ele>
        <time>2026-07-28T21:34:36.329Z</time>
      </trkpt>
      <trkpt lat="28.043471" lon="-15.623074">
        <ele>1322.119</ele>
        <time>2026-07-28T21:35:16.329Z</time>
      </trkpt>
      <trkpt lat="28.044270" lon="-15.623138">
        <ele>1316.843</ele>
        <time>2026-07-28T21:35:56.329Z</time>
      </trkpt>
      <trkpt lat="28.044884" lon="-15.623395">
        <ele>1311.654</ele>
        <time>2026-07-28T21:36:36.329Z</time>
      </trkpt>
      <trkpt lat="28.047069" lon="-15.624873">
        <ele>1300.619</ele>
        <time>2026-07-28T21:37:16.329Z</time>
      </trkpt>
      <trkpt lat="28.047307" lon="-15.625225">
        <ele>1303.061</ele>
        <time>2026-07-28T21:37:56.329Z</time>
      </trkpt>
      <trkpt lat="28.047287" lon="-15.625808">
        <ele>1288.121</ele>
        <time>2026-07-28T21:38:36.329Z</time>
      </trkpt>
      <trkpt lat="28.047466" lon="-15.626050">
        <ele>1278.513</ele>
        <time>2026-07-28T21:39:16.329Z</time>
      </trkpt>
      <trkpt lat="28.047691" lon="-15.626105">
        <ele>1273.509</ele>
        <time>2026-07-28T21:39:56.329Z</time>
      </trkpt>
      <trkpt lat="28.048168" lon="-15.626604">
        <ele>1254.498</ele>
        <time>2026-07-28T21:40:36.329Z</time>
      </trkpt>
      <trkpt lat="28.049128" lon="-15.627191">
        <ele>1253.646</ele>
        <time>2026-07-28T21:41:16.329Z</time>
      </trkpt>
      <trkpt lat="28.049550" lon="-15.627752">
        <ele>1259.712</ele>
        <time>2026-07-28T21:41:56.329Z</time>
      </trkpt>
      <trkpt lat="28.050191" lon="-15.627896">
        <ele>1258.016</ele>
        <time>2026-07-28T21:42:36.329Z</time>
      </trkpt>
      <trkpt lat="28.050791" lon="-15.628625">
        <ele>1257.230</ele>
        <time>2026-07-28T21:43:16.329Z</time>
      </trkpt>
      <trkpt lat="28.051390" lon="-15.628897">
        <ele>1249.137</ele>
        <time>2026-07-28T21:43:56.329Z</time>
      </trkpt>
      <trkpt lat="28.051713" lon="-15.629249">
        <ele>1253.361</ele>
        <time>2026-07-28T21:44:36.329Z</time>
      </trkpt>
      <trkpt lat="28.052308" lon="-15.629124">
        <ele>1252.762</ele>
        <time>2026-07-28T21:45:16.329Z</time>
      </trkpt>
      <trkpt lat="28.052553" lon="-15.629472">
        <ele>1253.577</ele>
        <time>2026-07-28T21:45:56.329Z</time>
      </trkpt>
      <trkpt lat="28.053601" lon="-15.629797">
        <ele>1226.299</ele>
        <time>2026-07-28T21:46:36.329Z</time>
      </trkpt>
      <trkpt lat="28.054157" lon="-15.629658">
        <ele>1215.807</ele>
        <time>2026-07-28T21:47:16.329Z</time>
      </trkpt>
      <trkpt lat="28.055206" lon="-15.629846">
        <ele>1216.627</ele>
        <time>2026-07-28T21:47:56.329Z</time>
      </trkpt>
      <trkpt lat="28.056288" lon="-15.629752">
        <ele>1221.509</ele>
        <time>2026-07-28T21:48:36.329Z</time>
      </trkpt>
      <trkpt lat="28.057117" lon="-15.629825">
        <ele>1221.441</ele>
        <time>2026-07-28T21:49:16.329Z</time>
      </trkpt>
      <trkpt lat="28.058308" lon="-15.630284">
        <ele>1222.669</ele>
        <time>2026-07-28T21:49:56.329Z</time>
      </trkpt>
      <trkpt lat="28.059530" lon="-15.630143">
        <ele>1219.545</ele>
        <time>2026-07-28T21:50:36.329Z</time>
      </trkpt>
      <trkpt lat="28.059873" lon="-15.629494">
        <ele>1216.579</ele>
        <time>2026-07-28T21:51:16.329Z</time>
      </trkpt>
      <trkpt lat="28.060510" lon="-15.629543">
        <ele>1211.673</ele>
        <time>2026-07-28T21:51:56.329Z</time>
      </trkpt>
      <trkpt lat="28.061055" lon="-15.630550">
        <ele>1195.010</ele>
        <time>2026-07-28T21:52:36.329Z</time>
      </trkpt>
      <trkpt lat="28.061602" lon="-15.631070">
        <ele>1188.414</ele>
        <time>2026-07-28T21:53:16.329Z</time>
      </trkpt>
      <trkpt lat="28.062329" lon="-15.632190">
        <ele>1184.325</ele>
        <time>2026-07-28T21:53:56.329Z</time>
      </trkpt>
      <trkpt lat="28.062791" lon="-15.632688">
        <ele>1184.990</ele>
        <time>2026-07-28T21:54:36.329Z</time>
      </trkpt>
      <trkpt lat="28.062567" lon="-15.633558">
        <ele>1184.274</ele>
        <time>2026-07-28T21:55:16.329Z</time>
      </trkpt>
      <trkpt lat="28.062677" lon="-15.634140">
        <ele>1178.656</ele>
        <time>2026-07-28T21:55:56.329Z</time>
      </trkpt>
      <trkpt lat="28.062984" lon="-15.634383">
        <ele>1176.621</ele>
        <time>2026-07-28T21:56:36.329Z</time>
      </trkpt>
      <trkpt lat="28.063581" lon="-15.635283">
        <ele>1158.009</ele>
        <time>2026-07-28T21:57:16.329Z</time>
      </trkpt>
      <trkpt lat="28.064553" lon="-15.635675">
        <ele>1141.559</ele>
        <time>2026-07-28T21:57:56.329Z</time>
      </trkpt>
      <trkpt lat="28.065294" lon="-15.636969">
        <ele>1124.097</ele>
        <time>2026-07-28T21:58:36.329Z</time>
      </trkpt>
      <trkpt lat="28.066535" lon="-15.637615">
        <ele>1123.833</ele>
        <time>2026-07-28T21:59:16.329Z</time>
      </trkpt>
      <trkpt lat="28.066830" lon="-15.637661">
        <ele>1120.817</ele>
        <time>2026-07-28T21:59:56.329Z</time>
      </trkpt>
      <trkpt lat="28.067057" lon="-15.637421">
        <ele>1120.191</ele>
        <time>2026-07-28T22:00:36.329Z</time>
      </trkpt>
      <trkpt lat="28.067367" lon="-15.637406">
        <ele>1111.218</ele>
        <time>2026-07-28T22:01:16.329Z</time>
      </trkpt>
      <trkpt lat="28.067845" lon="-15.637510">
        <ele>1100.962</ele>
        <time>2026-07-28T22:01:56.329Z</time>
      </trkpt>
      <trkpt lat="28.068630" lon="-15.637921">
        <ele>1086.773</ele>
        <time>2026-07-28T22:02:36.329Z</time>
      </trkpt>
      <trkpt lat="28.069672" lon="-15.637846">
        <ele>1083.158</ele>
        <time>2026-07-28T22:03:16.329Z</time>
      </trkpt>
      <trkpt lat="28.069826" lon="-15.637903">
        <ele>1083.224</ele>
        <time>2026-07-28T22:03:56.329Z</time>
      </trkpt>
      <trkpt lat="28.070295" lon="-15.638639">
        <ele>1072.404</ele>
        <time>2026-07-28T22:04:36.329Z</time>
      </trkpt>
      <trkpt lat="28.071209" lon="-15.638959">
        <ele>1051.814</ele>
        <time>2026-07-28T22:05:16.329Z</time>
      </trkpt>
      <trkpt lat="28.071406" lon="-15.639562">
        <ele>1042.609</ele>
        <time>2026-07-28T22:05:56.329Z</time>
      </trkpt>
      <trkpt lat="28.071775" lon="-15.639622">
        <ele>1037.824</ele>
        <time>2026-07-28T22:06:36.329Z</time>
      </trkpt>
      <trkpt lat="28.072418" lon="-15.639509">
        <ele>1025.192</ele>
        <time>2026-07-28T22:07:16.329Z</time>
      </trkpt>
      <trkpt lat="28.073344" lon="-15.639683">
        <ele>1019.368</ele>
        <time>2026-07-28T22:07:56.329Z</time>
      </trkpt>
      <trkpt lat="28.073518" lon="-15.639908">
        <ele>1013.442</ele>
        <time>2026-07-28T22:08:36.329Z</time>
      </trkpt>
      <trkpt lat="28.073370" lon="-15.640463">
        <ele>1007.826</ele>
        <time>2026-07-28T22:09:16.329Z</time>
      </trkpt>
      <trkpt lat="28.073463" lon="-15.640897">
        <ele>1004.833</ele>
        <time>2026-07-28T22:09:56.329Z</time>
      </trkpt>
      <trkpt lat="28.074147" lon="-15.641034">
        <ele>999.527</ele>
        <time>2026-07-28T22:10:36.329Z</time>
      </trkpt>
      <trkpt lat="28.074416" lon="-15.641284">
        <ele>1003.998</ele>
        <time>2026-07-28T22:11:16.329Z</time>
      </trkpt>
      <trkpt lat="28.074721" lon="-15.640983">
        <ele>997.253</ele>
        <time>2026-07-28T22:11:56.329Z</time>
      </trkpt>
      <trkpt lat="28.075285" lon="-15.641072">
        <ele>1001.079</ele>
        <time>2026-07-28T22:12:36.329Z</time>
      </trkpt>
      <trkpt lat="28.075912" lon="-15.641463">
        <ele>999.605</ele>
        <time>2026-07-28T22:13:16.329Z</time>
      </trkpt>
      <trkpt lat="28.076470" lon="-15.641576">
        <ele>1003.825</ele>
        <time>2026-07-28T22:13:56.329Z</time>
      </trkpt>
      <trkpt lat="28.076718" lon="-15.641781">
        <ele>1001.409</ele>
        <time>2026-07-28T22:14:36.329Z</time>
      </trkpt>
      <trkpt lat="28.077473" lon="-15.643301">
        <ele>992.199</ele>
        <time>2026-07-28T22:15:16.329Z</time>
      </trkpt>
      <trkpt lat="28.077675" lon="-15.643356">
        <ele>993.877</ele>
        <time>2026-07-28T22:15:56.329Z</time>
      </trkpt>
      <trkpt lat="28.078116" lon="-15.643110">
        <ele>987.843</ele>
        <time>2026-07-28T22:16:36.329Z</time>
      </trkpt>
      <trkpt lat="28.078419" lon="-15.643216">
        <ele>981.547</ele>
        <time>2026-07-28T22:17:16.329Z</time>
      </trkpt>
      <trkpt lat="28.078545" lon="-15.643393">
        <ele>977.331</ele>
        <time>2026-07-28T22:17:56.329Z</time>
      </trkpt>
      <trkpt lat="28.078504" lon="-15.644279">
        <ele>961.858</ele>
        <time>2026-07-28T22:18:36.329Z</time>
      </trkpt>
      <trkpt lat="28.079000" lon="-15.644897">
        <ele>953.092</ele>
        <time>2026-07-28T22:19:16.329Z</time>
      </trkpt>
      <trkpt lat="28.079646" lon="-15.644936">
        <ele>948.593</ele>
        <time>2026-07-28T22:19:56.329Z</time>
      </trkpt>
      <trkpt lat="28.079943" lon="-15.645290">
        <ele>948.498</ele>
        <time>2026-07-28T22:20:36.329Z</time>
      </trkpt>
      <trkpt lat="28.080085" lon="-15.645308">
        <ele>946.553</ele>
        <time>2026-07-28T22:21:16.329Z</time>
      </trkpt>
      <trkpt lat="28.080278" lon="-15.645140">
        <ele>942.004</ele>
        <time>2026-07-28T22:21:56.329Z</time>
      </trkpt>
      <trkpt lat="28.080733" lon="-15.645067">
        <ele>943.314</ele>
        <time>2026-07-28T22:22:36.329Z</time>
      </trkpt>
      <trkpt lat="28.081134" lon="-15.644773">
        <ele>936.009</ele>
        <time>2026-07-28T22:23:16.329Z</time>
      </trkpt>
      <trkpt lat="28.081624" lon="-15.643817">
        <ele>900.577</ele>
        <time>2026-07-28T22:23:56.329Z</time>
      </trkpt>
      <trkpt lat="28.081897" lon="-15.643530">
        <ele>890.035</ele>
        <time>2026-07-28T22:24:36.329Z</time>
      </trkpt>
      <trkpt lat="28.083224" lon="-15.642644">
        <ele>860.941</ele>
        <time>2026-07-28T22:25:16.329Z</time>
      </trkpt>
      <trkpt lat="28.084468" lon="-15.642748">
        <ele>848.845</ele>
        <time>2026-07-28T22:25:56.329Z</time>
      </trkpt>
      <trkpt lat="28.084471" lon="-15.642962">
        <ele>848.139</ele>
        <time>2026-07-28T22:26:36.329Z</time>
      </trkpt>
      <trkpt lat="28.084444" lon="-15.642865">
        <ele>848.716</ele>
        <time>2026-07-28T22:27:16.329Z</time>
      </trkpt>
      <trkpt lat="28.084759" lon="-15.642703">
        <ele>846.430</ele>
        <time>2026-07-28T22:27:56.329Z</time>
      </trkpt>
      <trkpt lat="28.085485" lon="-15.642688">
        <ele>840.531</ele>
        <time>2026-07-28T22:28:36.329Z</time>
      </trkpt>
      <trkpt lat="28.086292" lon="-15.642905">
        <ele>839.456</ele>
        <time>2026-07-28T22:29:16.329Z</time>
      </trkpt>
      <trkpt lat="28.087003" lon="-15.642707">
        <ele>834.559</ele>
        <time>2026-07-28T22:29:56.329Z</time>
      </trkpt>
      <trkpt lat="28.087453" lon="-15.642715">
        <ele>831.003</ele>
        <time>2026-07-28T22:30:36.329Z</time>
      </trkpt>
      <trkpt lat="28.089379" lon="-15.643339">
        <ele>807.723</ele>
        <time>2026-07-28T22:31:16.329Z</time>
      </trkpt>
      <trkpt lat="28.090151" lon="-15.643830">
        <ele>797.709</ele>
        <time>2026-07-28T22:31:56.329Z</time>
      </trkpt>
      <trkpt lat="28.090542" lon="-15.643649">
        <ele>796.957</ele>
        <time>2026-07-28T22:32:36.329Z</time>
      </trkpt>
      <trkpt lat="28.091139" lon="-15.643088">
        <ele>788.645</ele>
        <time>2026-07-28T22:33:16.329Z</time>
      </trkpt>
      <trkpt lat="28.091900" lon="-15.643013">
        <ele>788.351</ele>
        <time>2026-07-28T22:33:56.329Z</time>
      </trkpt>
      <trkpt lat="28.093094" lon="-15.642108">
        <ele>771.925</ele>
        <time>2026-07-28T22:34:36.329Z</time>
      </trkpt>
      <trkpt lat="28.094234" lon="-15.641630">
        <ele>760.559</ele>
        <time>2026-07-28T22:35:16.329Z</time>
      </trkpt>
      <trkpt lat="28.095088" lon="-15.641407">
        <ele>755.696</ele>
        <time>2026-07-28T22:35:56.329Z</time>
      </trkpt>
      <trkpt lat="28.095138" lon="-15.641490">
        <ele>755.060</ele>
        <time>2026-07-28T22:36:36.329Z</time>
      </trkpt>
      <trkpt lat="28.095838" lon="-15.641062">
        <ele>756.071</ele>
        <time>2026-07-28T22:37:16.329Z</time>
      </trkpt>
      <trkpt lat="28.097006" lon="-15.640662">
        <ele>754.196</ele>
        <time>2026-07-28T22:37:56.329Z</time>
      </trkpt>
      <trkpt lat="28.098171" lon="-15.640550">
        <ele>742.733</ele>
        <time>2026-07-28T22:38:36.329Z</time>
      </trkpt>
      <trkpt lat="28.099200" lon="-15.640868">
        <ele>737.523</ele>
        <time>2026-07-28T22:39:16.329Z</time>
      </trkpt>
      <trkpt lat="28.099366" lon="-15.640725">
        <ele>736.515</ele>
        <time>2026-07-28T22:39:56.329Z</time>
      </trkpt>
      <trkpt lat="28.099949" lon="-15.640601">
        <ele>733.909</ele>
        <time>2026-07-28T22:40:36.329Z</time>
      </trkpt>
      <trkpt lat="28.100369" lon="-15.640294">
        <ele>730.425</ele>
        <time>2026-07-28T22:41:16.329Z</time>
      </trkpt>
      <trkpt lat="28.101924" lon="-15.640047">
        <ele>705.123</ele>
        <time>2026-07-28T22:41:56.329Z</time>
      </trkpt>
      <trkpt lat="28.102280" lon="-15.639725">
        <ele>695.589</ele>
        <time>2026-07-28T22:42:36.329Z</time>
      </trkpt>
      <trkpt lat="28.102650" lon="-15.639896">
        <ele>685.443</ele>
        <time>2026-07-28T22:43:16.329Z</time>
      </trkpt>
      <trkpt lat="28.103944" lon="-15.639597">
        <ele>663.427</ele>
        <time>2026-07-28T22:43:56.329Z</time>
      </trkpt>
      <trkpt lat="28.104346" lon="-15.639398">
        <ele>655.984</ele>
        <time>2026-07-28T22:44:36.329Z</time>
      </trkpt>
      <trkpt lat="28.104382" lon="-15.639093">
        <ele>645.998</ele>
        <time>2026-07-28T22:45:16.329Z</time>
      </trkpt>
      <trkpt lat="28.104848" lon="-15.638430">
        <ele>626.519</ele>
        <time>2026-07-28T22:45:56.329Z</time>
      </trkpt>
      <trkpt lat="28.105373" lon="-15.638267">
        <ele>631.094</ele>
        <time>2026-07-28T22:46:36.329Z</time>
      </trkpt>
      <trkpt lat="28.105495" lon="-15.637961">
        <ele>634.313</ele>
        <time>2026-07-28T22:47:16.329Z</time>
      </trkpt>
      <trkpt lat="28.105437" lon="-15.638170">
        <ele>632.543</ele>
        <time>2026-07-28T22:47:56.329Z</time>
      </trkpt>
      <trkpt lat="28.105717" lon="-15.638541">
        <ele>641.507</ele>
        <time>2026-07-28T22:48:36.329Z</time>
      </trkpt>
      <trkpt lat="28.106124" lon="-15.638697">
        <ele>640.709</ele>
        <time>2026-07-28T22:49:16.329Z</time>
      </trkpt>
      <trkpt lat="28.106294" lon="-15.638901">
        <ele>631.893</ele>
        <time>2026-07-28T22:49:56.329Z</time>
      </trkpt>
      <trkpt lat="28.106457" lon="-15.638854">
        <ele>627.281</ele>
        <time>2026-07-28T22:50:36.329Z</time>
      </trkpt>
      <trkpt lat="28.106418" lon="-15.638948">
        <ele>625.087</ele>
        <time>2026-07-28T22:51:16.329Z</time>
      </trkpt>
      <trkpt lat="28.106678" lon="-15.638769">
        <ele>622.341</ele>
        <time>2026-07-28T22:51:56.329Z</time>
      </trkpt>
      <trkpt lat="28.108670" lon="-15.639777">
        <ele>562.195</ele>
        <time>2026-07-28T22:52:36.329Z</time>
      </trkpt>
      <trkpt lat="28.109946" lon="-15.639218">
        <ele>551.342</ele>
        <time>2026-07-28T22:53:16.329Z</time>
      </trkpt>
      <trkpt lat="28.110587" lon="-15.639205">
        <ele>541.196</ele>
        <time>2026-07-28T22:53:56.329Z</time>
      </trkpt>
      <trkpt lat="28.110971" lon="-15.639369">
        <ele>535.347</ele>
        <time>2026-07-28T22:54:36.329Z</time>
      </trkpt>
      <trkpt lat="28.111963" lon="-15.639264">
        <ele>517.722</ele>
        <time>2026-07-28T22:55:16.329Z</time>
      </trkpt>
      <trkpt lat="28.112965" lon="-15.638610">
        <ele>510.338</ele>
        <time>2026-07-28T22:55:56.329Z</time>
      </trkpt>
      <trkpt lat="28.113507" lon="-15.638518">
        <ele>503.370</ele>
        <time>2026-07-28T22:56:36.329Z</time>
      </trkpt>
      <trkpt lat="28.113974" lon="-15.638209">
        <ele>499.417</ele>
        <time>2026-07-28T22:57:16.329Z</time>
      </trkpt>
      <trkpt lat="28.115087" lon="-15.638661">
        <ele>476.509</ele>
        <time>2026-07-28T22:57:56.329Z</time>
      </trkpt>
      <trkpt lat="28.115372" lon="-15.638887">
        <ele>456.535</ele>
        <time>2026-07-28T22:58:36.329Z</time>
      </trkpt>
      <trkpt lat="28.115519" lon="-15.638774">
        <ele>465.413</ele>
        <time>2026-07-28T22:59:16.329Z</time>
      </trkpt>
      <trkpt lat="28.115821" lon="-15.639030">
        <ele>435.069</ele>
        <time>2026-07-28T22:59:56.329Z</time>
      </trkpt>
      <trkpt lat="28.116535" lon="-15.639186">
        <ele>399.233</ele>
        <time>2026-07-28T23:00:36.329Z</time>
      </trkpt>
      <trkpt lat="28.117054" lon="-15.639182">
        <ele>410.227</ele>
        <time>2026-07-28T23:01:16.329Z</time>
      </trkpt>
      <trkpt lat="28.117547" lon="-15.639018">
        <ele>449.884</ele>
        <time>2026-07-28T23:01:56.329Z</time>
      </trkpt>
      <trkpt lat="28.118016" lon="-15.639079">
        <ele>409.358</ele>
        <time>2026-07-28T23:02:36.329Z</time>
      </trkpt>
      <trkpt lat="28.118156" lon="-15.638980">
        <ele>422.949</ele>
        <time>2026-07-28T23:03:16.329Z</time>
      </trkpt>
      <trkpt lat="28.118288" lon="-15.639130">
        <ele>383.124</ele>
        <time>2026-07-28T23:03:56.329Z</time>
      </trkpt>
      <trkpt lat="28.118194" lon="-15.639180">
        <ele>376.888</ele>
        <time>2026-07-28T23:04:36.329Z</time>
      </trkpt>
      <trkpt lat="28.118348" lon="-15.639229">
        <ele>362.124</ele>
        <time>2026-07-28T23:05:16.329Z</time>
      </trkpt>
      <trkpt lat="28.118747" lon="-15.638767">
        <ele>414.526</ele>
        <time>2026-07-28T23:05:56.329Z</time>
      </trkpt>
      <trkpt lat="28.119518" lon="-15.638742">
        <ele>367.909</ele>
        <time>2026-07-28T23:06:36.329Z</time>
      </trkpt>
      <trkpt lat="28.120290" lon="-15.639001">
        <ele>323.580</ele>
        <time>2026-07-28T23:07:16.329Z</time>
      </trkpt>
      <trkpt lat="28.120684" lon="-15.639322">
        <ele>322.328</ele>
        <time>2026-07-28T23:07:56.329Z</time>
      </trkpt>
      <trkpt lat="28.121101" lon="-15.639411">
        <ele>331.124</ele>
        <time>2026-07-28T23:08:36.329Z</time>
      </trkpt>
      <trkpt lat="28.121465" lon="-15.639788">
        <ele>312.418</ele>
        <time>2026-07-28T23:09:16.329Z</time>
      </trkpt>
      <trkpt lat="28.121812" lon="-15.639725">
        <ele>320.442</ele>
        <time>2026-07-28T23:09:56.329Z</time>
      </trkpt>
      <trkpt lat="28.122217" lon="-15.639988">
        <ele>313.269</ele>
        <time>2026-07-28T23:10:36.329Z</time>
      </trkpt>
      <trkpt lat="28.122762" lon="-15.639801">
        <ele>313.923</ele>
        <time>2026-07-28T23:11:16.329Z</time>
      </trkpt>
      <trkpt lat="28.123442" lon="-15.640271">
        <ele>300.524</ele>
        <time>2026-07-28T23:11:56.329Z</time>
      </trkpt>
      <trkpt lat="28.124096" lon="-15.640329">
        <ele>302.439</ele>
        <time>2026-07-28T23:12:36.329Z</time>
      </trkpt>
      <trkpt lat="28.124528" lon="-15.640616">
        <ele>291.887</ele>
        <time>2026-07-28T23:13:16.329Z</time>
      </trkpt>
      <trkpt lat="28.125798" lon="-15.640654">
        <ele>276.042</ele>
        <time>2026-07-28T23:13:56.329Z</time>
      </trkpt>
      <trkpt lat="28.125981" lon="-15.640545">
        <ele>281.126</ele>
        <time>2026-07-28T23:14:36.329Z</time>
      </trkpt>
      <trkpt lat="28.126875" lon="-15.641079">
        <ele>263.509</ele>
        <time>2026-07-28T23:15:16.329Z</time>
      </trkpt>
      <trkpt lat="28.128326" lon="-15.641091">
        <ele>253.610</ele>
        <time>2026-07-28T23:15:56.329Z</time>
      </trkpt>
      <trkpt lat="28.129031" lon="-15.641344">
        <ele>236.848</ele>
        <time>2026-07-28T23:16:36.329Z</time>
      </trkpt>
      <trkpt lat="28.129184" lon="-15.641219">
        <ele>239.254</ele>
        <time>2026-07-28T23:17:16.329Z</time>
      </trkpt>
      <trkpt lat="28.129593" lon="-15.641228">
        <ele>229.648</ele>
        <time>2026-07-28T23:17:56.329Z</time>
      </trkpt>
      <trkpt lat="28.129969" lon="-15.641390">
        <ele>222.112</ele>
        <time>2026-07-28T23:18:36.329Z</time>
      </trkpt>
      <trkpt lat="28.129946" lon="-15.641604">
        <ele>216.989</ele>
        <time>2026-07-28T23:19:16.329Z</time>
      </trkpt>
      <trkpt lat="28.130291" lon="-15.642265">
        <ele>201.433</ele>
        <time>2026-07-28T23:19:56.329Z</time>
      </trkpt>
      <trkpt lat="28.130783" lon="-15.642830">
        <ele>190.294</ele>
        <time>2026-07-28T23:20:36.329Z</time>
      </trkpt>
      <trkpt lat="28.131252" lon="-15.643130">
        <ele>183.429</ele>
        <time>2026-07-28T23:21:16.329Z</time>
      </trkpt>
      <trkpt lat="28.131947" lon="-15.643303">
        <ele>180.194</ele>
        <time>2026-07-28T23:21:56.329Z</time>
      </trkpt>
      <trkpt lat="28.132231" lon="-15.643950">
        <ele>174.557</ele>
        <time>2026-07-28T23:22:36.329Z</time>
      </trkpt>
      <trkpt lat="28.132311" lon="-15.643933">
        <ele>173.622</ele>
        <time>2026-07-28T23:23:16.329Z</time>
      </trkpt>
      <trkpt lat="28.131893" lon="-15.643953">
        <ele>174.509</ele>
        <time>2026-07-28T23:23:56.329Z</time>
      </trkpt>
      <trkpt lat="28.131840" lon="-15.644285">
        <ele>169.781</ele>
        <time>2026-07-28T23:24:36.329Z</time>
      </trkpt>
      <trkpt lat="28.131967" lon="-15.644559">
        <ele>166.229</ele>
        <time>2026-07-28T23:25:16.329Z</time>
      </trkpt>
      <trkpt lat="28.132543" lon="-15.645009">
        <ele>163.165</ele>
        <time>2026-07-28T23:25:56.329Z</time>
      </trkpt>
      <trkpt lat="28.133116" lon="-15.646519">
        <ele>152.899</ele>
        <time>2026-07-28T23:26:36.329Z</time>
      </trkpt>
      <trkpt lat="28.133133" lon="-15.646818">
        <ele>149.783</ele>
        <time>2026-07-28T23:27:16.329Z</time>
      </trkpt>
      <trkpt lat="28.132832" lon="-15.647133">
        <ele>147.030</ele>
        <time>2026-07-28T23:27:56.329Z</time>
      </trkpt>
      <trkpt lat="28.133000" lon="-15.647875">
        <ele>142.584</ele>
        <time>2026-07-28T23:28:36.329Z</time>
      </trkpt>
      <trkpt lat="28.134000" lon="-15.649424">
        <ele>130.125</ele>
        <time>2026-07-28T23:29:16.329Z</time>
      </trkpt>
      <trkpt lat="28.133745" lon="-15.650348">
        <ele>125.870</ele>
        <time>2026-07-28T23:29:56.329Z</time>
      </trkpt>
      <trkpt lat="28.133948" lon="-15.650918">
        <ele>120.729</ele>
        <time>2026-07-28T23:30:36.329Z</time>
      </trkpt>
      <trkpt lat="28.133950" lon="-15.651464">
        <ele>118.300</ele>
        <time>2026-07-28T23:31:16.329Z</time>
      </trkpt>
      <trkpt lat="28.134192" lon="-15.652096">
        <ele>113.820</ele>
        <time>2026-07-28T23:31:56.329Z</time>
      </trkpt>
      <trkpt lat="28.135032" lon="-15.653367">
        <ele>106.909</ele>
        <time>2026-07-28T23:32:36.329Z</time>
      </trkpt>
      <trkpt lat="28.136486" lon="-15.654161">
        <ele>97.734</ele>
        <time>2026-07-28T23:33:16.329Z</time>
      </trkpt>
      <trkpt lat="28.137344" lon="-15.654237">
        <ele>93.122</ele>
        <time>2026-07-28T23:33:56.329Z</time>
      </trkpt>
      <trkpt lat="28.138189" lon="-15.654757">
        <ele>89.068</ele>
        <time>2026-07-28T23:34:36.329Z</time>
      </trkpt>
      <trkpt lat="28.139161" lon="-15.655062">
        <ele>84.232</ele>
        <time>2026-07-28T23:35:16.329Z</time>
      </trkpt>
      <trkpt lat="28.140053" lon="-15.655728">
        <ele>81.886</ele>
        <time>2026-07-28T23:35:56.329Z</time>
      </trkpt>
      <trkpt lat="28.140647" lon="-15.655972">
        <ele>77.373</ele>
        <time>2026-07-28T23:36:36.329Z</time>
      </trkpt>
      <trkpt lat="28.141313" lon="-15.657440">
        <ele>76.697</ele>
        <time>2026-07-28T23:37:16.329Z</time>
      </trkpt>
      <trkpt lat="28.141597" lon="-15.657629">
        <ele>79.528</ele>
        <time>2026-07-28T23:37:56.329Z</time>
      </trkpt>
      <trkpt lat="28.141937" lon="-15.657469">
        <ele>80.833</ele>
        <time>2026-07-28T23:38:36.329Z</time>
      </trkpt>
      <trkpt lat="28.142317" lon="-15.656747">
        <ele>87.079</ele>
        <time>2026-07-28T23:39:16.329Z</time>
      </trkpt>
      <trkpt lat="28.142550" lon="-15.656649">
        <ele>92.205</ele>
        <time>2026-07-28T23:39:56.329Z</time>
      </trkpt>
      <trkpt lat="28.142646" lon="-15.656388">
        <ele>91.225</ele>
        <time>2026-07-28T23:40:36.329Z</time>
      </trkpt>
      <trkpt lat="28.143665" lon="-15.655391">
        <ele>118.809</ele>
        <time>2026-07-28T23:41:16.329Z</time>
      </trkpt>
      <trkpt lat="28.144240" lon="-15.655120">
        <ele>125.899</ele>
        <time>2026-07-28T23:41:56.329Z</time>
      </trkpt>
      <trkpt lat="28.144819" lon="-15.655426">
        <ele>127.237</ele>
        <time>2026-07-28T23:42:36.329Z</time>
      </trkpt>
      <trkpt lat="28.144962" lon="-15.655713">
        <ele>129.113</ele>
        <time>2026-07-28T23:43:16.329Z</time>
      </trkpt>
      <trkpt lat="28.145130" lon="-15.655714">
        <ele>128.867</ele>
        <time>2026-07-28T23:43:56.329Z</time>
      </trkpt>
      <trkpt lat="28.145120" lon="-15.656589">
        <ele>124.431</ele>
        <time>2026-07-28T23:44:36.329Z</time>
      </trkpt>
      <trkpt lat="28.145281" lon="-15.656760">
        <ele>122.778</ele>
        <time>2026-07-28T23:45:16.329Z</time>
      </trkpt>
      <trkpt lat="28.145865" lon="-15.657082">
        <ele>118.362</ele>
        <time>2026-07-28T23:45:56.329Z</time>
      </trkpt>
      <trkpt lat="28.146616" lon="-15.656776">
        <ele>110.173</ele>
        <time>2026-07-28T23:46:36.329Z</time>
      </trkpt>
      <trkpt lat="28.147914" lon="-15.657903">
        <ele>81.418</ele>
        <time>2026-07-28T23:47:16.329Z</time>
      </trkpt>
      <trkpt lat="28.149831" lon="-15.659151">
        <ele>57.244</ele>
        <time>2026-07-28T23:47:56.329Z</time>
      </trkpt>
      <trkpt lat="28.150696" lon="-15.659508">
        <ele>51.205</ele>
        <time>2026-07-28T23:48:36.329Z</time>
      </trkpt>
      <trkpt lat="28.153103" lon="-15.659944">
        <ele>41.215</ele>
        <time>2026-07-28T23:49:16.329Z</time>
      </trkpt>
      <trkpt lat="28.158444" lon="-15.661833">
        <ele>21.409</ele>
        <time>2026-07-28T23:49:56.329Z</time>
      </trkpt>
      <trkpt lat="28.159256" lon="-15.662367">
        <ele>19.736</ele>
        <time>2026-07-28T23:50:36.329Z</time>
      </trkpt>
      <trkpt lat="28.159078" lon="-15.662827">
        <ele>20.964</ele>
        <time>2026-07-28T23:51:16.329Z</time>
      </trkpt>
      <trkpt lat="28.159276" lon="-15.663095">
        <ele>17.150</ele>
        <time>2026-07-28T23:51:56.329Z</time>
      </trkpt>
      <trkpt lat="28.158732" lon="-15.664199">
        <ele>11.374</ele>
        <time>2026-07-28T23:52:36.329Z</time>
      </trkpt>
      <trkpt lat="28.158916" lon="-15.664886">
        <ele>5.288</ele>
        <time>2026-07-28T23:53:16.329Z</time>
      </trkpt>
    </trkseg>
  </trk></gpx>