<?xml version="1.0" encoding="UTF-8"?>
<gpx creator="Wikiloc - https://www.wikiloc.com" version="1.1" xmlns="http://www.topografix.com/GPX/1/1" xmlns:xsi="http://www.w3.org/2001/XMLSchema-instance" xsi:schemaLocation="http://www.topografix.com/GPX/1/1 http://www.topografix.com/GPX/1/1/gpx.xsd">
  <metadata>
    <name>Wikiloc - De la costa a los volcanes</name>
    <link href="https://www.wikiloc.com/hiking-trails/de-la-costa-a-los-volcanes-85009988">
      <text>De la costa a los volcanes - Wikiloc on Wikiloc</text>
    </link>
    <time>2021-09-28T15:01:34Z</time>
  </metadata>
  <trk>
    <name>De la costa a los volcanes - Wikiloc</name>
    <cmt></cmt>
    <desc></desc>
    <trkseg>
      <trkpt lat="29.116086" lon="-13.640046">
        <ele>19.226</ele>
        <time>2021-09-28T12:58:12Z</time>
      </trkpt>
      <trkpt lat="29.115918" lon="-13.640100">
        <ele>48.947</ele>
        <time>2021-09-28T12:58:37Z</time>
      </trkpt>
      <trkpt lat="29.115753" lon="-13.639975">
        <ele>48.911</ele>
        <time>2021-09-28T12:58:54Z</time>
      </trkpt>
      <trkpt lat="29.115687" lon="-13.639817">
        <ele>48.908</ele>
        <time>2021-09-28T12:59:06Z</time>
      </trkpt>
      <trkpt lat="29.115493" lon="-13.639772">
        <ele>49.120</ele>
        <time>2021-09-28T12:59:23Z</time>
      </trkpt>
      <trkpt lat="29.114872" lon="-13.639331">
        <ele>49.497</ele>
        <time>2021-09-28T13:00:21Z</time>
      </trkpt>
      <trkpt lat="29.115148" lon="-13.638092">
        <ele>52.162</ele>
        <time>2021-09-28T13:01:54Z</time>
      </trkpt>
      <trkpt lat="29.114762" lon="-13.636768">
        <ele>49.722</ele>
        <time>2021-09-28T13:03:33Z</time>
      </trkpt>
      <trkpt lat="29.114956" lon="-13.636329">
        <ele>48.421</ele>
        <time>2021-09-28T13:04:08Z</time>
      </trkpt>
      <trkpt lat="29.114886" lon="-13.636067">
        <ele>49.861</ele>
        <time>2021-09-28T13:04:29Z</time>
      </trkpt>
      <trkpt lat="29.114984" lon="-13.635884">
        <ele>50.670</ele>
        <time>2021-09-28T13:04:45Z</time>
      </trkpt>
      <trkpt lat="29.114888" lon="-13.635298">
        <ele>47.920</ele>
        <time>2021-09-28T13:05:26Z</time>
      </trkpt>
      <trkpt lat="29.115254" lon="-13.634943">
        <ele>47.215</ele>
        <time>2021-09-28T13:06:06Z</time>
      </trkpt>
      <trkpt lat="29.115246" lon="-13.633959">
        <ele>48.265</ele>
        <time>2021-09-28T13:07:26Z</time>
      </trkpt>
      <trkpt lat="29.115349" lon="-13.633340">
        <ele>48.311</ele>
        <time>2021-09-28T13:08:10Z</time>
      </trkpt>
      <trkpt lat="29.115480" lon="-13.633119">
        <ele>48.808</ele>
        <time>2021-09-28T13:08:29Z</time>
      </trkpt>
      <trkpt lat="29.115359" lon="-13.632797">
        <ele>48.579</ele>
        <time>2021-09-28T13:08:54Z</time>
      </trkpt>
      <trkpt lat="29.116002" lon="-13.631961">
        <ele>47.296</ele>
        <time>2021-09-28T13:10:15Z</time>
      </trkpt>
      <trkpt lat="29.116048" lon="-13.631433">
        <ele>45.851</ele>
        <time>2021-09-28T13:10:55Z</time>
      </trkpt>
      <trkpt lat="29.116232" lon="-13.631097">
        <ele>42.621</ele>
        <time>2021-09-28T13:11:23Z</time>
      </trkpt>
      <trkpt lat="29.116132" lon="-13.630510">
        <ele>47.210</ele>
        <time>2021-09-28T13:12:08Z</time>
      </trkpt>
      <trkpt lat="29.116105" lon="-13.629514">
        <ele>51.070</ele>
        <time>2021-09-28T13:13:23Z</time>
      </trkpt>
      <trkpt lat="29.116210" lon="-13.628583">
        <ele>49.759</ele>
        <time>2021-09-28T13:14:28Z</time>
      </trkpt>
      <trkpt lat="29.116009" lon="-13.627922">
        <ele>53.679</ele>
        <time>2021-09-28T13:15:30Z</time>
      </trkpt>
      <trkpt lat="29.116146" lon="-13.627544">
        <ele>59.484</ele>
        <time>2021-09-28T13:16:01Z</time>
      </trkpt>
      <trkpt lat="29.116265" lon="-13.626271">
        <ele>64.007</ele>
        <time>2021-09-28T13:17:43Z</time>
      </trkpt>
      <trkpt lat="29.116490" lon="-13.625991">
        <ele>64.717</ele>
        <time>2021-09-28T13:18:14Z</time>
      </trkpt>
      <trkpt lat="29.116585" lon="-13.625964">
        <ele>64.508</ele>
        <time>2021-09-28T13:18:22Z</time>
      </trkpt>
      <trkpt lat="29.116862" lon="-13.626018">
        <ele>59.776</ele>
        <time>2021-09-28T13:19:37Z</time>
      </trkpt>
      <trkpt lat="29.117511" lon="-13.626490">
        <ele>55.423</ele>
        <time>2021-09-28T13:20:39Z</time>
      </trkpt>
      <trkpt lat="29.117730" lon="-13.626388">
        <ele>55.468</ele>
        <time>2021-09-28T13:20:57Z</time>
      </trkpt>
      <trkpt lat="29.117803" lon="-13.626230">
        <ele>55.168</ele>
        <time>2021-09-28T13:21:12Z</time>
      </trkpt>
      <trkpt lat="29.117657" lon="-13.625614">
        <ele>57.857</ele>
        <time>2021-09-28T13:22:03Z</time>
      </trkpt>
      <trkpt lat="29.117758" lon="-13.625258">
        <ele>64.267</ele>
        <time>2021-09-28T13:22:33Z</time>
      </trkpt>
      <trkpt lat="29.117657" lon="-13.624902">
        <ele>66.246</ele>
        <time>2021-09-28T13:23:06Z</time>
      </trkpt>
      <trkpt lat="29.117711" lon="-13.624589">
        <ele>67.966</ele>
        <time>2021-09-28T13:23:33Z</time>
      </trkpt>
      <trkpt lat="29.117667" lon="-13.624324">
        <ele>62.391</ele>
        <time>2021-09-28T13:24:01Z</time>
      </trkpt>
      <trkpt lat="29.117320" lon="-13.623786">
        <ele>65.281</ele>
        <time>2021-09-28T13:25:03Z</time>
      </trkpt>
      <trkpt lat="29.117296" lon="-13.623300">
        <ele>70.619</ele>
        <time>2021-09-28T13:25:54Z</time>
      </trkpt>
      <trkpt lat="29.117077" lon="-13.623208">
        <ele>71.108</ele>
        <time>2021-09-28T13:26:16Z</time>
      </trkpt>
      <trkpt lat="29.116990" lon="-13.623074">
        <ele>70.827</ele>
        <time>2021-09-28T13:26:29Z</time>
      </trkpt>
      <trkpt lat="29.116623" lon="-13.622253">
        <ele>88.224</ele>
        <time>2021-09-28T13:28:10Z</time>
      </trkpt>
      <trkpt lat="29.116331" lon="-13.622202">
        <ele>86.319</ele>
        <time>2021-09-28T13:28:42Z</time>
      </trkpt>
      <trkpt lat="29.116079" lon="-13.622029">
        <ele>93.019</ele>
        <time>2021-09-28T13:29:09Z</time>
      </trkpt>
      <trkpt lat="29.116041" lon="-13.621555">
        <ele>93.168</ele>
        <time>2021-09-28T13:29:52Z</time>
      </trkpt>
      <trkpt lat="29.115099" lon="-13.621199">
        <ele>99.158</ele>
        <time>2021-09-28T13:31:26Z</time>
      </trkpt>
      <trkpt lat="29.114811" lon="-13.621204">
        <ele>114.157</ele>
        <time>2021-09-28T13:39:36Z</time>
      </trkpt>
      <trkpt lat="29.114474" lon="-13.620986">
        <ele>94.747</ele>
        <time>2021-09-28T13:40:19Z</time>
      </trkpt>
      <trkpt lat="29.114003" lon="-13.620945">
        <ele>169.987</ele>
        <time>2021-09-28T13:42:01Z</time>
      </trkpt>
      <trkpt lat="29.113182" lon="-13.620514">
        <ele>99.542</ele>
        <time>2021-09-28T13:43:35Z</time>
      </trkpt>
      <trkpt lat="29.112720" lon="-13.620466">
        <ele>121.526</ele>
        <time>2021-09-28T13:44:46Z</time>
      </trkpt>
      <trkpt lat="29.112320" lon="-13.620292">
        <ele>137.508</ele>
        <time>2021-09-28T13:45:33Z</time>
      </trkpt>
      <trkpt lat="29.112181" lon="-13.620302">
        <ele>140.836</ele>
        <time>2021-09-28T13:45:49Z</time>
      </trkpt>
      <trkpt lat="29.111898" lon="-13.620129">
        <ele>147.643</ele>
        <time>2021-09-28T13:46:51Z</time>
      </trkpt>
      <trkpt lat="29.111588" lon="-13.619734">
        <ele>98.288</ele>
        <time>2021-09-28T13:47:54Z</time>
      </trkpt>
      <trkpt lat="29.111568" lon="-13.619357">
        <ele>151.088</ele>
        <time>2021-09-28T13:48:41Z</time>
      </trkpt>
      <trkpt lat="29.111489" lon="-13.619297">
        <ele>148.377</ele>
        <time>2021-09-28T13:48:54Z</time>
      </trkpt>
      <trkpt lat="29.111179" lon="-13.619428">
        <ele>153.917</ele>
        <time>2021-09-28T13:49:47Z</time>
      </trkpt>
      <trkpt lat="29.110708" lon="-13.619492">
        <ele>144.666</ele>
        <time>2021-09-28T13:50:32Z</time>
      </trkpt>
      <trkpt lat="29.110587" lon="-13.619435">
        <ele>144.226</ele>
        <time>2021-09-28T13:50:46Z</time>
      </trkpt>
      <trkpt lat="29.109750" lon="-13.619576">
        <ele>181.656</ele>
        <time>2021-09-28T13:52:24Z</time>
      </trkpt>
      <trkpt lat="29.109185" lon="-13.619567">
        <ele>189.759</ele>
        <time>2021-09-28T13:53:19Z</time>
      </trkpt>
      <trkpt lat="29.108858" lon="-13.619490">
        <ele>190.014</ele>
        <time>2021-09-28T13:53:59Z</time>
      </trkpt>
      <trkpt lat="29.108753" lon="-13.619372">
        <ele>140.508</ele>
        <time>2021-09-28T13:54:19Z</time>
      </trkpt>
      <trkpt lat="29.108344" lon="-13.619187">
        <ele>98.713</ele>
        <time>2021-09-28T13:55:02Z</time>
      </trkpt>
      <trkpt lat="29.108797" lon="-13.618516">
        <ele>169.030</ele>
        <time>2021-09-28T13:57:55Z</time>
      </trkpt>
      <trkpt lat="29.108951" lon="-13.618096">
        <ele>198.055</ele>
        <time>2021-09-28T13:58:29Z</time>
      </trkpt>
      <trkpt lat="29.109124" lon="-13.617915">
        <ele>199.395</ele>
        <time>2021-09-28T13:58:49Z</time>
      </trkpt>
      <trkpt lat="29.109192" lon="-13.617600">
        <ele>204.874</ele>
        <time>2021-09-28T13:59:20Z</time>
      </trkpt>
      <trkpt lat="29.109162" lon="-13.617382">
        <ele>212.154</ele>
        <time>2021-09-28T13:59:49Z</time>
      </trkpt>
      <trkpt lat="29.109367" lon="-13.617239">
        <ele>212.053</ele>
        <time>2021-09-28T14:00:10Z</time>
      </trkpt>
      <trkpt lat="29.109404" lon="-13.616967">
        <ele>208.883</ele>
        <time>2021-09-28T14:00:32Z</time>
      </trkpt>
      <trkpt lat="29.109665" lon="-13.616372">
        <ele>160.969</ele>
        <time>2021-09-28T14:01:20Z</time>
      </trkpt>
      <trkpt lat="29.110065" lon="-13.615789">
        <ele>98.404</ele>
        <time>2021-09-28T14:03:45Z</time>
      </trkpt>
      <trkpt lat="29.110354" lon="-13.615519">
        <ele>95.824</ele>
        <time>2021-09-28T14:04:34Z</time>
      </trkpt>
      <trkpt lat="29.110713" lon="-13.614904">
        <ele>102.808</ele>
        <time>2021-09-28T14:05:27Z</time>
      </trkpt>
      <trkpt lat="29.111326" lon="-13.614568">
        <ele>155.244</ele>
        <time>2021-09-28T14:06:31Z</time>
      </trkpt>
      <trkpt lat="29.111843" lon="-13.614674">
        <ele>183.491</ele>
        <time>2021-09-28T14:07:19Z</time>
      </trkpt>
      <trkpt lat="29.111981" lon="-13.614626">
        <ele>148.826</ele>
        <time>2021-09-28T14:07:33Z</time>
      </trkpt>
      <trkpt lat="29.112118" lon="-13.614448">
        <ele>180.966</ele>
        <time>2021-09-28T14:07:50Z</time>
      </trkpt>
      <trkpt lat="29.112894" lon="-13.614257">
        <ele>181.685</ele>
        <time>2021-09-28T14:09:23Z</time>
      </trkpt>
      <trkpt lat="29.113628" lon="-13.614677">
        <ele>179.075</ele>
        <time>2021-09-28T14:10:27Z</time>
      </trkpt>
      <trkpt lat="29.114021" lon="-13.614490">
        <ele>175.754</ele>
        <time>2021-09-28T14:11:05Z</time>
      </trkpt>
      <trkpt lat="29.114079" lon="-13.614581">
        <ele>142.964</ele>
        <time>2021-09-28T14:12:04Z</time>
      </trkpt>
      <trkpt lat="29.114035" lon="-13.614754">
        <ele>117.929</ele>
        <time>2021-09-28T14:12:48Z</time>
      </trkpt>
      <trkpt lat="29.114136" lon="-13.614872">
        <ele>116.800</ele>
        <time>2021-09-28T14:12:59Z</time>
      </trkpt>
      <trkpt lat="29.114711" lon="-13.614873">
        <ele>122.320</ele>
        <time>2021-09-28T14:13:49Z</time>
      </trkpt>
      <trkpt lat="29.114827" lon="-13.615114">
        <ele>111.608</ele>
        <time>2021-09-28T14:14:10Z</time>
      </trkpt>
      <trkpt lat="29.115020" lon="-13.615296">
        <ele>116.070</ele>
        <time>2021-09-28T14:14:30Z</time>
      </trkpt>
      <trkpt lat="29.115123" lon="-13.615600">
        <ele>113.617</ele>
        <time>2021-09-28T14:14:56Z</time>
      </trkpt>
      <trkpt lat="29.115083" lon="-13.615979">
        <ele>95.832</ele>
        <time>2021-09-28T14:15:30Z</time>
      </trkpt>
      <trkpt lat="29.115246" lon="-13.616554">
        <ele>154.452</ele>
        <time>2021-09-28T14:16:21Z</time>
      </trkpt>
      <trkpt lat="29.115203" lon="-13.617170">
        <ele>145.731</ele>
        <time>2021-09-28T14:17:11Z</time>
      </trkpt>
      <trkpt lat="29.115591" lon="-13.617642">
        <ele>140.891</ele>
        <time>2021-09-28T14:18:25Z</time>
      </trkpt>
      <trkpt lat="29.115863" lon="-13.617619">
        <ele>134.670</ele>
        <time>2021-09-28T14:18:55Z</time>
      </trkpt>
      <trkpt lat="29.116191" lon="-13.618014">
        <ele>132.430</ele>
        <time>2021-09-28T14:19:53Z</time>
      </trkpt>
      <trkpt lat="29.116235" lon="-13.618166">
        <ele>131.469</ele>
        <time>2021-09-28T14:20:10Z</time>
      </trkpt>
      <trkpt lat="29.116555" lon="-13.618112">
        <ele>124.204</ele>
        <time>2021-09-28T14:20:42Z</time>
      </trkpt>
      <trkpt lat="29.116577" lon="-13.618274">
        <ele>120.524</ele>
        <time>2021-09-28T14:20:54Z</time>
      </trkpt>
      <trkpt lat="29.116656" lon="-13.618326">
        <ele>117.208</ele>
        <time>2021-09-28T14:21:02Z</time>
      </trkpt>
      <trkpt lat="29.116939" lon="-13.618236">
        <ele>115.134</ele>
        <time>2021-09-28T14:21:24Z</time>
      </trkpt>
      <trkpt lat="29.117120" lon="-13.618399">
        <ele>110.471</ele>
        <time>2021-09-28T14:21:43Z</time>
      </trkpt>
      <trkpt lat="29.118493" lon="-13.618916">
        <ele>81.046</ele>
        <time>2021-09-28T14:23:53Z</time>
      </trkpt>
      <trkpt lat="29.118812" lon="-13.619172">
        <ele>83.096</ele>
        <time>2021-09-28T14:24:23Z</time>
      </trkpt>
      <trkpt lat="29.119002" lon="-13.619209">
        <ele>82.835</ele>
        <time>2021-09-28T14:24:40Z</time>
      </trkpt>
      <trkpt lat="29.119615" lon="-13.619554">
        <ele>83.615</ele>
        <time>2021-09-28T14:26:28Z</time>
      </trkpt>
      <trkpt lat="29.119628" lon="-13.619780">
        <ele>83.534</ele>
        <time>2021-09-28T14:26:43Z</time>
      </trkpt>
      <trkpt lat="29.119470" lon="-13.620447">
        <ele>64.914</ele>
        <time>2021-09-28T14:27:26Z</time>
      </trkpt>
      <trkpt lat="29.119527" lon="-13.620939">
        <ele>65.621</ele>
        <time>2021-09-28T14:28:01Z</time>
      </trkpt>
      <trkpt lat="29.119431" lon="-13.621420">
        <ele>64.841</ele>
        <time>2021-09-28T14:28:36Z</time>
      </trkpt>
      <trkpt lat="29.119446" lon="-13.621759">
        <ele>64.705</ele>
        <time>2021-09-28T14:29:00Z</time>
      </trkpt>
      <trkpt lat="29.119213" lon="-13.623099">
        <ele>67.608</ele>
        <time>2021-09-28T14:31:09Z</time>
      </trkpt>
      <trkpt lat="29.119395" lon="-13.623561">
        <ele>65.280</ele>
        <time>2021-09-28T14:31:38Z</time>
      </trkpt>
      <trkpt lat="29.119400" lon="-13.623779">
        <ele>68.947</ele>
        <time>2021-09-28T14:31:53Z</time>
      </trkpt>
      <trkpt lat="29.119211" lon="-13.624754">
        <ele>85.472</ele>
        <time>2021-09-28T14:33:08Z</time>
      </trkpt>
      <trkpt lat="29.118974" lon="-13.625594">
        <ele>62.632</ele>
        <time>2021-09-28T14:34:09Z</time>
      </trkpt>
      <trkpt lat="29.118578" lon="-13.626224">
        <ele>56.071</ele>
        <time>2021-09-28T14:35:04Z</time>
      </trkpt>
      <trkpt lat="29.118004" lon="-13.626440">
        <ele>61.321</ele>
        <time>2021-09-28T14:35:51Z</time>
      </trkpt>
      <trkpt lat="29.117814" lon="-13.626373">
        <ele>63.410</ele>
        <time>2021-09-28T14:36:07Z</time>
      </trkpt>
      <trkpt lat="29.117791" lon="-13.626426">
        <ele>62.810</ele>
        <time>2021-09-28T14:36:18Z</time>
      </trkpt>
      <trkpt lat="29.117839" lon="-13.626689">
        <ele>55.257</ele>
        <time>2021-09-28T14:37:31Z</time>
      </trkpt>
      <trkpt lat="29.118348" lon="-13.627139">
        <ele>46.600</ele>
        <time>2021-09-28T14:39:17Z</time>
      </trkpt>
      <trkpt lat="29.118402" lon="-13.627408">
        <ele>48.120</ele>
        <time>2021-09-28T14:39:44Z</time>
      </trkpt>
      <trkpt lat="29.118556" lon="-13.627570">
        <ele>48.308</ele>
        <time>2021-09-28T14:41:19Z</time>
      </trkpt>
      <trkpt lat="29.118238" lon="-13.627792">
        <ele>49.463</ele>
        <time>2021-09-28T14:41:54Z</time>
      </trkpt>
      <trkpt lat="29.118231" lon="-13.628292">
        <ele>45.160</ele>
        <time>2021-09-28T14:42:33Z</time>
      </trkpt>
      <trkpt lat="29.118097" lon="-13.628316">
        <ele>45.265</ele>
        <time>2021-09-28T14:42:46Z</time>
      </trkpt>
      <trkpt lat="29.118068" lon="-13.628419">
        <ele>46.835</ele>
        <time>2021-09-28T14:42:57Z</time>
      </trkpt>
      <trkpt lat="29.117941" lon="-13.628398">
        <ele>47.954</ele>
        <time>2021-09-28T14:43:09Z</time>
      </trkpt>
      <trkpt lat="29.117994" lon="-13.628603">
        <ele>48.084</ele>
        <time>2021-09-28T14:43:23Z</time>
      </trkpt>
      <trkpt lat="29.117805" lon="-13.628645">
        <ele>52.223</ele>
        <time>2021-09-28T14:43:37Z</time>
      </trkpt>
      <trkpt lat="29.117910" lon="-13.629008">
        <ele>44.443</ele>
        <time>2021-09-28T14:44:09Z</time>
      </trkpt>
      <trkpt lat="29.117576" lon="-13.629075">
        <ele>45.594</ele>
        <time>2021-09-28T14:44:40Z</time>
      </trkpt>
      <trkpt lat="29.117231" lon="-13.629262">
        <ele>49.057</ele>
        <time>2021-09-28T14:45:13Z</time>
      </trkpt>
      <trkpt lat="29.116751" lon="-13.629665">
        <ele>45.122</ele>
        <time>2021-09-28T14:46:01Z</time>
      </trkpt>
      <trkpt lat="29.116111" lon="-13.631413">
        <ele>45.408</ele>
        <time>2021-09-28T14:48:10Z</time>
      </trkpt>
      <trkpt lat="29.116058" lon="-13.632018">
        <ele>47.297</ele>
        <time>2021-09-28T14:48:51Z</time>
      </trkpt>
      <trkpt lat="29.115659" lon="-13.632352">
        <ele>42.024</ele>
        <time>2021-09-28T14:49:27Z</time>
      </trkpt>
      <trkpt lat="29.115488" lon="-13.632736">
        <ele>42.289</ele>
        <time>2021-09-28T14:50:10Z</time>
      </trkpt>
      <trkpt lat="29.115502" lon="-13.633167">
        <ele>44.359</ele>
        <time>2021-09-28T14:50:39Z</time>
      </trkpt>
      <trkpt lat="29.115333" lon="-13.633597">
        <ele>46.568</ele>
        <time>2021-09-28T14:51:17Z</time>
      </trkpt>
      <trkpt lat="29.115517" lon="-13.633978">
        <ele>46.148</ele>
        <time>2021-09-28T14:51:45Z</time>
      </trkpt>
      <trkpt lat="29.115640" lon="-13.634767">
        <ele>44.477</ele>
        <time>2021-09-28T14:52:40Z</time>
      </trkpt>
      <trkpt lat="29.115414" lon="-13.634810">
        <ele>79.387</ele>
        <time>2021-09-28T14:53:02Z</time>
      </trkpt>
      <trkpt lat="29.114932" lon="-13.635285">
        <ele>77.336</ele>
        <time>2021-09-28T14:53:46Z</time>
      </trkpt>
      <trkpt lat="29.114915" lon="-13.635573">
        <ele>47.117</ele>
        <time>2021-09-28T14:54:07Z</time>
      </trkpt>
      <trkpt lat="29.115000" lon="-13.635888">
        <ele>46.318</ele>
        <time>2021-09-28T14:54:34Z</time>
      </trkpt>
      <trkpt lat="29.114903" lon="-13.636079">
        <ele>47.408</ele>
        <time>2021-09-28T14:54:48Z</time>
      </trkpt>
      <trkpt lat="29.114961" lon="-13.636273">
        <ele>47.211</ele>
        <time>2021-09-28T14:55:02Z</time>
      </trkpt>
      <trkpt lat="29.114856" lon="-13.636465">
        <ele>46.248</ele>
        <time>2021-09-28T14:55:17Z</time>
      </trkpt>
      <trkpt lat="29.114827" lon="-13.636912">
        <ele>49.143</ele>
        <time>2021-09-28T14:55:48Z</time>
      </trkpt>
      <trkpt lat="29.115090" lon="-13.637867">
        <ele>45.123</ele>
        <time>2021-09-28T14:56:56Z</time>
      </trkpt>
      <trkpt lat="29.115216" lon="-13.638039">
        <ele>45.112</ele>
        <time>2021-09-28T14:57:11Z</time>
      </trkpt>
      <trkpt lat="29.114949" lon="-13.638710">
        <ele>47.722</ele>
        <time>2021-09-28T14:57:59Z</time>
      </trkpt>
      <trkpt lat="29.114893" lon="-13.639327">
        <ele>47.851</ele>
        <time>2021-09-28T14:58:45Z</time>
      </trkpt>
      <trkpt lat="29.115824" lon="-13.639877">
        <ele>48.181</ele>
        <time>2021-09-28T15:00:06Z</time>
      </trkpt>
      <trkpt lat="29.115941" lon="-13.640049">
        <ele>47.829</ele>
        <time>2021-09-28T15:00:20Z</time>
      </trkpt>
      <trkpt lat="29.116139" lon="-13.640104">
        <ele>48.200</ele>
        <time>2021-09-28T15:00:38Z</time>
      </trkpt>
      <trkpt lat="29.116179" lon="-13.639848">
        <ele>48.220</ele>
        <time>2021-09-28T15:00:59Z</time>
      </trkpt>
      <trkpt lat="29.116018" lon="-13.639739">
        <ele>47.708</ele>
        <time>2021-09-28T15:01:34Z</time>
      </trkpt>
    </trkseg>
  </trk></gpx>