<?xml version="1.0" encoding="UTF-8"?>
<gpx creator="Wikiloc - https://www.wikiloc.com" version="1.1" xmlns="http://www.topografix.com/GPX/1/1" xmlns:xsi="http://www.w3.org/2001/XMLSchema-instance" xsi:schemaLocation="http://www.topografix.com/GPX/1/1 http://www.topografix.com/GPX/1/1/gpx.xsd">
  <metadata>
    <name>Wikiloc - Ruta circular por la Isla de Lobos</name>
    <link href="https://www.wikiloc.com/hiking-trails/ruta-circular-por-la-isla-de-lobos-248402441">
      <text>Ruta circular por la Isla de Lobos - Wikiloc on Wikiloc</text>
    </link>
    <time>2026-01-26T16:00:18.907Z</time>
  </metadata>
  <trk>
    <name>Ruta circular por la Isla de Lobos - Wikiloc</name>
    <cmt></cmt>
    <desc></desc>
    <trkseg>
      <trkpt lat="28.736702" lon="-13.822470">
        <ele>6.065</ele>
        <time>2026-01-26T11:33:36.374Z</time>
      </trkpt>
      <trkpt lat="28.737371" lon="-13.821869">
        <ele>6.568</ele>
        <time>2026-01-26T11:36:31.910Z</time>
      </trkpt>
      <trkpt lat="28.738101" lon="-13.822465">
        <ele>8.814</ele>
        <time>2026-01-26T11:38:34.910Z</time>
      </trkpt>
      <trkpt lat="28.738388" lon="-13.822577">
        <ele>11.109</ele>
        <time>2026-01-26T11:38:59.911Z</time>
      </trkpt>
      <trkpt lat="28.739211" lon="-13.822349">
        <ele>10.298</ele>
        <time>2026-01-26T11:40:08.911Z</time>
      </trkpt>
      <trkpt lat="28.739888" lon="-13.822364">
        <ele>7.790</ele>
        <time>2026-01-26T11:40:59.911Z</time>
      </trkpt>
      <trkpt lat="28.741037" lon="-13.823678">
        <ele>7.734</ele>
        <time>2026-01-26T11:43:10.910Z</time>
      </trkpt>
      <trkpt lat="28.741301" lon="-13.824093">
        <ele>7.030</ele>
        <time>2026-01-26T11:43:50.911Z</time>
      </trkpt>
      <trkpt lat="28.741798" lon="-13.824261">
        <ele>7.946</ele>
        <time>2026-01-26T11:44:39.914Z</time>
      </trkpt>
      <trkpt lat="28.742108" lon="-13.824488">
        <ele>11.068</ele>
        <time>2026-01-26T11:45:07.910Z</time>
      </trkpt>
      <trkpt lat="28.742497" lon="-13.825166">
        <ele>6.220</ele>
        <time>2026-01-26T11:46:13.908Z</time>
      </trkpt>
      <trkpt lat="28.743121" lon="-13.825793">
        <ele>3.360</ele>
        <time>2026-01-26T11:48:06.911Z</time>
      </trkpt>
      <trkpt lat="28.744239" lon="-13.826245">
        <ele>8.277</ele>
        <time>2026-01-26T11:49:44.910Z</time>
      </trkpt>
      <trkpt lat="28.745060" lon="-13.826355">
        <ele>7.568</ele>
        <time>2026-01-26T11:50:50.911Z</time>
      </trkpt>
      <trkpt lat="28.747454" lon="-13.825955">
        <ele>17.242</ele>
        <time>2026-01-26T11:54:23.909Z</time>
      </trkpt>
      <trkpt lat="28.748074" lon="-13.825636">
        <ele>14.426</ele>
        <time>2026-01-26T11:55:32.911Z</time>
      </trkpt>
      <trkpt lat="28.748654" lon="-13.825081">
        <ele>17.409</ele>
        <time>2026-01-26T11:56:40.910Z</time>
      </trkpt>
      <trkpt lat="28.749389" lon="-13.823580">
        <ele>19.378</ele>
        <time>2026-01-26T11:58:44.913Z</time>
      </trkpt>
      <trkpt lat="28.750081" lon="-13.823012">
        <ele>17.610</ele>
        <time>2026-01-26T11:59:56.911Z</time>
      </trkpt>
      <trkpt lat="28.750453" lon="-13.822826">
        <ele>19.714</ele>
        <time>2026-01-26T12:00:29.910Z</time>
      </trkpt>
      <trkpt lat="28.750273" lon="-13.823021">
        <ele>19.050</ele>
        <time>2026-01-26T12:00:59.910Z</time>
      </trkpt>
      <trkpt lat="28.750150" lon="-13.823387">
        <ele>17.866</ele>
        <time>2026-01-26T12:01:31.911Z</time>
      </trkpt>
      <trkpt lat="28.750393" lon="-13.823845">
        <ele>15.718</ele>
        <time>2026-01-26T12:02:47.910Z</time>
      </trkpt>
      <trkpt lat="28.750667" lon="-13.824693">
        <ele>16.380</ele>
        <time>2026-01-26T12:03:56.911Z</time>
      </trkpt>
      <trkpt lat="28.750896" lon="-13.824984">
        <ele>17.050</ele>
        <time>2026-01-26T12:04:24.912Z</time>
      </trkpt>
      <trkpt lat="28.751092" lon="-13.825809">
        <ele>18.987</ele>
        <time>2026-01-26T12:05:29.910Z</time>
      </trkpt>
      <trkpt lat="28.751496" lon="-13.826824">
        <ele>18.969</ele>
        <time>2026-01-26T12:06:53.910Z</time>
      </trkpt>
      <trkpt lat="28.751771" lon="-13.826927">
        <ele>20.704</ele>
        <time>2026-01-26T12:07:18.909Z</time>
      </trkpt>
      <trkpt lat="28.751903" lon="-13.827138">
        <ele>23.824</ele>
        <time>2026-01-26T12:08:44.911Z</time>
      </trkpt>
      <trkpt lat="28.752190" lon="-13.827139">
        <ele>27.009</ele>
        <time>2026-01-26T12:09:22.910Z</time>
      </trkpt>
      <trkpt lat="28.752464" lon="-13.827010">
        <ele>29.348</ele>
        <time>2026-01-26T12:10:06.910Z</time>
      </trkpt>
      <trkpt lat="28.752608" lon="-13.827410">
        <ele>35.890</ele>
        <time>2026-01-26T12:11:30.910Z</time>
      </trkpt>
      <trkpt lat="28.752622" lon="-13.827903">
        <ele>43.944</ele>
        <time>2026-01-26T12:12:36.910Z</time>
      </trkpt>
      <trkpt lat="28.752528" lon="-13.828391">
        <ele>54.820</ele>
        <time>2026-01-26T12:14:20.910Z</time>
      </trkpt>
      <trkpt lat="28.752580" lon="-13.828642">
        <ele>62.576</ele>
        <time>2026-01-26T12:15:46.909Z</time>
      </trkpt>
      <trkpt lat="28.752483" lon="-13.829135">
        <ele>83.768</ele>
        <time>2026-01-26T12:18:49.908Z</time>
      </trkpt>
      <trkpt lat="28.752066" lon="-13.830161">
        <ele>106.510</ele>
        <time>2026-01-26T12:24:04.909Z</time>
      </trkpt>
      <trkpt lat="28.751777" lon="-13.830445">
        <ele>106.320</ele>
        <time>2026-01-26T12:28:08.909Z</time>
      </trkpt>
      <trkpt lat="28.752367" lon="-13.829486">
        <ele>94.987</ele>
        <time>2026-01-26T12:46:01.909Z</time>
      </trkpt>
      <trkpt lat="28.752473" lon="-13.829045">
        <ele>79.753</ele>
        <time>2026-01-26T12:48:33.909Z</time>
      </trkpt>
      <trkpt lat="28.752569" lon="-13.828950">
        <ele>73.304</ele>
        <time>2026-01-26T12:49:21.911Z</time>
      </trkpt>
      <trkpt lat="28.752514" lon="-13.828857">
        <ele>71.414</ele>
        <time>2026-01-26T12:49:37.909Z</time>
      </trkpt>
      <trkpt lat="28.752654" lon="-13.827928">
        <ele>44.109</ele>
        <time>2026-01-26T12:53:03.909Z</time>
      </trkpt>
      <trkpt lat="28.752616" lon="-13.827315">
        <ele>34.117</ele>
        <time>2026-01-26T12:54:49.909Z</time>
      </trkpt>
      <trkpt lat="28.752467" lon="-13.827009">
        <ele>29.359</ele>
        <time>2026-01-26T12:56:26.909Z</time>
      </trkpt>
      <trkpt lat="28.752188" lon="-13.827148">
        <ele>27.183</ele>
        <time>2026-01-26T12:57:01.909Z</time>
      </trkpt>
      <trkpt lat="28.751942" lon="-13.827131">
        <ele>24.039</ele>
        <time>2026-01-26T12:57:29.909Z</time>
      </trkpt>
      <trkpt lat="28.751782" lon="-13.826936">
        <ele>20.845</ele>
        <time>2026-01-26T12:57:57.909Z</time>
      </trkpt>
      <trkpt lat="28.751520" lon="-13.826831">
        <ele>19.037</ele>
        <time>2026-01-26T12:58:29.909Z</time>
      </trkpt>
      <trkpt lat="28.751116" lon="-13.825871">
        <ele>19.039</ele>
        <time>2026-01-26T13:00:13.910Z</time>
      </trkpt>
      <trkpt lat="28.750923" lon="-13.824986">
        <ele>17.069</ele>
        <time>2026-01-26T13:01:35.909Z</time>
      </trkpt>
      <trkpt lat="28.750662" lon="-13.824638">
        <ele>16.256</ele>
        <time>2026-01-26T13:02:12.910Z</time>
      </trkpt>
      <trkpt lat="28.750378" lon="-13.823721">
        <ele>15.995</ele>
        <time>2026-01-26T13:03:37.908Z</time>
      </trkpt>
      <trkpt lat="28.750196" lon="-13.823453">
        <ele>17.449</ele>
        <time>2026-01-26T13:04:09.912Z</time>
      </trkpt>
      <trkpt lat="28.750252" lon="-13.823064">
        <ele>18.823</ele>
        <time>2026-01-26T13:04:46.907Z</time>
      </trkpt>
      <trkpt lat="28.750715" lon="-13.822759">
        <ele>19.409</ele>
        <time>2026-01-26T13:05:39.912Z</time>
      </trkpt>
      <trkpt lat="28.753602" lon="-13.822490">
        <ele>21.931</ele>
        <time>2026-01-26T13:10:38.909Z</time>
      </trkpt>
      <trkpt lat="28.754335" lon="-13.821767">
        <ele>25.193</ele>
        <time>2026-01-26T13:12:13.910Z</time>
      </trkpt>
      <trkpt lat="28.754857" lon="-13.821543">
        <ele>19.427</ele>
        <time>2026-01-26T13:13:07.910Z</time>
      </trkpt>
      <trkpt lat="28.758470" lon="-13.820830">
        <ele>14.033</ele>
        <time>2026-01-26T13:19:15.910Z</time>
      </trkpt>
      <trkpt lat="28.758849" lon="-13.820672">
        <ele>12.169</ele>
        <time>2026-01-26T13:19:58.909Z</time>
      </trkpt>
      <trkpt lat="28.759347" lon="-13.819929">
        <ele>18.091</ele>
        <time>2026-01-26T13:21:24.909Z</time>
      </trkpt>
      <trkpt lat="28.760060" lon="-13.819100">
        <ele>12.683</ele>
        <time>2026-01-26T13:22:53.908Z</time>
      </trkpt>
      <trkpt lat="28.760477" lon="-13.818683">
        <ele>13.333</ele>
        <time>2026-01-26T13:23:43.911Z</time>
      </trkpt>
      <trkpt lat="28.760541" lon="-13.818818">
        <ele>11.830</ele>
        <time>2026-01-26T13:24:44.909Z</time>
      </trkpt>
      <trkpt lat="28.760539" lon="-13.818651">
        <ele>13.678</ele>
        <time>2026-01-26T13:25:08.908Z</time>
      </trkpt>
      <trkpt lat="28.760858" lon="-13.818302">
        <ele>18.033</ele>
        <time>2026-01-26T13:25:48.909Z</time>
      </trkpt>
      <trkpt lat="28.761117" lon="-13.817696">
        <ele>15.126</ele>
        <time>2026-01-26T13:26:41.911Z</time>
      </trkpt>
      <trkpt lat="28.761479" lon="-13.817178">
        <ele>15.909</ele>
        <time>2026-01-26T13:27:33.910Z</time>
      </trkpt>
      <trkpt lat="28.762984" lon="-13.816464">
        <ele>15.629</ele>
        <time>2026-01-26T13:30:01.911Z</time>
      </trkpt>
      <trkpt lat="28.763958" lon="-13.816246">
        <ele>9.561</ele>
        <time>2026-01-26T13:32:33.712Z</time>
      </trkpt>
      <trkpt lat="28.764530" lon="-13.816239">
        <ele>11.585</ele>
        <time>2026-01-26T13:34:06.910Z</time>
      </trkpt>
      <trkpt lat="28.764442" lon="-13.815920">
        <ele>15.761</ele>
        <time>2026-01-26T13:34:46.911Z</time>
      </trkpt>
      <trkpt lat="28.764484" lon="-13.815700">
        <ele>16.067</ele>
        <time>2026-01-26T13:35:08.911Z</time>
      </trkpt>
      <trkpt lat="28.764870" lon="-13.814980">
        <ele>16.889</ele>
        <time>2026-01-26T13:36:40.910Z</time>
      </trkpt>
      <trkpt lat="28.764885" lon="-13.814760">
        <ele>16.321</ele>
        <time>2026-01-26T13:37:46.907Z</time>
      </trkpt>
      <trkpt lat="28.765025" lon="-13.814864">
        <ele>13.821</ele>
        <time>2026-01-26T13:39:12.908Z</time>
      </trkpt>
      <trkpt lat="28.764967" lon="-13.815014">
        <ele>14.658</ele>
        <time>2026-01-26T13:40:30.911Z</time>
      </trkpt>
      <trkpt lat="28.764842" lon="-13.814952">
        <ele>17.344</ele>
        <time>2026-01-26T13:41:12.909Z</time>
      </trkpt>
      <trkpt lat="28.764457" lon="-13.815773">
        <ele>16.505</ele>
        <time>2026-01-26T13:45:00.909Z</time>
      </trkpt>
      <trkpt lat="28.764422" lon="-13.815986">
        <ele>14.515</ele>
        <time>2026-01-26T13:45:18.910Z</time>
      </trkpt>
      <trkpt lat="28.764516" lon="-13.816304">
        <ele>11.009</ele>
        <time>2026-01-26T13:45:45.910Z</time>
      </trkpt>
      <trkpt lat="28.763628" lon="-13.816243">
        <ele>11.326</ele>
        <time>2026-01-26T13:47:20.911Z</time>
      </trkpt>
      <trkpt lat="28.763605" lon="-13.816303">
        <ele>12.178</ele>
        <time>2026-01-26T13:47:55.908Z</time>
      </trkpt>
      <trkpt lat="28.762980" lon="-13.816134">
        <ele>11.642</ele>
        <time>2026-01-26T13:49:01.910Z</time>
      </trkpt>
      <trkpt lat="28.761756" lon="-13.815600">
        <ele>15.758</ele>
        <time>2026-01-26T13:51:11.909Z</time>
      </trkpt>
      <trkpt lat="28.761423" lon="-13.815223">
        <ele>14.544</ele>
        <time>2026-01-26T13:52:33.320Z</time>
      </trkpt>
      <trkpt lat="28.761336" lon="-13.815383">
        <ele>12.226</ele>
        <time>2026-01-26T13:52:51.911Z</time>
      </trkpt>
      <trkpt lat="28.760453" lon="-13.815419">
        <ele>14.478</ele>
        <time>2026-01-26T13:54:24.911Z</time>
      </trkpt>
      <trkpt lat="28.759610" lon="-13.815002">
        <ele>14.248</ele>
        <time>2026-01-26T13:55:43.911Z</time>
      </trkpt>
      <trkpt lat="28.758681" lon="-13.815284">
        <ele>11.885</ele>
        <time>2026-01-26T13:57:07.911Z</time>
      </trkpt>
      <trkpt lat="28.758468" lon="-13.815514">
        <ele>14.069</ele>
        <time>2026-01-26T13:57:35.910Z</time>
      </trkpt>
      <trkpt lat="28.758044" lon="-13.815678">
        <ele>14.304</ele>
        <time>2026-01-26T13:58:15.910Z</time>
      </trkpt>
      <trkpt lat="28.757621" lon="-13.816087">
        <ele>18.824</ele>
        <time>2026-01-26T13:59:04.910Z</time>
      </trkpt>
      <trkpt lat="28.756578" lon="-13.816714">
        <ele>16.909</ele>
        <time>2026-01-26T14:00:45.910Z</time>
      </trkpt>
      <trkpt lat="28.755948" lon="-13.816897">
        <ele>20.628</ele>
        <time>2026-01-26T14:01:40.909Z</time>
      </trkpt>
      <trkpt lat="28.755634" lon="-13.816806">
        <ele>22.140</ele>
        <time>2026-01-26T14:02:08.908Z</time>
      </trkpt>
      <trkpt lat="28.754969" lon="-13.816233">
        <ele>22.124</ele>
        <time>2026-01-26T14:03:50.909Z</time>
      </trkpt>
      <trkpt lat="28.753725" lon="-13.815501">
        <ele>22.960</ele>
        <time>2026-01-26T14:06:21.909Z</time>
      </trkpt>
      <trkpt lat="28.752561" lon="-13.815289">
        <ele>18.596</ele>
        <time>2026-01-26T14:08:13.909Z</time>
      </trkpt>
      <trkpt lat="28.750773" lon="-13.815286">
        <ele>19.878</ele>
        <time>2026-01-26T14:10:38.910Z</time>
      </trkpt>
      <trkpt lat="28.749616" lon="-13.815717">
        <ele>15.930</ele>
        <time>2026-01-26T14:12:16.909Z</time>
      </trkpt>
      <trkpt lat="28.749158" lon="-13.815745">
        <ele>18.410</ele>
        <time>2026-01-26T14:12:52.909Z</time>
      </trkpt>
      <trkpt lat="28.748252" lon="-13.816050">
        <ele>15.257</ele>
        <time>2026-01-26T14:14:45.909Z</time>
      </trkpt>
      <trkpt lat="28.747959" lon="-13.815966">
        <ele>13.679</ele>
        <time>2026-01-26T14:15:11.910Z</time>
      </trkpt>
      <trkpt lat="28.748043" lon="-13.815797">
        <ele>13.305</ele>
        <time>2026-01-26T14:16:45.910Z</time>
      </trkpt>
      <trkpt lat="28.747954" lon="-13.815767">
        <ele>12.925</ele>
        <time>2026-01-26T14:16:53.910Z</time>
      </trkpt>
      <trkpt lat="28.747585" lon="-13.816064">
        <ele>8.209</ele>
        <time>2026-01-26T14:17:31.909Z</time>
      </trkpt>
      <trkpt lat="28.747597" lon="-13.816439">
        <ele>11.629</ele>
        <time>2026-01-26T14:18:50.909Z</time>
      </trkpt>
      <trkpt lat="28.747270" lon="-13.816591">
        <ele>6.861</ele>
        <time>2026-01-26T14:19:21.908Z</time>
      </trkpt>
      <trkpt lat="28.746397" lon="-13.816346">
        <ele>7.185</ele>
        <time>2026-01-26T14:20:37.909Z</time>
      </trkpt>
      <trkpt lat="28.745848" lon="-13.815855">
        <ele>5.071</ele>
        <time>2026-01-26T14:21:46.910Z</time>
      </trkpt>
      <trkpt lat="28.745337" lon="-13.816080">
        <ele>6.647</ele>
        <time>2026-01-26T14:22:46.909Z</time>
      </trkpt>
      <trkpt lat="28.744343" lon="-13.816114">
        <ele>9.639</ele>
        <time>2026-01-26T14:24:58.907Z</time>
      </trkpt>
      <trkpt lat="28.743843" lon="-13.816368">
        <ele>8.271</ele>
        <time>2026-01-26T14:25:50.910Z</time>
      </trkpt>
      <trkpt lat="28.743222" lon="-13.816069">
        <ele>8.351</ele>
        <time>2026-01-26T14:26:49.909Z</time>
      </trkpt>
      <trkpt lat="28.743100" lon="-13.815696">
        <ele>5.698</ele>
        <time>2026-01-26T14:27:27.909Z</time>
      </trkpt>
      <trkpt lat="28.742762" lon="-13.815200">
        <ele>7.277</ele>
        <time>2026-01-26T14:28:14.909Z</time>
      </trkpt>
      <trkpt lat="28.742142" lon="-13.814949">
        <ele>11.261</ele>
        <time>2026-01-26T14:29:03.910Z</time>
      </trkpt>
      <trkpt lat="28.742005" lon="-13.814728">
        <ele>8.627</ele>
        <time>2026-01-26T14:29:26.910Z</time>
      </trkpt>
      <trkpt lat="28.741768" lon="-13.814660">
        <ele>8.809</ele>
        <time>2026-01-26T14:29:49.909Z</time>
      </trkpt>
      <trkpt lat="28.741289" lon="-13.814900">
        <ele>9.689</ele>
        <time>2026-01-26T14:31:05.909Z</time>
      </trkpt>
      <trkpt lat="28.741131" lon="-13.815714">
        <ele>11.191</ele>
        <time>2026-01-26T14:32:45.908Z</time>
      </trkpt>
      <trkpt lat="28.740896" lon="-13.815994">
        <ele>5.435</ele>
        <time>2026-01-26T14:33:26.909Z</time>
      </trkpt>
      <trkpt lat="28.740663" lon="-13.816566">
        <ele>6.661</ele>
        <time>2026-01-26T14:34:19.909Z</time>
      </trkpt>
      <trkpt lat="28.740468" lon="-13.816765">
        <ele>7.557</ele>
        <time>2026-01-26T14:35:05.910Z</time>
      </trkpt>
      <trkpt lat="28.739352" lon="-13.817406">
        <ele>6.969</ele>
        <time>2026-01-26T14:36:55.910Z</time>
      </trkpt>
      <trkpt lat="28.738453" lon="-13.816919">
        <ele>4.411</ele>
        <time>2026-01-26T14:38:32.910Z</time>
      </trkpt>
      <trkpt lat="28.738367" lon="-13.816982">
        <ele>4.471</ele>
        <time>2026-01-26T14:38:41.908Z</time>
      </trkpt>
      <trkpt lat="28.738330" lon="-13.817315">
        <ele>7.078</ele>
        <time>2026-01-26T14:40:19.909Z</time>
      </trkpt>
      <trkpt lat="28.738116" lon="-13.817826">
        <ele>7.497</ele>
        <time>2026-01-26T14:41:18.907Z</time>
      </trkpt>
      <trkpt lat="28.737733" lon="-13.817964">
        <ele>5.823</ele>
        <time>2026-01-26T14:42:20.907Z</time>
      </trkpt>
      <trkpt lat="28.737502" lon="-13.817748">
        <ele>3.925</ele>
        <time>2026-01-26T14:43:16.907Z</time>
      </trkpt>
      <trkpt lat="28.737666" lon="-13.817861">
        <ele>5.309</ele>
        <time>2026-01-26T14:44:42.910Z</time>
      </trkpt>
      <trkpt lat="28.737781" lon="-13.818209">
        <ele>5.541</ele>
        <time>2026-01-26T14:45:24.909Z</time>
      </trkpt>
      <trkpt lat="28.737748" lon="-13.818345">
        <ele>4.963</ele>
        <time>2026-01-26T14:45:42.909Z</time>
      </trkpt>
      <trkpt lat="28.738103" lon="-13.818820">
        <ele>8.637</ele>
        <time>2026-01-26T14:46:45.909Z</time>
      </trkpt>
      <trkpt lat="28.738197" lon="-13.819462">
        <ele>9.013</ele>
        <time>2026-01-26T14:47:39.909Z</time>
      </trkpt>
      <trkpt lat="28.738570" lon="-13.820125">
        <ele>7.779</ele>
        <time>2026-01-26T14:48:47.909Z</time>
      </trkpt>
      <trkpt lat="28.739104" lon="-13.822042">
        <ele>10.711</ele>
        <time>2026-01-26T14:51:42.910Z</time>
      </trkpt>
      <trkpt lat="28.739339" lon="-13.822336">
        <ele>9.423</ele>
        <time>2026-01-26T14:52:17.909Z</time>
      </trkpt>
      <trkpt lat="28.739791" lon="-13.822320">
        <ele>7.853</ele>
        <time>2026-01-26T14:53:13.909Z</time>
      </trkpt>
      <trkpt lat="28.740177" lon="-13.822566">
        <ele>8.220</ele>
        <time>2026-01-26T14:53:55.909Z</time>
      </trkpt>
      <trkpt lat="28.741289" lon="-13.823988">
        <ele>7.343</ele>
        <time>2026-01-26T14:56:17.909Z</time>
      </trkpt>
      <trkpt lat="28.741741" lon="-13.825011">
        <ele>6.864</ele>
        <time>2026-01-26T14:57:55.911Z</time>
      </trkpt>
      <trkpt lat="28.742150" lon="-13.825409">
        <ele>1.710</ele>
        <time>2026-01-26T14:58:59.909Z</time>
      </trkpt>
      <trkpt lat="28.742235" lon="-13.825654">
        <ele>2.109</ele>
        <time>2026-01-26T15:00:12.910Z</time>
      </trkpt>
      <trkpt lat="28.742133" lon="-13.825692">
        <ele>1.716</ele>
        <time>2026-01-26T15:39:45.907Z</time>
      </trkpt>
      <trkpt lat="28.742266" lon="-13.825609">
        <ele>1.818</ele>
        <time>2026-01-26T15:40:47.908Z</time>
      </trkpt>
      <trkpt lat="28.742259" lon="-13.825506">
        <ele>1.682</ele>
        <time>2026-01-26T15:49:58.909Z</time>
      </trkpt>
      <trkpt lat="28.742013" lon="-13.825172">
        <ele>3.688</ele>
        <time>2026-01-26T15:50:42.909Z</time>
      </trkpt>
      <trkpt lat="28.741724" lon="-13.824956">
        <ele>7.574</ele>
        <time>2026-01-26T15:51:17.908Z</time>
      </trkpt>
      <trkpt lat="28.741360" lon="-13.824088">
        <ele>6.596</ele>
        <time>2026-01-26T15:52:59.909Z</time>
      </trkpt>
      <trkpt lat="28.740104" lon="-13.822496">
        <ele>8.098</ele>
        <time>2026-01-26T15:55:43.909Z</time>
      </trkpt>
      <trkpt lat="28.739919" lon="-13.822393">
        <ele>7.728</ele>
        <time>2026-01-26T15:56:00.908Z</time>
      </trkpt>
      <trkpt lat="28.739259" lon="-13.822380">
        <ele>9.845</ele>
        <time>2026-01-26T15:56:57.909Z</time>
      </trkpt>
      <trkpt lat="28.738526" lon="-13.822621">
        <ele>11.092</ele>
        <time>2026-01-26T15:58:03.909Z</time>
      </trkpt>
      <trkpt lat="28.738100" lon="-13.822444">
        <ele>8.973</ele>
        <time>2026-01-26T15:58:42.908Z</time>
      </trkpt>
      <trkpt lat="28.737467" lon="-13.821911">
        <ele>6.220</ele>
        <time>2026-01-26T15:59:54.910Z</time>
      </trkpt>
      <trkpt lat="28.737302" lon="-13.821977">
        <ele>5.809</ele>
        <time>2026-01-26T16:00:18.907Z</time>
      </trkpt>
    </trkseg>
  </trk></gpx>