<?xml version="1.0" encoding="UTF-8"?>
<gpx creator="Wikiloc - https://www.wikiloc.com" version="1.1" xmlns="http://www.topografix.com/GPX/1/1" xmlns:xsi="http://www.w3.org/2001/XMLSchema-instance" xsi:schemaLocation="http://www.topografix.com/GPX/1/1 http://www.topografix.com/GPX/1/1/gpx.xsd">
  <metadata>
    <name>Wikiloc - PR-FV 55: Gran Valle - Cofete</name>
    <link href="https://www.wikiloc.com/hiking-trails/gran-valle-cofete-18310139">
      <text>PR-FV 55: Gran Valle - Cofete - Wikiloc on Wikiloc</text>
    </link>
    <time>2017-06-20T12:28:51Z</time>
  </metadata>
  <trk>
    <name>PR-FV 55: Gran Valle - Cofete - Wikiloc</name>
    <cmt></cmt>
    <desc></desc>
    <trkseg>
      <trkpt lat="28.063612" lon="-14.376237">
        <ele>61.183</ele>
        <time>2017-06-20T09:28:32Z</time>
      </trkpt>
      <trkpt lat="28.063765" lon="-14.376335">
        <ele>60.425</ele>
        <time>2017-06-20T09:29:19Z</time>
      </trkpt>
      <trkpt lat="28.065203" lon="-14.376092">
        <ele>70.617</ele>
        <time>2017-06-20T09:31:24Z</time>
      </trkpt>
      <trkpt lat="28.066045" lon="-14.376087">
        <ele>71.508</ele>
        <time>2017-06-20T09:32:56Z</time>
      </trkpt>
      <trkpt lat="28.066577" lon="-14.375912">
        <ele>75.529</ele>
        <time>2017-06-20T09:35:53Z</time>
      </trkpt>
      <trkpt lat="28.067146" lon="-14.375971">
        <ele>78.616</ele>
        <time>2017-06-20T09:36:41Z</time>
      </trkpt>
      <trkpt lat="28.067863" lon="-14.375442">
        <ele>84.621</ele>
        <time>2017-06-20T09:38:10Z</time>
      </trkpt>
      <trkpt lat="28.068390" lon="-14.375233">
        <ele>89.239</ele>
        <time>2017-06-20T09:38:56Z</time>
      </trkpt>
      <trkpt lat="28.068863" lon="-14.375120">
        <ele>93.648</ele>
        <time>2017-06-20T09:39:35Z</time>
      </trkpt>
      <trkpt lat="28.069432" lon="-14.375176">
        <ele>94.049</ele>
        <time>2017-06-20T09:40:26Z</time>
      </trkpt>
      <trkpt lat="28.073869" lon="-14.377420">
        <ele>118.711</ele>
        <time>2017-06-20T09:47:25Z</time>
      </trkpt>
      <trkpt lat="28.074258" lon="-14.377462">
        <ele>119.617</ele>
        <time>2017-06-20T09:47:54Z</time>
      </trkpt>
      <trkpt lat="28.074501" lon="-14.377297">
        <ele>124.482</ele>
        <time>2017-06-20T09:48:26Z</time>
      </trkpt>
      <trkpt lat="28.075621" lon="-14.377131">
        <ele>130.843</ele>
        <time>2017-06-20T09:50:02Z</time>
      </trkpt>
      <trkpt lat="28.077452" lon="-14.378032">
        <ele>137.717</ele>
        <time>2017-06-20T09:52:55Z</time>
      </trkpt>
      <trkpt lat="28.077909" lon="-14.378141">
        <ele>145.408</ele>
        <time>2017-06-20T09:53:39Z</time>
      </trkpt>
      <trkpt lat="28.078538" lon="-14.378610">
        <ele>151.759</ele>
        <time>2017-06-20T09:54:59Z</time>
      </trkpt>
      <trkpt lat="28.079730" lon="-14.379900">
        <ele>156.466</ele>
        <time>2017-06-20T09:57:24Z</time>
      </trkpt>
      <trkpt lat="28.080183" lon="-14.380257">
        <ele>163.011</ele>
        <time>2017-06-20T09:59:09Z</time>
      </trkpt>
      <trkpt lat="28.080763" lon="-14.380362">
        <ele>168.629</ele>
        <time>2017-06-20T10:00:02Z</time>
      </trkpt>
      <trkpt lat="28.081486" lon="-14.380666">
        <ele>169.338</ele>
        <time>2017-06-20T10:01:04Z</time>
      </trkpt>
      <trkpt lat="28.081855" lon="-14.380591">
        <ele>175.829</ele>
        <time>2017-06-20T10:01:42Z</time>
      </trkpt>
      <trkpt lat="28.082676" lon="-14.380915">
        <ele>184.751</ele>
        <time>2017-06-20T10:03:07Z</time>
      </trkpt>
      <trkpt lat="28.083052" lon="-14.380894">
        <ele>187.827</ele>
        <time>2017-06-20T10:03:39Z</time>
      </trkpt>
      <trkpt lat="28.083497" lon="-14.380681">
        <ele>189.756</ele>
        <time>2017-06-20T10:04:29Z</time>
      </trkpt>
      <trkpt lat="28.084062" lon="-14.380790">
        <ele>190.759</ele>
        <time>2017-06-20T10:05:53Z</time>
      </trkpt>
      <trkpt lat="28.084331" lon="-14.380744">
        <ele>195.014</ele>
        <time>2017-06-20T10:06:19Z</time>
      </trkpt>
      <trkpt lat="28.084621" lon="-14.380995">
        <ele>198.908</ele>
        <time>2017-06-20T10:07:03Z</time>
      </trkpt>
      <trkpt lat="28.084553" lon="-14.381187">
        <ele>195.666</ele>
        <time>2017-06-20T10:07:55Z</time>
      </trkpt>
      <trkpt lat="28.085229" lon="-14.381352">
        <ele>205.093</ele>
        <time>2017-06-20T10:09:01Z</time>
      </trkpt>
      <trkpt lat="28.085313" lon="-14.381311">
        <ele>206.888</ele>
        <time>2017-06-20T10:09:09Z</time>
      </trkpt>
      <trkpt lat="28.085101" lon="-14.380821">
        <ele>208.356</ele>
        <time>2017-06-20T10:09:56Z</time>
      </trkpt>
      <trkpt lat="28.085111" lon="-14.380709">
        <ele>209.375</ele>
        <time>2017-06-20T10:10:03Z</time>
      </trkpt>
      <trkpt lat="28.085209" lon="-14.380719">
        <ele>211.396</ele>
        <time>2017-06-20T10:10:13Z</time>
      </trkpt>
      <trkpt lat="28.086092" lon="-14.380998">
        <ele>225.678</ele>
        <time>2017-06-20T10:11:46Z</time>
      </trkpt>
      <trkpt lat="28.086562" lon="-14.381490">
        <ele>232.464</ele>
        <time>2017-06-20T10:12:45Z</time>
      </trkpt>
      <trkpt lat="28.086742" lon="-14.381856">
        <ele>229.166</ele>
        <time>2017-06-20T10:13:45Z</time>
      </trkpt>
      <trkpt lat="28.087193" lon="-14.382005">
        <ele>232.729</ele>
        <time>2017-06-20T10:14:27Z</time>
      </trkpt>
      <trkpt lat="28.087392" lon="-14.381813">
        <ele>241.021</ele>
        <time>2017-06-20T10:14:54Z</time>
      </trkpt>
      <trkpt lat="28.087495" lon="-14.381830">
        <ele>242.808</ele>
        <time>2017-06-20T10:15:00Z</time>
      </trkpt>
      <trkpt lat="28.087695" lon="-14.382068">
        <ele>241.717</ele>
        <time>2017-06-20T10:15:22Z</time>
      </trkpt>
      <trkpt lat="28.088437" lon="-14.382327">
        <ele>252.624</ele>
        <time>2017-06-20T10:16:37Z</time>
      </trkpt>
      <trkpt lat="28.088380" lon="-14.381336">
        <ele>267.279</ele>
        <time>2017-06-20T10:18:25Z</time>
      </trkpt>
      <trkpt lat="28.089250" lon="-14.381312">
        <ele>285.747</ele>
        <time>2017-06-20T10:22:05Z</time>
      </trkpt>
      <trkpt lat="28.089397" lon="-14.381431">
        <ele>285.876</ele>
        <time>2017-06-20T10:22:20Z</time>
      </trkpt>
      <trkpt lat="28.089878" lon="-14.381429">
        <ele>301.267</ele>
        <time>2017-06-20T10:23:14Z</time>
      </trkpt>
      <trkpt lat="28.089984" lon="-14.381250">
        <ele>308.079</ele>
        <time>2017-06-20T10:24:23Z</time>
      </trkpt>
      <trkpt lat="28.089880" lon="-14.381072">
        <ele>308.515</ele>
        <time>2017-06-20T10:24:51Z</time>
      </trkpt>
      <trkpt lat="28.090159" lon="-14.381067">
        <ele>318.574</ele>
        <time>2017-06-20T10:25:40Z</time>
      </trkpt>
      <trkpt lat="28.090059" lon="-14.380590">
        <ele>329.056</ele>
        <time>2017-06-20T10:27:53Z</time>
      </trkpt>
      <trkpt lat="28.090496" lon="-14.380782">
        <ele>342.421</ele>
        <time>2017-06-20T10:29:27Z</time>
      </trkpt>
      <trkpt lat="28.091034" lon="-14.381362">
        <ele>344.708</ele>
        <time>2017-06-20T10:32:04Z</time>
      </trkpt>
      <trkpt lat="28.091207" lon="-14.381268">
        <ele>345.078</ele>
        <time>2017-06-20T10:33:03Z</time>
      </trkpt>
      <trkpt lat="28.091207" lon="-14.381110">
        <ele>348.335</ele>
        <time>2017-06-20T10:39:47Z</time>
      </trkpt>
      <trkpt lat="28.091758" lon="-14.380414">
        <ele>344.740</ele>
        <time>2017-06-20T10:41:33Z</time>
      </trkpt>
      <trkpt lat="28.091870" lon="-14.380393">
        <ele>337.648</ele>
        <time>2017-06-20T10:41:46Z</time>
      </trkpt>
      <trkpt lat="28.091942" lon="-14.380197">
        <ele>340.127</ele>
        <time>2017-06-20T10:43:14Z</time>
      </trkpt>
      <trkpt lat="28.091980" lon="-14.380297">
        <ele>333.748</ele>
        <time>2017-06-20T10:43:31Z</time>
      </trkpt>
      <trkpt lat="28.091893" lon="-14.380323">
        <ele>338.870</ele>
        <time>2017-06-20T10:43:52Z</time>
      </trkpt>
      <trkpt lat="28.091989" lon="-14.380294">
        <ele>333.266</ele>
        <time>2017-06-20T10:44:20Z</time>
      </trkpt>
      <trkpt lat="28.091856" lon="-14.380034">
        <ele>351.373</ele>
        <time>2017-06-20T10:45:13Z</time>
      </trkpt>
      <trkpt lat="28.091958" lon="-14.379993">
        <ele>345.885</ele>
        <time>2017-06-20T10:45:57Z</time>
      </trkpt>
      <trkpt lat="28.092058" lon="-14.380193">
        <ele>331.513</ele>
        <time>2017-06-20T10:46:34Z</time>
      </trkpt>
      <trkpt lat="28.091966" lon="-14.380234">
        <ele>337.008</ele>
        <time>2017-06-20T10:46:58Z</time>
      </trkpt>
      <trkpt lat="28.091871" lon="-14.379942">
        <ele>351.748</ele>
        <time>2017-06-20T10:47:46Z</time>
      </trkpt>
      <trkpt lat="28.091928" lon="-14.379856">
        <ele>347.395</ele>
        <time>2017-06-20T10:47:49Z</time>
      </trkpt>
      <trkpt lat="28.092473" lon="-14.380278">
        <ele>304.490</ele>
        <time>2017-06-20T10:49:49Z</time>
      </trkpt>
      <trkpt lat="28.092668" lon="-14.380289">
        <ele>296.158</ele>
        <time>2017-06-20T10:50:09Z</time>
      </trkpt>
      <trkpt lat="28.092903" lon="-14.380125">
        <ele>287.057</ele>
        <time>2017-06-20T10:50:46Z</time>
      </trkpt>
      <trkpt lat="28.092943" lon="-14.380032">
        <ele>285.598</ele>
        <time>2017-06-20T10:50:56Z</time>
      </trkpt>
      <trkpt lat="28.092764" lon="-14.380034">
        <ele>292.460</ele>
        <time>2017-06-20T10:51:05Z</time>
      </trkpt>
      <trkpt lat="28.092447" lon="-14.379736">
        <ele>296.996</ele>
        <time>2017-06-20T10:52:16Z</time>
      </trkpt>
      <trkpt lat="28.092517" lon="-14.379450">
        <ele>289.291</ele>
        <time>2017-06-20T10:52:33Z</time>
      </trkpt>
      <trkpt lat="28.092623" lon="-14.379756">
        <ele>287.881</ele>
        <time>2017-06-20T10:53:17Z</time>
      </trkpt>
      <trkpt lat="28.092757" lon="-14.379609">
        <ele>280.219</ele>
        <time>2017-06-20T10:54:06Z</time>
      </trkpt>
      <trkpt lat="28.093220" lon="-14.379694">
        <ele>260.808</ele>
        <time>2017-06-20T10:54:57Z</time>
      </trkpt>
      <trkpt lat="28.093707" lon="-14.380026">
        <ele>251.350</ele>
        <time>2017-06-20T10:56:46Z</time>
      </trkpt>
      <trkpt lat="28.093902" lon="-14.380010">
        <ele>244.197</ele>
        <time>2017-06-20T10:57:05Z</time>
      </trkpt>
      <trkpt lat="28.094018" lon="-14.380274">
        <ele>235.442</ele>
        <time>2017-06-20T10:57:56Z</time>
      </trkpt>
      <trkpt lat="28.093854" lon="-14.379550">
        <ele>227.210</ele>
        <time>2017-06-20T10:59:10Z</time>
      </trkpt>
      <trkpt lat="28.093622" lon="-14.379067">
        <ele>228.769</ele>
        <time>2017-06-20T10:59:43Z</time>
      </trkpt>
      <trkpt lat="28.093635" lon="-14.379230">
        <ele>228.290</ele>
        <time>2017-06-20T10:59:56Z</time>
      </trkpt>
      <trkpt lat="28.094134" lon="-14.379477">
        <ele>215.232</ele>
        <time>2017-06-20T11:01:26Z</time>
      </trkpt>
      <trkpt lat="28.094736" lon="-14.379957">
        <ele>204.948</ele>
        <time>2017-06-20T11:02:51Z</time>
      </trkpt>
      <trkpt lat="28.094840" lon="-14.380369">
        <ele>201.493</ele>
        <time>2017-06-20T11:03:19Z</time>
      </trkpt>
      <trkpt lat="28.094786" lon="-14.380580">
        <ele>200.365</ele>
        <time>2017-06-20T11:03:33Z</time>
      </trkpt>
      <trkpt lat="28.094570" lon="-14.380813">
        <ele>206.821</ele>
        <time>2017-06-20T11:04:04Z</time>
      </trkpt>
      <trkpt lat="28.094838" lon="-14.380749">
        <ele>196.408</ele>
        <time>2017-06-20T11:04:37Z</time>
      </trkpt>
      <trkpt lat="28.095095" lon="-14.380165">
        <ele>190.770</ele>
        <time>2017-06-20T11:06:00Z</time>
      </trkpt>
      <trkpt lat="28.094836" lon="-14.379688">
        <ele>198.417</ele>
        <time>2017-06-20T11:08:57Z</time>
      </trkpt>
      <trkpt lat="28.094892" lon="-14.379511">
        <ele>194.032</ele>
        <time>2017-06-20T11:09:37Z</time>
      </trkpt>
      <trkpt lat="28.095115" lon="-14.379689">
        <ele>187.940</ele>
        <time>2017-06-20T11:10:36Z</time>
      </trkpt>
      <trkpt lat="28.095927" lon="-14.379835">
        <ele>165.479</ele>
        <time>2017-06-20T11:12:12Z</time>
      </trkpt>
      <trkpt lat="28.096082" lon="-14.380111">
        <ele>159.820</ele>
        <time>2017-06-20T11:13:32Z</time>
      </trkpt>
      <trkpt lat="28.096505" lon="-14.380400">
        <ele>148.042</ele>
        <time>2017-06-20T11:15:18Z</time>
      </trkpt>
      <trkpt lat="28.096616" lon="-14.380880">
        <ele>143.788</ele>
        <time>2017-06-20T11:17:40Z</time>
      </trkpt>
      <trkpt lat="28.096808" lon="-14.380903">
        <ele>141.168</ele>
        <time>2017-06-20T11:20:53Z</time>
      </trkpt>
      <trkpt lat="28.097140" lon="-14.381280">
        <ele>131.742</ele>
        <time>2017-06-20T11:21:44Z</time>
      </trkpt>
      <trkpt lat="28.097597" lon="-14.381416">
        <ele>126.426</ele>
        <time>2017-06-20T11:22:32Z</time>
      </trkpt>
      <trkpt lat="28.097699" lon="-14.381607">
        <ele>123.608</ele>
        <time>2017-06-20T11:22:44Z</time>
      </trkpt>
      <trkpt lat="28.098705" lon="-14.382246">
        <ele>106.717</ele>
        <time>2017-06-20T11:24:24Z</time>
      </trkpt>
      <trkpt lat="28.098799" lon="-14.382810">
        <ele>101.554</ele>
        <time>2017-06-20T11:25:17Z</time>
      </trkpt>
      <trkpt lat="28.098800" lon="-14.383037">
        <ele>102.829</ele>
        <time>2017-06-20T11:25:37Z</time>
      </trkpt>
      <trkpt lat="28.098671" lon="-14.383191">
        <ele>104.237</ele>
        <time>2017-06-20T11:25:59Z</time>
      </trkpt>
      <trkpt lat="28.098753" lon="-14.383631">
        <ele>103.116</ele>
        <time>2017-06-20T11:26:35Z</time>
      </trkpt>
      <trkpt lat="28.099477" lon="-14.385141">
        <ele>91.997</ele>
        <time>2017-06-20T11:30:06Z</time>
      </trkpt>
      <trkpt lat="28.099671" lon="-14.385869">
        <ele>91.739</ele>
        <time>2017-06-20T11:31:13Z</time>
      </trkpt>
      <trkpt lat="28.099818" lon="-14.385950">
        <ele>88.795</ele>
        <time>2017-06-20T11:31:28Z</time>
      </trkpt>
      <trkpt lat="28.099856" lon="-14.386394">
        <ele>88.164</ele>
        <time>2017-06-20T11:32:49Z</time>
      </trkpt>
      <trkpt lat="28.100033" lon="-14.386474">
        <ele>86.206</ele>
        <time>2017-06-20T11:33:03Z</time>
      </trkpt>
      <trkpt lat="28.100270" lon="-14.386815">
        <ele>85.716</ele>
        <time>2017-06-20T11:33:36Z</time>
      </trkpt>
      <trkpt lat="28.100409" lon="-14.387100">
        <ele>84.808</ele>
        <time>2017-06-20T11:33:55Z</time>
      </trkpt>
      <trkpt lat="28.100381" lon="-14.387316">
        <ele>87.217</ele>
        <time>2017-06-20T11:34:11Z</time>
      </trkpt>
      <trkpt lat="28.100556" lon="-14.387377">
        <ele>84.714</ele>
        <time>2017-06-20T11:34:27Z</time>
      </trkpt>
      <trkpt lat="28.101334" lon="-14.388312">
        <ele>79.759</ele>
        <time>2017-06-20T11:36:14Z</time>
      </trkpt>
      <trkpt lat="28.102269" lon="-14.388056">
        <ele>61.597</ele>
        <time>2017-06-20T11:38:23Z</time>
      </trkpt>
      <trkpt lat="28.102373" lon="-14.387755">
        <ele>62.046</ele>
        <time>2017-06-20T11:38:58Z</time>
      </trkpt>
      <trkpt lat="28.102266" lon="-14.387116">
        <ele>65.697</ele>
        <time>2017-06-20T11:40:14Z</time>
      </trkpt>
      <trkpt lat="28.102372" lon="-14.386730">
        <ele>64.769</ele>
        <time>2017-06-20T11:41:35Z</time>
      </trkpt>
      <trkpt lat="28.103308" lon="-14.386917">
        <ele>56.225</ele>
        <time>2017-06-20T11:43:44Z</time>
      </trkpt>
      <trkpt lat="28.103784" lon="-14.386785">
        <ele>53.566</ele>
        <time>2017-06-20T11:44:25Z</time>
      </trkpt>
      <trkpt lat="28.104134" lon="-14.386967">
        <ele>47.629</ele>
        <time>2017-06-20T11:44:57Z</time>
      </trkpt>
      <trkpt lat="28.105169" lon="-14.386726">
        <ele>40.621</ele>
        <time>2017-06-20T11:46:42Z</time>
      </trkpt>
      <trkpt lat="28.105537" lon="-14.387017">
        <ele>37.608</ele>
        <time>2017-06-20T11:47:20Z</time>
      </trkpt>
      <trkpt lat="28.105914" lon="-14.387035">
        <ele>36.027</ele>
        <time>2017-06-20T11:48:06Z</time>
      </trkpt>
      <trkpt lat="28.106830" lon="-14.387693">
        <ele>28.294</ele>
        <time>2017-06-20T11:49:34Z</time>
      </trkpt>
      <trkpt lat="28.107593" lon="-14.387884">
        <ele>24.939</ele>
        <time>2017-06-20T11:50:46Z</time>
      </trkpt>
      <trkpt lat="28.108447" lon="-14.387945">
        <ele>17.427</ele>
        <time>2017-06-20T11:52:00Z</time>
      </trkpt>
      <trkpt lat="28.109288" lon="-14.388282">
        <ele>14.316</ele>
        <time>2017-06-20T11:53:48Z</time>
      </trkpt>
      <trkpt lat="28.109854" lon="-14.388336">
        <ele>11.647</ele>
        <time>2017-06-20T11:54:33Z</time>
      </trkpt>
      <trkpt lat="28.110246" lon="-14.388601">
        <ele>9.269</ele>
        <time>2017-06-20T11:56:03Z</time>
      </trkpt>
      <trkpt lat="28.109641" lon="-14.388292">
        <ele>13.155</ele>
        <time>2017-06-20T12:19:12Z</time>
      </trkpt>
      <trkpt lat="28.108524" lon="-14.388000">
        <ele>17.374</ele>
        <time>2017-06-20T12:20:57Z</time>
      </trkpt>
      <trkpt lat="28.108144" lon="-14.388054">
        <ele>19.456</ele>
        <time>2017-06-20T12:21:47Z</time>
      </trkpt>
      <trkpt lat="28.107892" lon="-14.387900">
        <ele>22.321</ele>
        <time>2017-06-20T12:22:15Z</time>
      </trkpt>
      <trkpt lat="28.106938" lon="-14.387749">
        <ele>27.108</ele>
        <time>2017-06-20T12:23:41Z</time>
      </trkpt>
      <trkpt lat="28.105990" lon="-14.387045">
        <ele>36.068</ele>
        <time>2017-06-20T12:25:17Z</time>
      </trkpt>
      <trkpt lat="28.105606" lon="-14.386977">
        <ele>37.455</ele>
        <time>2017-06-20T12:25:49Z</time>
      </trkpt>
      <trkpt lat="28.105272" lon="-14.386710">
        <ele>40.090</ele>
        <time>2017-06-20T12:26:59Z</time>
      </trkpt>
      <trkpt lat="28.105083" lon="-14.386706">
        <ele>40.958</ele>
        <time>2017-06-20T12:28:51Z</time>
      </trkpt>
    </trkseg>
  </trk></gpx>