<?xml version="1.0" encoding="UTF-8"?>
<gpx creator="Wikiloc - https://www.wikiloc.com" version="1.1" xmlns="http://www.topografix.com/GPX/1/1" xmlns:xsi="http://www.w3.org/2001/XMLSchema-instance" xsi:schemaLocation="http://www.topografix.com/GPX/1/1 http://www.topografix.com/GPX/1/1/gpx.xsd">
  <metadata>
    <name>Wikiloc - Parque natural de las dunas de Corralejo por la Costa - Wiki...</name>
    <link href="https://www.wikiloc.com/hiking-trails/parque-natural-de-las-dunas-de-corralejo-por-la-costa-58499605">
      <text>Parque natural de las dunas de Corralejo por la Costa - Wiki... on Wikiloc</text>
    </link>
    <time>2020-10-12T17:13:45Z</time>
  </metadata>
  <trk>
    <name>Parque natural de las dunas de Corralejo por la Costa - Wiki... - Wikiloc</name>
    <cmt></cmt>
    <desc></desc>
    <trkseg>
      <trkpt lat="28.726176" lon="-13.849637">
        <ele>8.775</ele>
        <time>2020-10-12T12:27:21Z</time>
      </trkpt>
      <trkpt lat="28.726097" lon="-13.849576">
        <ele>8.628</ele>
        <time>2020-10-12T12:27:39Z</time>
      </trkpt>
      <trkpt lat="28.726259" lon="-13.849711">
        <ele>8.720</ele>
        <time>2020-10-12T12:28:03Z</time>
      </trkpt>
      <trkpt lat="28.726184" lon="-13.849609">
        <ele>8.908</ele>
        <time>2020-10-12T12:30:03Z</time>
      </trkpt>
      <trkpt lat="28.726269" lon="-13.849699">
        <ele>8.822</ele>
        <time>2020-10-12T12:31:02Z</time>
      </trkpt>
      <trkpt lat="28.726744" lon="-13.849646">
        <ele>8.195</ele>
        <time>2020-10-12T12:32:00Z</time>
      </trkpt>
      <trkpt lat="28.726607" lon="-13.849477">
        <ele>8.881</ele>
        <time>2020-10-12T12:32:19Z</time>
      </trkpt>
      <trkpt lat="28.726350" lon="-13.849672">
        <ele>8.996</ele>
        <time>2020-10-12T12:32:50Z</time>
      </trkpt>
      <trkpt lat="28.726897" lon="-13.849209">
        <ele>8.856</ele>
        <time>2020-10-12T12:35:05Z</time>
      </trkpt>
      <trkpt lat="28.726971" lon="-13.848221">
        <ele>0.993</ele>
        <time>2020-10-12T12:36:28Z</time>
      </trkpt>
      <trkpt lat="28.727243" lon="-13.847784">
        <ele>7.337</ele>
        <time>2020-10-12T12:37:16Z</time>
      </trkpt>
      <trkpt lat="28.727197" lon="-13.845904">
        <ele>-5.732</ele>
        <time>2020-10-12T12:39:35Z</time>
      </trkpt>
      <trkpt lat="28.727352" lon="-13.844921">
        <ele>-2.276</ele>
        <time>2020-10-12T12:40:54Z</time>
      </trkpt>
      <trkpt lat="28.727217" lon="-13.844364">
        <ele>-1.590</ele>
        <time>2020-10-12T12:41:52Z</time>
      </trkpt>
      <trkpt lat="28.726964" lon="-13.844150">
        <ele>6.619</ele>
        <time>2020-10-12T12:42:35Z</time>
      </trkpt>
      <trkpt lat="28.727049" lon="-13.844168">
        <ele>9.408</ele>
        <time>2020-10-12T12:42:45Z</time>
      </trkpt>
      <trkpt lat="28.727102" lon="-13.843703">
        <ele>12.182</ele>
        <time>2020-10-12T12:43:33Z</time>
      </trkpt>
      <trkpt lat="28.726965" lon="-13.843689">
        <ele>9.175</ele>
        <time>2020-10-12T12:44:06Z</time>
      </trkpt>
      <trkpt lat="28.726645" lon="-13.842645">
        <ele>4.811</ele>
        <time>2020-10-12T12:45:35Z</time>
      </trkpt>
      <trkpt lat="28.722415" lon="-13.842272">
        <ele>5.026</ele>
        <time>2020-10-12T12:51:37Z</time>
      </trkpt>
      <trkpt lat="28.722622" lon="-13.842080">
        <ele>14.996</ele>
        <time>2020-10-12T12:51:55Z</time>
      </trkpt>
      <trkpt lat="28.721803" lon="-13.841995">
        <ele>6.373</ele>
        <time>2020-10-12T12:53:19Z</time>
      </trkpt>
      <trkpt lat="28.721057" lon="-13.841732">
        <ele>5.777</ele>
        <time>2020-10-12T12:55:03Z</time>
      </trkpt>
      <trkpt lat="28.722978" lon="-13.841413">
        <ele>5.262</ele>
        <time>2020-10-12T12:57:45Z</time>
      </trkpt>
      <trkpt lat="28.723793" lon="-13.840217">
        <ele>5.546</ele>
        <time>2020-10-12T12:59:41Z</time>
      </trkpt>
      <trkpt lat="28.724646" lon="-13.839644">
        <ele>23.888</ele>
        <time>2020-10-12T13:03:06Z</time>
      </trkpt>
      <trkpt lat="28.723932" lon="-13.840228">
        <ele>16.216</ele>
        <time>2020-10-12T13:03:52Z</time>
      </trkpt>
      <trkpt lat="28.718865" lon="-13.840258">
        <ele>7.308</ele>
        <time>2020-10-12T13:04:32Z</time>
      </trkpt>
      <trkpt lat="28.715801" lon="-13.839318">
        <ele>-7.719</ele>
        <time>2020-10-12T13:05:57Z</time>
      </trkpt>
      <trkpt lat="28.715623" lon="-13.838815">
        <ele>-6.412</ele>
        <time>2020-10-12T13:06:17Z</time>
      </trkpt>
      <trkpt lat="28.715266" lon="-13.838477">
        <ele>-5.998</ele>
        <time>2020-10-12T13:06:41Z</time>
      </trkpt>
      <trkpt lat="28.714835" lon="-13.838142">
        <ele>-5.993</ele>
        <time>2020-10-12T13:07:15Z</time>
      </trkpt>
      <trkpt lat="28.714269" lon="-13.837992">
        <ele>-4.783</ele>
        <time>2020-10-12T13:08:01Z</time>
      </trkpt>
      <trkpt lat="28.714114" lon="-13.837451">
        <ele>27.480</ele>
        <time>2020-10-12T13:08:38Z</time>
      </trkpt>
      <trkpt lat="28.712964" lon="-13.837968">
        <ele>23.154</ele>
        <time>2020-10-12T13:09:39Z</time>
      </trkpt>
      <trkpt lat="28.712936" lon="-13.837544">
        <ele>22.659</ele>
        <time>2020-10-12T13:10:13Z</time>
      </trkpt>
      <trkpt lat="28.713273" lon="-13.837013">
        <ele>13.361</ele>
        <time>2020-10-12T13:10:56Z</time>
      </trkpt>
      <trkpt lat="28.712747" lon="-13.836502">
        <ele>13.121</ele>
        <time>2020-10-12T13:12:11Z</time>
      </trkpt>
      <trkpt lat="28.712895" lon="-13.836590">
        <ele>13.113</ele>
        <time>2020-10-12T13:12:47Z</time>
      </trkpt>
      <trkpt lat="28.711992" lon="-13.837088">
        <ele>17.108</ele>
        <time>2020-10-12T13:13:55Z</time>
      </trkpt>
      <trkpt lat="28.711789" lon="-13.837391">
        <ele>30.841</ele>
        <time>2020-10-12T13:14:21Z</time>
      </trkpt>
      <trkpt lat="28.711945" lon="-13.838288">
        <ele>29.634</ele>
        <time>2020-10-12T13:14:51Z</time>
      </trkpt>
      <trkpt lat="28.712055" lon="-13.838356">
        <ele>28.640</ele>
        <time>2020-10-12T13:15:40Z</time>
      </trkpt>
      <trkpt lat="28.711690" lon="-13.837859">
        <ele>25.495</ele>
        <time>2020-10-12T13:26:19Z</time>
      </trkpt>
      <trkpt lat="28.711828" lon="-13.838377">
        <ele>26.585</ele>
        <time>2020-10-12T13:26:39Z</time>
      </trkpt>
      <trkpt lat="28.711366" lon="-13.838547">
        <ele>13.442</ele>
        <time>2020-10-12T13:27:33Z</time>
      </trkpt>
      <trkpt lat="28.710880" lon="-13.838561">
        <ele>22.346</ele>
        <time>2020-10-12T13:28:21Z</time>
      </trkpt>
      <trkpt lat="28.710280" lon="-13.839085">
        <ele>8.611</ele>
        <time>2020-10-12T13:29:47Z</time>
      </trkpt>
      <trkpt lat="28.709373" lon="-13.839074">
        <ele>5.938</ele>
        <time>2020-10-12T13:31:03Z</time>
      </trkpt>
      <trkpt lat="28.708506" lon="-13.838737">
        <ele>5.970</ele>
        <time>2020-10-12T13:32:19Z</time>
      </trkpt>
      <trkpt lat="28.708020" lon="-13.838824">
        <ele>3.817</ele>
        <time>2020-10-12T13:33:00Z</time>
      </trkpt>
      <trkpt lat="28.707786" lon="-13.838630">
        <ele>3.808</ele>
        <time>2020-10-12T13:33:20Z</time>
      </trkpt>
      <trkpt lat="28.707405" lon="-13.838632">
        <ele>3.828</ele>
        <time>2020-10-12T13:34:11Z</time>
      </trkpt>
      <trkpt lat="28.707174" lon="-13.838167">
        <ele>3.881</ele>
        <time>2020-10-12T13:35:03Z</time>
      </trkpt>
      <trkpt lat="28.706445" lon="-13.837736">
        <ele>3.817</ele>
        <time>2020-10-12T13:36:15Z</time>
      </trkpt>
      <trkpt lat="28.705509" lon="-13.837841">
        <ele>5.272</ele>
        <time>2020-10-12T13:37:59Z</time>
      </trkpt>
      <trkpt lat="28.704408" lon="-13.837316">
        <ele>5.712</ele>
        <time>2020-10-12T13:39:51Z</time>
      </trkpt>
      <trkpt lat="28.703981" lon="-13.837395">
        <ele>8.239</ele>
        <time>2020-10-12T13:40:34Z</time>
      </trkpt>
      <trkpt lat="28.703451" lon="-13.835891">
        <ele>12.033</ele>
        <time>2020-10-12T13:42:01Z</time>
      </trkpt>
      <trkpt lat="28.702220" lon="-13.835599">
        <ele>12.718</ele>
        <time>2020-10-12T13:45:52Z</time>
      </trkpt>
      <trkpt lat="28.700664" lon="-13.834307">
        <ele>3.261</ele>
        <time>2020-10-12T13:48:18Z</time>
      </trkpt>
      <trkpt lat="28.698958" lon="-13.833546">
        <ele>3.821</ele>
        <time>2020-10-12T13:51:25Z</time>
      </trkpt>
      <trkpt lat="28.698513" lon="-13.832909">
        <ele>3.813</ele>
        <time>2020-10-12T13:52:34Z</time>
      </trkpt>
      <trkpt lat="28.697903" lon="-13.832374">
        <ele>2.908</ele>
        <time>2020-10-12T13:53:57Z</time>
      </trkpt>
      <trkpt lat="28.697204" lon="-13.832357">
        <ele>3.621</ele>
        <time>2020-10-12T13:54:46Z</time>
      </trkpt>
      <trkpt lat="28.696977" lon="-13.832204">
        <ele>3.494</ele>
        <time>2020-10-12T13:55:09Z</time>
      </trkpt>
      <trkpt lat="28.694397" lon="-13.831519">
        <ele>8.630</ele>
        <time>2020-10-12T14:01:13Z</time>
      </trkpt>
      <trkpt lat="28.693803" lon="-13.831219">
        <ele>-1.545</ele>
        <time>2020-10-12T14:01:46Z</time>
      </trkpt>
      <trkpt lat="28.693806" lon="-13.830980">
        <ele>-1.795</ele>
        <time>2020-10-12T14:02:51Z</time>
      </trkpt>
      <trkpt lat="28.692277" lon="-13.831269">
        <ele>-0.472</ele>
        <time>2020-10-12T14:05:21Z</time>
      </trkpt>
      <trkpt lat="28.691682" lon="-13.831690">
        <ele>-1.546</ele>
        <time>2020-10-12T14:06:28Z</time>
      </trkpt>
      <trkpt lat="28.691567" lon="-13.831540">
        <ele>-2.721</ele>
        <time>2020-10-12T14:07:19Z</time>
      </trkpt>
      <trkpt lat="28.691254" lon="-13.832026">
        <ele>-2.452</ele>
        <time>2020-10-12T14:09:22Z</time>
      </trkpt>
      <trkpt lat="28.691061" lon="-13.831992">
        <ele>-2.553</ele>
        <time>2020-10-12T14:09:44Z</time>
      </trkpt>
      <trkpt lat="28.690895" lon="-13.832252">
        <ele>4.708</ele>
        <time>2020-10-12T14:10:19Z</time>
      </trkpt>
      <trkpt lat="28.690947" lon="-13.832190">
        <ele>4.908</ele>
        <time>2020-10-12T14:10:54Z</time>
      </trkpt>
      <trkpt lat="28.689786" lon="-13.832129">
        <ele>2.480</ele>
        <time>2020-10-12T15:46:45Z</time>
      </trkpt>
      <trkpt lat="28.688592" lon="-13.831402">
        <ele>3.233</ele>
        <time>2020-10-12T15:48:58Z</time>
      </trkpt>
      <trkpt lat="28.688171" lon="-13.831506">
        <ele>4.879</ele>
        <time>2020-10-12T15:49:39Z</time>
      </trkpt>
      <trkpt lat="28.688052" lon="-13.831324">
        <ele>5.834</ele>
        <time>2020-10-12T15:50:09Z</time>
      </trkpt>
      <trkpt lat="28.687131" lon="-13.831463">
        <ele>-0.494</ele>
        <time>2020-10-12T15:53:39Z</time>
      </trkpt>
      <trkpt lat="28.686918" lon="-13.831954">
        <ele>-1.381</ele>
        <time>2020-10-12T15:54:30Z</time>
      </trkpt>
      <trkpt lat="28.686535" lon="-13.832412">
        <ele>-2.245</ele>
        <time>2020-10-12T15:55:22Z</time>
      </trkpt>
      <trkpt lat="28.685996" lon="-13.832518">
        <ele>0.030</ele>
        <time>2020-10-12T15:56:14Z</time>
      </trkpt>
      <trkpt lat="28.684519" lon="-13.832413">
        <ele>5.017</ele>
        <time>2020-10-12T15:58:34Z</time>
      </trkpt>
      <trkpt lat="28.683187" lon="-13.832146">
        <ele>-0.787</ele>
        <time>2020-10-12T16:00:56Z</time>
      </trkpt>
      <trkpt lat="28.683115" lon="-13.832245">
        <ele>-0.515</ele>
        <time>2020-10-12T16:07:15Z</time>
      </trkpt>
      <trkpt lat="28.682307" lon="-13.832358">
        <ele>-1.508</ele>
        <time>2020-10-12T16:09:02Z</time>
      </trkpt>
      <trkpt lat="28.681359" lon="-13.831513">
        <ele>-0.846</ele>
        <time>2020-10-12T16:10:32Z</time>
      </trkpt>
      <trkpt lat="28.680437" lon="-13.831763">
        <ele>4.139</ele>
        <time>2020-10-12T16:11:59Z</time>
      </trkpt>
      <trkpt lat="28.680169" lon="-13.832009">
        <ele>3.775</ele>
        <time>2020-10-12T16:12:28Z</time>
      </trkpt>
      <trkpt lat="28.678742" lon="-13.832449">
        <ele>-3.190</ele>
        <time>2020-10-12T16:15:01Z</time>
      </trkpt>
      <trkpt lat="28.678414" lon="-13.832699">
        <ele>-7.020</ele>
        <time>2020-10-12T16:15:39Z</time>
      </trkpt>
      <trkpt lat="28.678173" lon="-13.833115">
        <ele>-0.427</ele>
        <time>2020-10-12T16:16:27Z</time>
      </trkpt>
      <trkpt lat="28.677991" lon="-13.833145">
        <ele>4.511</ele>
        <time>2020-10-12T16:16:52Z</time>
      </trkpt>
      <trkpt lat="28.677709" lon="-13.832981">
        <ele>0.766</ele>
        <time>2020-10-12T16:17:28Z</time>
      </trkpt>
      <trkpt lat="28.677373" lon="-13.833285">
        <ele>1.533</ele>
        <time>2020-10-12T16:18:05Z</time>
      </trkpt>
      <trkpt lat="28.677196" lon="-13.833060">
        <ele>-0.423</ele>
        <time>2020-10-12T16:18:48Z</time>
      </trkpt>
      <trkpt lat="28.676802" lon="-13.833047">
        <ele>-4.215</ele>
        <time>2020-10-12T16:19:11Z</time>
      </trkpt>
      <trkpt lat="28.675420" lon="-13.834014">
        <ele>-12.808</ele>
        <time>2020-10-12T16:23:05Z</time>
      </trkpt>
      <trkpt lat="28.674539" lon="-13.833902">
        <ele>-3.648</ele>
        <time>2020-10-12T16:24:35Z</time>
      </trkpt>
      <trkpt lat="28.674026" lon="-13.833586">
        <ele>-1.021</ele>
        <time>2020-10-12T16:25:24Z</time>
      </trkpt>
      <trkpt lat="28.672557" lon="-13.833027">
        <ele>0.627</ele>
        <time>2020-10-12T16:27:50Z</time>
      </trkpt>
      <trkpt lat="28.671824" lon="-13.832939">
        <ele>-0.442</ele>
        <time>2020-10-12T16:29:31Z</time>
      </trkpt>
      <trkpt lat="28.671676" lon="-13.832742">
        <ele>2.752</ele>
        <time>2020-10-12T16:30:48Z</time>
      </trkpt>
      <trkpt lat="28.671230" lon="-13.832667">
        <ele>0.829</ele>
        <time>2020-10-12T16:31:22Z</time>
      </trkpt>
      <trkpt lat="28.670325" lon="-13.832951">
        <ele>0.753</ele>
        <time>2020-10-12T16:32:54Z</time>
      </trkpt>
      <trkpt lat="28.669710" lon="-13.832704">
        <ele>-0.968</ele>
        <time>2020-10-12T16:34:01Z</time>
      </trkpt>
      <trkpt lat="28.669568" lon="-13.832853">
        <ele>-4.359</ele>
        <time>2020-10-12T16:35:09Z</time>
      </trkpt>
      <trkpt lat="28.669357" lon="-13.832460">
        <ele>-6.403</ele>
        <time>2020-10-12T16:36:27Z</time>
      </trkpt>
      <trkpt lat="28.668791" lon="-13.831915">
        <ele>-5.423</ele>
        <time>2020-10-12T16:37:32Z</time>
      </trkpt>
      <trkpt lat="28.667848" lon="-13.832093">
        <ele>-5.908</ele>
        <time>2020-10-12T16:39:33Z</time>
      </trkpt>
      <trkpt lat="28.667591" lon="-13.831946">
        <ele>-3.670</ele>
        <time>2020-10-12T16:40:01Z</time>
      </trkpt>
      <trkpt lat="28.667089" lon="-13.831950">
        <ele>-0.943</ele>
        <time>2020-10-12T16:40:55Z</time>
      </trkpt>
      <trkpt lat="28.666958" lon="-13.832321">
        <ele>0.349</ele>
        <time>2020-10-12T16:41:21Z</time>
      </trkpt>
      <trkpt lat="28.666694" lon="-13.832539">
        <ele>-1.544</ele>
        <time>2020-10-12T16:42:00Z</time>
      </trkpt>
      <trkpt lat="28.665563" lon="-13.831475">
        <ele>-7.284</ele>
        <time>2020-10-12T16:45:27Z</time>
      </trkpt>
      <trkpt lat="28.664874" lon="-13.831198">
        <ele>-6.621</ele>
        <time>2020-10-12T16:46:19Z</time>
      </trkpt>
      <trkpt lat="28.664708" lon="-13.832191">
        <ele>-5.055</ele>
        <time>2020-10-12T16:47:48Z</time>
      </trkpt>
      <trkpt lat="28.665589" lon="-13.831292">
        <ele>-3.640</ele>
        <time>2020-10-12T16:48:28Z</time>
      </trkpt>
      <trkpt lat="28.665766" lon="-13.830841">
        <ele>-8.036</ele>
        <time>2020-10-12T16:48:45Z</time>
      </trkpt>
      <trkpt lat="28.665749" lon="-13.830505">
        <ele>-17.817</ele>
        <time>2020-10-12T16:49:03Z</time>
      </trkpt>
      <trkpt lat="28.663041" lon="-13.831768">
        <ele>-9.818</ele>
        <time>2020-10-12T16:52:30Z</time>
      </trkpt>
      <trkpt lat="28.662514" lon="-13.831849">
        <ele>-10.008</ele>
        <time>2020-10-12T16:53:21Z</time>
      </trkpt>
      <trkpt lat="28.662207" lon="-13.831751">
        <ele>-4.528</ele>
        <time>2020-10-12T16:53:44Z</time>
      </trkpt>
      <trkpt lat="28.661472" lon="-13.831994">
        <ele>-1.581</ele>
        <time>2020-10-12T16:54:12Z</time>
      </trkpt>
      <trkpt lat="28.660769" lon="-13.832002">
        <ele>2.097</ele>
        <time>2020-10-12T16:54:44Z</time>
      </trkpt>
      <trkpt lat="28.660131" lon="-13.831728">
        <ele>1.262</ele>
        <time>2020-10-12T16:55:27Z</time>
      </trkpt>
      <trkpt lat="28.659557" lon="-13.831810">
        <ele>-9.772</ele>
        <time>2020-10-12T16:56:06Z</time>
      </trkpt>
      <trkpt lat="28.656959" lon="-13.831478">
        <ele>-2.019</ele>
        <time>2020-10-12T17:00:52Z</time>
      </trkpt>
      <trkpt lat="28.656607" lon="-13.831179">
        <ele>-0.413</ele>
        <time>2020-10-12T17:01:38Z</time>
      </trkpt>
      <trkpt lat="28.656714" lon="-13.831304">
        <ele>-1.078</ele>
        <time>2020-10-12T17:01:56Z</time>
      </trkpt>
      <trkpt lat="28.655318" lon="-13.831070">
        <ele>-2.727</ele>
        <time>2020-10-12T17:04:14Z</time>
      </trkpt>
      <trkpt lat="28.655243" lon="-13.831158">
        <ele>-9.168</ele>
        <time>2020-10-12T17:04:19Z</time>
      </trkpt>
      <trkpt lat="28.654794" lon="-13.830986">
        <ele>-23.814</ele>
        <time>2020-10-12T17:05:07Z</time>
      </trkpt>
      <trkpt lat="28.652450" lon="-13.830981">
        <ele>-15.708</ele>
        <time>2020-10-12T17:10:33Z</time>
      </trkpt>
      <trkpt lat="28.651789" lon="-13.831493">
        <ele>-2.527</ele>
        <time>2020-10-12T17:12:09Z</time>
      </trkpt>
      <trkpt lat="28.651758" lon="-13.831398">
        <ele>-2.550</ele>
        <time>2020-10-12T17:12:26Z</time>
      </trkpt>
      <trkpt lat="28.651639" lon="-13.831461">
        <ele>-3.096</ele>
        <time>2020-10-12T17:13:07Z</time>
      </trkpt>
      <trkpt lat="28.651638" lon="-13.831874">
        <ele>18.581</ele>
        <time>2020-10-12T17:13:45Z</time>
      </trkpt>
    </trkseg>
  </trk></gpx>