<?xml version="1.0" encoding="UTF-8"?>
<gpx creator="Wikiloc - https://www.wikiloc.com" version="1.1" xmlns="http://www.topografix.com/GPX/1/1" xmlns:xsi="http://www.w3.org/2001/XMLSchema-instance" xsi:schemaLocation="http://www.topografix.com/GPX/1/1 http://www.topografix.com/GPX/1/1/gpx.xsd">
  <metadata>
    <name>Wikiloc - 514 PLAYAS DE COSTA TEGUISE</name>
    <link href="https://www.wikiloc.com/walking-trails/514-playas-de-costa-teguise-23280875">
      <text>514 PLAYAS DE COSTA TEGUISE - Wikiloc on Wikiloc</text>
    </link>
    <time>2018-03-08T13:42:37Z</time>
  </metadata>
  <trk>
    <name>514 PLAYAS DE COSTA TEGUISE - Wikiloc</name>
    <cmt></cmt>
    <desc></desc>
    <trkseg>
      <trkpt lat="29.006258" lon="-13.485160">
        <ele>-13.863</ele>
        <time>2018-03-08T08:41:51Z</time>
      </trkpt>
      <trkpt lat="29.006506" lon="-13.485275">
        <ele>17.944</ele>
        <time>2018-03-08T10:49:10Z</time>
      </trkpt>
      <trkpt lat="29.006426" lon="-13.485258">
        <ele>13.618</ele>
        <time>2018-03-08T10:49:36Z</time>
      </trkpt>
      <trkpt lat="29.006598" lon="-13.484984">
        <ele>18.808</ele>
        <time>2018-03-08T10:50:22Z</time>
      </trkpt>
      <trkpt lat="29.006603" lon="-13.484641">
        <ele>18.838</ele>
        <time>2018-03-08T10:50:53Z</time>
      </trkpt>
      <trkpt lat="29.005966" lon="-13.484591">
        <ele>15.579</ele>
        <time>2018-03-08T10:52:13Z</time>
      </trkpt>
      <trkpt lat="29.005342" lon="-13.484321">
        <ele>10.768</ele>
        <time>2018-03-08T10:54:26Z</time>
      </trkpt>
      <trkpt lat="29.004753" lon="-13.484620">
        <ele>11.184</ele>
        <time>2018-03-08T10:55:26Z</time>
      </trkpt>
      <trkpt lat="29.004402" lon="-13.484596">
        <ele>9.796</ele>
        <time>2018-03-08T10:56:41Z</time>
      </trkpt>
      <trkpt lat="29.003454" lon="-13.484065">
        <ele>8.344</ele>
        <time>2018-03-08T10:58:24Z</time>
      </trkpt>
      <trkpt lat="29.003231" lon="-13.483832">
        <ele>8.343</ele>
        <time>2018-03-08T10:58:53Z</time>
      </trkpt>
      <trkpt lat="29.002750" lon="-13.483871">
        <ele>8.751</ele>
        <time>2018-03-08T10:59:35Z</time>
      </trkpt>
      <trkpt lat="29.002026" lon="-13.484603">
        <ele>8.384</ele>
        <time>2018-03-08T11:01:07Z</time>
      </trkpt>
      <trkpt lat="29.001707" lon="-13.485587">
        <ele>6.807</ele>
        <time>2018-03-08T11:02:28Z</time>
      </trkpt>
      <trkpt lat="29.001665" lon="-13.486148">
        <ele>7.317</ele>
        <time>2018-03-08T11:03:14Z</time>
      </trkpt>
      <trkpt lat="29.001232" lon="-13.486267">
        <ele>7.308</ele>
        <time>2018-03-08T11:04:00Z</time>
      </trkpt>
      <trkpt lat="29.001133" lon="-13.486919">
        <ele>8.370</ele>
        <time>2018-03-08T11:06:00Z</time>
      </trkpt>
      <trkpt lat="29.000837" lon="-13.486716">
        <ele>7.341</ele>
        <time>2018-03-08T11:08:07Z</time>
      </trkpt>
      <trkpt lat="29.000830" lon="-13.486794">
        <ele>8.390</ele>
        <time>2018-03-08T11:08:23Z</time>
      </trkpt>
      <trkpt lat="29.000578" lon="-13.486739">
        <ele>7.826</ele>
        <time>2018-03-08T11:09:06Z</time>
      </trkpt>
      <trkpt lat="29.000320" lon="-13.486586">
        <ele>6.338</ele>
        <time>2018-03-08T11:09:42Z</time>
      </trkpt>
      <trkpt lat="28.999165" lon="-13.488394">
        <ele>7.366</ele>
        <time>2018-03-08T11:14:00Z</time>
      </trkpt>
      <trkpt lat="28.997608" lon="-13.489544">
        <ele>11.655</ele>
        <time>2018-03-08T11:17:10Z</time>
      </trkpt>
      <trkpt lat="28.997375" lon="-13.489369">
        <ele>8.783</ele>
        <time>2018-03-08T11:17:43Z</time>
      </trkpt>
      <trkpt lat="28.996984" lon="-13.488600">
        <ele>8.794</ele>
        <time>2018-03-08T11:19:49Z</time>
      </trkpt>
      <trkpt lat="28.996449" lon="-13.488380">
        <ele>8.357</ele>
        <time>2018-03-08T11:20:46Z</time>
      </trkpt>
      <trkpt lat="28.995846" lon="-13.488325">
        <ele>7.822</ele>
        <time>2018-03-08T11:21:50Z</time>
      </trkpt>
      <trkpt lat="28.995167" lon="-13.487921">
        <ele>9.708</ele>
        <time>2018-03-08T11:23:32Z</time>
      </trkpt>
      <trkpt lat="28.994968" lon="-13.487396">
        <ele>6.861</ele>
        <time>2018-03-08T11:24:17Z</time>
      </trkpt>
      <trkpt lat="28.994978" lon="-13.486979">
        <ele>5.452</ele>
        <time>2018-03-08T11:24:47Z</time>
      </trkpt>
      <trkpt lat="28.995687" lon="-13.485847">
        <ele>5.451</ele>
        <time>2018-03-08T11:26:42Z</time>
      </trkpt>
      <trkpt lat="28.995766" lon="-13.485885">
        <ele>5.437</ele>
        <time>2018-03-08T11:27:01Z</time>
      </trkpt>
      <trkpt lat="28.995903" lon="-13.485738">
        <ele>5.969</ele>
        <time>2018-03-08T11:27:42Z</time>
      </trkpt>
      <trkpt lat="28.995770" lon="-13.485785">
        <ele>5.957</ele>
        <time>2018-03-08T11:28:01Z</time>
      </trkpt>
      <trkpt lat="28.994875" lon="-13.486928">
        <ele>5.976</ele>
        <time>2018-03-08T11:31:13Z</time>
      </trkpt>
      <trkpt lat="28.994659" lon="-13.486805">
        <ele>8.394</ele>
        <time>2018-03-08T11:31:37Z</time>
      </trkpt>
      <trkpt lat="28.994577" lon="-13.486358">
        <ele>8.762</ele>
        <time>2018-03-08T11:32:06Z</time>
      </trkpt>
      <trkpt lat="28.994274" lon="-13.485934">
        <ele>8.783</ele>
        <time>2018-03-08T11:33:02Z</time>
      </trkpt>
      <trkpt lat="28.993315" lon="-13.485898">
        <ele>9.211</ele>
        <time>2018-03-08T11:34:27Z</time>
      </trkpt>
      <trkpt lat="28.992859" lon="-13.486291">
        <ele>10.208</ele>
        <time>2018-03-08T11:35:16Z</time>
      </trkpt>
      <trkpt lat="28.992659" lon="-13.486544">
        <ele>9.738</ele>
        <time>2018-03-08T11:35:40Z</time>
      </trkpt>
      <trkpt lat="28.992670" lon="-13.487064">
        <ele>9.229</ele>
        <time>2018-03-08T11:36:18Z</time>
      </trkpt>
      <trkpt lat="28.993572" lon="-13.488642">
        <ele>9.728</ele>
        <time>2018-03-08T11:40:54Z</time>
      </trkpt>
      <trkpt lat="28.993607" lon="-13.488916">
        <ele>11.114</ele>
        <time>2018-03-08T11:41:15Z</time>
      </trkpt>
      <trkpt lat="28.993357" lon="-13.489644">
        <ele>9.266</ele>
        <time>2018-03-08T11:42:14Z</time>
      </trkpt>
      <trkpt lat="28.992857" lon="-13.490129">
        <ele>9.234</ele>
        <time>2018-03-08T11:43:45Z</time>
      </trkpt>
      <trkpt lat="28.992826" lon="-13.490849">
        <ele>9.793</ele>
        <time>2018-03-08T11:45:00Z</time>
      </trkpt>
      <trkpt lat="28.992853" lon="-13.491389">
        <ele>8.711</ele>
        <time>2018-03-08T11:45:38Z</time>
      </trkpt>
      <trkpt lat="28.993147" lon="-13.492001">
        <ele>10.784</ele>
        <time>2018-03-08T11:46:34Z</time>
      </trkpt>
      <trkpt lat="28.993340" lon="-13.492966">
        <ele>13.607</ele>
        <time>2018-03-08T11:47:38Z</time>
      </trkpt>
      <trkpt lat="28.993700" lon="-13.493441">
        <ele>13.617</ele>
        <time>2018-03-08T11:48:29Z</time>
      </trkpt>
      <trkpt lat="28.993452" lon="-13.494349">
        <ele>12.608</ele>
        <time>2018-03-08T11:49:40Z</time>
      </trkpt>
      <trkpt lat="28.993361" lon="-13.495476">
        <ele>8.780</ele>
        <time>2018-03-08T11:52:16Z</time>
      </trkpt>
      <trkpt lat="28.992319" lon="-13.496863">
        <ele>8.761</ele>
        <time>2018-03-08T11:54:23Z</time>
      </trkpt>
      <trkpt lat="28.991667" lon="-13.497170">
        <ele>11.180</ele>
        <time>2018-03-08T11:55:33Z</time>
      </trkpt>
      <trkpt lat="28.990576" lon="-13.498513">
        <ele>13.196</ele>
        <time>2018-03-08T11:57:40Z</time>
      </trkpt>
      <trkpt lat="28.990473" lon="-13.498722">
        <ele>13.158</ele>
        <time>2018-03-08T11:57:55Z</time>
      </trkpt>
      <trkpt lat="28.990534" lon="-13.498986">
        <ele>13.166</ele>
        <time>2018-03-08T11:58:24Z</time>
      </trkpt>
      <trkpt lat="28.990444" lon="-13.499497">
        <ele>12.185</ele>
        <time>2018-03-08T11:59:20Z</time>
      </trkpt>
      <trkpt lat="28.990290" lon="-13.499841">
        <ele>10.783</ele>
        <time>2018-03-08T11:59:47Z</time>
      </trkpt>
      <trkpt lat="28.989340" lon="-13.501307">
        <ele>12.137</ele>
        <time>2018-03-08T12:01:49Z</time>
      </trkpt>
      <trkpt lat="28.988657" lon="-13.501813">
        <ele>12.149</ele>
        <time>2018-03-08T12:02:58Z</time>
      </trkpt>
      <trkpt lat="28.988371" lon="-13.502273">
        <ele>11.113</ele>
        <time>2018-03-08T12:03:32Z</time>
      </trkpt>
      <trkpt lat="28.988077" lon="-13.503306">
        <ele>9.208</ele>
        <time>2018-03-08T12:04:43Z</time>
      </trkpt>
      <trkpt lat="28.988222" lon="-13.503734">
        <ele>11.125</ele>
        <time>2018-03-08T12:05:33Z</time>
      </trkpt>
      <trkpt lat="28.988125" lon="-13.503672">
        <ele>10.796</ele>
        <time>2018-03-08T12:06:08Z</time>
      </trkpt>
      <trkpt lat="28.988068" lon="-13.503252">
        <ele>10.785</ele>
        <time>2018-03-08T12:08:26Z</time>
      </trkpt>
      <trkpt lat="28.988388" lon="-13.502362">
        <ele>10.741</ele>
        <time>2018-03-08T12:10:15Z</time>
      </trkpt>
      <trkpt lat="28.989773" lon="-13.500597">
        <ele>14.083</ele>
        <time>2018-03-08T12:12:48Z</time>
      </trkpt>
      <trkpt lat="28.990395" lon="-13.499305">
        <ele>12.111</ele>
        <time>2018-03-08T12:14:27Z</time>
      </trkpt>
      <trkpt lat="28.990540" lon="-13.498622">
        <ele>12.190</ele>
        <time>2018-03-08T12:15:18Z</time>
      </trkpt>
      <trkpt lat="28.991753" lon="-13.497164">
        <ele>10.728</ele>
        <time>2018-03-08T12:17:26Z</time>
      </trkpt>
      <trkpt lat="28.992147" lon="-13.497026">
        <ele>9.221</ele>
        <time>2018-03-08T12:17:56Z</time>
      </trkpt>
      <trkpt lat="28.992552" lon="-13.496701">
        <ele>10.241</ele>
        <time>2018-03-08T12:18:32Z</time>
      </trkpt>
      <trkpt lat="28.993355" lon="-13.495566">
        <ele>10.705</ele>
        <time>2018-03-08T12:22:18Z</time>
      </trkpt>
      <trkpt lat="28.993483" lon="-13.494436">
        <ele>13.108</ele>
        <time>2018-03-08T12:23:39Z</time>
      </trkpt>
      <trkpt lat="28.993395" lon="-13.494235">
        <ele>14.084</ele>
        <time>2018-03-08T12:24:06Z</time>
      </trkpt>
      <trkpt lat="28.993492" lon="-13.494130">
        <ele>13.615</ele>
        <time>2018-03-08T12:25:20Z</time>
      </trkpt>
      <trkpt lat="28.993618" lon="-13.493350">
        <ele>14.074</ele>
        <time>2018-03-08T12:26:18Z</time>
      </trkpt>
      <trkpt lat="28.993334" lon="-13.492948">
        <ele>16.090</ele>
        <time>2018-03-08T12:34:13Z</time>
      </trkpt>
      <trkpt lat="28.993114" lon="-13.491940">
        <ele>12.682</ele>
        <time>2018-03-08T12:35:29Z</time>
      </trkpt>
      <trkpt lat="28.992813" lon="-13.491416">
        <ele>10.750</ele>
        <time>2018-03-08T12:36:15Z</time>
      </trkpt>
      <trkpt lat="28.992796" lon="-13.491068">
        <ele>11.619</ele>
        <time>2018-03-08T12:36:39Z</time>
      </trkpt>
      <trkpt lat="28.992958" lon="-13.490039">
        <ele>12.187</ele>
        <time>2018-03-08T12:37:51Z</time>
      </trkpt>
      <trkpt lat="28.993380" lon="-13.489576">
        <ele>12.132</ele>
        <time>2018-03-08T12:38:45Z</time>
      </trkpt>
      <trkpt lat="28.993608" lon="-13.488789">
        <ele>14.092</ele>
        <time>2018-03-08T12:39:45Z</time>
      </trkpt>
      <trkpt lat="28.992619" lon="-13.486935">
        <ele>12.111</ele>
        <time>2018-03-08T12:42:44Z</time>
      </trkpt>
      <trkpt lat="28.992725" lon="-13.486418">
        <ele>13.608</ele>
        <time>2018-03-08T12:43:21Z</time>
      </trkpt>
      <trkpt lat="28.993015" lon="-13.485984">
        <ele>13.175</ele>
        <time>2018-03-08T12:43:57Z</time>
      </trkpt>
      <trkpt lat="28.993559" lon="-13.485778">
        <ele>13.686</ele>
        <time>2018-03-08T12:44:38Z</time>
      </trkpt>
      <trkpt lat="28.994329" lon="-13.485981">
        <ele>13.145</ele>
        <time>2018-03-08T12:45:34Z</time>
      </trkpt>
      <trkpt lat="28.994547" lon="-13.486241">
        <ele>13.691</ele>
        <time>2018-03-08T12:46:00Z</time>
      </trkpt>
      <trkpt lat="28.994686" lon="-13.486891">
        <ele>12.613</ele>
        <time>2018-03-08T12:46:42Z</time>
      </trkpt>
      <trkpt lat="28.994940" lon="-13.487174">
        <ele>10.781</ele>
        <time>2018-03-08T12:47:08Z</time>
      </trkpt>
      <trkpt lat="28.995235" lon="-13.487991">
        <ele>15.590</ele>
        <time>2018-03-08T12:48:08Z</time>
      </trkpt>
      <trkpt lat="28.995592" lon="-13.488079">
        <ele>13.698</ele>
        <time>2018-03-08T12:48:39Z</time>
      </trkpt>
      <trkpt lat="28.996027" lon="-13.488488">
        <ele>13.634</ele>
        <time>2018-03-08T12:49:24Z</time>
      </trkpt>
      <trkpt lat="28.996374" lon="-13.488322">
        <ele>13.155</ele>
        <time>2018-03-08T12:49:58Z</time>
      </trkpt>
      <trkpt lat="28.996895" lon="-13.488508">
        <ele>14.010</ele>
        <time>2018-03-08T12:51:25Z</time>
      </trkpt>
      <trkpt lat="28.997433" lon="-13.489205">
        <ele>13.108</ele>
        <time>2018-03-08T12:52:35Z</time>
      </trkpt>
      <trkpt lat="28.997726" lon="-13.489374">
        <ele>15.545</ele>
        <time>2018-03-08T12:53:11Z</time>
      </trkpt>
      <trkpt lat="28.997913" lon="-13.489336">
        <ele>16.096</ele>
        <time>2018-03-08T12:53:28Z</time>
      </trkpt>
      <trkpt lat="28.999226" lon="-13.488343">
        <ele>11.185</ele>
        <time>2018-03-08T12:56:13Z</time>
      </trkpt>
      <trkpt lat="29.000149" lon="-13.486906">
        <ele>12.621</ele>
        <time>2018-03-08T13:01:11Z</time>
      </trkpt>
      <trkpt lat="29.000061" lon="-13.486624">
        <ele>11.113</ele>
        <time>2018-03-08T13:01:37Z</time>
      </trkpt>
      <trkpt lat="29.000139" lon="-13.486012">
        <ele>11.191</ele>
        <time>2018-03-08T13:02:14Z</time>
      </trkpt>
      <trkpt lat="29.000002" lon="-13.485840">
        <ele>11.140</ele>
        <time>2018-03-08T13:02:34Z</time>
      </trkpt>
      <trkpt lat="28.999807" lon="-13.484309">
        <ele>8.348</ele>
        <time>2018-03-08T13:04:31Z</time>
      </trkpt>
      <trkpt lat="28.999504" lon="-13.483053">
        <ele>12.189</ele>
        <time>2018-03-08T13:06:23Z</time>
      </trkpt>
      <trkpt lat="28.999582" lon="-13.482113">
        <ele>12.106</ele>
        <time>2018-03-08T13:07:34Z</time>
      </trkpt>
      <trkpt lat="28.999720" lon="-13.481955">
        <ele>10.726</ele>
        <time>2018-03-08T13:07:50Z</time>
      </trkpt>
      <trkpt lat="29.000008" lon="-13.482030">
        <ele>13.108</ele>
        <time>2018-03-08T13:08:26Z</time>
      </trkpt>
      <trkpt lat="29.000252" lon="-13.482608">
        <ele>11.620</ele>
        <time>2018-03-08T13:10:56Z</time>
      </trkpt>
      <trkpt lat="29.000708" lon="-13.482800">
        <ele>12.691</ele>
        <time>2018-03-08T13:11:36Z</time>
      </trkpt>
      <trkpt lat="29.001871" lon="-13.482433">
        <ele>12.190</ele>
        <time>2018-03-08T13:13:20Z</time>
      </trkpt>
      <trkpt lat="29.002390" lon="-13.481763">
        <ele>12.166</ele>
        <time>2018-03-08T13:14:26Z</time>
      </trkpt>
      <trkpt lat="29.002588" lon="-13.481272">
        <ele>10.778</ele>
        <time>2018-03-08T13:15:22Z</time>
      </trkpt>
      <trkpt lat="29.002729" lon="-13.480136">
        <ele>11.676</ele>
        <time>2018-03-08T13:17:14Z</time>
      </trkpt>
      <trkpt lat="29.003101" lon="-13.479449">
        <ele>11.125</ele>
        <time>2018-03-08T13:19:04Z</time>
      </trkpt>
      <trkpt lat="29.003834" lon="-13.479149">
        <ele>11.653</ele>
        <time>2018-03-08T13:20:17Z</time>
      </trkpt>
      <trkpt lat="29.004797" lon="-13.478414">
        <ele>11.157</ele>
        <time>2018-03-08T13:21:59Z</time>
      </trkpt>
      <trkpt lat="29.004963" lon="-13.478127">
        <ele>11.600</ele>
        <time>2018-03-08T13:22:35Z</time>
      </trkpt>
      <trkpt lat="29.008053" lon="-13.480369">
        <ele>25.120</ele>
        <time>2018-03-08T13:28:35Z</time>
      </trkpt>
      <trkpt lat="29.008791" lon="-13.482144">
        <ele>29.908</ele>
        <time>2018-03-08T13:31:10Z</time>
      </trkpt>
      <trkpt lat="29.008619" lon="-13.482515">
        <ele>29.967</ele>
        <time>2018-03-08T13:31:39Z</time>
      </trkpt>
      <trkpt lat="29.008596" lon="-13.483020">
        <ele>30.448</ele>
        <time>2018-03-08T13:32:12Z</time>
      </trkpt>
      <trkpt lat="29.008821" lon="-13.483113">
        <ele>28.957</ele>
        <time>2018-03-08T13:32:42Z</time>
      </trkpt>
      <trkpt lat="29.008821" lon="-13.483275">
        <ele>28.533</ele>
        <time>2018-03-08T13:32:58Z</time>
      </trkpt>
      <trkpt lat="29.008924" lon="-13.483251">
        <ele>29.495</ele>
        <time>2018-03-08T13:33:06Z</time>
      </trkpt>
      <trkpt lat="29.009144" lon="-13.483463">
        <ele>28.913</ele>
        <time>2018-03-08T13:34:27Z</time>
      </trkpt>
      <trkpt lat="29.008509" lon="-13.483291">
        <ele>28.962</ele>
        <time>2018-03-08T13:35:45Z</time>
      </trkpt>
      <trkpt lat="29.007524" lon="-13.484305">
        <ele>30.430</ele>
        <time>2018-03-08T13:37:42Z</time>
      </trkpt>
      <trkpt lat="29.007301" lon="-13.484434">
        <ele>28.954</ele>
        <time>2018-03-08T13:37:59Z</time>
      </trkpt>
      <trkpt lat="29.007133" lon="-13.484399">
        <ele>28.056</ele>
        <time>2018-03-08T13:38:28Z</time>
      </trkpt>
      <trkpt lat="29.007214" lon="-13.484643">
        <ele>28.511</ele>
        <time>2018-03-08T13:38:57Z</time>
      </trkpt>
      <trkpt lat="29.006170" lon="-13.485699">
        <ele>20.308</ele>
        <time>2018-03-08T13:40:54Z</time>
      </trkpt>
      <trkpt lat="29.006451" lon="-13.485218">
        <ele>24.117</ele>
        <time>2018-03-08T13:41:43Z</time>
      </trkpt>
      <trkpt lat="29.006369" lon="-13.485129">
        <ele>29.458</ele>
        <time>2018-03-08T13:42:37Z</time>
      </trkpt>
    </trkseg>
  </trk></gpx>