<?xml version="1.0" encoding="UTF-8"?>
<gpx creator="Wikiloc - https://www.wikiloc.com" version="1.1" xmlns="http://www.topografix.com/GPX/1/1" xmlns:xsi="http://www.w3.org/2001/XMLSchema-instance" xsi:schemaLocation="http://www.topografix.com/GPX/1/1 http://www.topografix.com/GPX/1/1/gpx.xsd">
  <metadata>
    <name>Wikiloc - Fuerteventura Tetir Degollada Sargenta monolito Maxorata 72,...</name>
    <link href="https://www.wikiloc.com/hiking-trails/tetir-degollada-sargenta-monolito-maxorata-72-llano-muchichafe-tefia-degollada-de-facay-tetir-102601131">
      <text>Fuerteventura Tetir Degollada Sargenta monolito Maxorata 72,... on Wikiloc</text>
    </link>
    <time>2022-05-13T12:28:36Z</time>
  </metadata>
  <trk>
    <name>Fuerteventura Tetir Degollada Sargenta monolito Maxorata 72,... - Wikiloc</name>
    <cmt></cmt>
    <desc></desc>
    <trkseg>
      <trkpt lat="28.531496" lon="-13.936036">
        <ele>337.028</ele>
        <time>2022-05-13T07:57:30Z</time>
      </trkpt>
      <trkpt lat="28.531627" lon="-13.936272">
        <ele>337.089</ele>
        <time>2022-05-13T07:57:47Z</time>
      </trkpt>
      <trkpt lat="28.531556" lon="-13.936818">
        <ele>337.017</ele>
        <time>2022-05-13T07:58:23Z</time>
      </trkpt>
      <trkpt lat="28.530454" lon="-13.939683">
        <ele>333.009</ele>
        <time>2022-05-13T08:01:52Z</time>
      </trkpt>
      <trkpt lat="28.529959" lon="-13.941710">
        <ele>340.083</ele>
        <time>2022-05-13T08:04:06Z</time>
      </trkpt>
      <trkpt lat="28.529747" lon="-13.943750">
        <ele>342.082</ele>
        <time>2022-05-13T08:06:13Z</time>
      </trkpt>
      <trkpt lat="28.529849" lon="-13.944654">
        <ele>344.064</ele>
        <time>2022-05-13T08:07:09Z</time>
      </trkpt>
      <trkpt lat="28.529781" lon="-13.945426">
        <ele>346.078</ele>
        <time>2022-05-13T08:07:58Z</time>
      </trkpt>
      <trkpt lat="28.527221" lon="-13.945394">
        <ele>373.092</ele>
        <time>2022-05-13T08:11:42Z</time>
      </trkpt>
      <trkpt lat="28.525168" lon="-13.945564">
        <ele>392.033</ele>
        <time>2022-05-13T08:14:36Z</time>
      </trkpt>
      <trkpt lat="28.524688" lon="-13.945352">
        <ele>398.073</ele>
        <time>2022-05-13T08:15:16Z</time>
      </trkpt>
      <trkpt lat="28.524287" lon="-13.944889">
        <ele>409.095</ele>
        <time>2022-05-13T08:16:02Z</time>
      </trkpt>
      <trkpt lat="28.523548" lon="-13.944381">
        <ele>415.083</ele>
        <time>2022-05-13T08:17:19Z</time>
      </trkpt>
      <trkpt lat="28.520644" lon="-13.945994">
        <ele>369.037</ele>
        <time>2022-05-13T08:21:30Z</time>
      </trkpt>
      <trkpt lat="28.520006" lon="-13.946252">
        <ele>358.049</ele>
        <time>2022-05-13T08:22:20Z</time>
      </trkpt>
      <trkpt lat="28.519467" lon="-13.946292">
        <ele>355.013</ele>
        <time>2022-05-13T08:23:03Z</time>
      </trkpt>
      <trkpt lat="28.518856" lon="-13.946710">
        <ele>350.009</ele>
        <time>2022-05-13T08:23:55Z</time>
      </trkpt>
      <trkpt lat="28.517927" lon="-13.946607">
        <ele>353.044</ele>
        <time>2022-05-13T08:25:03Z</time>
      </trkpt>
      <trkpt lat="28.517434" lon="-13.946679">
        <ele>355.023</ele>
        <time>2022-05-13T08:25:44Z</time>
      </trkpt>
      <trkpt lat="28.516874" lon="-13.947045">
        <ele>358.015</ele>
        <time>2022-05-13T08:26:34Z</time>
      </trkpt>
      <trkpt lat="28.514485" lon="-13.947149">
        <ele>391.099</ele>
        <time>2022-05-13T08:30:56Z</time>
      </trkpt>
      <trkpt lat="28.513155" lon="-13.946507">
        <ele>416.083</ele>
        <time>2022-05-13T08:34:46Z</time>
      </trkpt>
      <trkpt lat="28.513085" lon="-13.946975">
        <ele>430.014</ele>
        <time>2022-05-13T08:35:43Z</time>
      </trkpt>
      <trkpt lat="28.512363" lon="-13.948304">
        <ele>468.034</ele>
        <time>2022-05-13T08:39:14Z</time>
      </trkpt>
      <trkpt lat="28.511668" lon="-13.948927">
        <ele>503.056</ele>
        <time>2022-05-13T08:42:24Z</time>
      </trkpt>
      <trkpt lat="28.511369" lon="-13.950124">
        <ele>521.054</ele>
        <time>2022-05-13T08:44:26Z</time>
      </trkpt>
      <trkpt lat="28.510933" lon="-13.949216">
        <ele>527.057</ele>
        <time>2022-05-13T08:47:29Z</time>
      </trkpt>
      <trkpt lat="28.510576" lon="-13.946886">
        <ele>500.000</ele>
        <time>2022-05-13T08:50:30Z</time>
      </trkpt>
      <trkpt lat="28.509991" lon="-13.946015">
        <ele>477.020</ele>
        <time>2022-05-13T08:53:18Z</time>
      </trkpt>
      <trkpt lat="28.509783" lon="-13.946211">
        <ele>469.009</ele>
        <time>2022-05-13T08:54:44Z</time>
      </trkpt>
      <trkpt lat="28.509684" lon="-13.946134">
        <ele>467.036</ele>
        <time>2022-05-13T08:54:56Z</time>
      </trkpt>
      <trkpt lat="28.509589" lon="-13.946417">
        <ele>452.085</ele>
        <time>2022-05-13T08:55:48Z</time>
      </trkpt>
      <trkpt lat="28.509369" lon="-13.946453">
        <ele>443.087</ele>
        <time>2022-05-13T08:56:31Z</time>
      </trkpt>
      <trkpt lat="28.509630" lon="-13.946876">
        <ele>440.091</ele>
        <time>2022-05-13T08:57:40Z</time>
      </trkpt>
      <trkpt lat="28.509747" lon="-13.947417">
        <ele>439.075</ele>
        <time>2022-05-13T08:58:17Z</time>
      </trkpt>
      <trkpt lat="28.509769" lon="-13.948697">
        <ele>436.066</ele>
        <time>2022-05-13T08:59:47Z</time>
      </trkpt>
      <trkpt lat="28.509598" lon="-13.949238">
        <ele>439.076</ele>
        <time>2022-05-13T09:00:26Z</time>
      </trkpt>
      <trkpt lat="28.509654" lon="-13.949646">
        <ele>438.068</ele>
        <time>2022-05-13T09:00:54Z</time>
      </trkpt>
      <trkpt lat="28.509434" lon="-13.949963">
        <ele>439.086</ele>
        <time>2022-05-13T09:01:22Z</time>
      </trkpt>
      <trkpt lat="28.509675" lon="-13.950344">
        <ele>436.046</ele>
        <time>2022-05-13T09:01:56Z</time>
      </trkpt>
      <trkpt lat="28.509492" lon="-13.950817">
        <ele>433.088</ele>
        <time>2022-05-13T09:02:34Z</time>
      </trkpt>
      <trkpt lat="28.509696" lon="-13.951091">
        <ele>433.016</ele>
        <time>2022-05-13T09:02:59Z</time>
      </trkpt>
      <trkpt lat="28.509720" lon="-13.951718">
        <ele>428.009</ele>
        <time>2022-05-13T09:03:41Z</time>
      </trkpt>
      <trkpt lat="28.509406" lon="-13.952364">
        <ele>431.095</ele>
        <time>2022-05-13T09:04:30Z</time>
      </trkpt>
      <trkpt lat="28.509740" lon="-13.952653">
        <ele>431.014</ele>
        <time>2022-05-13T09:05:02Z</time>
      </trkpt>
      <trkpt lat="28.509785" lon="-13.952842">
        <ele>421.096</ele>
        <time>2022-05-13T09:05:15Z</time>
      </trkpt>
      <trkpt lat="28.509954" lon="-13.953797">
        <ele>428.090</ele>
        <time>2022-05-13T09:06:20Z</time>
      </trkpt>
      <trkpt lat="28.509703" lon="-13.954234">
        <ele>430.014</ele>
        <time>2022-05-13T09:06:58Z</time>
      </trkpt>
      <trkpt lat="28.510240" lon="-13.955146">
        <ele>433.085</ele>
        <time>2022-05-13T09:08:09Z</time>
      </trkpt>
      <trkpt lat="28.510235" lon="-13.955979">
        <ele>430.085</ele>
        <time>2022-05-13T09:09:01Z</time>
      </trkpt>
      <trkpt lat="28.510470" lon="-13.957076">
        <ele>423.047</ele>
        <time>2022-05-13T09:10:09Z</time>
      </trkpt>
      <trkpt lat="28.510421" lon="-13.957385">
        <ele>425.025</ele>
        <time>2022-05-13T09:10:31Z</time>
      </trkpt>
      <trkpt lat="28.510069" lon="-13.957919">
        <ele>431.083</ele>
        <time>2022-05-13T09:11:12Z</time>
      </trkpt>
      <trkpt lat="28.510215" lon="-13.958489">
        <ele>433.025</ele>
        <time>2022-05-13T09:11:53Z</time>
      </trkpt>
      <trkpt lat="28.510024" lon="-13.958846">
        <ele>434.017</ele>
        <time>2022-05-13T09:12:17Z</time>
      </trkpt>
      <trkpt lat="28.510084" lon="-13.959292">
        <ele>428.009</ele>
        <time>2022-05-13T09:12:49Z</time>
      </trkpt>
      <trkpt lat="28.509935" lon="-13.960291">
        <ele>424.029</ele>
        <time>2022-05-13T09:13:54Z</time>
      </trkpt>
      <trkpt lat="28.509330" lon="-13.961549">
        <ele>425.028</ele>
        <time>2022-05-13T09:15:23Z</time>
      </trkpt>
      <trkpt lat="28.508391" lon="-13.961585">
        <ele>424.090</ele>
        <time>2022-05-13T09:16:54Z</time>
      </trkpt>
      <trkpt lat="28.507311" lon="-13.961191">
        <ele>421.074</ele>
        <time>2022-05-13T09:18:30Z</time>
      </trkpt>
      <trkpt lat="28.506745" lon="-13.961281">
        <ele>421.048</ele>
        <time>2022-05-13T09:19:17Z</time>
      </trkpt>
      <trkpt lat="28.506588" lon="-13.961525">
        <ele>422.039</ele>
        <time>2022-05-13T09:19:54Z</time>
      </trkpt>
      <trkpt lat="28.506891" lon="-13.962472">
        <ele>422.099</ele>
        <time>2022-05-13T09:21:11Z</time>
      </trkpt>
      <trkpt lat="28.506824" lon="-13.963116">
        <ele>419.021</ele>
        <time>2022-05-13T09:21:52Z</time>
      </trkpt>
      <trkpt lat="28.507104" lon="-13.964328">
        <ele>412.049</ele>
        <time>2022-05-13T09:23:08Z</time>
      </trkpt>
      <trkpt lat="28.507319" lon="-13.964663">
        <ele>410.019</ele>
        <time>2022-05-13T09:23:33Z</time>
      </trkpt>
      <trkpt lat="28.507958" lon="-13.965071">
        <ele>406.009</ele>
        <time>2022-05-13T09:24:23Z</time>
      </trkpt>
      <trkpt lat="28.508173" lon="-13.966365">
        <ele>410.019</ele>
        <time>2022-05-13T09:25:46Z</time>
      </trkpt>
      <trkpt lat="28.508059" lon="-13.967170">
        <ele>409.009</ele>
        <time>2022-05-13T09:26:35Z</time>
      </trkpt>
      <trkpt lat="28.508352" lon="-13.968605">
        <ele>409.022</ele>
        <time>2022-05-13T09:28:09Z</time>
      </trkpt>
      <trkpt lat="28.507879" lon="-13.968952">
        <ele>410.041</ele>
        <time>2022-05-13T09:28:48Z</time>
      </trkpt>
      <trkpt lat="28.507872" lon="-13.969385">
        <ele>405.063</ele>
        <time>2022-05-13T09:29:14Z</time>
      </trkpt>
      <trkpt lat="28.508091" lon="-13.969891">
        <ele>407.027</ele>
        <time>2022-05-13T09:29:48Z</time>
      </trkpt>
      <trkpt lat="28.508576" lon="-13.970243">
        <ele>403.051</ele>
        <time>2022-05-13T09:30:26Z</time>
      </trkpt>
      <trkpt lat="28.508423" lon="-13.972181">
        <ele>400.022</ele>
        <time>2022-05-13T09:32:12Z</time>
      </trkpt>
      <trkpt lat="28.508775" lon="-13.973280">
        <ele>400.092</ele>
        <time>2022-05-13T09:33:14Z</time>
      </trkpt>
      <trkpt lat="28.508395" lon="-13.973667">
        <ele>403.034</ele>
        <time>2022-05-13T09:33:40Z</time>
      </trkpt>
      <trkpt lat="28.508145" lon="-13.974433">
        <ele>406.092</ele>
        <time>2022-05-13T09:34:29Z</time>
      </trkpt>
      <trkpt lat="28.507942" lon="-13.974637">
        <ele>407.092</ele>
        <time>2022-05-13T09:34:49Z</time>
      </trkpt>
      <trkpt lat="28.508041" lon="-13.975361">
        <ele>408.073</ele>
        <time>2022-05-13T09:35:34Z</time>
      </trkpt>
      <trkpt lat="28.507769" lon="-13.975501">
        <ele>408.020</ele>
        <time>2022-05-13T09:36:00Z</time>
      </trkpt>
      <trkpt lat="28.507582" lon="-13.975927">
        <ele>403.009</ele>
        <time>2022-05-13T09:36:31Z</time>
      </trkpt>
      <trkpt lat="28.507168" lon="-13.976397">
        <ele>404.030</ele>
        <time>2022-05-13T09:37:15Z</time>
      </trkpt>
      <trkpt lat="28.506756" lon="-13.976504">
        <ele>401.019</ele>
        <time>2022-05-13T09:37:42Z</time>
      </trkpt>
      <trkpt lat="28.506478" lon="-13.976774">
        <ele>399.041</ele>
        <time>2022-05-13T09:38:08Z</time>
      </trkpt>
      <trkpt lat="28.506279" lon="-13.977222">
        <ele>398.045</ele>
        <time>2022-05-13T09:38:37Z</time>
      </trkpt>
      <trkpt lat="28.506115" lon="-13.978229">
        <ele>387.039</ele>
        <time>2022-05-13T09:39:26Z</time>
      </trkpt>
      <trkpt lat="28.505111" lon="-13.979224">
        <ele>381.080</ele>
        <time>2022-05-13T09:40:54Z</time>
      </trkpt>
      <trkpt lat="28.504651" lon="-13.980663">
        <ele>378.050</ele>
        <time>2022-05-13T09:42:26Z</time>
      </trkpt>
      <trkpt lat="28.504575" lon="-13.982282">
        <ele>375.082</ele>
        <time>2022-05-13T09:44:00Z</time>
      </trkpt>
      <trkpt lat="28.505174" lon="-13.982994">
        <ele>371.090</ele>
        <time>2022-05-13T09:45:10Z</time>
      </trkpt>
      <trkpt lat="28.505062" lon="-13.983573">
        <ele>370.061</ele>
        <time>2022-05-13T09:45:47Z</time>
      </trkpt>
      <trkpt lat="28.505574" lon="-13.984066">
        <ele>371.021</ele>
        <time>2022-05-13T09:46:32Z</time>
      </trkpt>
      <trkpt lat="28.505880" lon="-13.984156">
        <ele>368.013</ele>
        <time>2022-05-13T09:46:53Z</time>
      </trkpt>
      <trkpt lat="28.505985" lon="-13.984581">
        <ele>368.009</ele>
        <time>2022-05-13T09:47:21Z</time>
      </trkpt>
      <trkpt lat="28.506352" lon="-13.984773">
        <ele>366.037</ele>
        <time>2022-05-13T09:47:47Z</time>
      </trkpt>
      <trkpt lat="28.506680" lon="-13.984783">
        <ele>363.016</ele>
        <time>2022-05-13T09:48:08Z</time>
      </trkpt>
      <trkpt lat="28.506679" lon="-13.984940">
        <ele>364.058</ele>
        <time>2022-05-13T09:48:18Z</time>
      </trkpt>
      <trkpt lat="28.506047" lon="-13.985545">
        <ele>361.062</ele>
        <time>2022-05-13T09:49:13Z</time>
      </trkpt>
      <trkpt lat="28.505433" lon="-13.985463">
        <ele>357.026</ele>
        <time>2022-05-13T09:49:55Z</time>
      </trkpt>
      <trkpt lat="28.505094" lon="-13.985604">
        <ele>353.067</ele>
        <time>2022-05-13T09:50:22Z</time>
      </trkpt>
      <trkpt lat="28.504987" lon="-13.985851">
        <ele>353.097</ele>
        <time>2022-05-13T09:50:38Z</time>
      </trkpt>
      <trkpt lat="28.505307" lon="-13.986501">
        <ele>345.069</ele>
        <time>2022-05-13T09:51:22Z</time>
      </trkpt>
      <trkpt lat="28.504144" lon="-13.987432">
        <ele>343.037</ele>
        <time>2022-05-13T09:52:53Z</time>
      </trkpt>
      <trkpt lat="28.503858" lon="-13.987764">
        <ele>344.032</ele>
        <time>2022-05-13T09:53:20Z</time>
      </trkpt>
      <trkpt lat="28.503828" lon="-13.988044">
        <ele>341.092</ele>
        <time>2022-05-13T09:53:39Z</time>
      </trkpt>
      <trkpt lat="28.503915" lon="-13.988180">
        <ele>343.011</ele>
        <time>2022-05-13T09:53:52Z</time>
      </trkpt>
      <trkpt lat="28.504633" lon="-13.988262">
        <ele>344.009</ele>
        <time>2022-05-13T09:54:45Z</time>
      </trkpt>
      <trkpt lat="28.504998" lon="-13.988099">
        <ele>346.074</ele>
        <time>2022-05-13T09:55:14Z</time>
      </trkpt>
      <trkpt lat="28.505174" lon="-13.988188">
        <ele>342.093</ele>
        <time>2022-05-13T09:55:54Z</time>
      </trkpt>
      <trkpt lat="28.505696" lon="-13.987885">
        <ele>335.025</ele>
        <time>2022-05-13T09:56:16Z</time>
      </trkpt>
      <trkpt lat="28.505920" lon="-13.988101">
        <ele>331.029</ele>
        <time>2022-05-13T09:56:28Z</time>
      </trkpt>
      <trkpt lat="28.506178" lon="-13.988081">
        <ele>330.083</ele>
        <time>2022-05-13T09:56:39Z</time>
      </trkpt>
      <trkpt lat="28.506458" lon="-13.988275">
        <ele>326.054</ele>
        <time>2022-05-13T09:56:51Z</time>
      </trkpt>
      <trkpt lat="28.506729" lon="-13.987927">
        <ele>320.014</ele>
        <time>2022-05-13T09:57:06Z</time>
      </trkpt>
      <trkpt lat="28.507572" lon="-13.988446">
        <ele>307.086</ele>
        <time>2022-05-13T09:57:42Z</time>
      </trkpt>
      <trkpt lat="28.507860" lon="-13.988141">
        <ele>312.074</ele>
        <time>2022-05-13T09:58:00Z</time>
      </trkpt>
      <trkpt lat="28.508284" lon="-13.987952">
        <ele>313.061</ele>
        <time>2022-05-13T09:58:20Z</time>
      </trkpt>
      <trkpt lat="28.508487" lon="-13.987198">
        <ele>315.021</ele>
        <time>2022-05-13T09:58:48Z</time>
      </trkpt>
      <trkpt lat="28.508890" lon="-13.986753">
        <ele>310.013</ele>
        <time>2022-05-13T09:59:13Z</time>
      </trkpt>
      <trkpt lat="28.509108" lon="-13.987260">
        <ele>313.009</ele>
        <time>2022-05-13T09:59:32Z</time>
      </trkpt>
      <trkpt lat="28.509506" lon="-13.987675">
        <ele>311.097</ele>
        <time>2022-05-13T09:59:57Z</time>
      </trkpt>
      <trkpt lat="28.509844" lon="-13.987817">
        <ele>307.056</ele>
        <time>2022-05-13T10:00:09Z</time>
      </trkpt>
      <trkpt lat="28.509928" lon="-13.988086">
        <ele>306.088</ele>
        <time>2022-05-13T10:00:17Z</time>
      </trkpt>
      <trkpt lat="28.510286" lon="-13.988099">
        <ele>303.052</ele>
        <time>2022-05-13T10:00:29Z</time>
      </trkpt>
      <trkpt lat="28.510232" lon="-13.988310">
        <ele>300.076</ele>
        <time>2022-05-13T10:00:36Z</time>
      </trkpt>
      <trkpt lat="28.510340" lon="-13.988432">
        <ele>300.047</ele>
        <time>2022-05-13T10:00:41Z</time>
      </trkpt>
      <trkpt lat="28.510921" lon="-13.988511">
        <ele>302.087</ele>
        <time>2022-05-13T10:00:58Z</time>
      </trkpt>
      <trkpt lat="28.511910" lon="-13.989178">
        <ele>303.089</ele>
        <time>2022-05-13T10:01:43Z</time>
      </trkpt>
      <trkpt lat="28.512213" lon="-13.989069">
        <ele>298.097</ele>
        <time>2022-05-13T10:01:58Z</time>
      </trkpt>
      <trkpt lat="28.512258" lon="-13.989561">
        <ele>291.025</ele>
        <time>2022-05-13T10:02:26Z</time>
      </trkpt>
      <trkpt lat="28.512456" lon="-13.989871">
        <ele>290.026</ele>
        <time>2022-05-13T10:02:49Z</time>
      </trkpt>
      <trkpt lat="28.513455" lon="-13.990534">
        <ele>296.008</ele>
        <time>2022-05-13T10:03:57Z</time>
      </trkpt>
      <trkpt lat="28.513915" lon="-13.991236">
        <ele>285.009</ele>
        <time>2022-05-13T10:04:52Z</time>
      </trkpt>
      <trkpt lat="28.514946" lon="-13.991916">
        <ele>266.093</ele>
        <time>2022-05-13T10:06:09Z</time>
      </trkpt>
      <trkpt lat="28.514989" lon="-13.992245">
        <ele>264.022</ele>
        <time>2022-05-13T10:06:32Z</time>
      </trkpt>
      <trkpt lat="28.515798" lon="-13.992712">
        <ele>263.044</ele>
        <time>2022-05-13T10:08:12Z</time>
      </trkpt>
      <trkpt lat="28.516844" lon="-13.993665">
        <ele>250.058</ele>
        <time>2022-05-13T10:09:42Z</time>
      </trkpt>
      <trkpt lat="28.516889" lon="-13.993884">
        <ele>250.082</ele>
        <time>2022-05-13T10:10:12Z</time>
      </trkpt>
      <trkpt lat="28.517083" lon="-13.993904">
        <ele>253.093</ele>
        <time>2022-05-13T10:10:51Z</time>
      </trkpt>
      <trkpt lat="28.517764" lon="-13.994818">
        <ele>245.053</ele>
        <time>2022-05-13T10:12:08Z</time>
      </trkpt>
      <trkpt lat="28.518312" lon="-13.994894">
        <ele>231.095</ele>
        <time>2022-05-13T10:12:46Z</time>
      </trkpt>
      <trkpt lat="28.518620" lon="-13.995186">
        <ele>231.083</ele>
        <time>2022-05-13T10:13:11Z</time>
      </trkpt>
      <trkpt lat="28.518842" lon="-13.995750">
        <ele>232.021</ele>
        <time>2022-05-13T10:13:51Z</time>
      </trkpt>
      <trkpt lat="28.518691" lon="-13.996878">
        <ele>235.041</ele>
        <time>2022-05-13T10:15:05Z</time>
      </trkpt>
      <trkpt lat="28.518971" lon="-13.997277">
        <ele>234.005</ele>
        <time>2022-05-13T10:15:35Z</time>
      </trkpt>
      <trkpt lat="28.519389" lon="-13.997327">
        <ele>233.009</ele>
        <time>2022-05-13T10:16:05Z</time>
      </trkpt>
      <trkpt lat="28.519602" lon="-13.997485">
        <ele>232.083</ele>
        <time>2022-05-13T10:16:23Z</time>
      </trkpt>
      <trkpt lat="28.520184" lon="-13.997254">
        <ele>231.012</ele>
        <time>2022-05-13T10:17:08Z</time>
      </trkpt>
      <trkpt lat="28.520261" lon="-13.997066">
        <ele>230.014</ele>
        <time>2022-05-13T10:17:22Z</time>
      </trkpt>
      <trkpt lat="28.520659" lon="-13.996892">
        <ele>232.048</ele>
        <time>2022-05-13T10:17:55Z</time>
      </trkpt>
      <trkpt lat="28.521829" lon="-13.996588">
        <ele>231.072</ele>
        <time>2022-05-13T10:19:22Z</time>
      </trkpt>
      <trkpt lat="28.521942" lon="-13.997068">
        <ele>230.053</ele>
        <time>2022-05-13T10:20:11Z</time>
      </trkpt>
      <trkpt lat="28.522128" lon="-13.997147">
        <ele>230.033</ele>
        <time>2022-05-13T10:20:49Z</time>
      </trkpt>
      <trkpt lat="28.523073" lon="-13.999021">
        <ele>212.065</ele>
        <time>2022-05-13T10:23:02Z</time>
      </trkpt>
      <trkpt lat="28.523340" lon="-13.999283">
        <ele>214.033</ele>
        <time>2022-05-13T10:23:20Z</time>
      </trkpt>
      <trkpt lat="28.523898" lon="-14.000299">
        <ele>209.011</ele>
        <time>2022-05-13T10:24:32Z</time>
      </trkpt>
      <trkpt lat="28.524819" lon="-14.001234">
        <ele>197.021</ele>
        <time>2022-05-13T10:25:51Z</time>
      </trkpt>
      <trkpt lat="28.524761" lon="-14.001728">
        <ele>193.003</ele>
        <time>2022-05-13T10:26:24Z</time>
      </trkpt>
      <trkpt lat="28.524928" lon="-14.002519">
        <ele>196.009</ele>
        <time>2022-05-13T10:27:11Z</time>
      </trkpt>
      <trkpt lat="28.525714" lon="-14.004187">
        <ele>210.072</ele>
        <time>2022-05-13T10:29:10Z</time>
      </trkpt>
      <trkpt lat="28.525630" lon="-14.005480">
        <ele>217.071</ele>
        <time>2022-05-13T10:30:50Z</time>
      </trkpt>
      <trkpt lat="28.526329" lon="-14.005316">
        <ele>214.083</ele>
        <time>2022-05-13T10:32:21Z</time>
      </trkpt>
      <trkpt lat="28.526954" lon="-14.006977">
        <ele>206.047</ele>
        <time>2022-05-13T10:34:20Z</time>
      </trkpt>
      <trkpt lat="28.527874" lon="-14.007339">
        <ele>207.071</ele>
        <time>2022-05-13T10:35:19Z</time>
      </trkpt>
      <trkpt lat="28.528444" lon="-14.008124">
        <ele>202.052</ele>
        <time>2022-05-13T10:36:22Z</time>
      </trkpt>
      <trkpt lat="28.528549" lon="-14.009052">
        <ele>201.052</ele>
        <time>2022-05-13T10:37:18Z</time>
      </trkpt>
      <trkpt lat="28.528141" lon="-14.009195">
        <ele>208.034</ele>
        <time>2022-05-13T10:39:31Z</time>
      </trkpt>
      <trkpt lat="28.528181" lon="-14.009304">
        <ele>209.082</ele>
        <time>2022-05-13T10:40:06Z</time>
      </trkpt>
      <trkpt lat="28.528175" lon="-14.009185">
        <ele>200.065</ele>
        <time>2022-05-13T10:41:58Z</time>
      </trkpt>
      <trkpt lat="28.527782" lon="-14.008952">
        <ele>200.068</ele>
        <time>2022-05-13T10:43:49Z</time>
      </trkpt>
      <trkpt lat="28.527403" lon="-14.008236">
        <ele>203.014</ele>
        <time>2022-05-13T10:44:40Z</time>
      </trkpt>
      <trkpt lat="28.527187" lon="-14.008091">
        <ele>204.009</ele>
        <time>2022-05-13T10:44:58Z</time>
      </trkpt>
      <trkpt lat="28.527277" lon="-14.007551">
        <ele>203.017</ele>
        <time>2022-05-13T10:45:27Z</time>
      </trkpt>
      <trkpt lat="28.526795" lon="-14.006713">
        <ele>208.036</ele>
        <time>2022-05-13T10:46:24Z</time>
      </trkpt>
      <trkpt lat="28.526370" lon="-14.005405">
        <ele>213.068</ele>
        <time>2022-05-13T10:47:56Z</time>
      </trkpt>
      <trkpt lat="28.526136" lon="-14.005275">
        <ele>212.022</ele>
        <time>2022-05-13T10:48:15Z</time>
      </trkpt>
      <trkpt lat="28.525930" lon="-14.004861">
        <ele>215.066</ele>
        <time>2022-05-13T10:49:04Z</time>
      </trkpt>
      <trkpt lat="28.525928" lon="-14.004638">
        <ele>214.077</ele>
        <time>2022-05-13T10:49:19Z</time>
      </trkpt>
      <trkpt lat="28.526089" lon="-14.004508">
        <ele>213.067</ele>
        <time>2022-05-13T10:49:38Z</time>
      </trkpt>
      <trkpt lat="28.525359" lon="-14.003442">
        <ele>214.019</ele>
        <time>2022-05-13T10:52:24Z</time>
      </trkpt>
      <trkpt lat="28.524877" lon="-14.002292">
        <ele>204.017</ele>
        <time>2022-05-13T10:53:43Z</time>
      </trkpt>
      <trkpt lat="28.524897" lon="-14.001539">
        <ele>204.092</ele>
        <time>2022-05-13T10:54:30Z</time>
      </trkpt>
      <trkpt lat="28.525433" lon="-14.001385">
        <ele>201.073</ele>
        <time>2022-05-13T10:55:11Z</time>
      </trkpt>
      <trkpt lat="28.526051" lon="-14.000384">
        <ele>204.020</ele>
        <time>2022-05-13T10:56:26Z</time>
      </trkpt>
      <trkpt lat="28.525841" lon="-13.996838">
        <ele>220.009</ele>
        <time>2022-05-13T11:00:01Z</time>
      </trkpt>
      <trkpt lat="28.525334" lon="-13.994933">
        <ele>232.030</ele>
        <time>2022-05-13T11:01:59Z</time>
      </trkpt>
      <trkpt lat="28.524700" lon="-13.993204">
        <ele>243.069</ele>
        <time>2022-05-13T11:03:55Z</time>
      </trkpt>
      <trkpt lat="28.524304" lon="-13.991240">
        <ele>247.031</ele>
        <time>2022-05-13T11:05:58Z</time>
      </trkpt>
      <trkpt lat="28.523727" lon="-13.989467">
        <ele>257.035</ele>
        <time>2022-05-13T11:07:53Z</time>
      </trkpt>
      <trkpt lat="28.523041" lon="-13.989252">
        <ele>256.099</ele>
        <time>2022-05-13T11:08:42Z</time>
      </trkpt>
      <trkpt lat="28.522566" lon="-13.989496">
        <ele>262.070</ele>
        <time>2022-05-13T11:09:17Z</time>
      </trkpt>
      <trkpt lat="28.522305" lon="-13.989828">
        <ele>267.030</ele>
        <time>2022-05-13T11:10:05Z</time>
      </trkpt>
      <trkpt lat="28.522001" lon="-13.989592">
        <ele>266.072</ele>
        <time>2022-05-13T11:10:46Z</time>
      </trkpt>
      <trkpt lat="28.521999" lon="-13.989755">
        <ele>267.040</ele>
        <time>2022-05-13T11:11:12Z</time>
      </trkpt>
      <trkpt lat="28.522175" lon="-13.989562">
        <ele>266.066</ele>
        <time>2022-05-13T11:11:29Z</time>
      </trkpt>
      <trkpt lat="28.521972" lon="-13.988743">
        <ele>268.029</ele>
        <time>2022-05-13T11:12:45Z</time>
      </trkpt>
      <trkpt lat="28.522568" lon="-13.988240">
        <ele>264.021</ele>
        <time>2022-05-13T11:13:36Z</time>
      </trkpt>
      <trkpt lat="28.522711" lon="-13.987631">
        <ele>266.009</ele>
        <time>2022-05-13T11:14:17Z</time>
      </trkpt>
      <trkpt lat="28.520719" lon="-13.984952">
        <ele>284.097</ele>
        <time>2022-05-13T11:18:04Z</time>
      </trkpt>
      <trkpt lat="28.520225" lon="-13.984553">
        <ele>288.066</ele>
        <time>2022-05-13T11:18:50Z</time>
      </trkpt>
      <trkpt lat="28.520002" lon="-13.983872">
        <ele>287.048</ele>
        <time>2022-05-13T11:19:37Z</time>
      </trkpt>
      <trkpt lat="28.519332" lon="-13.983139">
        <ele>294.012</ele>
        <time>2022-05-13T11:20:48Z</time>
      </trkpt>
      <trkpt lat="28.519118" lon="-13.982485">
        <ele>301.026</ele>
        <time>2022-05-13T11:21:39Z</time>
      </trkpt>
      <trkpt lat="28.518910" lon="-13.982956">
        <ele>305.047</ele>
        <time>2022-05-13T11:22:13Z</time>
      </trkpt>
      <trkpt lat="28.518749" lon="-13.982979">
        <ele>304.037</ele>
        <time>2022-05-13T11:22:27Z</time>
      </trkpt>
      <trkpt lat="28.517584" lon="-13.980210">
        <ele>338.069</ele>
        <time>2022-05-13T11:26:08Z</time>
      </trkpt>
      <trkpt lat="28.516953" lon="-13.979381">
        <ele>339.027</ele>
        <time>2022-05-13T11:27:25Z</time>
      </trkpt>
      <trkpt lat="28.516606" lon="-13.978631">
        <ele>356.081</ele>
        <time>2022-05-13T11:28:41Z</time>
      </trkpt>
      <trkpt lat="28.516090" lon="-13.978534">
        <ele>356.061</ele>
        <time>2022-05-13T11:29:24Z</time>
      </trkpt>
      <trkpt lat="28.515935" lon="-13.978275">
        <ele>360.017</ele>
        <time>2022-05-13T11:29:48Z</time>
      </trkpt>
      <trkpt lat="28.515200" lon="-13.978034">
        <ele>382.009</ele>
        <time>2022-05-13T11:31:21Z</time>
      </trkpt>
      <trkpt lat="28.515115" lon="-13.977466">
        <ele>392.039</ele>
        <time>2022-05-13T11:32:11Z</time>
      </trkpt>
      <trkpt lat="28.515257" lon="-13.976185">
        <ele>405.058</ele>
        <time>2022-05-13T11:34:07Z</time>
      </trkpt>
      <trkpt lat="28.515081" lon="-13.975751">
        <ele>406.090</ele>
        <time>2022-05-13T11:34:36Z</time>
      </trkpt>
      <trkpt lat="28.515380" lon="-13.975439">
        <ele>417.094</ele>
        <time>2022-05-13T11:35:19Z</time>
      </trkpt>
      <trkpt lat="28.515305" lon="-13.974741">
        <ele>417.098</ele>
        <time>2022-05-13T11:36:06Z</time>
      </trkpt>
      <trkpt lat="28.515429" lon="-13.974522">
        <ele>418.089</ele>
        <time>2022-05-13T11:36:27Z</time>
      </trkpt>
      <trkpt lat="28.515776" lon="-13.974915">
        <ele>423.039</ele>
        <time>2022-05-13T11:37:12Z</time>
      </trkpt>
      <trkpt lat="28.516158" lon="-13.974798">
        <ele>424.021</ele>
        <time>2022-05-13T11:37:44Z</time>
      </trkpt>
      <trkpt lat="28.516303" lon="-13.975146">
        <ele>425.049</ele>
        <time>2022-05-13T11:38:08Z</time>
      </trkpt>
      <trkpt lat="28.516714" lon="-13.975143">
        <ele>431.083</ele>
        <time>2022-05-13T11:38:55Z</time>
      </trkpt>
      <trkpt lat="28.516568" lon="-13.974898">
        <ele>441.025</ele>
        <time>2022-05-13T11:39:37Z</time>
      </trkpt>
      <trkpt lat="28.517033" lon="-13.974919">
        <ele>448.017</ele>
        <time>2022-05-13T11:40:43Z</time>
      </trkpt>
      <trkpt lat="28.517914" lon="-13.974054">
        <ele>467.009</ele>
        <time>2022-05-13T11:42:36Z</time>
      </trkpt>
      <trkpt lat="28.518328" lon="-13.973886">
        <ele>470.049</ele>
        <time>2022-05-13T11:43:15Z</time>
      </trkpt>
      <trkpt lat="28.518651" lon="-13.973311">
        <ele>484.098</ele>
        <time>2022-05-13T11:44:54Z</time>
      </trkpt>
      <trkpt lat="28.519214" lon="-13.972972">
        <ele>489.090</ele>
        <time>2022-05-13T11:46:02Z</time>
      </trkpt>
      <trkpt lat="28.519271" lon="-13.972827">
        <ele>493.034</ele>
        <time>2022-05-13T11:46:26Z</time>
      </trkpt>
      <trkpt lat="28.519067" lon="-13.972825">
        <ele>495.098</ele>
        <time>2022-05-13T11:46:43Z</time>
      </trkpt>
      <trkpt lat="28.518408" lon="-13.972206">
        <ele>490.079</ele>
        <time>2022-05-13T11:47:55Z</time>
      </trkpt>
      <trkpt lat="28.518082" lon="-13.971175">
        <ele>483.029</ele>
        <time>2022-05-13T11:48:52Z</time>
      </trkpt>
      <trkpt lat="28.517819" lon="-13.970901">
        <ele>480.081</ele>
        <time>2022-05-13T11:49:10Z</time>
      </trkpt>
      <trkpt lat="28.517976" lon="-13.970161">
        <ele>476.099</ele>
        <time>2022-05-13T11:49:38Z</time>
      </trkpt>
      <trkpt lat="28.517950" lon="-13.969275">
        <ele>468.039</ele>
        <time>2022-05-13T11:50:13Z</time>
      </trkpt>
      <trkpt lat="28.518300" lon="-13.967920">
        <ele>458.001</ele>
        <time>2022-05-13T11:51:09Z</time>
      </trkpt>
      <trkpt lat="28.518288" lon="-13.967244">
        <ele>454.021</ele>
        <time>2022-05-13T11:51:33Z</time>
      </trkpt>
      <trkpt lat="28.518571" lon="-13.966738">
        <ele>448.009</ele>
        <time>2022-05-13T11:51:53Z</time>
      </trkpt>
      <trkpt lat="28.518444" lon="-13.966236">
        <ele>442.054</ele>
        <time>2022-05-13T11:52:08Z</time>
      </trkpt>
      <trkpt lat="28.518770" lon="-13.964239">
        <ele>426.043</ele>
        <time>2022-05-13T11:53:13Z</time>
      </trkpt>
      <trkpt lat="28.518923" lon="-13.961812">
        <ele>403.015</ele>
        <time>2022-05-13T11:54:28Z</time>
      </trkpt>
      <trkpt lat="28.520358" lon="-13.960096">
        <ele>377.049</ele>
        <time>2022-05-13T11:56:50Z</time>
      </trkpt>
      <trkpt lat="28.520978" lon="-13.958579">
        <ele>374.013</ele>
        <time>2022-05-13T11:58:29Z</time>
      </trkpt>
      <trkpt lat="28.522558" lon="-13.956010">
        <ele>385.054</ele>
        <time>2022-05-13T12:02:02Z</time>
      </trkpt>
      <trkpt lat="28.523022" lon="-13.955663">
        <ele>390.014</ele>
        <time>2022-05-13T12:02:43Z</time>
      </trkpt>
      <trkpt lat="28.523288" lon="-13.955255">
        <ele>386.046</ele>
        <time>2022-05-13T12:03:14Z</time>
      </trkpt>
      <trkpt lat="28.523713" lon="-13.954247">
        <ele>376.034</ele>
        <time>2022-05-13T12:04:30Z</time>
      </trkpt>
      <trkpt lat="28.524926" lon="-13.953498">
        <ele>368.031</ele>
        <time>2022-05-13T12:06:06Z</time>
      </trkpt>
      <trkpt lat="28.526123" lon="-13.952545">
        <ele>358.061</ele>
        <time>2022-05-13T12:08:21Z</time>
      </trkpt>
      <trkpt lat="28.528093" lon="-13.950467">
        <ele>351.007</ele>
        <time>2022-05-13T12:11:27Z</time>
      </trkpt>
      <trkpt lat="28.528399" lon="-13.949653">
        <ele>355.009</ele>
        <time>2022-05-13T12:12:26Z</time>
      </trkpt>
      <trkpt lat="28.528539" lon="-13.948655">
        <ele>350.084</ele>
        <time>2022-05-13T12:14:02Z</time>
      </trkpt>
      <trkpt lat="28.528816" lon="-13.948400">
        <ele>348.093</ele>
        <time>2022-05-13T12:14:24Z</time>
      </trkpt>
      <trkpt lat="28.528736" lon="-13.948379">
        <ele>348.055</ele>
        <time>2022-05-13T12:14:42Z</time>
      </trkpt>
      <trkpt lat="28.528949" lon="-13.947885">
        <ele>351.029</ele>
        <time>2022-05-13T12:15:39Z</time>
      </trkpt>
      <trkpt lat="28.529368" lon="-13.947278">
        <ele>347.053</ele>
        <time>2022-05-13T12:16:27Z</time>
      </trkpt>
      <trkpt lat="28.529557" lon="-13.946685">
        <ele>350.074</ele>
        <time>2022-05-13T12:17:12Z</time>
      </trkpt>
      <trkpt lat="28.529805" lon="-13.946445">
        <ele>350.034</ele>
        <time>2022-05-13T12:17:34Z</time>
      </trkpt>
      <trkpt lat="28.529870" lon="-13.944473">
        <ele>347.056</ele>
        <time>2022-05-13T12:19:42Z</time>
      </trkpt>
      <trkpt lat="28.529750" lon="-13.943746">
        <ele>347.044</ele>
        <time>2022-05-13T12:20:31Z</time>
      </trkpt>
      <trkpt lat="28.529840" lon="-13.942445">
        <ele>340.063</ele>
        <time>2022-05-13T12:21:53Z</time>
      </trkpt>
      <trkpt lat="28.529970" lon="-13.942223">
        <ele>341.044</ele>
        <time>2022-05-13T12:22:07Z</time>
      </trkpt>
      <trkpt lat="28.529900" lon="-13.941656">
        <ele>340.018</ele>
        <time>2022-05-13T12:22:39Z</time>
      </trkpt>
      <trkpt lat="28.530569" lon="-13.939292">
        <ele>336.009</ele>
        <time>2022-05-13T12:25:10Z</time>
      </trkpt>
      <trkpt lat="28.531524" lon="-13.936884">
        <ele>326.027</ele>
        <time>2022-05-13T12:27:46Z</time>
      </trkpt>
      <trkpt lat="28.531586" lon="-13.936067">
        <ele>328.036</ele>
        <time>2022-05-13T12:28:36Z</time>
      </trkpt>
    </trkseg>
  </trk></gpx>