<?xml version="1.0" encoding="UTF-8"?>
<gpx creator="Wikiloc - https://www.wikiloc.com" version="1.1" xmlns="http://www.topografix.com/GPX/1/1" xmlns:xsi="http://www.w3.org/2001/XMLSchema-instance" xsi:schemaLocation="http://www.topografix.com/GPX/1/1 http://www.topografix.com/GPX/1/1/gpx.xsd">
  <metadata>
    <name>Wikiloc - Lomo Obrero- Pico el Rayo Circular .FIRGAS-TEROR-VALLESECO. ...</name>
    <link href="https://www.wikiloc.com/hiking-trails/lomo-obrero-pico-el-rayo-circular-firgas-teror-valleseco-gran-canaria-80207802">
      <text>Lomo Obrero- Pico el Rayo Circular .FIRGAS-TEROR-VALLESECO. ... on Wikiloc</text>
    </link>
    <time>2021-08-05T21:07:02Z</time>
  </metadata>
  <trk>
    <name>Lomo Obrero- Pico el Rayo Circular .FIRGAS-TEROR-VALLESECO. ... - Wikiloc</name>
    <cmt></cmt>
    <desc></desc>
    <trkseg>
      <trkpt lat="28.090393" lon="-15.553681">
        <ele>653.064</ele>
        <time>2021-08-05T17:36:11Z</time>
      </trkpt>
      <trkpt lat="28.090014" lon="-15.553256">
        <ele>653.006</ele>
        <time>2021-08-05T17:37:37Z</time>
      </trkpt>
      <trkpt lat="28.089874" lon="-15.552975">
        <ele>653.016</ele>
        <time>2021-08-05T17:38:04Z</time>
      </trkpt>
      <trkpt lat="28.089663" lon="-15.552838">
        <ele>651.008</ele>
        <time>2021-08-05T17:38:27Z</time>
      </trkpt>
      <trkpt lat="28.089441" lon="-15.552808">
        <ele>652.084</ele>
        <time>2021-08-05T17:38:51Z</time>
      </trkpt>
      <trkpt lat="28.088948" lon="-15.552912">
        <ele>647.086</ele>
        <time>2021-08-05T17:39:59Z</time>
      </trkpt>
      <trkpt lat="28.088008" lon="-15.552709">
        <ele>645.028</ele>
        <time>2021-08-05T17:41:23Z</time>
      </trkpt>
      <trkpt lat="28.087582" lon="-15.552557">
        <ele>637.036</ele>
        <time>2021-08-05T17:42:04Z</time>
      </trkpt>
      <trkpt lat="28.087409" lon="-15.552176">
        <ele>644.073</ele>
        <time>2021-08-05T17:42:59Z</time>
      </trkpt>
      <trkpt lat="28.087196" lon="-15.552207">
        <ele>648.074</ele>
        <time>2021-08-05T17:44:49Z</time>
      </trkpt>
      <trkpt lat="28.086755" lon="-15.551962">
        <ele>661.096</ele>
        <time>2021-08-05T17:48:03Z</time>
      </trkpt>
      <trkpt lat="28.086485" lon="-15.552035">
        <ele>662.078</ele>
        <time>2021-08-05T17:48:42Z</time>
      </trkpt>
      <trkpt lat="28.086631" lon="-15.551632">
        <ele>672.091</ele>
        <time>2021-08-05T17:52:07Z</time>
      </trkpt>
      <trkpt lat="28.087024" lon="-15.551551">
        <ele>674.081</ele>
        <time>2021-08-05T17:53:20Z</time>
      </trkpt>
      <trkpt lat="28.087173" lon="-15.551410">
        <ele>679.019</ele>
        <time>2021-08-05T17:53:57Z</time>
      </trkpt>
      <trkpt lat="28.087811" lon="-15.551146">
        <ele>681.008</ele>
        <time>2021-08-05T17:55:44Z</time>
      </trkpt>
      <trkpt lat="28.088002" lon="-15.550718">
        <ele>684.037</ele>
        <time>2021-08-05T17:56:52Z</time>
      </trkpt>
      <trkpt lat="28.088243" lon="-15.550629">
        <ele>678.069</ele>
        <time>2021-08-05T17:58:07Z</time>
      </trkpt>
      <trkpt lat="28.088436" lon="-15.550442">
        <ele>683.051</ele>
        <time>2021-08-05T17:58:57Z</time>
      </trkpt>
      <trkpt lat="28.088477" lon="-15.550063">
        <ele>678.019</ele>
        <time>2021-08-05T17:59:46Z</time>
      </trkpt>
      <trkpt lat="28.088861" lon="-15.549848">
        <ele>678.026</ele>
        <time>2021-08-05T18:00:58Z</time>
      </trkpt>
      <trkpt lat="28.088858" lon="-15.549690">
        <ele>682.087</ele>
        <time>2021-08-05T18:01:40Z</time>
      </trkpt>
      <trkpt lat="28.088713" lon="-15.549626">
        <ele>682.049</ele>
        <time>2021-08-05T18:02:08Z</time>
      </trkpt>
      <trkpt lat="28.088176" lon="-15.548707">
        <ele>701.081</ele>
        <time>2021-08-05T18:05:03Z</time>
      </trkpt>
      <trkpt lat="28.088027" lon="-15.548660">
        <ele>703.088</ele>
        <time>2021-08-05T18:05:56Z</time>
      </trkpt>
      <trkpt lat="28.087869" lon="-15.548796">
        <ele>706.024</ele>
        <time>2021-08-05T18:06:21Z</time>
      </trkpt>
      <trkpt lat="28.087608" lon="-15.549324">
        <ele>716.026</ele>
        <time>2021-08-05T18:08:34Z</time>
      </trkpt>
      <trkpt lat="28.086871" lon="-15.549901">
        <ele>740.008</ele>
        <time>2021-08-05T18:13:25Z</time>
      </trkpt>
      <trkpt lat="28.086293" lon="-15.549833">
        <ele>765.046</ele>
        <time>2021-08-05T18:16:13Z</time>
      </trkpt>
      <trkpt lat="28.086079" lon="-15.549728">
        <ele>773.028</ele>
        <time>2021-08-05T18:17:48Z</time>
      </trkpt>
      <trkpt lat="28.085786" lon="-15.549444">
        <ele>778.060</ele>
        <time>2021-08-05T18:19:38Z</time>
      </trkpt>
      <trkpt lat="28.085449" lon="-15.549391">
        <ele>785.068</ele>
        <time>2021-08-05T18:20:33Z</time>
      </trkpt>
      <trkpt lat="28.084983" lon="-15.549654">
        <ele>789.055</ele>
        <time>2021-08-05T18:21:49Z</time>
      </trkpt>
      <trkpt lat="28.084683" lon="-15.549674">
        <ele>790.016</ele>
        <time>2021-08-05T18:22:24Z</time>
      </trkpt>
      <trkpt lat="28.084505" lon="-15.549768">
        <ele>794.088</ele>
        <time>2021-08-05T18:22:44Z</time>
      </trkpt>
      <trkpt lat="28.083961" lon="-15.549802">
        <ele>792.090</ele>
        <time>2021-08-05T18:23:46Z</time>
      </trkpt>
      <trkpt lat="28.083194" lon="-15.549991">
        <ele>798.089</ele>
        <time>2021-08-05T18:25:36Z</time>
      </trkpt>
      <trkpt lat="28.082132" lon="-15.550746">
        <ele>828.006</ele>
        <time>2021-08-05T18:29:33Z</time>
      </trkpt>
      <trkpt lat="28.082008" lon="-15.551039">
        <ele>833.026</ele>
        <time>2021-08-05T18:30:13Z</time>
      </trkpt>
      <trkpt lat="28.082053" lon="-15.551666">
        <ele>830.008</ele>
        <time>2021-08-05T18:32:41Z</time>
      </trkpt>
      <trkpt lat="28.081838" lon="-15.552034">
        <ele>840.026</ele>
        <time>2021-08-05T18:33:47Z</time>
      </trkpt>
      <trkpt lat="28.081700" lon="-15.552148">
        <ele>843.018</ele>
        <time>2021-08-05T18:34:18Z</time>
      </trkpt>
      <trkpt lat="28.081237" lon="-15.552338">
        <ele>841.050</ele>
        <time>2021-08-05T18:35:36Z</time>
      </trkpt>
      <trkpt lat="28.080364" lon="-15.552262">
        <ele>840.078</ele>
        <time>2021-08-05T18:37:58Z</time>
      </trkpt>
      <trkpt lat="28.080132" lon="-15.552188">
        <ele>848.035</ele>
        <time>2021-08-05T18:38:27Z</time>
      </trkpt>
      <trkpt lat="28.079645" lon="-15.552352">
        <ele>844.046</ele>
        <time>2021-08-05T18:39:24Z</time>
      </trkpt>
      <trkpt lat="28.079329" lon="-15.552709">
        <ele>839.048</ele>
        <time>2021-08-05T18:40:33Z</time>
      </trkpt>
      <trkpt lat="28.078757" lon="-15.553054">
        <ele>850.030</ele>
        <time>2021-08-05T18:43:08Z</time>
      </trkpt>
      <trkpt lat="28.078361" lon="-15.553398">
        <ele>837.088</ele>
        <time>2021-08-05T18:44:06Z</time>
      </trkpt>
      <trkpt lat="28.076970" lon="-15.554160">
        <ele>851.024</ele>
        <time>2021-08-05T18:47:46Z</time>
      </trkpt>
      <trkpt lat="28.076685" lon="-15.554149">
        <ele>853.026</ele>
        <time>2021-08-05T18:48:26Z</time>
      </trkpt>
      <trkpt lat="28.076427" lon="-15.553579">
        <ele>858.008</ele>
        <time>2021-08-05T18:49:56Z</time>
      </trkpt>
      <trkpt lat="28.076286" lon="-15.553530">
        <ele>855.086</ele>
        <time>2021-08-05T18:50:26Z</time>
      </trkpt>
      <trkpt lat="28.075766" lon="-15.553627">
        <ele>848.088</ele>
        <time>2021-08-05T18:51:35Z</time>
      </trkpt>
      <trkpt lat="28.075318" lon="-15.553489">
        <ele>865.020</ele>
        <time>2021-08-05T18:55:23Z</time>
      </trkpt>
      <trkpt lat="28.074908" lon="-15.553645">
        <ele>862.058</ele>
        <time>2021-08-05T18:56:09Z</time>
      </trkpt>
      <trkpt lat="28.074425" lon="-15.553651">
        <ele>860.045</ele>
        <time>2021-08-05T18:57:08Z</time>
      </trkpt>
      <trkpt lat="28.073966" lon="-15.553836">
        <ele>853.016</ele>
        <time>2021-08-05T18:58:28Z</time>
      </trkpt>
      <trkpt lat="28.073384" lon="-15.553947">
        <ele>853.058</ele>
        <time>2021-08-05T18:59:34Z</time>
      </trkpt>
      <trkpt lat="28.073208" lon="-15.554143">
        <ele>854.010</ele>
        <time>2021-08-05T19:00:03Z</time>
      </trkpt>
      <trkpt lat="28.073069" lon="-15.554445">
        <ele>861.092</ele>
        <time>2021-08-05T19:00:32Z</time>
      </trkpt>
      <trkpt lat="28.072753" lon="-15.555501">
        <ele>877.073</ele>
        <time>2021-08-05T19:02:08Z</time>
      </trkpt>
      <trkpt lat="28.072769" lon="-15.555812">
        <ele>872.020</ele>
        <time>2021-08-05T19:03:20Z</time>
      </trkpt>
      <trkpt lat="28.072679" lon="-15.555935">
        <ele>876.008</ele>
        <time>2021-08-05T19:03:44Z</time>
      </trkpt>
      <trkpt lat="28.072731" lon="-15.556025">
        <ele>871.037</ele>
        <time>2021-08-05T19:03:59Z</time>
      </trkpt>
      <trkpt lat="28.072636" lon="-15.556277">
        <ele>863.089</ele>
        <time>2021-08-05T19:04:33Z</time>
      </trkpt>
      <trkpt lat="28.072170" lon="-15.556618">
        <ele>874.021</ele>
        <time>2021-08-05T19:11:29Z</time>
      </trkpt>
      <trkpt lat="28.072007" lon="-15.556940">
        <ele>882.049</ele>
        <time>2021-08-05T19:12:26Z</time>
      </trkpt>
      <trkpt lat="28.072009" lon="-15.557092">
        <ele>891.036</ele>
        <time>2021-08-05T19:13:43Z</time>
      </trkpt>
      <trkpt lat="28.072125" lon="-15.557181">
        <ele>897.057</ele>
        <time>2021-08-05T19:15:16Z</time>
      </trkpt>
      <trkpt lat="28.072188" lon="-15.557344">
        <ele>897.089</ele>
        <time>2021-08-05T19:15:53Z</time>
      </trkpt>
      <trkpt lat="28.072199" lon="-15.557485">
        <ele>900.061</ele>
        <time>2021-08-05T19:16:21Z</time>
      </trkpt>
      <trkpt lat="28.072124" lon="-15.557585">
        <ele>908.079</ele>
        <time>2021-08-05T19:17:13Z</time>
      </trkpt>
      <trkpt lat="28.072213" lon="-15.557633">
        <ele>913.005</ele>
        <time>2021-08-05T19:17:42Z</time>
      </trkpt>
      <trkpt lat="28.072169" lon="-15.557778">
        <ele>914.025</ele>
        <time>2021-08-05T19:19:08Z</time>
      </trkpt>
      <trkpt lat="28.072455" lon="-15.557958">
        <ele>911.008</ele>
        <time>2021-08-05T19:19:57Z</time>
      </trkpt>
      <trkpt lat="28.072551" lon="-15.557947">
        <ele>913.085</ele>
        <time>2021-08-05T19:20:39Z</time>
      </trkpt>
      <trkpt lat="28.073362" lon="-15.557449">
        <ele>919.067</ele>
        <time>2021-08-05T19:25:06Z</time>
      </trkpt>
      <trkpt lat="28.073697" lon="-15.557619">
        <ele>922.099</ele>
        <time>2021-08-05T19:25:53Z</time>
      </trkpt>
      <trkpt lat="28.073999" lon="-15.557609">
        <ele>932.087</ele>
        <time>2021-08-05T19:27:13Z</time>
      </trkpt>
      <trkpt lat="28.074290" lon="-15.557136">
        <ele>934.094</ele>
        <time>2021-08-05T19:29:04Z</time>
      </trkpt>
      <trkpt lat="28.074466" lon="-15.557021">
        <ele>952.075</ele>
        <time>2021-08-05T19:31:21Z</time>
      </trkpt>
      <trkpt lat="28.074556" lon="-15.556723">
        <ele>965.047</ele>
        <time>2021-08-05T19:33:05Z</time>
      </trkpt>
      <trkpt lat="28.074935" lon="-15.556464">
        <ele>974.029</ele>
        <time>2021-08-05T19:34:49Z</time>
      </trkpt>
      <trkpt lat="28.075021" lon="-15.556299">
        <ele>978.075</ele>
        <time>2021-08-05T19:35:15Z</time>
      </trkpt>
      <trkpt lat="28.076032" lon="-15.556527">
        <ele>960.028</ele>
        <time>2021-08-05T19:37:49Z</time>
      </trkpt>
      <trkpt lat="28.076722" lon="-15.556605">
        <ele>998.020</ele>
        <time>2021-08-05T19:38:50Z</time>
      </trkpt>
      <trkpt lat="28.077317" lon="-15.556529">
        <ele>995.008</ele>
        <time>2021-08-05T19:39:57Z</time>
      </trkpt>
      <trkpt lat="28.077911" lon="-15.556366">
        <ele>993.035</ele>
        <time>2021-08-05T19:41:13Z</time>
      </trkpt>
      <trkpt lat="28.078289" lon="-15.556188">
        <ele>1014.047</ele>
        <time>2021-08-05T19:45:37Z</time>
      </trkpt>
      <trkpt lat="28.078243" lon="-15.556186">
        <ele>1016.069</ele>
        <time>2021-08-05T19:46:33Z</time>
      </trkpt>
      <trkpt lat="28.078435" lon="-15.556661">
        <ele>982.067</ele>
        <time>2021-08-05T19:49:20Z</time>
      </trkpt>
      <trkpt lat="28.078821" lon="-15.557110">
        <ele>952.014</ele>
        <time>2021-08-05T19:52:13Z</time>
      </trkpt>
      <trkpt lat="28.079181" lon="-15.557739">
        <ele>936.085</ele>
        <time>2021-08-05T19:53:48Z</time>
      </trkpt>
      <trkpt lat="28.079653" lon="-15.558205">
        <ele>913.047</ele>
        <time>2021-08-05T19:55:37Z</time>
      </trkpt>
      <trkpt lat="28.079959" lon="-15.558346">
        <ele>905.059</ele>
        <time>2021-08-05T19:57:19Z</time>
      </trkpt>
      <trkpt lat="28.080558" lon="-15.558804">
        <ele>873.029</ele>
        <time>2021-08-05T20:00:29Z</time>
      </trkpt>
      <trkpt lat="28.081012" lon="-15.558750">
        <ele>863.000</ele>
        <time>2021-08-05T20:03:08Z</time>
      </trkpt>
      <trkpt lat="28.081515" lon="-15.558951">
        <ele>825.020</ele>
        <time>2021-08-05T20:05:26Z</time>
      </trkpt>
      <trkpt lat="28.081561" lon="-15.559104">
        <ele>832.008</ele>
        <time>2021-08-05T20:06:19Z</time>
      </trkpt>
      <trkpt lat="28.081328" lon="-15.559446">
        <ele>835.090</ele>
        <time>2021-08-05T20:07:04Z</time>
      </trkpt>
      <trkpt lat="28.081370" lon="-15.559707">
        <ele>836.042</ele>
        <time>2021-08-05T20:08:38Z</time>
      </trkpt>
      <trkpt lat="28.082002" lon="-15.560071">
        <ele>825.084</ele>
        <time>2021-08-05T20:11:02Z</time>
      </trkpt>
      <trkpt lat="28.082061" lon="-15.560217">
        <ele>827.082</ele>
        <time>2021-08-05T20:11:30Z</time>
      </trkpt>
      <trkpt lat="28.082220" lon="-15.560350">
        <ele>819.029</ele>
        <time>2021-08-05T20:13:23Z</time>
      </trkpt>
      <trkpt lat="28.082542" lon="-15.560503">
        <ele>822.090</ele>
        <time>2021-08-05T20:14:14Z</time>
      </trkpt>
      <trkpt lat="28.082948" lon="-15.560660">
        <ele>807.032</ele>
        <time>2021-08-05T20:15:23Z</time>
      </trkpt>
      <trkpt lat="28.083198" lon="-15.560618">
        <ele>804.064</ele>
        <time>2021-08-05T20:16:00Z</time>
      </trkpt>
      <trkpt lat="28.083436" lon="-15.560767">
        <ele>788.073</ele>
        <time>2021-08-05T20:16:45Z</time>
      </trkpt>
      <trkpt lat="28.083871" lon="-15.560798">
        <ele>787.085</ele>
        <time>2021-08-05T20:17:49Z</time>
      </trkpt>
      <trkpt lat="28.084099" lon="-15.560694">
        <ele>772.013</ele>
        <time>2021-08-05T20:18:26Z</time>
      </trkpt>
      <trkpt lat="28.084298" lon="-15.560424">
        <ele>772.008</ele>
        <time>2021-08-05T20:19:36Z</time>
      </trkpt>
      <trkpt lat="28.084292" lon="-15.560325">
        <ele>780.035</ele>
        <time>2021-08-05T20:20:41Z</time>
      </trkpt>
      <trkpt lat="28.084180" lon="-15.560229">
        <ele>781.017</ele>
        <time>2021-08-05T20:20:59Z</time>
      </trkpt>
      <trkpt lat="28.083333" lon="-15.560079">
        <ele>786.079</ele>
        <time>2021-08-05T20:23:21Z</time>
      </trkpt>
      <trkpt lat="28.082968" lon="-15.559866">
        <ele>789.017</ele>
        <time>2021-08-05T20:24:03Z</time>
      </trkpt>
      <trkpt lat="28.082633" lon="-15.559797">
        <ele>797.044</ele>
        <time>2021-08-05T20:24:46Z</time>
      </trkpt>
      <trkpt lat="28.082371" lon="-15.559620">
        <ele>793.095</ele>
        <time>2021-08-05T20:25:16Z</time>
      </trkpt>
      <trkpt lat="28.082146" lon="-15.559330">
        <ele>802.027</ele>
        <time>2021-08-05T20:26:06Z</time>
      </trkpt>
      <trkpt lat="28.082240" lon="-15.558568">
        <ele>802.039</ele>
        <time>2021-08-05T20:28:03Z</time>
      </trkpt>
      <trkpt lat="28.081758" lon="-15.557834">
        <ele>799.074</ele>
        <time>2021-08-05T20:29:49Z</time>
      </trkpt>
      <trkpt lat="28.081366" lon="-15.557848">
        <ele>797.056</ele>
        <time>2021-08-05T20:30:39Z</time>
      </trkpt>
      <trkpt lat="28.081228" lon="-15.557689">
        <ele>789.021</ele>
        <time>2021-08-05T20:32:17Z</time>
      </trkpt>
      <trkpt lat="28.081182" lon="-15.557344">
        <ele>785.008</ele>
        <time>2021-08-05T20:33:32Z</time>
      </trkpt>
      <trkpt lat="28.081269" lon="-15.557017">
        <ele>779.045</ele>
        <time>2021-08-05T20:34:11Z</time>
      </trkpt>
      <trkpt lat="28.081249" lon="-15.556809">
        <ele>781.057</ele>
        <time>2021-08-05T20:35:05Z</time>
      </trkpt>
      <trkpt lat="28.081436" lon="-15.556611">
        <ele>778.069</ele>
        <time>2021-08-05T20:35:53Z</time>
      </trkpt>
      <trkpt lat="28.081622" lon="-15.556566">
        <ele>787.077</ele>
        <time>2021-08-05T20:36:21Z</time>
      </trkpt>
      <trkpt lat="28.081675" lon="-15.556426">
        <ele>788.074</ele>
        <time>2021-08-05T20:37:45Z</time>
      </trkpt>
      <trkpt lat="28.082723" lon="-15.556069">
        <ele>786.055</ele>
        <time>2021-08-05T20:40:46Z</time>
      </trkpt>
      <trkpt lat="28.083338" lon="-15.555362">
        <ele>817.037</ele>
        <time>2021-08-05T20:43:17Z</time>
      </trkpt>
      <trkpt lat="28.083863" lon="-15.555197">
        <ele>816.029</ele>
        <time>2021-08-05T20:44:13Z</time>
      </trkpt>
      <trkpt lat="28.084253" lon="-15.555318">
        <ele>807.012</ele>
        <time>2021-08-05T20:45:23Z</time>
      </trkpt>
      <trkpt lat="28.084525" lon="-15.554999">
        <ele>797.032</ele>
        <time>2021-08-05T20:46:36Z</time>
      </trkpt>
      <trkpt lat="28.084663" lon="-15.554699">
        <ele>777.005</ele>
        <time>2021-08-05T20:47:40Z</time>
      </trkpt>
      <trkpt lat="28.085422" lon="-15.554322">
        <ele>767.008</ele>
        <time>2021-08-05T20:49:12Z</time>
      </trkpt>
      <trkpt lat="28.085626" lon="-15.554325">
        <ele>762.099</ele>
        <time>2021-08-05T20:49:54Z</time>
      </trkpt>
      <trkpt lat="28.085775" lon="-15.554177">
        <ele>756.091</ele>
        <time>2021-08-05T20:50:22Z</time>
      </trkpt>
      <trkpt lat="28.086021" lon="-15.554314">
        <ele>753.033</ele>
        <time>2021-08-05T20:51:43Z</time>
      </trkpt>
      <trkpt lat="28.086211" lon="-15.554229">
        <ele>747.041</ele>
        <time>2021-08-05T20:52:19Z</time>
      </trkpt>
      <trkpt lat="28.086407" lon="-15.554380">
        <ele>743.028</ele>
        <time>2021-08-05T20:52:54Z</time>
      </trkpt>
      <trkpt lat="28.086621" lon="-15.554281">
        <ele>738.089</ele>
        <time>2021-08-05T20:53:34Z</time>
      </trkpt>
      <trkpt lat="28.086734" lon="-15.554372">
        <ele>738.051</ele>
        <time>2021-08-05T20:54:13Z</time>
      </trkpt>
      <trkpt lat="28.087058" lon="-15.554277">
        <ele>731.043</ele>
        <time>2021-08-05T20:55:17Z</time>
      </trkpt>
      <trkpt lat="28.087241" lon="-15.554368">
        <ele>727.065</ele>
        <time>2021-08-05T20:55:51Z</time>
      </trkpt>
      <trkpt lat="28.087623" lon="-15.554226">
        <ele>716.068</ele>
        <time>2021-08-05T20:59:06Z</time>
      </trkpt>
      <trkpt lat="28.087795" lon="-15.554322">
        <ele>715.014</ele>
        <time>2021-08-05T20:59:44Z</time>
      </trkpt>
      <trkpt lat="28.088070" lon="-15.554348">
        <ele>707.008</ele>
        <time>2021-08-05T21:00:32Z</time>
      </trkpt>
      <trkpt lat="28.088194" lon="-15.554265">
        <ele>705.034</ele>
        <time>2021-08-05T21:00:51Z</time>
      </trkpt>
      <trkpt lat="28.088403" lon="-15.554273">
        <ele>704.096</ele>
        <time>2021-08-05T21:01:28Z</time>
      </trkpt>
      <trkpt lat="28.088601" lon="-15.554102">
        <ele>697.048</ele>
        <time>2021-08-05T21:02:09Z</time>
      </trkpt>
      <trkpt lat="28.089129" lon="-15.554047">
        <ele>683.096</ele>
        <time>2021-08-05T21:03:40Z</time>
      </trkpt>
      <trkpt lat="28.089280" lon="-15.553958">
        <ele>676.073</ele>
        <time>2021-08-05T21:04:01Z</time>
      </trkpt>
      <trkpt lat="28.089470" lon="-15.553999">
        <ele>671.084</ele>
        <time>2021-08-05T21:04:25Z</time>
      </trkpt>
      <trkpt lat="28.089686" lon="-15.553588">
        <ele>673.086</ele>
        <time>2021-08-05T21:05:08Z</time>
      </trkpt>
      <trkpt lat="28.089908" lon="-15.553580">
        <ele>672.068</ele>
        <time>2021-08-05T21:05:44Z</time>
      </trkpt>
      <trkpt lat="28.090135" lon="-15.553806">
        <ele>668.065</ele>
        <time>2021-08-05T21:06:17Z</time>
      </trkpt>
      <trkpt lat="28.090271" lon="-15.553678">
        <ele>661.068</ele>
        <time>2021-08-05T21:06:44Z</time>
      </trkpt>
      <trkpt lat="28.090397" lon="-15.553744">
        <ele>657.014</ele>
        <time>2021-08-05T21:07:02Z</time>
      </trkpt>
    </trkseg>
  </trk></gpx>