<?xml version="1.0" encoding="UTF-8"?>
<gpx creator="Wikiloc - https://www.wikiloc.com" version="1.1" xmlns="http://www.topografix.com/GPX/1/1" xmlns:xsi="http://www.w3.org/2001/XMLSchema-instance" xsi:schemaLocation="http://www.topografix.com/GPX/1/1 http://www.topografix.com/GPX/1/1/gpx.xsd">
  <metadata>
    <name>Wikiloc - Circular: Santa Lucía de Tirajana - La Fortaleza - Presa de ...</name>
    <link href="https://www.wikiloc.com/hiking-trails/circular-santa-lucia-de-tirajana-la-fortaleza-presa-de-la-sorrueda-santa-lucia-de-tirajana-95-fotos-191686888">
      <text>Circular: Santa Lucía de Tirajana - La Fortaleza - Presa de ... on Wikiloc</text>
    </link>
    <time>2024-11-14T12:52:47.017Z</time>
  </metadata>
  <trk>
    <name>Circular: Santa Lucía de Tirajana - La Fortaleza - Presa de ... - Wikiloc</name>
    <cmt></cmt>
    <desc></desc>
    <trkseg>
      <trkpt lat="27.912918" lon="-15.541610">
        <ele>827.887</ele>
        <time>2024-11-14T09:40:23.085Z</time>
      </trkpt>
      <trkpt lat="27.912930" lon="-15.541680">
        <ele>827.942</ele>
        <time>2024-11-14T09:40:30.085Z</time>
      </trkpt>
      <trkpt lat="27.912573" lon="-15.541265">
        <ele>827.726</ele>
        <time>2024-11-14T09:41:23.026Z</time>
      </trkpt>
      <trkpt lat="27.912332" lon="-15.541203">
        <ele>814.609</ele>
        <time>2024-11-14T09:41:59.026Z</time>
      </trkpt>
      <trkpt lat="27.911394" lon="-15.541504">
        <ele>691.879</ele>
        <time>2024-11-14T09:43:49.026Z</time>
      </trkpt>
      <trkpt lat="27.911082" lon="-15.541120">
        <ele>701.197</ele>
        <time>2024-11-14T09:44:32.026Z</time>
      </trkpt>
      <trkpt lat="27.911035" lon="-15.540900">
        <ele>699.539</ele>
        <time>2024-11-14T09:44:50.026Z</time>
      </trkpt>
      <trkpt lat="27.910266" lon="-15.540259">
        <ele>695.254</ele>
        <time>2024-11-14T09:46:06.026Z</time>
      </trkpt>
      <trkpt lat="27.909270" lon="-15.540676">
        <ele>689.986</ele>
        <time>2024-11-14T09:47:33.026Z</time>
      </trkpt>
      <trkpt lat="27.908935" lon="-15.540239">
        <ele>688.754</ele>
        <time>2024-11-14T09:48:23.026Z</time>
      </trkpt>
      <trkpt lat="27.908660" lon="-15.540071">
        <ele>682.596</ele>
        <time>2024-11-14T09:48:50.026Z</time>
      </trkpt>
      <trkpt lat="27.908369" lon="-15.540015">
        <ele>683.216</ele>
        <time>2024-11-14T09:49:11.026Z</time>
      </trkpt>
      <trkpt lat="27.908049" lon="-15.540250">
        <ele>680.126</ele>
        <time>2024-11-14T09:49:47.026Z</time>
      </trkpt>
      <trkpt lat="27.907881" lon="-15.540108">
        <ele>677.082</ele>
        <time>2024-11-14T09:50:06.026Z</time>
      </trkpt>
      <trkpt lat="27.907891" lon="-15.539998">
        <ele>674.643</ele>
        <time>2024-11-14T09:50:14.026Z</time>
      </trkpt>
      <trkpt lat="27.907745" lon="-15.539932">
        <ele>667.917</ele>
        <time>2024-11-14T09:50:43.026Z</time>
      </trkpt>
      <trkpt lat="27.907868" lon="-15.539458">
        <ele>661.009</ele>
        <time>2024-11-14T09:51:25.026Z</time>
      </trkpt>
      <trkpt lat="27.907823" lon="-15.539303">
        <ele>657.629</ele>
        <time>2024-11-14T09:51:41.026Z</time>
      </trkpt>
      <trkpt lat="27.907518" lon="-15.539217">
        <ele>655.627</ele>
        <time>2024-11-14T09:52:05.026Z</time>
      </trkpt>
      <trkpt lat="27.906967" lon="-15.539524">
        <ele>653.139</ele>
        <time>2024-11-14T09:52:57.026Z</time>
      </trkpt>
      <trkpt lat="27.906710" lon="-15.539523">
        <ele>655.474</ele>
        <time>2024-11-14T09:53:19.026Z</time>
      </trkpt>
      <trkpt lat="27.906479" lon="-15.539020">
        <ele>662.916</ele>
        <time>2024-11-14T09:54:03.026Z</time>
      </trkpt>
      <trkpt lat="27.905887" lon="-15.538836">
        <ele>665.344</ele>
        <time>2024-11-14T09:55:13.026Z</time>
      </trkpt>
      <trkpt lat="27.905639" lon="-15.538627">
        <ele>664.446</ele>
        <time>2024-11-14T09:55:41.026Z</time>
      </trkpt>
      <trkpt lat="27.904983" lon="-15.538324">
        <ele>655.946</ele>
        <time>2024-11-14T09:56:51.026Z</time>
      </trkpt>
      <trkpt lat="27.904655" lon="-15.537722">
        <ele>651.956</ele>
        <time>2024-11-14T09:57:51.026Z</time>
      </trkpt>
      <trkpt lat="27.903911" lon="-15.537232">
        <ele>645.761</ele>
        <time>2024-11-14T09:59:05.026Z</time>
      </trkpt>
      <trkpt lat="27.903633" lon="-15.537234">
        <ele>643.421</ele>
        <time>2024-11-14T09:59:26.026Z</time>
      </trkpt>
      <trkpt lat="27.903533" lon="-15.537117">
        <ele>643.413</ele>
        <time>2024-11-14T09:59:38.026Z</time>
      </trkpt>
      <trkpt lat="27.903245" lon="-15.537265">
        <ele>637.609</ele>
        <time>2024-11-14T10:00:23.026Z</time>
      </trkpt>
      <trkpt lat="27.902804" lon="-15.537301">
        <ele>630.277</ele>
        <time>2024-11-14T10:01:05.026Z</time>
      </trkpt>
      <trkpt lat="27.902461" lon="-15.537196">
        <ele>624.075</ele>
        <time>2024-11-14T10:01:36.026Z</time>
      </trkpt>
      <trkpt lat="27.901651" lon="-15.537139">
        <ele>623.567</ele>
        <time>2024-11-14T10:02:44.026Z</time>
      </trkpt>
      <trkpt lat="27.901398" lon="-15.537059">
        <ele>618.082</ele>
        <time>2024-11-14T10:03:07.026Z</time>
      </trkpt>
      <trkpt lat="27.900471" lon="-15.536411">
        <ele>616.054</ele>
        <time>2024-11-14T10:04:40.026Z</time>
      </trkpt>
      <trkpt lat="27.899786" lon="-15.536404">
        <ele>618.362</ele>
        <time>2024-11-14T10:05:39.026Z</time>
      </trkpt>
      <trkpt lat="27.899444" lon="-15.536312">
        <ele>621.284</ele>
        <time>2024-11-14T10:06:08.026Z</time>
      </trkpt>
      <trkpt lat="27.899233" lon="-15.536074">
        <ele>619.284</ele>
        <time>2024-11-14T10:06:34.026Z</time>
      </trkpt>
      <trkpt lat="27.899079" lon="-15.535347">
        <ele>616.934</ele>
        <time>2024-11-14T10:07:27.026Z</time>
      </trkpt>
      <trkpt lat="27.898918" lon="-15.535071">
        <ele>610.534</ele>
        <time>2024-11-14T10:07:53.026Z</time>
      </trkpt>
      <trkpt lat="27.898323" lon="-15.534928">
        <ele>617.655</ele>
        <time>2024-11-14T10:08:39.026Z</time>
      </trkpt>
      <trkpt lat="27.897679" lon="-15.534544">
        <ele>613.410</ele>
        <time>2024-11-14T10:09:36.026Z</time>
      </trkpt>
      <trkpt lat="27.897155" lon="-15.533840">
        <ele>608.009</ele>
        <time>2024-11-14T10:10:42.026Z</time>
      </trkpt>
      <trkpt lat="27.896805" lon="-15.533717">
        <ele>608.314</ele>
        <time>2024-11-14T10:11:09.026Z</time>
      </trkpt>
      <trkpt lat="27.895561" lon="-15.532899">
        <ele>596.372</ele>
        <time>2024-11-14T10:12:57.026Z</time>
      </trkpt>
      <trkpt lat="27.894847" lon="-15.532271">
        <ele>590.244</ele>
        <time>2024-11-14T10:14:16.026Z</time>
      </trkpt>
      <trkpt lat="27.894513" lon="-15.532111">
        <ele>587.059</ele>
        <time>2024-11-14T10:14:49.026Z</time>
      </trkpt>
      <trkpt lat="27.893015" lon="-15.530935">
        <ele>575.561</ele>
        <time>2024-11-14T10:17:26.026Z</time>
      </trkpt>
      <trkpt lat="27.891220" lon="-15.530265">
        <ele>567.919</ele>
        <time>2024-11-14T10:19:58.025Z</time>
      </trkpt>
      <trkpt lat="27.890314" lon="-15.529721">
        <ele>560.271</ele>
        <time>2024-11-14T10:21:26.025Z</time>
      </trkpt>
      <trkpt lat="27.889985" lon="-15.529430">
        <ele>559.411</ele>
        <time>2024-11-14T10:22:04.025Z</time>
      </trkpt>
      <trkpt lat="27.889068" lon="-15.529251">
        <ele>557.141</ele>
        <time>2024-11-14T10:23:23.025Z</time>
      </trkpt>
      <trkpt lat="27.888471" lon="-15.529012">
        <ele>557.317</ele>
        <time>2024-11-14T10:24:13.025Z</time>
      </trkpt>
      <trkpt lat="27.887799" lon="-15.528999">
        <ele>560.087</ele>
        <time>2024-11-14T10:25:07.025Z</time>
      </trkpt>
      <trkpt lat="27.887510" lon="-15.528857">
        <ele>557.615</ele>
        <time>2024-11-14T10:25:35.025Z</time>
      </trkpt>
      <trkpt lat="27.887224" lon="-15.528917">
        <ele>550.309</ele>
        <time>2024-11-14T10:26:05.025Z</time>
      </trkpt>
      <trkpt lat="27.886792" lon="-15.528748">
        <ele>546.532</ele>
        <time>2024-11-14T10:26:47.025Z</time>
      </trkpt>
      <trkpt lat="27.886361" lon="-15.528799">
        <ele>539.280</ele>
        <time>2024-11-14T10:27:37.025Z</time>
      </trkpt>
      <trkpt lat="27.886175" lon="-15.528720">
        <ele>536.142</ele>
        <time>2024-11-14T10:27:59.025Z</time>
      </trkpt>
      <trkpt lat="27.885760" lon="-15.528857">
        <ele>528.747</ele>
        <time>2024-11-14T10:28:51.025Z</time>
      </trkpt>
      <trkpt lat="27.885223" lon="-15.528892">
        <ele>518.149</ele>
        <time>2024-11-14T10:29:44.025Z</time>
      </trkpt>
      <trkpt lat="27.885095" lon="-15.528808">
        <ele>518.537</ele>
        <time>2024-11-14T10:29:56.025Z</time>
      </trkpt>
      <trkpt lat="27.884977" lon="-15.528242">
        <ele>515.049</ele>
        <time>2024-11-14T10:30:38.025Z</time>
      </trkpt>
      <trkpt lat="27.884767" lon="-15.527855">
        <ele>513.599</ele>
        <time>2024-11-14T10:31:10.025Z</time>
      </trkpt>
      <trkpt lat="27.884238" lon="-15.527711">
        <ele>504.699</ele>
        <time>2024-11-14T10:32:03.025Z</time>
      </trkpt>
      <trkpt lat="27.883989" lon="-15.527705">
        <ele>503.073</ele>
        <time>2024-11-14T10:32:25.025Z</time>
      </trkpt>
      <trkpt lat="27.883764" lon="-15.527841">
        <ele>497.385</ele>
        <time>2024-11-14T10:32:44.025Z</time>
      </trkpt>
      <trkpt lat="27.883403" lon="-15.527841">
        <ele>502.813</ele>
        <time>2024-11-14T10:42:23.025Z</time>
      </trkpt>
      <trkpt lat="27.882889" lon="-15.528452">
        <ele>500.309</ele>
        <time>2024-11-14T10:43:24.025Z</time>
      </trkpt>
      <trkpt lat="27.882786" lon="-15.528460">
        <ele>501.868</ele>
        <time>2024-11-14T10:43:32.025Z</time>
      </trkpt>
      <trkpt lat="27.881902" lon="-15.527611">
        <ele>512.456</ele>
        <time>2024-11-14T10:45:47.024Z</time>
      </trkpt>
      <trkpt lat="27.881795" lon="-15.527876">
        <ele>515.938</ele>
        <time>2024-11-14T10:46:05.024Z</time>
      </trkpt>
      <trkpt lat="27.881852" lon="-15.528218">
        <ele>515.753</ele>
        <time>2024-11-14T10:46:10.024Z</time>
      </trkpt>
      <trkpt lat="27.881847" lon="-15.527326">
        <ele>527.235</ele>
        <time>2024-11-14T10:46:41.024Z</time>
      </trkpt>
      <trkpt lat="27.881978" lon="-15.527228">
        <ele>519.353</ele>
        <time>2024-11-14T10:46:53.024Z</time>
      </trkpt>
      <trkpt lat="27.882685" lon="-15.527168">
        <ele>511.095</ele>
        <time>2024-11-14T10:48:07.024Z</time>
      </trkpt>
      <trkpt lat="27.883078" lon="-15.527359">
        <ele>513.875</ele>
        <time>2024-11-14T10:48:45.024Z</time>
      </trkpt>
      <trkpt lat="27.883292" lon="-15.527574">
        <ele>506.135</ele>
        <time>2024-11-14T10:49:13.024Z</time>
      </trkpt>
      <trkpt lat="27.882791" lon="-15.528440">
        <ele>503.383</ele>
        <time>2024-11-14T10:50:30.024Z</time>
      </trkpt>
      <trkpt lat="27.882682" lon="-15.528739">
        <ele>501.525</ele>
        <time>2024-11-14T10:50:57.024Z</time>
      </trkpt>
      <trkpt lat="27.882714" lon="-15.529022">
        <ele>501.217</ele>
        <time>2024-11-14T10:51:17.024Z</time>
      </trkpt>
      <trkpt lat="27.884172" lon="-15.530977">
        <ele>486.909</ele>
        <time>2024-11-14T10:54:15.024Z</time>
      </trkpt>
      <trkpt lat="27.884431" lon="-15.531926">
        <ele>489.139</ele>
        <time>2024-11-14T10:55:22.024Z</time>
      </trkpt>
      <trkpt lat="27.885500" lon="-15.532460">
        <ele>479.887</ele>
        <time>2024-11-14T10:56:53.024Z</time>
      </trkpt>
      <trkpt lat="27.885053" lon="-15.532510">
        <ele>476.669</ele>
        <time>2024-11-14T10:57:35.024Z</time>
      </trkpt>
      <trkpt lat="27.884831" lon="-15.533191">
        <ele>470.454</ele>
        <time>2024-11-14T10:58:26.024Z</time>
      </trkpt>
      <trkpt lat="27.883957" lon="-15.533053">
        <ele>459.016</ele>
        <time>2024-11-14T10:59:35.024Z</time>
      </trkpt>
      <trkpt lat="27.883970" lon="-15.533193">
        <ele>453.914</ele>
        <time>2024-11-14T10:59:46.024Z</time>
      </trkpt>
      <trkpt lat="27.884541" lon="-15.533609">
        <ele>444.386</ele>
        <time>2024-11-14T11:00:38.023Z</time>
      </trkpt>
      <trkpt lat="27.883988" lon="-15.533534">
        <ele>434.936</ele>
        <time>2024-11-14T11:01:27.023Z</time>
      </trkpt>
      <trkpt lat="27.883888" lon="-15.533604">
        <ele>433.816</ele>
        <time>2024-11-14T11:01:34.023Z</time>
      </trkpt>
      <trkpt lat="27.883939" lon="-15.533801">
        <ele>426.253</ele>
        <time>2024-11-14T11:01:49.023Z</time>
      </trkpt>
      <trkpt lat="27.884333" lon="-15.533940">
        <ele>423.204</ele>
        <time>2024-11-14T11:02:23.023Z</time>
      </trkpt>
      <trkpt lat="27.884354" lon="-15.534041">
        <ele>421.814</ele>
        <time>2024-11-14T11:02:33.023Z</time>
      </trkpt>
      <trkpt lat="27.883931" lon="-15.534189">
        <ele>409.109</ele>
        <time>2024-11-14T11:03:13.023Z</time>
      </trkpt>
      <trkpt lat="27.883719" lon="-15.534606">
        <ele>402.946</ele>
        <time>2024-11-14T11:03:48.023Z</time>
      </trkpt>
      <trkpt lat="27.883869" lon="-15.534634">
        <ele>396.814</ele>
        <time>2024-11-14T11:04:01.023Z</time>
      </trkpt>
      <trkpt lat="27.884141" lon="-15.534376">
        <ele>395.136</ele>
        <time>2024-11-14T11:04:31.023Z</time>
      </trkpt>
      <trkpt lat="27.884364" lon="-15.534459">
        <ele>399.381</ele>
        <time>2024-11-14T11:05:03.023Z</time>
      </trkpt>
      <trkpt lat="27.884589" lon="-15.535139">
        <ele>371.513</ele>
        <time>2024-11-14T11:07:05.023Z</time>
      </trkpt>
      <trkpt lat="27.884777" lon="-15.535045">
        <ele>373.431</ele>
        <time>2024-11-14T11:07:29.023Z</time>
      </trkpt>
      <trkpt lat="27.884922" lon="-15.535128">
        <ele>369.493</ele>
        <time>2024-11-14T11:08:41.023Z</time>
      </trkpt>
      <trkpt lat="27.885209" lon="-15.535121">
        <ele>373.373</ele>
        <time>2024-11-14T11:09:11.023Z</time>
      </trkpt>
      <trkpt lat="27.885402" lon="-15.535302">
        <ele>373.263</ele>
        <time>2024-11-14T11:09:37.023Z</time>
      </trkpt>
      <trkpt lat="27.885464" lon="-15.535513">
        <ele>377.394</ele>
        <time>2024-11-14T11:09:54.023Z</time>
      </trkpt>
      <trkpt lat="27.885949" lon="-15.535807">
        <ele>378.257</ele>
        <time>2024-11-14T11:10:49.023Z</time>
      </trkpt>
      <trkpt lat="27.886266" lon="-15.536248">
        <ele>376.822</ele>
        <time>2024-11-14T11:11:34.023Z</time>
      </trkpt>
      <trkpt lat="27.886455" lon="-15.537109">
        <ele>373.809</ele>
        <time>2024-11-14T11:12:48.023Z</time>
      </trkpt>
      <trkpt lat="27.885962" lon="-15.537686">
        <ele>371.870</ele>
        <time>2024-11-14T11:13:47.023Z</time>
      </trkpt>
      <trkpt lat="27.885563" lon="-15.537864">
        <ele>368.058</ele>
        <time>2024-11-14T11:14:25.023Z</time>
      </trkpt>
      <trkpt lat="27.885534" lon="-15.538332">
        <ele>368.770</ele>
        <time>2024-11-14T11:15:06.023Z</time>
      </trkpt>
      <trkpt lat="27.885817" lon="-15.538445">
        <ele>365.135</ele>
        <time>2024-11-14T11:15:33.022Z</time>
      </trkpt>
      <trkpt lat="27.886173" lon="-15.538415">
        <ele>365.257</ele>
        <time>2024-11-14T11:16:04.022Z</time>
      </trkpt>
      <trkpt lat="27.886599" lon="-15.538635">
        <ele>367.315</ele>
        <time>2024-11-14T11:16:45.022Z</time>
      </trkpt>
      <trkpt lat="27.886736" lon="-15.539021">
        <ele>373.317</ele>
        <time>2024-11-14T11:17:15.022Z</time>
      </trkpt>
      <trkpt lat="27.887274" lon="-15.539610">
        <ele>374.657</ele>
        <time>2024-11-14T11:18:20.022Z</time>
      </trkpt>
      <trkpt lat="27.887620" lon="-15.540809">
        <ele>382.057</ele>
        <time>2024-11-14T11:20:02.022Z</time>
      </trkpt>
      <trkpt lat="27.888297" lon="-15.541485">
        <ele>384.412</ele>
        <time>2024-11-14T11:21:28.022Z</time>
      </trkpt>
      <trkpt lat="27.888379" lon="-15.541542">
        <ele>384.132</ele>
        <time>2024-11-14T11:21:37.022Z</time>
      </trkpt>
      <trkpt lat="27.889313" lon="-15.541391">
        <ele>386.605</ele>
        <time>2024-11-14T11:23:09.022Z</time>
      </trkpt>
      <trkpt lat="27.890052" lon="-15.541520">
        <ele>391.909</ele>
        <time>2024-11-14T11:24:18.022Z</time>
      </trkpt>
      <trkpt lat="27.890311" lon="-15.541977">
        <ele>393.552</ele>
        <time>2024-11-14T11:25:18.022Z</time>
      </trkpt>
      <trkpt lat="27.890721" lon="-15.542289">
        <ele>395.140</ele>
        <time>2024-11-14T11:26:08.022Z</time>
      </trkpt>
      <trkpt lat="27.891072" lon="-15.543018">
        <ele>400.782</ele>
        <time>2024-11-14T11:27:20.022Z</time>
      </trkpt>
      <trkpt lat="27.891737" lon="-15.543514">
        <ele>400.777</ele>
        <time>2024-11-14T11:28:33.022Z</time>
      </trkpt>
      <trkpt lat="27.892574" lon="-15.543238">
        <ele>404.289</ele>
        <time>2024-11-14T11:36:20.021Z</time>
      </trkpt>
      <trkpt lat="27.893131" lon="-15.542826">
        <ele>416.177</ele>
        <time>2024-11-14T11:37:42.021Z</time>
      </trkpt>
      <trkpt lat="27.893454" lon="-15.542361">
        <ele>423.869</ele>
        <time>2024-11-14T11:38:38.021Z</time>
      </trkpt>
      <trkpt lat="27.893301" lon="-15.543252">
        <ele>441.729</ele>
        <time>2024-11-14T11:40:14.021Z</time>
      </trkpt>
      <trkpt lat="27.893633" lon="-15.543228">
        <ele>448.889</ele>
        <time>2024-11-14T11:40:50.021Z</time>
      </trkpt>
      <trkpt lat="27.893814" lon="-15.543414">
        <ele>448.895</ele>
        <time>2024-11-14T11:41:18.021Z</time>
      </trkpt>
      <trkpt lat="27.893993" lon="-15.543987">
        <ele>465.549</ele>
        <time>2024-11-14T11:42:28.021Z</time>
      </trkpt>
      <trkpt lat="27.893828" lon="-15.544681">
        <ele>467.123</ele>
        <time>2024-11-14T11:43:45.021Z</time>
      </trkpt>
      <trkpt lat="27.894044" lon="-15.545027">
        <ele>481.609</ele>
        <time>2024-11-14T11:44:52.020Z</time>
      </trkpt>
      <trkpt lat="27.894187" lon="-15.544969">
        <ele>486.130</ele>
        <time>2024-11-14T11:45:40.020Z</time>
      </trkpt>
      <trkpt lat="27.894653" lon="-15.545877">
        <ele>505.998</ele>
        <time>2024-11-14T11:47:39.020Z</time>
      </trkpt>
      <trkpt lat="27.894845" lon="-15.545875">
        <ele>511.760</ele>
        <time>2024-11-14T11:48:12.020Z</time>
      </trkpt>
      <trkpt lat="27.895159" lon="-15.546217">
        <ele>526.035</ele>
        <time>2024-11-14T11:49:20.020Z</time>
      </trkpt>
      <trkpt lat="27.896007" lon="-15.546536">
        <ele>534.247</ele>
        <time>2024-11-14T11:50:48.020Z</time>
      </trkpt>
      <trkpt lat="27.896395" lon="-15.546890">
        <ele>535.035</ele>
        <time>2024-11-14T11:51:33.020Z</time>
      </trkpt>
      <trkpt lat="27.896404" lon="-15.547633">
        <ele>535.187</ele>
        <time>2024-11-14T11:52:36.019Z</time>
      </trkpt>
      <trkpt lat="27.896282" lon="-15.547984">
        <ele>540.627</ele>
        <time>2024-11-14T11:53:08.019Z</time>
      </trkpt>
      <trkpt lat="27.896412" lon="-15.548524">
        <ele>541.197</ele>
        <time>2024-11-14T11:54:02.019Z</time>
      </trkpt>
      <trkpt lat="27.896332" lon="-15.549166">
        <ele>545.689</ele>
        <time>2024-11-14T11:54:57.019Z</time>
      </trkpt>
      <trkpt lat="27.896483" lon="-15.549439">
        <ele>546.706</ele>
        <time>2024-11-14T11:55:23.019Z</time>
      </trkpt>
      <trkpt lat="27.897091" lon="-15.549401">
        <ele>545.726</ele>
        <time>2024-11-14T11:56:26.019Z</time>
      </trkpt>
      <trkpt lat="27.897154" lon="-15.549098">
        <ele>546.809</ele>
        <time>2024-11-14T11:56:53.019Z</time>
      </trkpt>
      <trkpt lat="27.897482" lon="-15.548679">
        <ele>549.969</ele>
        <time>2024-11-14T11:57:35.019Z</time>
      </trkpt>
      <trkpt lat="27.897746" lon="-15.548558">
        <ele>550.237</ele>
        <time>2024-11-14T11:57:59.019Z</time>
      </trkpt>
      <trkpt lat="27.898287" lon="-15.548538">
        <ele>552.519</ele>
        <time>2024-11-14T11:58:52.019Z</time>
      </trkpt>
      <trkpt lat="27.898700" lon="-15.548326">
        <ele>550.794</ele>
        <time>2024-11-14T11:59:27.019Z</time>
      </trkpt>
      <trkpt lat="27.899817" lon="-15.547407">
        <ele>554.966</ele>
        <time>2024-11-14T12:01:41.019Z</time>
      </trkpt>
      <trkpt lat="27.900795" lon="-15.546448">
        <ele>555.124</ele>
        <time>2024-11-14T12:03:44.019Z</time>
      </trkpt>
      <trkpt lat="27.902258" lon="-15.545680">
        <ele>557.376</ele>
        <time>2024-11-14T12:06:17.019Z</time>
      </trkpt>
      <trkpt lat="27.902348" lon="-15.545733">
        <ele>556.336</ele>
        <time>2024-11-14T12:06:27.019Z</time>
      </trkpt>
      <trkpt lat="27.902638" lon="-15.545672">
        <ele>551.126</ele>
        <time>2024-11-14T12:06:53.019Z</time>
      </trkpt>
      <trkpt lat="27.902877" lon="-15.545951">
        <ele>559.192</ele>
        <time>2024-11-14T12:07:23.019Z</time>
      </trkpt>
      <trkpt lat="27.903065" lon="-15.545997">
        <ele>549.573</ele>
        <time>2024-11-14T12:07:44.019Z</time>
      </trkpt>
      <trkpt lat="27.903970" lon="-15.545888">
        <ele>550.720</ele>
        <time>2024-11-14T12:09:09.019Z</time>
      </trkpt>
      <trkpt lat="27.904363" lon="-15.545990">
        <ele>556.409</ele>
        <time>2024-11-14T12:09:50.019Z</time>
      </trkpt>
      <trkpt lat="27.904589" lon="-15.546278">
        <ele>564.740</ele>
        <time>2024-11-14T12:10:26.019Z</time>
      </trkpt>
      <trkpt lat="27.904800" lon="-15.546024">
        <ele>563.428</ele>
        <time>2024-11-14T12:11:45.019Z</time>
      </trkpt>
      <trkpt lat="27.905394" lon="-15.545921">
        <ele>562.540</ele>
        <time>2024-11-14T12:13:03.019Z</time>
      </trkpt>
      <trkpt lat="27.905872" lon="-15.545663">
        <ele>574.655</ele>
        <time>2024-11-14T12:13:59.019Z</time>
      </trkpt>
      <trkpt lat="27.906159" lon="-15.545416">
        <ele>580.887</ele>
        <time>2024-11-14T12:14:33.019Z</time>
      </trkpt>
      <trkpt lat="27.906348" lon="-15.545032">
        <ele>579.575</ele>
        <time>2024-11-14T12:15:11.019Z</time>
      </trkpt>
      <trkpt lat="27.906946" lon="-15.544555">
        <ele>592.937</ele>
        <time>2024-11-14T12:16:21.019Z</time>
      </trkpt>
      <trkpt lat="27.907421" lon="-15.543888">
        <ele>601.377</ele>
        <time>2024-11-14T12:17:33.019Z</time>
      </trkpt>
      <trkpt lat="27.908070" lon="-15.543803">
        <ele>602.737</ele>
        <time>2024-11-14T12:18:31.019Z</time>
      </trkpt>
      <trkpt lat="27.908335" lon="-15.543654">
        <ele>611.415</ele>
        <time>2024-11-14T12:19:01.019Z</time>
      </trkpt>
      <trkpt lat="27.908880" lon="-15.543825">
        <ele>615.365</ele>
        <time>2024-11-14T12:19:51.019Z</time>
      </trkpt>
      <trkpt lat="27.910131" lon="-15.543716">
        <ele>630.711</ele>
        <time>2024-11-14T12:21:55.018Z</time>
      </trkpt>
      <trkpt lat="27.910219" lon="-15.543466">
        <ele>635.009</ele>
        <time>2024-11-14T12:22:27.018Z</time>
      </trkpt>
      <trkpt lat="27.910098" lon="-15.543386">
        <ele>642.582</ele>
        <time>2024-11-14T12:22:51.018Z</time>
      </trkpt>
      <trkpt lat="27.910275" lon="-15.543259">
        <ele>644.970</ele>
        <time>2024-11-14T12:23:47.018Z</time>
      </trkpt>
      <trkpt lat="27.909887" lon="-15.542860">
        <ele>658.242</ele>
        <time>2024-11-14T12:25:10.018Z</time>
      </trkpt>
      <trkpt lat="27.909949" lon="-15.542721">
        <ele>665.947</ele>
        <time>2024-11-14T12:25:38.018Z</time>
      </trkpt>
      <trkpt lat="27.909539" lon="-15.542242">
        <ele>675.529</ele>
        <time>2024-11-14T12:26:52.018Z</time>
      </trkpt>
      <trkpt lat="27.909599" lon="-15.542146">
        <ele>685.617</ele>
        <time>2024-11-14T12:27:06.018Z</time>
      </trkpt>
      <trkpt lat="27.909540" lon="-15.542032">
        <ele>684.469</ele>
        <time>2024-11-14T12:27:29.018Z</time>
      </trkpt>
      <trkpt lat="27.909621" lon="-15.541841">
        <ele>683.769</ele>
        <time>2024-11-14T12:27:54.018Z</time>
      </trkpt>
      <trkpt lat="27.909846" lon="-15.541737">
        <ele>672.189</ele>
        <time>2024-11-14T12:36:47.018Z</time>
      </trkpt>
      <trkpt lat="27.909702" lon="-15.540986">
        <ele>686.437</ele>
        <time>2024-11-14T12:37:53.018Z</time>
      </trkpt>
      <trkpt lat="27.909897" lon="-15.540760">
        <ele>686.649</ele>
        <time>2024-11-14T12:38:19.018Z</time>
      </trkpt>
      <trkpt lat="27.909925" lon="-15.540477">
        <ele>687.713</ele>
        <time>2024-11-14T12:38:41.018Z</time>
      </trkpt>
      <trkpt lat="27.910228" lon="-15.540220">
        <ele>695.209</ele>
        <time>2024-11-14T12:39:22.018Z</time>
      </trkpt>
      <trkpt lat="27.910807" lon="-15.540636">
        <ele>691.254</ele>
        <time>2024-11-14T12:40:19.018Z</time>
      </trkpt>
      <trkpt lat="27.911391" lon="-15.541522">
        <ele>690.112</ele>
        <time>2024-11-14T12:41:38.018Z</time>
      </trkpt>
      <trkpt lat="27.912136" lon="-15.541338">
        <ele>691.874</ele>
        <time>2024-11-14T12:42:35.018Z</time>
      </trkpt>
      <trkpt lat="27.912260" lon="-15.541182">
        <ele>689.269</ele>
        <time>2024-11-14T12:42:51.018Z</time>
      </trkpt>
      <trkpt lat="27.912505" lon="-15.541218">
        <ele>689.391</ele>
        <time>2024-11-14T12:43:11.018Z</time>
      </trkpt>
      <trkpt lat="27.912580" lon="-15.541412">
        <ele>693.149</ele>
        <time>2024-11-14T12:44:01.018Z</time>
      </trkpt>
      <trkpt lat="27.912642" lon="-15.541377">
        <ele>694.331</ele>
        <time>2024-11-14T12:44:36.018Z</time>
      </trkpt>
      <trkpt lat="27.912635" lon="-15.541435">
        <ele>696.731</ele>
        <time>2024-11-14T12:46:13.017Z</time>
      </trkpt>
      <trkpt lat="27.912635" lon="-15.541343">
        <ele>694.321</ele>
        <time>2024-11-14T12:47:52.017Z</time>
      </trkpt>
      <trkpt lat="27.912647" lon="-15.541410">
        <ele>691.762</ele>
        <time>2024-11-14T12:48:09.017Z</time>
      </trkpt>
      <trkpt lat="27.912582" lon="-15.541397">
        <ele>691.983</ele>
        <time>2024-11-14T12:51:12.017Z</time>
      </trkpt>
      <trkpt lat="27.912614" lon="-15.541487">
        <ele>691.911</ele>
        <time>2024-11-14T12:51:26.017Z</time>
      </trkpt>
      <trkpt lat="27.912159" lon="-15.541295">
        <ele>695.509</ele>
        <time>2024-11-14T12:52:36.017Z</time>
      </trkpt>
      <trkpt lat="27.911831" lon="-15.541435">
        <ele>698.147</ele>
        <time>2024-11-14T12:52:47.017Z</time>
      </trkpt>
    </trkseg>
  </trk></gpx>