<?xml version="1.0" encoding="UTF-8"?>
<gpx creator="Wikiloc - https://www.wikiloc.com" version="1.1" xmlns="http://www.topografix.com/GPX/1/1" xmlns:xsi="http://www.w3.org/2001/XMLSchema-instance" xsi:schemaLocation="http://www.topografix.com/GPX/1/1 http://www.topografix.com/GPX/1/1/gpx.xsd">
  <metadata>
    <name>Wikiloc - RUTA CIRCULAR ENTRE VIÑEDOS Y BODEGAS DE LA GERIA, YAIZA - W...</name>
    <link href="https://www.wikiloc.com/hiking-trails/ruta-circular-entre-vinedos-y-bodegas-de-la-geria-yaiza-261458480">
      <text>RUTA CIRCULAR ENTRE VIÑEDOS Y BODEGAS DE LA GERIA, YAIZA - W... on Wikiloc</text>
    </link>
    <time>2026-04-21T11:52:08Z</time>
  </metadata>
  <trk>
    <name>RUTA CIRCULAR ENTRE VIÑEDOS Y BODEGAS DE LA GERIA, YAIZA - W... - Wikiloc</name>
    <cmt></cmt>
    <desc></desc>
    <trkseg>
      <trkpt lat="28.968954" lon="-13.713866">
        <ele>316.262</ele>
        <time>2026-04-21T08:48:12Z</time>
      </trkpt>
      <trkpt lat="28.969060" lon="-13.713805">
        <ele>315.683</ele>
        <time>2026-04-21T08:48:32Z</time>
      </trkpt>
      <trkpt lat="28.969073" lon="-13.713721">
        <ele>315.611</ele>
        <time>2026-04-21T08:48:44Z</time>
      </trkpt>
      <trkpt lat="28.969133" lon="-13.713764">
        <ele>315.009</ele>
        <time>2026-04-21T08:48:58Z</time>
      </trkpt>
      <trkpt lat="28.969221" lon="-13.713687">
        <ele>315.288</ele>
        <time>2026-04-21T08:49:11Z</time>
      </trkpt>
      <trkpt lat="28.969461" lon="-13.713350">
        <ele>314.252</ele>
        <time>2026-04-21T08:49:51Z</time>
      </trkpt>
      <trkpt lat="28.969619" lon="-13.712934">
        <ele>312.247</ele>
        <time>2026-04-21T08:50:25Z</time>
      </trkpt>
      <trkpt lat="28.969784" lon="-13.712739">
        <ele>311.710</ele>
        <time>2026-04-21T08:50:51Z</time>
      </trkpt>
      <trkpt lat="28.969871" lon="-13.712752">
        <ele>310.641</ele>
        <time>2026-04-21T08:51:05Z</time>
      </trkpt>
      <trkpt lat="28.970536" lon="-13.713366">
        <ele>305.354</ele>
        <time>2026-04-21T08:52:30Z</time>
      </trkpt>
      <trkpt lat="28.971220" lon="-13.713620">
        <ele>303.740</ele>
        <time>2026-04-21T08:53:45Z</time>
      </trkpt>
      <trkpt lat="28.971313" lon="-13.713763">
        <ele>302.694</ele>
        <time>2026-04-21T08:54:20Z</time>
      </trkpt>
      <trkpt lat="28.972133" lon="-13.714305">
        <ele>300.266</ele>
        <time>2026-04-21T08:56:10Z</time>
      </trkpt>
      <trkpt lat="28.972361" lon="-13.714560">
        <ele>298.677</ele>
        <time>2026-04-21T08:57:01Z</time>
      </trkpt>
      <trkpt lat="28.972625" lon="-13.714771">
        <ele>299.361</ele>
        <time>2026-04-21T08:57:34Z</time>
      </trkpt>
      <trkpt lat="28.972809" lon="-13.714825">
        <ele>298.027</ele>
        <time>2026-04-21T08:57:57Z</time>
      </trkpt>
      <trkpt lat="28.973003" lon="-13.715041">
        <ele>298.609</ele>
        <time>2026-04-21T08:58:20Z</time>
      </trkpt>
      <trkpt lat="28.974338" lon="-13.715793">
        <ele>305.069</ele>
        <time>2026-04-21T09:00:50Z</time>
      </trkpt>
      <trkpt lat="28.974369" lon="-13.715350">
        <ele>305.273</ele>
        <time>2026-04-21T09:02:20Z</time>
      </trkpt>
      <trkpt lat="28.974503" lon="-13.714980">
        <ele>304.328</ele>
        <time>2026-04-21T09:03:02Z</time>
      </trkpt>
      <trkpt lat="28.974455" lon="-13.714912">
        <ele>305.751</ele>
        <time>2026-04-21T09:06:07Z</time>
      </trkpt>
      <trkpt lat="28.974745" lon="-13.713507">
        <ele>306.672</ele>
        <time>2026-04-21T09:17:37Z</time>
      </trkpt>
      <trkpt lat="28.975388" lon="-13.712039">
        <ele>307.395</ele>
        <time>2026-04-21T09:20:03Z</time>
      </trkpt>
      <trkpt lat="28.975715" lon="-13.710476">
        <ele>307.011</ele>
        <time>2026-04-21T09:23:29Z</time>
      </trkpt>
      <trkpt lat="28.976113" lon="-13.709943">
        <ele>310.715</ele>
        <time>2026-04-21T09:24:41Z</time>
      </trkpt>
      <trkpt lat="28.976102" lon="-13.709475">
        <ele>313.687</ele>
        <time>2026-04-21T09:25:27Z</time>
      </trkpt>
      <trkpt lat="28.975878" lon="-13.708566">
        <ele>315.211</ele>
        <time>2026-04-21T09:27:34Z</time>
      </trkpt>
      <trkpt lat="28.976287" lon="-13.708615">
        <ele>314.221</ele>
        <time>2026-04-21T09:29:06Z</time>
      </trkpt>
      <trkpt lat="28.976659" lon="-13.708499">
        <ele>316.603</ele>
        <time>2026-04-21T09:29:48Z</time>
      </trkpt>
      <trkpt lat="28.976787" lon="-13.708221">
        <ele>318.209</ele>
        <time>2026-04-21T09:30:18Z</time>
      </trkpt>
      <trkpt lat="28.976902" lon="-13.708265">
        <ele>318.613</ele>
        <time>2026-04-21T09:31:37Z</time>
      </trkpt>
      <trkpt lat="28.976898" lon="-13.708162">
        <ele>318.627</ele>
        <time>2026-04-21T09:31:54Z</time>
      </trkpt>
      <trkpt lat="28.978401" lon="-13.706933">
        <ele>320.272</ele>
        <time>2026-04-21T09:35:09Z</time>
      </trkpt>
      <trkpt lat="28.978603" lon="-13.706470">
        <ele>321.025</ele>
        <time>2026-04-21T09:35:55Z</time>
      </trkpt>
      <trkpt lat="28.978863" lon="-13.706091">
        <ele>320.626</ele>
        <time>2026-04-21T09:36:43Z</time>
      </trkpt>
      <trkpt lat="28.979293" lon="-13.705680">
        <ele>323.289</ele>
        <time>2026-04-21T09:37:48Z</time>
      </trkpt>
      <trkpt lat="28.980169" lon="-13.705377">
        <ele>329.255</ele>
        <time>2026-04-21T09:39:46Z</time>
      </trkpt>
      <trkpt lat="28.980109" lon="-13.705104">
        <ele>328.069</ele>
        <time>2026-04-21T09:40:26Z</time>
      </trkpt>
      <trkpt lat="28.979798" lon="-13.704502">
        <ele>325.681</ele>
        <time>2026-04-21T09:42:21Z</time>
      </trkpt>
      <trkpt lat="28.979610" lon="-13.703906">
        <ele>325.787</ele>
        <time>2026-04-21T09:43:30Z</time>
      </trkpt>
      <trkpt lat="28.979159" lon="-13.703185">
        <ele>328.342</ele>
        <time>2026-04-21T09:44:49Z</time>
      </trkpt>
      <trkpt lat="28.979201" lon="-13.702796">
        <ele>331.026</ele>
        <time>2026-04-21T09:45:31Z</time>
      </trkpt>
      <trkpt lat="28.979756" lon="-13.702028">
        <ele>338.709</ele>
        <time>2026-04-21T09:46:57Z</time>
      </trkpt>
      <trkpt lat="28.979825" lon="-13.701760">
        <ele>342.370</ele>
        <time>2026-04-21T09:47:24Z</time>
      </trkpt>
      <trkpt lat="28.979450" lon="-13.701969">
        <ele>344.644</ele>
        <time>2026-04-21T09:48:27Z</time>
      </trkpt>
      <trkpt lat="28.979228" lon="-13.701991">
        <ele>342.729</ele>
        <time>2026-04-21T09:48:47Z</time>
      </trkpt>
      <trkpt lat="28.979037" lon="-13.702139">
        <ele>342.262</ele>
        <time>2026-04-21T09:49:17Z</time>
      </trkpt>
      <trkpt lat="28.978724" lon="-13.702242">
        <ele>340.773</ele>
        <time>2026-04-21T09:50:15Z</time>
      </trkpt>
      <trkpt lat="28.976371" lon="-13.703577">
        <ele>336.686</ele>
        <time>2026-04-21T09:54:58Z</time>
      </trkpt>
      <trkpt lat="28.975313" lon="-13.704029">
        <ele>338.312</ele>
        <time>2026-04-21T09:56:43Z</time>
      </trkpt>
      <trkpt lat="28.974874" lon="-13.704351">
        <ele>336.726</ele>
        <time>2026-04-21T09:57:27Z</time>
      </trkpt>
      <trkpt lat="28.974877" lon="-13.704093">
        <ele>338.218</ele>
        <time>2026-04-21T09:57:52Z</time>
      </trkpt>
      <trkpt lat="28.975009" lon="-13.703710">
        <ele>341.225</ele>
        <time>2026-04-21T09:58:29Z</time>
      </trkpt>
      <trkpt lat="28.975237" lon="-13.702295">
        <ele>350.226</ele>
        <time>2026-04-21T10:00:30Z</time>
      </trkpt>
      <trkpt lat="28.975452" lon="-13.700337">
        <ele>368.708</ele>
        <time>2026-04-21T10:03:34Z</time>
      </trkpt>
      <trkpt lat="28.975337" lon="-13.700262">
        <ele>370.009</ele>
        <time>2026-04-21T10:03:49Z</time>
      </trkpt>
      <trkpt lat="28.974864" lon="-13.700378">
        <ele>373.774</ele>
        <time>2026-04-21T10:04:36Z</time>
      </trkpt>
      <trkpt lat="28.974282" lon="-13.700767">
        <ele>377.018</ele>
        <time>2026-04-21T10:05:47Z</time>
      </trkpt>
      <trkpt lat="28.972730" lon="-13.701198">
        <ele>392.363</ele>
        <time>2026-04-21T10:08:40Z</time>
      </trkpt>
      <trkpt lat="28.972727" lon="-13.701076">
        <ele>393.686</ele>
        <time>2026-04-21T10:08:52Z</time>
      </trkpt>
      <trkpt lat="28.973140" lon="-13.700182">
        <ele>392.647</ele>
        <time>2026-04-21T10:10:41Z</time>
      </trkpt>
      <trkpt lat="28.973152" lon="-13.698576">
        <ele>390.660</ele>
        <time>2026-04-21T10:14:34Z</time>
      </trkpt>
      <trkpt lat="28.973033" lon="-13.698123">
        <ele>389.226</ele>
        <time>2026-04-21T10:15:13Z</time>
      </trkpt>
      <trkpt lat="28.972607" lon="-13.697713">
        <ele>389.760</ele>
        <time>2026-04-21T10:16:05Z</time>
      </trkpt>
      <trkpt lat="28.972493" lon="-13.697671">
        <ele>390.232</ele>
        <time>2026-04-21T10:16:18Z</time>
      </trkpt>
      <trkpt lat="28.972261" lon="-13.697924">
        <ele>393.629</ele>
        <time>2026-04-21T10:16:55Z</time>
      </trkpt>
      <trkpt lat="28.971971" lon="-13.698050">
        <ele>397.600</ele>
        <time>2026-04-21T10:17:29Z</time>
      </trkpt>
      <trkpt lat="28.971830" lon="-13.698332">
        <ele>400.620</ele>
        <time>2026-04-21T10:18:17Z</time>
      </trkpt>
      <trkpt lat="28.971314" lon="-13.698390">
        <ele>409.309</ele>
        <time>2026-04-21T10:19:15Z</time>
      </trkpt>
      <trkpt lat="28.971195" lon="-13.698463">
        <ele>411.224</ele>
        <time>2026-04-21T10:19:32Z</time>
      </trkpt>
      <trkpt lat="28.971090" lon="-13.699376">
        <ele>418.388</ele>
        <time>2026-04-21T10:21:40Z</time>
      </trkpt>
      <trkpt lat="28.970354" lon="-13.699387">
        <ele>429.013</ele>
        <time>2026-04-21T10:23:15Z</time>
      </trkpt>
      <trkpt lat="28.970230" lon="-13.699453">
        <ele>431.366</ele>
        <time>2026-04-21T10:23:31Z</time>
      </trkpt>
      <trkpt lat="28.970281" lon="-13.699410">
        <ele>431.357</ele>
        <time>2026-04-21T10:23:51Z</time>
      </trkpt>
      <trkpt lat="28.970190" lon="-13.699592">
        <ele>433.680</ele>
        <time>2026-04-21T10:24:30Z</time>
      </trkpt>
      <trkpt lat="28.969979" lon="-13.700608">
        <ele>430.076</ele>
        <time>2026-04-21T10:25:57Z</time>
      </trkpt>
      <trkpt lat="28.969413" lon="-13.701734">
        <ele>431.690</ele>
        <time>2026-04-21T10:29:04Z</time>
      </trkpt>
      <trkpt lat="28.968621" lon="-13.702152">
        <ele>442.242</ele>
        <time>2026-04-21T10:31:06Z</time>
      </trkpt>
      <trkpt lat="28.967981" lon="-13.702366">
        <ele>451.313</ele>
        <time>2026-04-21T10:32:27Z</time>
      </trkpt>
      <trkpt lat="28.967253" lon="-13.703127">
        <ele>460.343</ele>
        <time>2026-04-21T10:34:30Z</time>
      </trkpt>
      <trkpt lat="28.966653" lon="-13.703350">
        <ele>469.007</ele>
        <time>2026-04-21T10:36:48Z</time>
      </trkpt>
      <trkpt lat="28.966437" lon="-13.703352">
        <ele>471.309</ele>
        <time>2026-04-21T10:37:18Z</time>
      </trkpt>
      <trkpt lat="28.966298" lon="-13.703128">
        <ele>475.083</ele>
        <time>2026-04-21T10:37:48Z</time>
      </trkpt>
      <trkpt lat="28.966000" lon="-13.702984">
        <ele>479.027</ele>
        <time>2026-04-21T10:38:29Z</time>
      </trkpt>
      <trkpt lat="28.965601" lon="-13.702914">
        <ele>489.042</ele>
        <time>2026-04-21T10:40:27Z</time>
      </trkpt>
      <trkpt lat="28.965467" lon="-13.702739">
        <ele>493.635</ele>
        <time>2026-04-21T10:41:19Z</time>
      </trkpt>
      <trkpt lat="28.965189" lon="-13.702562">
        <ele>497.226</ele>
        <time>2026-04-21T10:42:01Z</time>
      </trkpt>
      <trkpt lat="28.964761" lon="-13.702385">
        <ele>499.759</ele>
        <time>2026-04-21T10:42:59Z</time>
      </trkpt>
      <trkpt lat="28.964623" lon="-13.702271">
        <ele>498.045</ele>
        <time>2026-04-21T10:43:19Z</time>
      </trkpt>
      <trkpt lat="28.964693" lon="-13.702195">
        <ele>498.649</ele>
        <time>2026-04-21T10:43:44Z</time>
      </trkpt>
      <trkpt lat="28.964564" lon="-13.702240">
        <ele>498.221</ele>
        <time>2026-04-21T10:44:03Z</time>
      </trkpt>
      <trkpt lat="28.964086" lon="-13.702086">
        <ele>491.774</ele>
        <time>2026-04-21T10:45:03Z</time>
      </trkpt>
      <trkpt lat="28.963848" lon="-13.701858">
        <ele>485.056</ele>
        <time>2026-04-21T10:45:36Z</time>
      </trkpt>
      <trkpt lat="28.963345" lon="-13.701675">
        <ele>470.221</ele>
        <time>2026-04-21T10:46:41Z</time>
      </trkpt>
      <trkpt lat="28.962734" lon="-13.701622">
        <ele>451.309</ele>
        <time>2026-04-21T10:48:11Z</time>
      </trkpt>
      <trkpt lat="28.962273" lon="-13.701664">
        <ele>439.259</ele>
        <time>2026-04-21T10:49:08Z</time>
      </trkpt>
      <trkpt lat="28.961933" lon="-13.701575">
        <ele>430.663</ele>
        <time>2026-04-21T10:49:52Z</time>
      </trkpt>
      <trkpt lat="28.960404" lon="-13.701444">
        <ele>402.078</ele>
        <time>2026-04-21T10:52:39Z</time>
      </trkpt>
      <trkpt lat="28.960267" lon="-13.701325">
        <ele>398.621</ele>
        <time>2026-04-21T10:53:03Z</time>
      </trkpt>
      <trkpt lat="28.959795" lon="-13.701148">
        <ele>390.782</ele>
        <time>2026-04-21T10:53:51Z</time>
      </trkpt>
      <trkpt lat="28.959532" lon="-13.700898">
        <ele>386.635</ele>
        <time>2026-04-21T10:55:21Z</time>
      </trkpt>
      <trkpt lat="28.959147" lon="-13.700237">
        <ele>377.281</ele>
        <time>2026-04-21T10:57:51Z</time>
      </trkpt>
      <trkpt lat="28.958545" lon="-13.699793">
        <ele>371.065</ele>
        <time>2026-04-21T10:58:55Z</time>
      </trkpt>
      <trkpt lat="28.958476" lon="-13.699815">
        <ele>371.247</ele>
        <time>2026-04-21T10:59:02Z</time>
      </trkpt>
      <trkpt lat="28.958341" lon="-13.700192">
        <ele>377.767</ele>
        <time>2026-04-21T10:59:44Z</time>
      </trkpt>
      <trkpt lat="28.958125" lon="-13.701712">
        <ele>379.681</ele>
        <time>2026-04-21T11:01:46Z</time>
      </trkpt>
      <trkpt lat="28.958107" lon="-13.702681">
        <ele>380.619</ele>
        <time>2026-04-21T11:03:04Z</time>
      </trkpt>
      <trkpt lat="28.958206" lon="-13.703138">
        <ele>380.309</ele>
        <time>2026-04-21T11:03:41Z</time>
      </trkpt>
      <trkpt lat="28.958095" lon="-13.705011">
        <ele>382.298</ele>
        <time>2026-04-21T11:06:05Z</time>
      </trkpt>
      <trkpt lat="28.957643" lon="-13.705995">
        <ele>382.252</ele>
        <time>2026-04-21T11:07:36Z</time>
      </trkpt>
      <trkpt lat="28.956887" lon="-13.707125">
        <ele>389.317</ele>
        <time>2026-04-21T11:09:41Z</time>
      </trkpt>
      <trkpt lat="28.956645" lon="-13.707654">
        <ele>396.640</ele>
        <time>2026-04-21T11:10:36Z</time>
      </trkpt>
      <trkpt lat="28.956418" lon="-13.708715">
        <ele>411.751</ele>
        <time>2026-04-21T11:13:05Z</time>
      </trkpt>
      <trkpt lat="28.956218" lon="-13.709149">
        <ele>414.064</ele>
        <time>2026-04-21T11:13:50Z</time>
      </trkpt>
      <trkpt lat="28.956149" lon="-13.709468">
        <ele>419.640</ele>
        <time>2026-04-21T11:14:40Z</time>
      </trkpt>
      <trkpt lat="28.956849" lon="-13.709874">
        <ele>428.244</ele>
        <time>2026-04-21T11:16:25Z</time>
      </trkpt>
      <trkpt lat="28.957231" lon="-13.709992">
        <ele>429.336</ele>
        <time>2026-04-21T11:17:05Z</time>
      </trkpt>
      <trkpt lat="28.957737" lon="-13.709599">
        <ele>432.353</ele>
        <time>2026-04-21T11:18:05Z</time>
      </trkpt>
      <trkpt lat="28.958594" lon="-13.709085">
        <ele>440.204</ele>
        <time>2026-04-21T11:19:50Z</time>
      </trkpt>
      <trkpt lat="28.958817" lon="-13.709428">
        <ele>436.714</ele>
        <time>2026-04-21T11:21:11Z</time>
      </trkpt>
      <trkpt lat="28.959280" lon="-13.709744">
        <ele>429.709</ele>
        <time>2026-04-21T11:22:31Z</time>
      </trkpt>
      <trkpt lat="28.960194" lon="-13.709766">
        <ele>422.617</ele>
        <time>2026-04-21T11:25:23Z</time>
      </trkpt>
      <trkpt lat="28.960704" lon="-13.710148">
        <ele>413.621</ele>
        <time>2026-04-21T11:29:59Z</time>
      </trkpt>
      <trkpt lat="28.961794" lon="-13.710618">
        <ele>396.086</ele>
        <time>2026-04-21T11:32:36Z</time>
      </trkpt>
      <trkpt lat="28.962392" lon="-13.711005">
        <ele>378.389</ele>
        <time>2026-04-21T11:33:47Z</time>
      </trkpt>
      <trkpt lat="28.963710" lon="-13.711448">
        <ele>353.250</ele>
        <time>2026-04-21T11:36:51Z</time>
      </trkpt>
      <trkpt lat="28.964035" lon="-13.711676">
        <ele>344.773</ele>
        <time>2026-04-21T11:37:35Z</time>
      </trkpt>
      <trkpt lat="28.964317" lon="-13.712033">
        <ele>336.019</ele>
        <time>2026-04-21T11:38:14Z</time>
      </trkpt>
      <trkpt lat="28.965096" lon="-13.712310">
        <ele>331.053</ele>
        <time>2026-04-21T11:39:43Z</time>
      </trkpt>
      <trkpt lat="28.965827" lon="-13.712800">
        <ele>332.295</ele>
        <time>2026-04-21T11:41:23Z</time>
      </trkpt>
      <trkpt lat="28.966274" lon="-13.712882">
        <ele>328.794</ele>
        <time>2026-04-21T11:42:06Z</time>
      </trkpt>
      <trkpt lat="28.966689" lon="-13.712869">
        <ele>328.257</ele>
        <time>2026-04-21T11:42:43Z</time>
      </trkpt>
      <trkpt lat="28.967180" lon="-13.712701">
        <ele>327.322</ele>
        <time>2026-04-21T11:43:42Z</time>
      </trkpt>
      <trkpt lat="28.967576" lon="-13.712440">
        <ele>326.009</ele>
        <time>2026-04-21T11:44:34Z</time>
      </trkpt>
      <trkpt lat="28.967651" lon="-13.712523">
        <ele>325.711</ele>
        <time>2026-04-21T11:44:53Z</time>
      </trkpt>
      <trkpt lat="28.967848" lon="-13.712563">
        <ele>324.665</ele>
        <time>2026-04-21T11:45:12Z</time>
      </trkpt>
      <trkpt lat="28.968431" lon="-13.712492">
        <ele>319.620</ele>
        <time>2026-04-21T11:46:12Z</time>
      </trkpt>
      <trkpt lat="28.968622" lon="-13.712391">
        <ele>319.763</ele>
        <time>2026-04-21T11:47:01Z</time>
      </trkpt>
      <trkpt lat="28.969095" lon="-13.712308">
        <ele>318.334</ele>
        <time>2026-04-21T11:47:52Z</time>
      </trkpt>
      <trkpt lat="28.969678" lon="-13.712315">
        <ele>313.367</ele>
        <time>2026-04-21T11:49:07Z</time>
      </trkpt>
      <trkpt lat="28.969732" lon="-13.712524">
        <ele>314.613</ele>
        <time>2026-04-21T11:49:56Z</time>
      </trkpt>
      <trkpt lat="28.969636" lon="-13.713097">
        <ele>315.287</ele>
        <time>2026-04-21T11:50:44Z</time>
      </trkpt>
      <trkpt lat="28.969359" lon="-13.713618">
        <ele>317.219</ele>
        <time>2026-04-21T11:51:38Z</time>
      </trkpt>
      <trkpt lat="28.969097" lon="-13.713854">
        <ele>317.224</ele>
        <time>2026-04-21T11:52:08Z</time>
      </trkpt>
    </trkseg>
  </trk></gpx>