<?xml version="1.0" encoding="UTF-8"?>
<gpx creator="Wikiloc - https://www.wikiloc.com" version="1.1" xmlns="http://www.topografix.com/GPX/1/1" xmlns:xsi="http://www.w3.org/2001/XMLSchema-instance" xsi:schemaLocation="http://www.topografix.com/GPX/1/1 http://www.topografix.com/GPX/1/1/gpx.xsd">
  <metadata>
    <name>Wikiloc - Volcán Corona desde Ye. Lanzarote.</name>
    <link href="https://www.wikiloc.com/hiking-trails/volcan-corona-desde-ye-lanzarote-30684110">
      <text>Volcán Corona desde Ye. Lanzarote. - Wikiloc on Wikiloc</text>
    </link>
    <time>2018-11-19T15:23:12Z</time>
  </metadata>
  <trk>
    <name>Volcán Corona desde Ye. Lanzarote. - Wikiloc</name>
    <cmt></cmt>
    <desc></desc>
    <trkseg>
      <trkpt lat="29.195803" lon="-13.480784">
        <ele>371.275</ele>
        <time>2018-11-19T11:39:41Z</time>
      </trkpt>
      <trkpt lat="29.195757" lon="-13.481009">
        <ele>371.228</ele>
        <time>2018-11-19T11:40:11Z</time>
      </trkpt>
      <trkpt lat="29.195709" lon="-13.481010">
        <ele>371.220</ele>
        <time>2018-11-19T11:42:23Z</time>
      </trkpt>
      <trkpt lat="29.195755" lon="-13.481091">
        <ele>371.208</ele>
        <time>2018-11-19T11:44:13Z</time>
      </trkpt>
      <trkpt lat="29.195673" lon="-13.481777">
        <ele>369.950</ele>
        <time>2018-11-19T11:45:34Z</time>
      </trkpt>
      <trkpt lat="29.195577" lon="-13.482104">
        <ele>370.197</ele>
        <time>2018-11-19T11:45:59Z</time>
      </trkpt>
      <trkpt lat="29.195375" lon="-13.482105">
        <ele>371.273</ele>
        <time>2018-11-19T11:46:18Z</time>
      </trkpt>
      <trkpt lat="29.195058" lon="-13.482316">
        <ele>372.595</ele>
        <time>2018-11-19T11:46:51Z</time>
      </trkpt>
      <trkpt lat="29.194820" lon="-13.482354">
        <ele>374.611</ele>
        <time>2018-11-19T11:47:27Z</time>
      </trkpt>
      <trkpt lat="29.194525" lon="-13.482165">
        <ele>377.128</ele>
        <time>2018-11-19T11:48:07Z</time>
      </trkpt>
      <trkpt lat="29.194249" lon="-13.482211">
        <ele>380.498</ele>
        <time>2018-11-19T11:53:18Z</time>
      </trkpt>
      <trkpt lat="29.193473" lon="-13.482127">
        <ele>385.897</ele>
        <time>2018-11-19T11:56:06Z</time>
      </trkpt>
      <trkpt lat="29.192765" lon="-13.482214">
        <ele>387.536</ele>
        <time>2018-11-19T11:57:52Z</time>
      </trkpt>
      <trkpt lat="29.192659" lon="-13.482081">
        <ele>350.317</ele>
        <time>2018-11-19T12:01:29Z</time>
      </trkpt>
      <trkpt lat="29.192684" lon="-13.482160">
        <ele>374.718</ele>
        <time>2018-11-19T12:01:32Z</time>
      </trkpt>
      <trkpt lat="29.192595" lon="-13.482205">
        <ele>395.208</ele>
        <time>2018-11-19T12:01:43Z</time>
      </trkpt>
      <trkpt lat="29.191969" lon="-13.482187">
        <ele>388.176</ele>
        <time>2018-11-19T12:02:33Z</time>
      </trkpt>
      <trkpt lat="29.191408" lon="-13.482295">
        <ele>387.313</ele>
        <time>2018-11-19T12:03:19Z</time>
      </trkpt>
      <trkpt lat="29.191120" lon="-13.482438">
        <ele>388.559</ele>
        <time>2018-11-19T12:03:47Z</time>
      </trkpt>
      <trkpt lat="29.190925" lon="-13.482768">
        <ele>392.871</ele>
        <time>2018-11-19T12:04:19Z</time>
      </trkpt>
      <trkpt lat="29.190322" lon="-13.483380">
        <ele>398.977</ele>
        <time>2018-11-19T12:05:38Z</time>
      </trkpt>
      <trkpt lat="29.190199" lon="-13.483279">
        <ele>400.694</ele>
        <time>2018-11-19T12:05:53Z</time>
      </trkpt>
      <trkpt lat="29.189796" lon="-13.482306">
        <ele>411.264</ele>
        <time>2018-11-19T12:07:23Z</time>
      </trkpt>
      <trkpt lat="29.189497" lon="-13.481899">
        <ele>411.683</ele>
        <time>2018-11-19T12:08:06Z</time>
      </trkpt>
      <trkpt lat="29.189378" lon="-13.481949">
        <ele>410.933</ele>
        <time>2018-11-19T12:08:22Z</time>
      </trkpt>
      <trkpt lat="29.189154" lon="-13.482499">
        <ele>414.723</ele>
        <time>2018-11-19T12:09:13Z</time>
      </trkpt>
      <trkpt lat="29.189079" lon="-13.482565">
        <ele>417.515</ele>
        <time>2018-11-19T12:09:25Z</time>
      </trkpt>
      <trkpt lat="29.188986" lon="-13.482538">
        <ele>416.908</ele>
        <time>2018-11-19T12:09:37Z</time>
      </trkpt>
      <trkpt lat="29.188663" lon="-13.481967">
        <ele>427.076</ele>
        <time>2018-11-19T12:10:35Z</time>
      </trkpt>
      <trkpt lat="29.187810" lon="-13.481449">
        <ele>437.243</ele>
        <time>2018-11-19T12:12:54Z</time>
      </trkpt>
      <trkpt lat="29.187631" lon="-13.481374">
        <ele>440.089</ele>
        <time>2018-11-19T12:13:25Z</time>
      </trkpt>
      <trkpt lat="29.187515" lon="-13.481443">
        <ele>443.281</ele>
        <time>2018-11-19T12:13:55Z</time>
      </trkpt>
      <trkpt lat="29.187318" lon="-13.481281">
        <ele>451.767</ele>
        <time>2018-11-19T12:14:35Z</time>
      </trkpt>
      <trkpt lat="29.187181" lon="-13.481255">
        <ele>455.424</ele>
        <time>2018-11-19T12:15:00Z</time>
      </trkpt>
      <trkpt lat="29.186918" lon="-13.481005">
        <ele>464.484</ele>
        <time>2018-11-19T12:15:44Z</time>
      </trkpt>
      <trkpt lat="29.186346" lon="-13.481137">
        <ele>477.243</ele>
        <time>2018-11-19T12:17:08Z</time>
      </trkpt>
      <trkpt lat="29.186066" lon="-13.481428">
        <ele>487.042</ele>
        <time>2018-11-19T12:18:15Z</time>
      </trkpt>
      <trkpt lat="29.185878" lon="-13.481501">
        <ele>489.222</ele>
        <time>2018-11-19T12:18:38Z</time>
      </trkpt>
      <trkpt lat="29.185702" lon="-13.481750">
        <ele>493.014</ele>
        <time>2018-11-19T12:19:50Z</time>
      </trkpt>
      <trkpt lat="29.185658" lon="-13.481723">
        <ele>494.208</ele>
        <time>2018-11-19T12:20:05Z</time>
      </trkpt>
      <trkpt lat="29.185800" lon="-13.481741">
        <ele>494.817</ele>
        <time>2018-11-19T12:23:16Z</time>
      </trkpt>
      <trkpt lat="29.186474" lon="-13.482422">
        <ele>499.564</ele>
        <time>2018-11-19T12:27:13Z</time>
      </trkpt>
      <trkpt lat="29.186475" lon="-13.482365">
        <ele>499.030</ele>
        <time>2018-11-19T12:27:56Z</time>
      </trkpt>
      <trkpt lat="29.186450" lon="-13.482451">
        <ele>499.942</ele>
        <time>2018-11-19T12:30:56Z</time>
      </trkpt>
      <trkpt lat="29.186595" lon="-13.482687">
        <ele>500.548</ele>
        <time>2018-11-19T12:31:33Z</time>
      </trkpt>
      <trkpt lat="29.186614" lon="-13.482851">
        <ele>505.465</ele>
        <time>2018-11-19T12:33:25Z</time>
      </trkpt>
      <trkpt lat="29.186742" lon="-13.482999">
        <ele>512.125</ele>
        <time>2018-11-19T12:34:07Z</time>
      </trkpt>
      <trkpt lat="29.186727" lon="-13.483140">
        <ele>515.884</ele>
        <time>2018-11-19T12:34:39Z</time>
      </trkpt>
      <trkpt lat="29.186845" lon="-13.483233">
        <ele>519.042</ele>
        <time>2018-11-19T12:35:05Z</time>
      </trkpt>
      <trkpt lat="29.186796" lon="-13.483531">
        <ele>533.122</ele>
        <time>2018-11-19T12:36:52Z</time>
      </trkpt>
      <trkpt lat="29.186962" lon="-13.483963">
        <ele>551.314</ele>
        <time>2018-11-19T12:39:28Z</time>
      </trkpt>
      <trkpt lat="29.186839" lon="-13.484019">
        <ele>558.808</ele>
        <time>2018-11-19T12:42:32Z</time>
      </trkpt>
      <trkpt lat="29.186916" lon="-13.484215">
        <ele>569.347</ele>
        <time>2018-11-19T12:45:46Z</time>
      </trkpt>
      <trkpt lat="29.186830" lon="-13.484463">
        <ele>576.974</ele>
        <time>2018-11-19T12:47:35Z</time>
      </trkpt>
      <trkpt lat="29.186597" lon="-13.484805">
        <ele>583.670</ele>
        <time>2018-11-19T12:49:42Z</time>
      </trkpt>
      <trkpt lat="29.186638" lon="-13.484777">
        <ele>583.572</ele>
        <time>2018-11-19T12:50:23Z</time>
      </trkpt>
      <trkpt lat="29.186611" lon="-13.484879">
        <ele>582.158</ele>
        <time>2018-11-19T12:50:52Z</time>
      </trkpt>
      <trkpt lat="29.186555" lon="-13.484830">
        <ele>583.875</ele>
        <time>2018-11-19T12:51:31Z</time>
      </trkpt>
      <trkpt lat="29.186507" lon="-13.484933">
        <ele>581.465</ele>
        <time>2018-11-19T12:52:23Z</time>
      </trkpt>
      <trkpt lat="29.186848" lon="-13.484493">
        <ele>574.994</ele>
        <time>2018-11-19T12:55:01Z</time>
      </trkpt>
      <trkpt lat="29.186903" lon="-13.484242">
        <ele>574.652</ele>
        <time>2018-11-19T12:55:39Z</time>
      </trkpt>
      <trkpt lat="29.186812" lon="-13.484064">
        <ele>569.653</ele>
        <time>2018-11-19T12:56:55Z</time>
      </trkpt>
      <trkpt lat="29.186956" lon="-13.483941">
        <ele>560.908</ele>
        <time>2018-11-19T12:58:27Z</time>
      </trkpt>
      <trkpt lat="29.186825" lon="-13.483658">
        <ele>549.308</ele>
        <time>2018-11-19T12:59:16Z</time>
      </trkpt>
      <trkpt lat="29.186808" lon="-13.483390">
        <ele>538.278</ele>
        <time>2018-11-19T13:00:02Z</time>
      </trkpt>
      <trkpt lat="29.186695" lon="-13.483281">
        <ele>532.045</ele>
        <time>2018-11-19T13:00:20Z</time>
      </trkpt>
      <trkpt lat="29.186630" lon="-13.482846">
        <ele>520.611</ele>
        <time>2018-11-19T13:01:09Z</time>
      </trkpt>
      <trkpt lat="29.186493" lon="-13.482530">
        <ele>511.073</ele>
        <time>2018-11-19T13:01:36Z</time>
      </trkpt>
      <trkpt lat="29.185970" lon="-13.481837">
        <ele>497.969</ele>
        <time>2018-11-19T13:02:42Z</time>
      </trkpt>
      <trkpt lat="29.185541" lon="-13.481568">
        <ele>494.686</ele>
        <time>2018-11-19T13:03:29Z</time>
      </trkpt>
      <trkpt lat="29.185321" lon="-13.481262">
        <ele>501.976</ele>
        <time>2018-11-19T13:04:18Z</time>
      </trkpt>
      <trkpt lat="29.185244" lon="-13.481208">
        <ele>505.935</ele>
        <time>2018-11-19T13:04:46Z</time>
      </trkpt>
      <trkpt lat="29.185127" lon="-13.481231">
        <ele>514.333</ele>
        <time>2018-11-19T13:05:29Z</time>
      </trkpt>
      <trkpt lat="29.185051" lon="-13.481095">
        <ele>521.623</ele>
        <time>2018-11-19T13:06:07Z</time>
      </trkpt>
      <trkpt lat="29.184897" lon="-13.481302">
        <ele>540.915</ele>
        <time>2018-11-19T13:15:34Z</time>
      </trkpt>
      <trkpt lat="29.184847" lon="-13.481223">
        <ele>537.708</ele>
        <time>2018-11-19T13:20:15Z</time>
      </trkpt>
      <trkpt lat="29.184486" lon="-13.481107">
        <ele>521.076</ele>
        <time>2018-11-19T13:22:08Z</time>
      </trkpt>
      <trkpt lat="29.184489" lon="-13.481022">
        <ele>521.093</ele>
        <time>2018-11-19T13:22:51Z</time>
      </trkpt>
      <trkpt lat="29.184365" lon="-13.480960">
        <ele>517.079</ele>
        <time>2018-11-19T13:23:29Z</time>
      </trkpt>
      <trkpt lat="29.184296" lon="-13.480645">
        <ele>507.841</ele>
        <time>2018-11-19T13:24:38Z</time>
      </trkpt>
      <trkpt lat="29.184389" lon="-13.480467">
        <ele>500.697</ele>
        <time>2018-11-19T13:25:44Z</time>
      </trkpt>
      <trkpt lat="29.184106" lon="-13.480434">
        <ele>491.514</ele>
        <time>2018-11-19T13:29:07Z</time>
      </trkpt>
      <trkpt lat="29.184082" lon="-13.480329">
        <ele>488.694</ele>
        <time>2018-11-19T13:29:49Z</time>
      </trkpt>
      <trkpt lat="29.184168" lon="-13.480187">
        <ele>486.143</ele>
        <time>2018-11-19T13:31:27Z</time>
      </trkpt>
      <trkpt lat="29.183737" lon="-13.480304">
        <ele>482.239</ele>
        <time>2018-11-19T13:32:57Z</time>
      </trkpt>
      <trkpt lat="29.184133" lon="-13.480115">
        <ele>483.301</ele>
        <time>2018-11-19T13:36:39Z</time>
      </trkpt>
      <trkpt lat="29.184166" lon="-13.480287">
        <ele>480.021</ele>
        <time>2018-11-19T13:39:17Z</time>
      </trkpt>
      <trkpt lat="29.184100" lon="-13.480448">
        <ele>491.308</ele>
        <time>2018-11-19T13:41:05Z</time>
      </trkpt>
      <trkpt lat="29.184333" lon="-13.480591">
        <ele>501.456</ele>
        <time>2018-11-19T13:42:29Z</time>
      </trkpt>
      <trkpt lat="29.184393" lon="-13.480995">
        <ele>505.113</ele>
        <time>2018-11-19T13:44:19Z</time>
      </trkpt>
      <trkpt lat="29.184555" lon="-13.481083">
        <ele>513.319</ele>
        <time>2018-11-19T13:45:01Z</time>
      </trkpt>
      <trkpt lat="29.184633" lon="-13.481215">
        <ele>522.681</ele>
        <time>2018-11-19T13:47:15Z</time>
      </trkpt>
      <trkpt lat="29.184594" lon="-13.481302">
        <ele>526.277</ele>
        <time>2018-11-19T13:47:57Z</time>
      </trkpt>
      <trkpt lat="29.184574" lon="-13.481255">
        <ele>528.894</ele>
        <time>2018-11-19T13:48:32Z</time>
      </trkpt>
      <trkpt lat="29.184534" lon="-13.481280">
        <ele>531.564</ele>
        <time>2018-11-19T13:48:52Z</time>
      </trkpt>
      <trkpt lat="29.184539" lon="-13.481417">
        <ele>535.063</ele>
        <time>2018-11-19T13:49:44Z</time>
      </trkpt>
      <trkpt lat="29.184549" lon="-13.481305">
        <ele>535.471</ele>
        <time>2018-11-19T13:53:30Z</time>
      </trkpt>
      <trkpt lat="29.184623" lon="-13.481228">
        <ele>536.141</ele>
        <time>2018-11-19T13:53:54Z</time>
      </trkpt>
      <trkpt lat="29.184763" lon="-13.481211">
        <ele>535.515</ele>
        <time>2018-11-19T13:54:12Z</time>
      </trkpt>
      <trkpt lat="29.184938" lon="-13.481287">
        <ele>533.108</ele>
        <time>2018-11-19T13:56:01Z</time>
      </trkpt>
      <trkpt lat="29.184993" lon="-13.481136">
        <ele>532.840</ele>
        <time>2018-11-19T13:56:32Z</time>
      </trkpt>
      <trkpt lat="29.185080" lon="-13.481105">
        <ele>529.317</ele>
        <time>2018-11-19T13:57:19Z</time>
      </trkpt>
      <trkpt lat="29.185109" lon="-13.481206">
        <ele>525.833</ele>
        <time>2018-11-19T13:57:37Z</time>
      </trkpt>
      <trkpt lat="29.185287" lon="-13.481366">
        <ele>514.695</ele>
        <time>2018-11-19T13:58:27Z</time>
      </trkpt>
      <trkpt lat="29.185382" lon="-13.481364">
        <ele>510.471</ele>
        <time>2018-11-19T13:58:49Z</time>
      </trkpt>
      <trkpt lat="29.185404" lon="-13.481526">
        <ele>503.088</ele>
        <time>2018-11-19T13:59:03Z</time>
      </trkpt>
      <trkpt lat="29.185474" lon="-13.481587">
        <ele>499.578</ele>
        <time>2018-11-19T13:59:17Z</time>
      </trkpt>
      <trkpt lat="29.185265" lon="-13.481668">
        <ele>489.697</ele>
        <time>2018-11-19T14:00:33Z</time>
      </trkpt>
      <trkpt lat="29.185199" lon="-13.481874">
        <ele>479.048</ele>
        <time>2018-11-19T14:01:05Z</time>
      </trkpt>
      <trkpt lat="29.185118" lon="-13.481937">
        <ele>474.361</ele>
        <time>2018-11-19T14:01:24Z</time>
      </trkpt>
      <trkpt lat="29.185077" lon="-13.482300">
        <ele>460.017</ele>
        <time>2018-11-19T14:02:26Z</time>
      </trkpt>
      <trkpt lat="29.185215" lon="-13.482520">
        <ele>444.608</ele>
        <time>2018-11-19T14:03:01Z</time>
      </trkpt>
      <trkpt lat="29.185374" lon="-13.482644">
        <ele>432.887</ele>
        <time>2018-11-19T14:03:27Z</time>
      </trkpt>
      <trkpt lat="29.185348" lon="-13.482767">
        <ele>428.134</ele>
        <time>2018-11-19T14:04:33Z</time>
      </trkpt>
      <trkpt lat="29.185214" lon="-13.482519">
        <ele>432.240</ele>
        <time>2018-11-19T14:06:56Z</time>
      </trkpt>
      <trkpt lat="29.185066" lon="-13.482395">
        <ele>443.922</ele>
        <time>2018-11-19T14:10:08Z</time>
      </trkpt>
      <trkpt lat="29.185011" lon="-13.482195">
        <ele>447.588</ele>
        <time>2018-11-19T14:11:17Z</time>
      </trkpt>
      <trkpt lat="29.185046" lon="-13.481994">
        <ele>457.265</ele>
        <time>2018-11-19T14:12:15Z</time>
      </trkpt>
      <trkpt lat="29.185260" lon="-13.481643">
        <ele>475.755</ele>
        <time>2018-11-19T14:14:10Z</time>
      </trkpt>
      <trkpt lat="29.185322" lon="-13.481586">
        <ele>481.794</ele>
        <time>2018-11-19T14:14:42Z</time>
      </trkpt>
      <trkpt lat="29.185407" lon="-13.481629">
        <ele>486.116</ele>
        <time>2018-11-19T14:15:03Z</time>
      </trkpt>
      <trkpt lat="29.185433" lon="-13.481585">
        <ele>488.376</ele>
        <time>2018-11-19T14:15:16Z</time>
      </trkpt>
      <trkpt lat="29.185584" lon="-13.481598">
        <ele>495.213</ele>
        <time>2018-11-19T14:30:56Z</time>
      </trkpt>
      <trkpt lat="29.185554" lon="-13.481559">
        <ele>496.408</ele>
        <time>2018-11-19T14:31:34Z</time>
      </trkpt>
      <trkpt lat="29.185566" lon="-13.481612">
        <ele>497.134</ele>
        <time>2018-11-19T14:31:50Z</time>
      </trkpt>
      <trkpt lat="29.185729" lon="-13.481618">
        <ele>497.021</ele>
        <time>2018-11-19T14:32:20Z</time>
      </trkpt>
      <trkpt lat="29.185867" lon="-13.481409">
        <ele>495.937</ele>
        <time>2018-11-19T14:32:51Z</time>
      </trkpt>
      <trkpt lat="29.186059" lon="-13.481367">
        <ele>493.189</ele>
        <time>2018-11-19T14:33:15Z</time>
      </trkpt>
      <trkpt lat="29.186293" lon="-13.481120">
        <ele>485.455</ele>
        <time>2018-11-19T14:34:04Z</time>
      </trkpt>
      <trkpt lat="29.186719" lon="-13.481025">
        <ele>475.542</ele>
        <time>2018-11-19T14:35:12Z</time>
      </trkpt>
      <trkpt lat="29.186880" lon="-13.480917">
        <ele>472.562</ele>
        <time>2018-11-19T14:35:39Z</time>
      </trkpt>
      <trkpt lat="29.187197" lon="-13.481275">
        <ele>464.011</ele>
        <time>2018-11-19T14:37:09Z</time>
      </trkpt>
      <trkpt lat="29.187382" lon="-13.481294">
        <ele>457.148</ele>
        <time>2018-11-19T14:37:40Z</time>
      </trkpt>
      <trkpt lat="29.187549" lon="-13.481481">
        <ele>451.461</ele>
        <time>2018-11-19T14:38:08Z</time>
      </trkpt>
      <trkpt lat="29.187554" lon="-13.481429">
        <ele>449.717</ele>
        <time>2018-11-19T14:38:23Z</time>
      </trkpt>
      <trkpt lat="29.187679" lon="-13.481381">
        <ele>445.708</ele>
        <time>2018-11-19T14:38:49Z</time>
      </trkpt>
      <trkpt lat="29.188424" lon="-13.481803">
        <ele>431.287</ele>
        <time>2018-11-19T14:40:48Z</time>
      </trkpt>
      <trkpt lat="29.188824" lon="-13.482206">
        <ele>426.934</ele>
        <time>2018-11-19T14:41:57Z</time>
      </trkpt>
      <trkpt lat="29.188998" lon="-13.482540">
        <ele>421.680</ele>
        <time>2018-11-19T14:42:35Z</time>
      </trkpt>
      <trkpt lat="29.189128" lon="-13.482479">
        <ele>420.932</ele>
        <time>2018-11-19T14:42:51Z</time>
      </trkpt>
      <trkpt lat="29.189345" lon="-13.481915">
        <ele>413.518</ele>
        <time>2018-11-19T14:43:47Z</time>
      </trkpt>
      <trkpt lat="29.189463" lon="-13.481840">
        <ele>412.425</ele>
        <time>2018-11-19T14:44:02Z</time>
      </trkpt>
      <trkpt lat="29.189786" lon="-13.482288">
        <ele>409.725</ele>
        <time>2018-11-19T14:44:50Z</time>
      </trkpt>
      <trkpt lat="29.189989" lon="-13.482827">
        <ele>403.384</ele>
        <time>2018-11-19T14:45:41Z</time>
      </trkpt>
      <trkpt lat="29.190336" lon="-13.483345">
        <ele>402.612</ele>
        <time>2018-11-19T14:46:38Z</time>
      </trkpt>
      <trkpt lat="29.190822" lon="-13.482885">
        <ele>395.432</ele>
        <time>2018-11-19T14:47:44Z</time>
      </trkpt>
      <trkpt lat="29.190954" lon="-13.482651">
        <ele>392.805</ele>
        <time>2018-11-19T14:48:09Z</time>
      </trkpt>
      <trkpt lat="29.191297" lon="-13.482316">
        <ele>389.208</ele>
        <time>2018-11-19T14:48:54Z</time>
      </trkpt>
      <trkpt lat="29.191960" lon="-13.482185">
        <ele>388.844</ele>
        <time>2018-11-19T14:49:56Z</time>
      </trkpt>
      <trkpt lat="29.193138" lon="-13.482200">
        <ele>393.181</ele>
        <time>2018-11-19T14:51:40Z</time>
      </trkpt>
      <trkpt lat="29.193315" lon="-13.482126">
        <ele>393.967</ele>
        <time>2018-11-19T14:51:59Z</time>
      </trkpt>
      <trkpt lat="29.194255" lon="-13.482204">
        <ele>382.229</ele>
        <time>2018-11-19T14:54:05Z</time>
      </trkpt>
      <trkpt lat="29.194500" lon="-13.482163">
        <ele>382.125</ele>
        <time>2018-11-19T14:54:31Z</time>
      </trkpt>
      <trkpt lat="29.194779" lon="-13.482385">
        <ele>375.462</ele>
        <time>2018-11-19T14:55:11Z</time>
      </trkpt>
      <trkpt lat="29.195099" lon="-13.482280">
        <ele>370.972</ele>
        <time>2018-11-19T14:56:17Z</time>
      </trkpt>
      <trkpt lat="29.195346" lon="-13.482094">
        <ele>369.261</ele>
        <time>2018-11-19T14:57:13Z</time>
      </trkpt>
      <trkpt lat="29.195583" lon="-13.482078">
        <ele>370.033</ele>
        <time>2018-11-19T14:57:36Z</time>
      </trkpt>
      <trkpt lat="29.195644" lon="-13.481697">
        <ele>367.923</ele>
        <time>2018-11-19T14:58:15Z</time>
      </trkpt>
      <trkpt lat="29.195618" lon="-13.481463">
        <ele>367.115</ele>
        <time>2018-11-19T14:58:35Z</time>
      </trkpt>
      <trkpt lat="29.195740" lon="-13.481169">
        <ele>367.908</ele>
        <time>2018-11-19T14:59:00Z</time>
      </trkpt>
      <trkpt lat="29.195665" lon="-13.480980">
        <ele>368.316</ele>
        <time>2018-11-19T14:59:26Z</time>
      </trkpt>
      <trkpt lat="29.195680" lon="-13.480863">
        <ele>370.083</ele>
        <time>2018-11-19T15:00:23Z</time>
      </trkpt>
      <trkpt lat="29.195632" lon="-13.480859">
        <ele>368.969</ele>
        <time>2018-11-19T15:20:12Z</time>
      </trkpt>
      <trkpt lat="29.195646" lon="-13.480962">
        <ele>368.391</ele>
        <time>2018-11-19T15:20:40Z</time>
      </trkpt>
      <trkpt lat="29.195778" lon="-13.480748">
        <ele>370.527</ele>
        <time>2018-11-19T15:22:00Z</time>
      </trkpt>
      <trkpt lat="29.195653" lon="-13.480998">
        <ele>365.714</ele>
        <time>2018-11-19T15:23:12Z</time>
      </trkpt>
    </trkseg>
  </trk></gpx>