<?xml version="1.0" encoding="UTF-8"?>
<gpx creator="Wikiloc - https://www.wikiloc.com" version="1.1" xmlns="http://www.topografix.com/GPX/1/1" xmlns:xsi="http://www.w3.org/2001/XMLSchema-instance" xsi:schemaLocation="http://www.topografix.com/GPX/1/1 http://www.topografix.com/GPX/1/1/gpx.xsd">
  <metadata>
    <name>Wikiloc - LA OLIVA: Montaña Escanfraga.</name>
    <link href="https://www.wikiloc.com/hiking-trails/la-oliva-montana-escanfraga-52646842">
      <text>LA OLIVA: Montaña Escanfraga. - Wikiloc on Wikiloc</text>
    </link>
    <time>2020-07-03T11:20:54Z</time>
  </metadata>
  <trk>
    <name>LA OLIVA: Montaña Escanfraga. - Wikiloc</name>
    <cmt></cmt>
    <desc></desc>
    <trkseg>
      <trkpt lat="28.632723" lon="-13.895780">
        <ele>246.787</ele>
        <time>2020-07-03T08:06:34Z</time>
      </trkpt>
      <trkpt lat="28.632050" lon="-13.897510">
        <ele>240.742</ele>
        <time>2020-07-03T08:07:55Z</time>
      </trkpt>
      <trkpt lat="28.631324" lon="-13.897175">
        <ele>249.726</ele>
        <time>2020-07-03T08:09:34Z</time>
      </trkpt>
      <trkpt lat="28.631329" lon="-13.897017">
        <ele>249.708</ele>
        <time>2020-07-03T08:09:48Z</time>
      </trkpt>
      <trkpt lat="28.631250" lon="-13.896870">
        <ele>250.533</ele>
        <time>2020-07-03T08:10:07Z</time>
      </trkpt>
      <trkpt lat="28.629970" lon="-13.896531">
        <ele>280.880</ele>
        <time>2020-07-03T08:15:04Z</time>
      </trkpt>
      <trkpt lat="28.629661" lon="-13.896346">
        <ele>290.344</ele>
        <time>2020-07-03T08:16:04Z</time>
      </trkpt>
      <trkpt lat="28.629590" lon="-13.896236">
        <ele>292.682</ele>
        <time>2020-07-03T08:16:24Z</time>
      </trkpt>
      <trkpt lat="28.629293" lon="-13.896114">
        <ele>300.394</ele>
        <time>2020-07-03T08:17:07Z</time>
      </trkpt>
      <trkpt lat="28.629094" lon="-13.895869">
        <ele>305.486</ele>
        <time>2020-07-03T08:18:14Z</time>
      </trkpt>
      <trkpt lat="28.628208" lon="-13.895581">
        <ele>335.332</ele>
        <time>2020-07-03T08:22:10Z</time>
      </trkpt>
      <trkpt lat="28.627769" lon="-13.895351">
        <ele>351.930</ele>
        <time>2020-07-03T08:24:11Z</time>
      </trkpt>
      <trkpt lat="28.627532" lon="-13.895079">
        <ele>367.569</ele>
        <time>2020-07-03T08:26:09Z</time>
      </trkpt>
      <trkpt lat="28.627518" lon="-13.894938">
        <ele>372.204</ele>
        <time>2020-07-03T08:26:41Z</time>
      </trkpt>
      <trkpt lat="28.627757" lon="-13.894268">
        <ele>386.124</ele>
        <time>2020-07-03T08:30:16Z</time>
      </trkpt>
      <trkpt lat="28.627750" lon="-13.893812">
        <ele>396.908</ele>
        <time>2020-07-03T08:31:29Z</time>
      </trkpt>
      <trkpt lat="28.627597" lon="-13.893516">
        <ele>400.811</ele>
        <time>2020-07-03T08:33:08Z</time>
      </trkpt>
      <trkpt lat="28.627289" lon="-13.893261">
        <ele>405.258</ele>
        <time>2020-07-03T08:33:56Z</time>
      </trkpt>
      <trkpt lat="28.627236" lon="-13.893257">
        <ele>406.042</ele>
        <time>2020-07-03T08:34:05Z</time>
      </trkpt>
      <trkpt lat="28.627112" lon="-13.893932">
        <ele>416.490</ele>
        <time>2020-07-03T08:36:00Z</time>
      </trkpt>
      <trkpt lat="28.627072" lon="-13.893826">
        <ele>415.822</ele>
        <time>2020-07-03T08:37:08Z</time>
      </trkpt>
      <trkpt lat="28.626673" lon="-13.893821">
        <ele>418.564</ele>
        <time>2020-07-03T08:37:43Z</time>
      </trkpt>
      <trkpt lat="28.626221" lon="-13.893712">
        <ele>422.990</ele>
        <time>2020-07-03T08:39:27Z</time>
      </trkpt>
      <trkpt lat="28.624886" lon="-13.893648">
        <ele>422.628</ele>
        <time>2020-07-03T08:43:23Z</time>
      </trkpt>
      <trkpt lat="28.624713" lon="-13.893569">
        <ele>422.811</ele>
        <time>2020-07-03T08:43:41Z</time>
      </trkpt>
      <trkpt lat="28.624562" lon="-13.893479">
        <ele>422.821</ele>
        <time>2020-07-03T08:43:58Z</time>
      </trkpt>
      <trkpt lat="28.624195" lon="-13.892585">
        <ele>422.403</ele>
        <time>2020-07-03T08:45:27Z</time>
      </trkpt>
      <trkpt lat="28.623960" lon="-13.891637">
        <ele>424.808</ele>
        <time>2020-07-03T08:46:25Z</time>
      </trkpt>
      <trkpt lat="28.623984" lon="-13.891547">
        <ele>424.866</ele>
        <time>2020-07-03T08:46:34Z</time>
      </trkpt>
      <trkpt lat="28.623802" lon="-13.891527">
        <ele>425.753</ele>
        <time>2020-07-03T08:46:54Z</time>
      </trkpt>
      <trkpt lat="28.623613" lon="-13.891192">
        <ele>426.797</ele>
        <time>2020-07-03T08:47:28Z</time>
      </trkpt>
      <trkpt lat="28.623481" lon="-13.891311">
        <ele>428.715</ele>
        <time>2020-07-03T08:48:10Z</time>
      </trkpt>
      <trkpt lat="28.623447" lon="-13.891275">
        <ele>428.757</ele>
        <time>2020-07-03T08:48:17Z</time>
      </trkpt>
      <trkpt lat="28.623483" lon="-13.891091">
        <ele>426.489</ele>
        <time>2020-07-03T08:49:58Z</time>
      </trkpt>
      <trkpt lat="28.623242" lon="-13.890869">
        <ele>428.935</ele>
        <time>2020-07-03T08:50:48Z</time>
      </trkpt>
      <trkpt lat="28.622691" lon="-13.889961">
        <ele>452.483</ele>
        <time>2020-07-03T08:53:43Z</time>
      </trkpt>
      <trkpt lat="28.622264" lon="-13.889485">
        <ele>472.222</ele>
        <time>2020-07-03T08:57:41Z</time>
      </trkpt>
      <trkpt lat="28.621700" lon="-13.889224">
        <ele>489.562</ele>
        <time>2020-07-03T09:00:41Z</time>
      </trkpt>
      <trkpt lat="28.621701" lon="-13.889128">
        <ele>488.508</ele>
        <time>2020-07-03T09:01:25Z</time>
      </trkpt>
      <trkpt lat="28.621682" lon="-13.889167">
        <ele>491.508</ele>
        <time>2020-07-03T09:01:48Z</time>
      </trkpt>
      <trkpt lat="28.621611" lon="-13.889065">
        <ele>498.747</ele>
        <time>2020-07-03T09:03:47Z</time>
      </trkpt>
      <trkpt lat="28.621743" lon="-13.889198">
        <ele>488.854</ele>
        <time>2020-07-03T09:05:13Z</time>
      </trkpt>
      <trkpt lat="28.621118" lon="-13.889028">
        <ele>504.218</ele>
        <time>2020-07-03T09:07:55Z</time>
      </trkpt>
      <trkpt lat="28.620862" lon="-13.888832">
        <ele>513.566</ele>
        <time>2020-07-03T09:10:29Z</time>
      </trkpt>
      <trkpt lat="28.620830" lon="-13.888697">
        <ele>518.018</ele>
        <time>2020-07-03T09:10:54Z</time>
      </trkpt>
      <trkpt lat="28.620705" lon="-13.888739">
        <ele>521.550</ele>
        <time>2020-07-03T09:12:14Z</time>
      </trkpt>
      <trkpt lat="28.620330" lon="-13.888655">
        <ele>533.556</ele>
        <time>2020-07-03T09:14:09Z</time>
      </trkpt>
      <trkpt lat="28.620250" lon="-13.888700">
        <ele>536.734</ele>
        <time>2020-07-03T09:15:00Z</time>
      </trkpt>
      <trkpt lat="28.620225" lon="-13.888759">
        <ele>536.148</ele>
        <time>2020-07-03T09:15:39Z</time>
      </trkpt>
      <trkpt lat="28.620286" lon="-13.888749">
        <ele>535.761</ele>
        <time>2020-07-03T09:15:53Z</time>
      </trkpt>
      <trkpt lat="28.620216" lon="-13.888777">
        <ele>536.617</ele>
        <time>2020-07-03T09:19:15Z</time>
      </trkpt>
      <trkpt lat="28.620208" lon="-13.888863">
        <ele>536.808</ele>
        <time>2020-07-03T09:20:01Z</time>
      </trkpt>
      <trkpt lat="28.620137" lon="-13.888813">
        <ele>536.819</ele>
        <time>2020-07-03T09:20:12Z</time>
      </trkpt>
      <trkpt lat="28.620058" lon="-13.888852">
        <ele>537.826</ele>
        <time>2020-07-03T09:20:54Z</time>
      </trkpt>
      <trkpt lat="28.620098" lon="-13.889035">
        <ele>533.730</ele>
        <time>2020-07-03T09:21:49Z</time>
      </trkpt>
      <trkpt lat="28.619966" lon="-13.889340">
        <ele>527.678</ele>
        <time>2020-07-03T09:24:04Z</time>
      </trkpt>
      <trkpt lat="28.619917" lon="-13.889260">
        <ele>524.920</ele>
        <time>2020-07-03T09:25:08Z</time>
      </trkpt>
      <trkpt lat="28.619981" lon="-13.889242">
        <ele>525.142</ele>
        <time>2020-07-03T09:26:05Z</time>
      </trkpt>
      <trkpt lat="28.620001" lon="-13.889315">
        <ele>527.458</ele>
        <time>2020-07-03T09:26:25Z</time>
      </trkpt>
      <trkpt lat="28.619943" lon="-13.889863">
        <ele>513.646</ele>
        <time>2020-07-03T09:29:05Z</time>
      </trkpt>
      <trkpt lat="28.619947" lon="-13.889977">
        <ele>508.876</ele>
        <time>2020-07-03T09:30:09Z</time>
      </trkpt>
      <trkpt lat="28.619984" lon="-13.889908">
        <ele>508.490</ele>
        <time>2020-07-03T09:30:25Z</time>
      </trkpt>
      <trkpt lat="28.620017" lon="-13.889977">
        <ele>505.619</ele>
        <time>2020-07-03T09:30:44Z</time>
      </trkpt>
      <trkpt lat="28.619996" lon="-13.890048">
        <ele>504.808</ele>
        <time>2020-07-03T09:31:02Z</time>
      </trkpt>
      <trkpt lat="28.619825" lon="-13.890129">
        <ele>499.622</ele>
        <time>2020-07-03T09:32:51Z</time>
      </trkpt>
      <trkpt lat="28.619839" lon="-13.890026">
        <ele>499.629</ele>
        <time>2020-07-03T09:33:24Z</time>
      </trkpt>
      <trkpt lat="28.619867" lon="-13.890183">
        <ele>497.753</ele>
        <time>2020-07-03T09:35:21Z</time>
      </trkpt>
      <trkpt lat="28.619777" lon="-13.890661">
        <ele>482.791</ele>
        <time>2020-07-03T09:37:07Z</time>
      </trkpt>
      <trkpt lat="28.619698" lon="-13.890698">
        <ele>480.623</ele>
        <time>2020-07-03T09:39:19Z</time>
      </trkpt>
      <trkpt lat="28.619573" lon="-13.891250">
        <ele>479.335</ele>
        <time>2020-07-03T09:42:18Z</time>
      </trkpt>
      <trkpt lat="28.619407" lon="-13.891448">
        <ele>485.051</ele>
        <time>2020-07-03T09:43:31Z</time>
      </trkpt>
      <trkpt lat="28.619484" lon="-13.891433">
        <ele>481.669</ele>
        <time>2020-07-03T09:43:52Z</time>
      </trkpt>
      <trkpt lat="28.619594" lon="-13.891261">
        <ele>482.697</ele>
        <time>2020-07-03T09:44:26Z</time>
      </trkpt>
      <trkpt lat="28.619524" lon="-13.891796">
        <ele>477.323</ele>
        <time>2020-07-03T09:45:37Z</time>
      </trkpt>
      <trkpt lat="28.619462" lon="-13.891800">
        <ele>477.325</ele>
        <time>2020-07-03T09:45:59Z</time>
      </trkpt>
      <trkpt lat="28.619276" lon="-13.891486">
        <ele>472.908</ele>
        <time>2020-07-03T09:47:05Z</time>
      </trkpt>
      <trkpt lat="28.619306" lon="-13.891380">
        <ele>472.414</ele>
        <time>2020-07-03T09:49:14Z</time>
      </trkpt>
      <trkpt lat="28.619363" lon="-13.891436">
        <ele>478.881</ele>
        <time>2020-07-03T09:52:50Z</time>
      </trkpt>
      <trkpt lat="28.619400" lon="-13.891385">
        <ele>478.885</ele>
        <time>2020-07-03T09:53:07Z</time>
      </trkpt>
      <trkpt lat="28.619291" lon="-13.891440">
        <ele>471.013</ele>
        <time>2020-07-03T09:54:10Z</time>
      </trkpt>
      <trkpt lat="28.619315" lon="-13.891578">
        <ele>469.415</ele>
        <time>2020-07-03T09:55:05Z</time>
      </trkpt>
      <trkpt lat="28.619220" lon="-13.891618">
        <ele>456.087</ele>
        <time>2020-07-03T09:58:15Z</time>
      </trkpt>
      <trkpt lat="28.618796" lon="-13.892150">
        <ele>438.083</ele>
        <time>2020-07-03T10:02:41Z</time>
      </trkpt>
      <trkpt lat="28.618804" lon="-13.892277">
        <ele>435.251</ele>
        <time>2020-07-03T10:09:52Z</time>
      </trkpt>
      <trkpt lat="28.618705" lon="-13.892434">
        <ele>435.797</ele>
        <time>2020-07-03T10:11:44Z</time>
      </trkpt>
      <trkpt lat="28.618746" lon="-13.892466">
        <ele>436.423</ele>
        <time>2020-07-03T10:14:16Z</time>
      </trkpt>
      <trkpt lat="28.618590" lon="-13.892770">
        <ele>437.325</ele>
        <time>2020-07-03T10:21:04Z</time>
      </trkpt>
      <trkpt lat="28.618714" lon="-13.892815">
        <ele>443.508</ele>
        <time>2020-07-03T10:21:57Z</time>
      </trkpt>
      <trkpt lat="28.618853" lon="-13.892585">
        <ele>453.844</ele>
        <time>2020-07-03T10:22:55Z</time>
      </trkpt>
      <trkpt lat="28.618931" lon="-13.892622">
        <ele>458.651</ele>
        <time>2020-07-03T10:23:29Z</time>
      </trkpt>
      <trkpt lat="28.619045" lon="-13.892526">
        <ele>464.855</ele>
        <time>2020-07-03T10:24:03Z</time>
      </trkpt>
      <trkpt lat="28.619212" lon="-13.892685">
        <ele>470.673</ele>
        <time>2020-07-03T10:25:05Z</time>
      </trkpt>
      <trkpt lat="28.619459" lon="-13.892794">
        <ele>479.595</ele>
        <time>2020-07-03T10:25:59Z</time>
      </trkpt>
      <trkpt lat="28.619592" lon="-13.892534">
        <ele>486.517</ele>
        <time>2020-07-03T10:36:19Z</time>
      </trkpt>
      <trkpt lat="28.619673" lon="-13.892708">
        <ele>489.723</ele>
        <time>2020-07-03T10:38:01Z</time>
      </trkpt>
      <trkpt lat="28.620093" lon="-13.893074">
        <ele>492.431</ele>
        <time>2020-07-03T10:38:55Z</time>
      </trkpt>
      <trkpt lat="28.620807" lon="-13.893345">
        <ele>481.825</ele>
        <time>2020-07-03T10:41:30Z</time>
      </trkpt>
      <trkpt lat="28.621602" lon="-13.893545">
        <ele>476.326</ele>
        <time>2020-07-03T10:42:47Z</time>
      </trkpt>
      <trkpt lat="28.622708" lon="-13.893491">
        <ele>448.508</ele>
        <time>2020-07-03T10:45:51Z</time>
      </trkpt>
      <trkpt lat="28.623654" lon="-13.893298">
        <ele>428.908</ele>
        <time>2020-07-03T10:47:26Z</time>
      </trkpt>
      <trkpt lat="28.624419" lon="-13.893377">
        <ele>426.667</ele>
        <time>2020-07-03T10:49:10Z</time>
      </trkpt>
      <trkpt lat="28.624997" lon="-13.893630">
        <ele>423.144</ele>
        <time>2020-07-03T10:50:17Z</time>
      </trkpt>
      <trkpt lat="28.627115" lon="-13.893815">
        <ele>417.758</ele>
        <time>2020-07-03T10:56:02Z</time>
      </trkpt>
      <trkpt lat="28.627207" lon="-13.893623">
        <ele>417.426</ele>
        <time>2020-07-03T10:56:11Z</time>
      </trkpt>
      <trkpt lat="28.627276" lon="-13.892904">
        <ele>413.158</ele>
        <time>2020-07-03T10:56:25Z</time>
      </trkpt>
      <trkpt lat="28.627050" lon="-13.892525">
        <ele>409.580</ele>
        <time>2020-07-03T10:56:46Z</time>
      </trkpt>
      <trkpt lat="28.626786" lon="-13.892269">
        <ele>407.936</ele>
        <time>2020-07-03T10:57:06Z</time>
      </trkpt>
      <trkpt lat="28.626511" lon="-13.891774">
        <ele>407.874</ele>
        <time>2020-07-03T10:57:50Z</time>
      </trkpt>
      <trkpt lat="28.626429" lon="-13.891387">
        <ele>406.014</ele>
        <time>2020-07-03T10:58:12Z</time>
      </trkpt>
      <trkpt lat="28.626328" lon="-13.891209">
        <ele>404.454</ele>
        <time>2020-07-03T10:58:24Z</time>
      </trkpt>
      <trkpt lat="28.625657" lon="-13.890482">
        <ele>398.009</ele>
        <time>2020-07-03T10:59:22Z</time>
      </trkpt>
      <trkpt lat="28.625908" lon="-13.889461">
        <ele>390.008</ele>
        <time>2020-07-03T11:00:17Z</time>
      </trkpt>
      <trkpt lat="28.625984" lon="-13.889360">
        <ele>388.166</ele>
        <time>2020-07-03T11:00:27Z</time>
      </trkpt>
      <trkpt lat="28.626662" lon="-13.889191">
        <ele>382.313</ele>
        <time>2020-07-03T11:01:31Z</time>
      </trkpt>
      <trkpt lat="28.627304" lon="-13.889412">
        <ele>374.727</ele>
        <time>2020-07-03T11:02:28Z</time>
      </trkpt>
      <trkpt lat="28.627539" lon="-13.889843">
        <ele>370.715</ele>
        <time>2020-07-03T11:02:55Z</time>
      </trkpt>
      <trkpt lat="28.627773" lon="-13.890742">
        <ele>354.737</ele>
        <time>2020-07-03T11:04:22Z</time>
      </trkpt>
      <trkpt lat="28.628095" lon="-13.890873">
        <ele>349.299</ele>
        <time>2020-07-03T11:04:57Z</time>
      </trkpt>
      <trkpt lat="28.628066" lon="-13.890696">
        <ele>344.535</ele>
        <time>2020-07-03T11:05:21Z</time>
      </trkpt>
      <trkpt lat="28.628232" lon="-13.890801">
        <ele>338.413</ele>
        <time>2020-07-03T11:05:57Z</time>
      </trkpt>
      <trkpt lat="28.628201" lon="-13.890622">
        <ele>332.242</ele>
        <time>2020-07-03T11:06:32Z</time>
      </trkpt>
      <trkpt lat="28.628348" lon="-13.890650">
        <ele>327.922</ele>
        <time>2020-07-03T11:07:04Z</time>
      </trkpt>
      <trkpt lat="28.628256" lon="-13.890421">
        <ele>297.314</ele>
        <time>2020-07-03T11:09:55Z</time>
      </trkpt>
      <trkpt lat="28.628315" lon="-13.890093">
        <ele>293.108</ele>
        <time>2020-07-03T11:10:15Z</time>
      </trkpt>
      <trkpt lat="28.628291" lon="-13.889781">
        <ele>289.749</ele>
        <time>2020-07-03T11:10:33Z</time>
      </trkpt>
      <trkpt lat="28.628334" lon="-13.889711">
        <ele>288.846</ele>
        <time>2020-07-03T11:10:41Z</time>
      </trkpt>
      <trkpt lat="28.628582" lon="-13.889899">
        <ele>284.640</ele>
        <time>2020-07-03T11:11:16Z</time>
      </trkpt>
      <trkpt lat="28.628652" lon="-13.889892">
        <ele>283.838</ele>
        <time>2020-07-03T11:11:24Z</time>
      </trkpt>
      <trkpt lat="28.628466" lon="-13.889498">
        <ele>280.030</ele>
        <time>2020-07-03T11:11:54Z</time>
      </trkpt>
      <trkpt lat="28.628845" lon="-13.889561">
        <ele>273.812</ele>
        <time>2020-07-03T11:12:27Z</time>
      </trkpt>
      <trkpt lat="28.629109" lon="-13.889847">
        <ele>268.658</ele>
        <time>2020-07-03T11:13:17Z</time>
      </trkpt>
      <trkpt lat="28.628969" lon="-13.889469">
        <ele>263.066</ele>
        <time>2020-07-03T11:13:52Z</time>
      </trkpt>
      <trkpt lat="28.629007" lon="-13.889409">
        <ele>261.936</ele>
        <time>2020-07-03T11:14:00Z</time>
      </trkpt>
      <trkpt lat="28.629389" lon="-13.889805">
        <ele>254.317</ele>
        <time>2020-07-03T11:14:57Z</time>
      </trkpt>
      <trkpt lat="28.629407" lon="-13.890126">
        <ele>250.018</ele>
        <time>2020-07-03T11:15:26Z</time>
      </trkpt>
      <trkpt lat="28.629838" lon="-13.890977">
        <ele>246.608</ele>
        <time>2020-07-03T11:16:17Z</time>
      </trkpt>
      <trkpt lat="28.629982" lon="-13.891519">
        <ele>243.918</ele>
        <time>2020-07-03T11:16:56Z</time>
      </trkpt>
      <trkpt lat="28.630376" lon="-13.891965">
        <ele>243.185</ele>
        <time>2020-07-03T11:17:22Z</time>
      </trkpt>
      <trkpt lat="28.630735" lon="-13.892594">
        <ele>242.229</ele>
        <time>2020-07-03T11:17:54Z</time>
      </trkpt>
      <trkpt lat="28.630699" lon="-13.893589">
        <ele>240.077</ele>
        <time>2020-07-03T11:18:33Z</time>
      </trkpt>
      <trkpt lat="28.630834" lon="-13.894086">
        <ele>240.069</ele>
        <time>2020-07-03T11:18:54Z</time>
      </trkpt>
      <trkpt lat="28.630726" lon="-13.895269">
        <ele>239.971</ele>
        <time>2020-07-03T11:19:25Z</time>
      </trkpt>
      <trkpt lat="28.630789" lon="-13.895523">
        <ele>242.297</ele>
        <time>2020-07-03T11:19:29Z</time>
      </trkpt>
      <trkpt lat="28.631346" lon="-13.895567">
        <ele>242.155</ele>
        <time>2020-07-03T11:19:53Z</time>
      </trkpt>
      <trkpt lat="28.631831" lon="-13.895390">
        <ele>239.729</ele>
        <time>2020-07-03T11:20:06Z</time>
      </trkpt>
      <trkpt lat="28.632468" lon="-13.895582">
        <ele>239.700</ele>
        <time>2020-07-03T11:20:38Z</time>
      </trkpt>
      <trkpt lat="28.632732" lon="-13.895733">
        <ele>242.120</ele>
        <time>2020-07-03T11:20:54Z</time>
      </trkpt>
    </trkseg>
  </trk></gpx>