<?xml version="1.0" encoding="UTF-8"?>
<gpx creator="Wikiloc - https://www.wikiloc.com" version="1.1" xmlns="http://www.topografix.com/GPX/1/1" xmlns:xsi="http://www.w3.org/2001/XMLSchema-instance" xsi:schemaLocation="http://www.topografix.com/GPX/1/1 http://www.topografix.com/GPX/1/1/gpx.xsd">
  <metadata>
    <name>Wikiloc - Lanzarote: Las Peñas del Chache</name>
    <link href="https://www.wikiloc.com/hiking-trails/lanzarote-las-penas-del-chache-14419850">
      <text>Lanzarote: Las Peñas del Chache - Wikiloc on Wikiloc</text>
    </link>
    <time>2013-11-25T15:56:36Z</time>
  </metadata>
  <trk>
    <name>Lanzarote: Las Peñas del Chache - Wikiloc</name>
    <cmt></cmt>
    <desc></desc>
    <trkseg>
      <trkpt lat="29.127500" lon="-13.514286">
        <ele>568.666</ele>
        <time>2013-11-25T12:47:02Z</time>
      </trkpt>
      <trkpt lat="29.126640" lon="-13.514532">
        <ele>568.929</ele>
        <time>2013-11-25T12:48:38Z</time>
      </trkpt>
      <trkpt lat="29.125870" lon="-13.514936">
        <ele>575.621</ele>
        <time>2013-11-25T12:49:47Z</time>
      </trkpt>
      <trkpt lat="29.125589" lon="-13.515290">
        <ele>585.408</ele>
        <time>2013-11-25T12:51:25Z</time>
      </trkpt>
      <trkpt lat="29.124892" lon="-13.515516">
        <ele>587.717</ele>
        <time>2013-11-25T12:52:34Z</time>
      </trkpt>
      <trkpt lat="29.124307" lon="-13.515854">
        <ele>593.250</ele>
        <time>2013-11-25T12:53:31Z</time>
      </trkpt>
      <trkpt lat="29.121729" lon="-13.516128">
        <ele>601.660</ele>
        <time>2013-11-25T12:57:52Z</time>
      </trkpt>
      <trkpt lat="29.120926" lon="-13.516472">
        <ele>603.997</ele>
        <time>2013-11-25T12:59:01Z</time>
      </trkpt>
      <trkpt lat="29.120217" lon="-13.516976">
        <ele>612.045</ele>
        <time>2013-11-25T13:00:16Z</time>
      </trkpt>
      <trkpt lat="29.119541" lon="-13.517299">
        <ele>616.294</ele>
        <time>2013-11-25T13:01:19Z</time>
      </trkpt>
      <trkpt lat="29.119194" lon="-13.517709">
        <ele>611.551</ele>
        <time>2013-11-25T13:02:01Z</time>
      </trkpt>
      <trkpt lat="29.118248" lon="-13.518429">
        <ele>621.896</ele>
        <time>2013-11-25T13:03:34Z</time>
      </trkpt>
      <trkpt lat="29.116786" lon="-13.519093">
        <ele>616.622</ele>
        <time>2013-11-25T13:05:47Z</time>
      </trkpt>
      <trkpt lat="29.115091" lon="-13.520569">
        <ele>609.362</ele>
        <time>2013-11-25T13:08:34Z</time>
      </trkpt>
      <trkpt lat="29.113698" lon="-13.521304">
        <ele>611.708</ele>
        <time>2013-11-25T13:10:46Z</time>
      </trkpt>
      <trkpt lat="29.113122" lon="-13.521924">
        <ele>602.208</ele>
        <time>2013-11-25T13:11:49Z</time>
      </trkpt>
      <trkpt lat="29.112009" lon="-13.522832">
        <ele>600.723</ele>
        <time>2013-11-25T13:13:52Z</time>
      </trkpt>
      <trkpt lat="29.111354" lon="-13.523546">
        <ele>596.496</ele>
        <time>2013-11-25T13:15:07Z</time>
      </trkpt>
      <trkpt lat="29.110632" lon="-13.524517">
        <ele>587.086</ele>
        <time>2013-11-25T13:16:34Z</time>
      </trkpt>
      <trkpt lat="29.110306" lon="-13.525226">
        <ele>586.043</ele>
        <time>2013-11-25T13:17:28Z</time>
      </trkpt>
      <trkpt lat="29.110060" lon="-13.525463">
        <ele>587.251</ele>
        <time>2013-11-25T13:17:49Z</time>
      </trkpt>
      <trkpt lat="29.108587" lon="-13.526330">
        <ele>575.510</ele>
        <time>2013-11-25T13:20:25Z</time>
      </trkpt>
      <trkpt lat="29.108378" lon="-13.526616">
        <ele>579.627</ele>
        <time>2013-11-25T13:20:52Z</time>
      </trkpt>
      <trkpt lat="29.107254" lon="-13.526945">
        <ele>587.432</ele>
        <time>2013-11-25T13:22:25Z</time>
      </trkpt>
      <trkpt lat="29.106399" lon="-13.527591">
        <ele>597.154</ele>
        <time>2013-11-25T13:24:19Z</time>
      </trkpt>
      <trkpt lat="29.105853" lon="-13.528500">
        <ele>594.856</ele>
        <time>2013-11-25T13:27:04Z</time>
      </trkpt>
      <trkpt lat="29.106420" lon="-13.528201">
        <ele>599.011</ele>
        <time>2013-11-25T13:30:04Z</time>
      </trkpt>
      <trkpt lat="29.106780" lon="-13.528220">
        <ele>597.508</ele>
        <time>2013-11-25T13:30:40Z</time>
      </trkpt>
      <trkpt lat="29.106697" lon="-13.527935">
        <ele>600.876</ele>
        <time>2013-11-25T13:31:49Z</time>
      </trkpt>
      <trkpt lat="29.106373" lon="-13.528298">
        <ele>598.859</ele>
        <time>2013-11-25T13:33:30Z</time>
      </trkpt>
      <trkpt lat="29.106307" lon="-13.528820">
        <ele>597.389</ele>
        <time>2013-11-25T13:34:06Z</time>
      </trkpt>
      <trkpt lat="29.107037" lon="-13.530505">
        <ele>579.866</ele>
        <time>2013-11-25T13:37:12Z</time>
      </trkpt>
      <trkpt lat="29.106839" lon="-13.530739">
        <ele>582.524</ele>
        <time>2013-11-25T13:45:33Z</time>
      </trkpt>
      <trkpt lat="29.106970" lon="-13.530580">
        <ele>583.063</ele>
        <time>2013-11-25T13:47:39Z</time>
      </trkpt>
      <trkpt lat="29.106673" lon="-13.529519">
        <ele>596.560</ele>
        <time>2013-11-25T13:50:06Z</time>
      </trkpt>
      <trkpt lat="29.106803" lon="-13.528911">
        <ele>592.155</ele>
        <time>2013-11-25T13:50:54Z</time>
      </trkpt>
      <trkpt lat="29.107590" lon="-13.528387">
        <ele>586.596</ele>
        <time>2013-11-25T13:52:06Z</time>
      </trkpt>
      <trkpt lat="29.107843" lon="-13.527906">
        <ele>583.431</ele>
        <time>2013-11-25T13:53:27Z</time>
      </trkpt>
      <trkpt lat="29.107983" lon="-13.527815">
        <ele>580.424</ele>
        <time>2013-11-25T13:53:48Z</time>
      </trkpt>
      <trkpt lat="29.107922" lon="-13.527746">
        <ele>581.808</ele>
        <time>2013-11-25T13:54:39Z</time>
      </trkpt>
      <trkpt lat="29.108069" lon="-13.527306">
        <ele>578.320</ele>
        <time>2013-11-25T13:56:12Z</time>
      </trkpt>
      <trkpt lat="29.108442" lon="-13.526735">
        <ele>580.743</ele>
        <time>2013-11-25T13:58:57Z</time>
      </trkpt>
      <trkpt lat="29.109668" lon="-13.526108">
        <ele>587.023</ele>
        <time>2013-11-25T14:01:48Z</time>
      </trkpt>
      <trkpt lat="29.110158" lon="-13.525656">
        <ele>585.970</ele>
        <time>2013-11-25T14:02:41Z</time>
      </trkpt>
      <trkpt lat="29.110403" lon="-13.525690">
        <ele>585.358</ele>
        <time>2013-11-25T14:03:45Z</time>
      </trkpt>
      <trkpt lat="29.110719" lon="-13.525441">
        <ele>587.447</ele>
        <time>2013-11-25T14:06:24Z</time>
      </trkpt>
      <trkpt lat="29.111139" lon="-13.524781">
        <ele>584.494</ele>
        <time>2013-11-25T14:08:24Z</time>
      </trkpt>
      <trkpt lat="29.111911" lon="-13.524308">
        <ele>583.569</ele>
        <time>2013-11-25T14:13:27Z</time>
      </trkpt>
      <trkpt lat="29.112048" lon="-13.523959">
        <ele>590.631</ele>
        <time>2013-11-25T14:14:30Z</time>
      </trkpt>
      <trkpt lat="29.111993" lon="-13.523848">
        <ele>595.261</ele>
        <time>2013-11-25T14:14:39Z</time>
      </trkpt>
      <trkpt lat="29.112594" lon="-13.523400">
        <ele>600.007</ele>
        <time>2013-11-25T14:16:06Z</time>
      </trkpt>
      <trkpt lat="29.112621" lon="-13.523247">
        <ele>601.208</ele>
        <time>2013-11-25T14:16:42Z</time>
      </trkpt>
      <trkpt lat="29.113119" lon="-13.523115">
        <ele>600.074</ele>
        <time>2013-11-25T14:17:33Z</time>
      </trkpt>
      <trkpt lat="29.113519" lon="-13.523176">
        <ele>595.237</ele>
        <time>2013-11-25T14:18:49Z</time>
      </trkpt>
      <trkpt lat="29.113592" lon="-13.523066">
        <ele>602.947</ele>
        <time>2013-11-25T14:19:13Z</time>
      </trkpt>
      <trkpt lat="29.113499" lon="-13.523046">
        <ele>602.844</ele>
        <time>2013-11-25T14:19:25Z</time>
      </trkpt>
      <trkpt lat="29.113628" lon="-13.522965">
        <ele>604.332</ele>
        <time>2013-11-25T14:20:01Z</time>
      </trkpt>
      <trkpt lat="29.113583" lon="-13.523142">
        <ele>596.891</ele>
        <time>2013-11-25T14:23:13Z</time>
      </trkpt>
      <trkpt lat="29.113687" lon="-13.522940">
        <ele>603.428</ele>
        <time>2013-11-25T14:24:55Z</time>
      </trkpt>
      <trkpt lat="29.114098" lon="-13.522744">
        <ele>598.783</ele>
        <time>2013-11-25T14:26:34Z</time>
      </trkpt>
      <trkpt lat="29.114650" lon="-13.522736">
        <ele>599.965</ele>
        <time>2013-11-25T14:28:13Z</time>
      </trkpt>
      <trkpt lat="29.115331" lon="-13.522922">
        <ele>597.368</ele>
        <time>2013-11-25T14:30:31Z</time>
      </trkpt>
      <trkpt lat="29.115662" lon="-13.523137">
        <ele>588.214</ele>
        <time>2013-11-25T14:31:16Z</time>
      </trkpt>
      <trkpt lat="29.115888" lon="-13.523447">
        <ele>577.408</ele>
        <time>2013-11-25T14:32:04Z</time>
      </trkpt>
      <trkpt lat="29.116590" lon="-13.523372">
        <ele>588.657</ele>
        <time>2013-11-25T14:33:10Z</time>
      </trkpt>
      <trkpt lat="29.116923" lon="-13.522928">
        <ele>594.880</ele>
        <time>2013-11-25T14:34:16Z</time>
      </trkpt>
      <trkpt lat="29.116893" lon="-13.522611">
        <ele>600.720</ele>
        <time>2013-11-25T14:35:07Z</time>
      </trkpt>
      <trkpt lat="29.118052" lon="-13.522712">
        <ele>604.747</ele>
        <time>2013-11-25T14:37:39Z</time>
      </trkpt>
      <trkpt lat="29.118457" lon="-13.522618">
        <ele>611.515</ele>
        <time>2013-11-25T14:38:21Z</time>
      </trkpt>
      <trkpt lat="29.119145" lon="-13.523072">
        <ele>599.624</ele>
        <time>2013-11-25T14:43:03Z</time>
      </trkpt>
      <trkpt lat="29.119345" lon="-13.523104">
        <ele>605.551</ele>
        <time>2013-11-25T14:43:27Z</time>
      </trkpt>
      <trkpt lat="29.119342" lon="-13.523035">
        <ele>607.996</ele>
        <time>2013-11-25T14:43:42Z</time>
      </trkpt>
      <trkpt lat="29.120007" lon="-13.523285">
        <ele>609.516</ele>
        <time>2013-11-25T14:45:39Z</time>
      </trkpt>
      <trkpt lat="29.120504" lon="-13.523611">
        <ele>614.076</ele>
        <time>2013-11-25T14:46:51Z</time>
      </trkpt>
      <trkpt lat="29.121052" lon="-13.523659">
        <ele>619.813</ele>
        <time>2013-11-25T14:47:58Z</time>
      </trkpt>
      <trkpt lat="29.121627" lon="-13.523566">
        <ele>619.708</ele>
        <time>2013-11-25T14:48:40Z</time>
      </trkpt>
      <trkpt lat="29.121941" lon="-13.524102">
        <ele>613.772</ele>
        <time>2013-11-25T14:49:43Z</time>
      </trkpt>
      <trkpt lat="29.122384" lon="-13.524038">
        <ele>616.445</ele>
        <time>2013-11-25T14:50:19Z</time>
      </trkpt>
      <trkpt lat="29.122549" lon="-13.524224">
        <ele>616.435</ele>
        <time>2013-11-25T14:50:46Z</time>
      </trkpt>
      <trkpt lat="29.122510" lon="-13.524622">
        <ele>617.732</ele>
        <time>2013-11-25T14:51:13Z</time>
      </trkpt>
      <trkpt lat="29.122132" lon="-13.525274">
        <ele>617.340</ele>
        <time>2013-11-25T14:52:19Z</time>
      </trkpt>
      <trkpt lat="29.122043" lon="-13.525812">
        <ele>620.749</ele>
        <time>2013-11-25T14:53:10Z</time>
      </trkpt>
      <trkpt lat="29.121937" lon="-13.526023">
        <ele>619.296</ele>
        <time>2013-11-25T14:53:28Z</time>
      </trkpt>
      <trkpt lat="29.121536" lon="-13.526355">
        <ele>614.461</ele>
        <time>2013-11-25T14:54:14Z</time>
      </trkpt>
      <trkpt lat="29.121538" lon="-13.526965">
        <ele>611.271</ele>
        <time>2013-11-25T14:56:14Z</time>
      </trkpt>
      <trkpt lat="29.121673" lon="-13.526881">
        <ele>617.341</ele>
        <time>2013-11-25T15:05:47Z</time>
      </trkpt>
      <trkpt lat="29.121719" lon="-13.527018">
        <ele>616.015</ele>
        <time>2013-11-25T15:06:17Z</time>
      </trkpt>
      <trkpt lat="29.121664" lon="-13.526975">
        <ele>616.308</ele>
        <time>2013-11-25T15:06:47Z</time>
      </trkpt>
      <trkpt lat="29.122480" lon="-13.527036">
        <ele>629.668</ele>
        <time>2013-11-25T15:09:57Z</time>
      </trkpt>
      <trkpt lat="29.122587" lon="-13.526602">
        <ele>628.841</ele>
        <time>2013-11-25T15:10:48Z</time>
      </trkpt>
      <trkpt lat="29.123231" lon="-13.526241">
        <ele>625.641</ele>
        <time>2013-11-25T15:11:33Z</time>
      </trkpt>
      <trkpt lat="29.123446" lon="-13.525783">
        <ele>627.498</ele>
        <time>2013-11-25T15:12:31Z</time>
      </trkpt>
      <trkpt lat="29.123719" lon="-13.525616">
        <ele>625.996</ele>
        <time>2013-11-25T15:12:51Z</time>
      </trkpt>
      <trkpt lat="29.123947" lon="-13.525609">
        <ele>620.735</ele>
        <time>2013-11-25T15:13:06Z</time>
      </trkpt>
      <trkpt lat="29.124100" lon="-13.525449">
        <ele>616.092</ele>
        <time>2013-11-25T15:13:25Z</time>
      </trkpt>
      <trkpt lat="29.124282" lon="-13.525563">
        <ele>615.067</ele>
        <time>2013-11-25T15:13:42Z</time>
      </trkpt>
      <trkpt lat="29.124446" lon="-13.525434">
        <ele>616.843</ele>
        <time>2013-11-25T15:14:03Z</time>
      </trkpt>
      <trkpt lat="29.124731" lon="-13.525565">
        <ele>611.664</ele>
        <time>2013-11-25T15:15:15Z</time>
      </trkpt>
      <trkpt lat="29.124992" lon="-13.524720">
        <ele>616.310</ele>
        <time>2013-11-25T15:17:16Z</time>
      </trkpt>
      <trkpt lat="29.125842" lon="-13.523836">
        <ele>604.908</ele>
        <time>2013-11-25T15:19:26Z</time>
      </trkpt>
      <trkpt lat="29.126058" lon="-13.524037">
        <ele>598.645</ele>
        <time>2013-11-25T15:20:33Z</time>
      </trkpt>
      <trkpt lat="29.126207" lon="-13.524015">
        <ele>598.568</ele>
        <time>2013-11-25T15:26:06Z</time>
      </trkpt>
      <trkpt lat="29.126354" lon="-13.524127">
        <ele>595.778</ele>
        <time>2013-11-25T15:26:26Z</time>
      </trkpt>
      <trkpt lat="29.126279" lon="-13.524626">
        <ele>588.545</ele>
        <time>2013-11-25T15:27:57Z</time>
      </trkpt>
      <trkpt lat="29.126720" lon="-13.524422">
        <ele>584.573</ele>
        <time>2013-11-25T15:30:36Z</time>
      </trkpt>
      <trkpt lat="29.126946" lon="-13.524094">
        <ele>598.212</ele>
        <time>2013-11-25T15:33:00Z</time>
      </trkpt>
      <trkpt lat="29.126982" lon="-13.523764">
        <ele>598.559</ele>
        <time>2013-11-25T15:33:39Z</time>
      </trkpt>
      <trkpt lat="29.126559" lon="-13.523751">
        <ele>599.564</ele>
        <time>2013-11-25T15:34:32Z</time>
      </trkpt>
      <trkpt lat="29.126123" lon="-13.523497">
        <ele>607.249</ele>
        <time>2013-11-25T15:35:27Z</time>
      </trkpt>
      <trkpt lat="29.125983" lon="-13.522921">
        <ele>607.102</ele>
        <time>2013-11-25T15:36:17Z</time>
      </trkpt>
      <trkpt lat="29.126127" lon="-13.521935">
        <ele>607.022</ele>
        <time>2013-11-25T15:37:30Z</time>
      </trkpt>
      <trkpt lat="29.126054" lon="-13.521425">
        <ele>607.808</ele>
        <time>2013-11-25T15:38:06Z</time>
      </trkpt>
      <trkpt lat="29.125842" lon="-13.521164">
        <ele>612.725</ele>
        <time>2013-11-25T15:38:54Z</time>
      </trkpt>
      <trkpt lat="29.125770" lon="-13.519391">
        <ele>617.388</ele>
        <time>2013-11-25T15:41:15Z</time>
      </trkpt>
      <trkpt lat="29.124980" lon="-13.518573">
        <ele>625.148</ele>
        <time>2013-11-25T15:42:40Z</time>
      </trkpt>
      <trkpt lat="29.124421" lon="-13.518307">
        <ele>623.225</ele>
        <time>2013-11-25T15:43:38Z</time>
      </trkpt>
      <trkpt lat="29.123993" lon="-13.517496">
        <ele>621.893</ele>
        <time>2013-11-25T15:48:31Z</time>
      </trkpt>
      <trkpt lat="29.123510" lon="-13.517108">
        <ele>612.442</ele>
        <time>2013-11-25T15:49:05Z</time>
      </trkpt>
      <trkpt lat="29.123390" lon="-13.516681">
        <ele>607.819</ele>
        <time>2013-11-25T15:49:34Z</time>
      </trkpt>
      <trkpt lat="29.122787" lon="-13.516341">
        <ele>603.734</ele>
        <time>2013-11-25T15:50:19Z</time>
      </trkpt>
      <trkpt lat="29.122775" lon="-13.516231">
        <ele>600.477</ele>
        <time>2013-11-25T15:50:26Z</time>
      </trkpt>
      <trkpt lat="29.123806" lon="-13.515906">
        <ele>592.561</ele>
        <time>2013-11-25T15:51:47Z</time>
      </trkpt>
      <trkpt lat="29.123976" lon="-13.515947">
        <ele>595.127</ele>
        <time>2013-11-25T15:52:08Z</time>
      </trkpt>
      <trkpt lat="29.124509" lon="-13.515803">
        <ele>591.608</ele>
        <time>2013-11-25T15:52:38Z</time>
      </trkpt>
      <trkpt lat="29.125404" lon="-13.515337">
        <ele>587.428</ele>
        <time>2013-11-25T15:53:45Z</time>
      </trkpt>
      <trkpt lat="29.126404" lon="-13.514637">
        <ele>568.421</ele>
        <time>2013-11-25T15:55:08Z</time>
      </trkpt>
      <trkpt lat="29.127501" lon="-13.514283">
        <ele>568.521</ele>
        <time>2013-11-25T15:56:36Z</time>
      </trkpt>
    </trkseg>
  </trk></gpx>