<?xml version="1.0" encoding="UTF-8"?>
<gpx creator="Wikiloc - https://www.wikiloc.com" version="1.1" xmlns="http://www.topografix.com/GPX/1/1" xmlns:xsi="http://www.w3.org/2001/XMLSchema-instance" xsi:schemaLocation="http://www.topografix.com/GPX/1/1 http://www.topografix.com/GPX/1/1/gpx.xsd">
  <metadata>
    <name>Wikiloc - GR 131 (Fuerteventura) Etapa-8 Casas del Risco del Paso - Mo...</name>
    <link href="https://www.wikiloc.com/hiking-trails/gr-131-fuerteventura-etapa-8-casas-del-risco-del-paso-morro-jable-165677196">
      <text>GR 131 (Fuerteventura) Etapa-8 Casas del Risco del Paso - Mo... on Wikiloc</text>
    </link>
    <time>2024-03-21T15:21:18Z</time>
  </metadata>
  <trk>
    <name>GR 131 (Fuerteventura) Etapa-8 Casas del Risco del Paso - Mo... - Wikiloc</name>
    <cmt></cmt>
    <desc></desc>
    <trkseg>
      <trkpt lat="28.112423" lon="-14.265242">
        <ele>10.144</ele>
        <time>2024-03-21T10:44:36Z</time>
      </trkpt>
      <trkpt lat="28.112001" lon="-14.265958">
        <ele>14.505</ele>
        <time>2024-03-21T10:48:13Z</time>
      </trkpt>
      <trkpt lat="28.111623" lon="-14.266243">
        <ele>18.615</ele>
        <time>2024-03-21T10:49:31Z</time>
      </trkpt>
      <trkpt lat="28.111446" lon="-14.266888">
        <ele>28.009</ele>
        <time>2024-03-21T10:51:16Z</time>
      </trkpt>
      <trkpt lat="28.109817" lon="-14.268385">
        <ele>27.725</ele>
        <time>2024-03-21T10:54:47Z</time>
      </trkpt>
      <trkpt lat="28.108814" lon="-14.269842">
        <ele>18.510</ele>
        <time>2024-03-21T10:58:20Z</time>
      </trkpt>
      <trkpt lat="28.108451" lon="-14.269610">
        <ele>14.399</ele>
        <time>2024-03-21T10:59:22Z</time>
      </trkpt>
      <trkpt lat="28.106989" lon="-14.271004">
        <ele>37.560</ele>
        <time>2024-03-21T11:03:21Z</time>
      </trkpt>
      <trkpt lat="28.105399" lon="-14.271970">
        <ele>26.441</ele>
        <time>2024-03-21T11:06:48Z</time>
      </trkpt>
      <trkpt lat="28.105107" lon="-14.272520">
        <ele>19.191</ele>
        <time>2024-03-21T11:08:34Z</time>
      </trkpt>
      <trkpt lat="28.104819" lon="-14.272376">
        <ele>17.755</ele>
        <time>2024-03-21T11:09:19Z</time>
      </trkpt>
      <trkpt lat="28.104657" lon="-14.271933">
        <ele>16.623</ele>
        <time>2024-03-21T11:10:08Z</time>
      </trkpt>
      <trkpt lat="28.104293" lon="-14.271879">
        <ele>14.310</ele>
        <time>2024-03-21T11:10:49Z</time>
      </trkpt>
      <trkpt lat="28.103978" lon="-14.272040">
        <ele>14.363</ele>
        <time>2024-03-21T11:11:59Z</time>
      </trkpt>
      <trkpt lat="28.103809" lon="-14.271874">
        <ele>12.144</ele>
        <time>2024-03-21T11:12:24Z</time>
      </trkpt>
      <trkpt lat="28.103872" lon="-14.272005">
        <ele>13.718</ele>
        <time>2024-03-21T11:12:48Z</time>
      </trkpt>
      <trkpt lat="28.103577" lon="-14.272496">
        <ele>20.609</ele>
        <time>2024-03-21T11:14:39Z</time>
      </trkpt>
      <trkpt lat="28.102945" lon="-14.272828">
        <ele>28.457</ele>
        <time>2024-03-21T11:16:34Z</time>
      </trkpt>
      <trkpt lat="28.102120" lon="-14.273015">
        <ele>33.582</ele>
        <time>2024-03-21T11:18:09Z</time>
      </trkpt>
      <trkpt lat="28.101233" lon="-14.273420">
        <ele>42.621</ele>
        <time>2024-03-21T11:19:56Z</time>
      </trkpt>
      <trkpt lat="28.100711" lon="-14.273363">
        <ele>39.422</ele>
        <time>2024-03-21T11:20:50Z</time>
      </trkpt>
      <trkpt lat="28.100487" lon="-14.273491">
        <ele>40.433</ele>
        <time>2024-03-21T11:21:14Z</time>
      </trkpt>
      <trkpt lat="28.098996" lon="-14.273618">
        <ele>33.483</ele>
        <time>2024-03-21T11:23:32Z</time>
      </trkpt>
      <trkpt lat="28.098148" lon="-14.274543">
        <ele>27.387</ele>
        <time>2024-03-21T11:25:55Z</time>
      </trkpt>
      <trkpt lat="28.096871" lon="-14.275626">
        <ele>7.835</ele>
        <time>2024-03-21T11:29:23Z</time>
      </trkpt>
      <trkpt lat="28.096491" lon="-14.275779">
        <ele>5.092</ele>
        <time>2024-03-21T11:30:35Z</time>
      </trkpt>
      <trkpt lat="28.096303" lon="-14.276447">
        <ele>5.312</ele>
        <time>2024-03-21T11:31:52Z</time>
      </trkpt>
      <trkpt lat="28.096268" lon="-14.277319">
        <ele>10.932</ele>
        <time>2024-03-21T11:33:34Z</time>
      </trkpt>
      <trkpt lat="28.095691" lon="-14.278149">
        <ele>27.905</ele>
        <time>2024-03-21T11:36:10Z</time>
      </trkpt>
      <trkpt lat="28.095001" lon="-14.278762">
        <ele>32.309</ele>
        <time>2024-03-21T11:37:45Z</time>
      </trkpt>
      <trkpt lat="28.094936" lon="-14.279492">
        <ele>37.042</ele>
        <time>2024-03-21T11:39:06Z</time>
      </trkpt>
      <trkpt lat="28.094526" lon="-14.279218">
        <ele>27.057</ele>
        <time>2024-03-21T11:40:28Z</time>
      </trkpt>
      <trkpt lat="28.094253" lon="-14.279258">
        <ele>21.916</ele>
        <time>2024-03-21T11:41:13Z</time>
      </trkpt>
      <trkpt lat="28.093886" lon="-14.279629">
        <ele>16.857</ele>
        <time>2024-03-21T11:42:08Z</time>
      </trkpt>
      <trkpt lat="28.093633" lon="-14.280194">
        <ele>14.518</ele>
        <time>2024-03-21T11:43:25Z</time>
      </trkpt>
      <trkpt lat="28.093244" lon="-14.280322">
        <ele>10.558</ele>
        <time>2024-03-21T11:44:28Z</time>
      </trkpt>
      <trkpt lat="28.092546" lon="-14.281222">
        <ele>13.122</ele>
        <time>2024-03-21T11:47:23Z</time>
      </trkpt>
      <trkpt lat="28.091299" lon="-14.282205">
        <ele>5.970</ele>
        <time>2024-03-21T11:50:08Z</time>
      </trkpt>
      <trkpt lat="28.091338" lon="-14.282423">
        <ele>7.757</ele>
        <time>2024-03-21T11:50:30Z</time>
      </trkpt>
      <trkpt lat="28.090957" lon="-14.283128">
        <ele>8.953</ele>
        <time>2024-03-21T11:51:58Z</time>
      </trkpt>
      <trkpt lat="28.090906" lon="-14.283487">
        <ele>11.204</ele>
        <time>2024-03-21T11:52:52Z</time>
      </trkpt>
      <trkpt lat="28.090314" lon="-14.283742">
        <ele>12.414</ele>
        <time>2024-03-21T11:53:52Z</time>
      </trkpt>
      <trkpt lat="28.089883" lon="-14.284138">
        <ele>17.209</ele>
        <time>2024-03-21T11:54:44Z</time>
      </trkpt>
      <trkpt lat="28.089396" lon="-14.284216">
        <ele>17.296</ele>
        <time>2024-03-21T11:55:33Z</time>
      </trkpt>
      <trkpt lat="28.088717" lon="-14.284718">
        <ele>25.271</ele>
        <time>2024-03-21T11:56:43Z</time>
      </trkpt>
      <trkpt lat="28.089230" lon="-14.285627">
        <ele>41.120</ele>
        <time>2024-03-21T12:00:10Z</time>
      </trkpt>
      <trkpt lat="28.089468" lon="-14.286378">
        <ele>48.941</ele>
        <time>2024-03-21T12:01:32Z</time>
      </trkpt>
      <trkpt lat="28.088038" lon="-14.287595">
        <ele>41.462</ele>
        <time>2024-03-21T12:04:25Z</time>
      </trkpt>
      <trkpt lat="28.087895" lon="-14.287922">
        <ele>34.452</ele>
        <time>2024-03-21T12:05:03Z</time>
      </trkpt>
      <trkpt lat="28.088013" lon="-14.288156">
        <ele>32.676</ele>
        <time>2024-03-21T12:05:30Z</time>
      </trkpt>
      <trkpt lat="28.086438" lon="-14.287058">
        <ele>24.494</ele>
        <time>2024-03-21T12:09:00Z</time>
      </trkpt>
      <trkpt lat="28.086074" lon="-14.286425">
        <ele>20.431</ele>
        <time>2024-03-21T12:10:46Z</time>
      </trkpt>
      <trkpt lat="28.084665" lon="-14.286529">
        <ele>5.568</ele>
        <time>2024-03-21T12:13:48Z</time>
      </trkpt>
      <trkpt lat="28.084255" lon="-14.287717">
        <ele>14.942</ele>
        <time>2024-03-21T12:16:55Z</time>
      </trkpt>
      <trkpt lat="28.084324" lon="-14.288292">
        <ele>23.626</ele>
        <time>2024-03-21T12:18:04Z</time>
      </trkpt>
      <trkpt lat="28.084121" lon="-14.289693">
        <ele>33.009</ele>
        <time>2024-03-21T12:20:18Z</time>
      </trkpt>
      <trkpt lat="28.083337" lon="-14.290211">
        <ele>19.247</ele>
        <time>2024-03-21T12:22:32Z</time>
      </trkpt>
      <trkpt lat="28.083166" lon="-14.290486">
        <ele>19.112</ele>
        <time>2024-03-21T12:24:42Z</time>
      </trkpt>
      <trkpt lat="28.082588" lon="-14.290404">
        <ele>9.451</ele>
        <time>2024-03-21T12:35:14Z</time>
      </trkpt>
      <trkpt lat="28.080523" lon="-14.293119">
        <ele>11.162</ele>
        <time>2024-03-21T12:42:02Z</time>
      </trkpt>
      <trkpt lat="28.080499" lon="-14.293889">
        <ele>23.063</ele>
        <time>2024-03-21T12:45:05Z</time>
      </trkpt>
      <trkpt lat="28.078861" lon="-14.295384">
        <ele>23.943</ele>
        <time>2024-03-21T12:50:05Z</time>
      </trkpt>
      <trkpt lat="28.077835" lon="-14.296112">
        <ele>6.967</ele>
        <time>2024-03-21T12:53:10Z</time>
      </trkpt>
      <trkpt lat="28.077566" lon="-14.297084">
        <ele>7.995</ele>
        <time>2024-03-21T12:55:19Z</time>
      </trkpt>
      <trkpt lat="28.077506" lon="-14.298170">
        <ele>22.212</ele>
        <time>2024-03-21T12:57:44Z</time>
      </trkpt>
      <trkpt lat="28.078197" lon="-14.299006">
        <ele>36.881</ele>
        <time>2024-03-21T13:00:12Z</time>
      </trkpt>
      <trkpt lat="28.076397" lon="-14.300610">
        <ele>47.061</ele>
        <time>2024-03-21T13:04:47Z</time>
      </trkpt>
      <trkpt lat="28.075843" lon="-14.300064">
        <ele>31.517</ele>
        <time>2024-03-21T13:06:38Z</time>
      </trkpt>
      <trkpt lat="28.075329" lon="-14.300752">
        <ele>26.309</ele>
        <time>2024-03-21T13:08:05Z</time>
      </trkpt>
      <trkpt lat="28.075166" lon="-14.301861">
        <ele>36.159</ele>
        <time>2024-03-21T13:09:47Z</time>
      </trkpt>
      <trkpt lat="28.074589" lon="-14.302217">
        <ele>28.754</ele>
        <time>2024-03-21T13:10:35Z</time>
      </trkpt>
      <trkpt lat="28.074426" lon="-14.302692">
        <ele>28.513</ele>
        <time>2024-03-21T13:11:22Z</time>
      </trkpt>
      <trkpt lat="28.074193" lon="-14.302934">
        <ele>23.814</ele>
        <time>2024-03-21T13:11:56Z</time>
      </trkpt>
      <trkpt lat="28.074259" lon="-14.303135">
        <ele>24.415</ele>
        <time>2024-03-21T13:12:07Z</time>
      </trkpt>
      <trkpt lat="28.074599" lon="-14.303257">
        <ele>31.455</ele>
        <time>2024-03-21T13:12:56Z</time>
      </trkpt>
      <trkpt lat="28.074399" lon="-14.303427">
        <ele>26.489</ele>
        <time>2024-03-21T13:13:33Z</time>
      </trkpt>
      <trkpt lat="28.074439" lon="-14.303659">
        <ele>26.247</ele>
        <time>2024-03-21T13:14:57Z</time>
      </trkpt>
      <trkpt lat="28.074117" lon="-14.303763">
        <ele>19.574</ele>
        <time>2024-03-21T13:16:02Z</time>
      </trkpt>
      <trkpt lat="28.074164" lon="-14.304088">
        <ele>20.424</ele>
        <time>2024-03-21T13:16:31Z</time>
      </trkpt>
      <trkpt lat="28.073997" lon="-14.304124">
        <ele>19.604</ele>
        <time>2024-03-21T13:16:47Z</time>
      </trkpt>
      <trkpt lat="28.073955" lon="-14.304379">
        <ele>21.914</ele>
        <time>2024-03-21T13:17:16Z</time>
      </trkpt>
      <trkpt lat="28.073493" lon="-14.304113">
        <ele>20.409</ele>
        <time>2024-03-21T13:18:05Z</time>
      </trkpt>
      <trkpt lat="28.072808" lon="-14.304140">
        <ele>17.673</ele>
        <time>2024-03-21T13:19:19Z</time>
      </trkpt>
      <trkpt lat="28.072073" lon="-14.305034">
        <ele>26.638</ele>
        <time>2024-03-21T13:21:16Z</time>
      </trkpt>
      <trkpt lat="28.071670" lon="-14.305235">
        <ele>26.077</ele>
        <time>2024-03-21T13:22:04Z</time>
      </trkpt>
      <trkpt lat="28.070965" lon="-14.305268">
        <ele>20.088</ele>
        <time>2024-03-21T13:23:14Z</time>
      </trkpt>
      <trkpt lat="28.070823" lon="-14.306031">
        <ele>29.139</ele>
        <time>2024-03-21T13:24:08Z</time>
      </trkpt>
      <trkpt lat="28.070047" lon="-14.305597">
        <ele>16.159</ele>
        <time>2024-03-21T13:25:36Z</time>
      </trkpt>
      <trkpt lat="28.069541" lon="-14.305930">
        <ele>13.553</ele>
        <time>2024-03-21T13:26:34Z</time>
      </trkpt>
      <trkpt lat="28.068723" lon="-14.305889">
        <ele>7.871</ele>
        <time>2024-03-21T13:29:04Z</time>
      </trkpt>
      <trkpt lat="28.068107" lon="-14.306292">
        <ele>10.318</ele>
        <time>2024-03-21T13:36:03Z</time>
      </trkpt>
      <trkpt lat="28.067791" lon="-14.306307">
        <ele>11.049</ele>
        <time>2024-03-21T13:37:27Z</time>
      </trkpt>
      <trkpt lat="28.064871" lon="-14.309171">
        <ele>13.302</ele>
        <time>2024-03-21T13:44:03Z</time>
      </trkpt>
      <trkpt lat="28.064591" lon="-14.309598">
        <ele>15.622</ele>
        <time>2024-03-21T13:45:09Z</time>
      </trkpt>
      <trkpt lat="28.063983" lon="-14.309865">
        <ele>11.009</ele>
        <time>2024-03-21T13:46:30Z</time>
      </trkpt>
      <trkpt lat="28.061186" lon="-14.312948">
        <ele>9.995</ele>
        <time>2024-03-21T13:55:37Z</time>
      </trkpt>
      <trkpt lat="28.060917" lon="-14.314227">
        <ele>22.050</ele>
        <time>2024-03-21T13:58:31Z</time>
      </trkpt>
      <trkpt lat="28.060890" lon="-14.316423">
        <ele>39.859</ele>
        <time>2024-03-21T14:01:42Z</time>
      </trkpt>
      <trkpt lat="28.061199" lon="-14.317487">
        <ele>47.570</ele>
        <time>2024-03-21T14:03:22Z</time>
      </trkpt>
      <trkpt lat="28.060200" lon="-14.317965">
        <ele>40.621</ele>
        <time>2024-03-21T14:05:18Z</time>
      </trkpt>
      <trkpt lat="28.060078" lon="-14.318827">
        <ele>37.591</ele>
        <time>2024-03-21T14:06:31Z</time>
      </trkpt>
      <trkpt lat="28.060315" lon="-14.319323">
        <ele>38.735</ele>
        <time>2024-03-21T14:07:18Z</time>
      </trkpt>
      <trkpt lat="28.060215" lon="-14.319423">
        <ele>37.513</ele>
        <time>2024-03-21T14:07:33Z</time>
      </trkpt>
      <trkpt lat="28.059003" lon="-14.319206">
        <ele>31.880</ele>
        <time>2024-03-21T14:09:19Z</time>
      </trkpt>
      <trkpt lat="28.058451" lon="-14.318914">
        <ele>29.597</ele>
        <time>2024-03-21T14:10:15Z</time>
      </trkpt>
      <trkpt lat="28.057597" lon="-14.317116">
        <ele>20.423</ele>
        <time>2024-03-21T14:12:53Z</time>
      </trkpt>
      <trkpt lat="28.056672" lon="-14.317039">
        <ele>11.625</ele>
        <time>2024-03-21T14:14:17Z</time>
      </trkpt>
      <trkpt lat="28.056294" lon="-14.316855">
        <ele>7.709</ele>
        <time>2024-03-21T14:15:27Z</time>
      </trkpt>
      <trkpt lat="28.055695" lon="-14.318532">
        <ele>13.330</ele>
        <time>2024-03-21T14:18:25Z</time>
      </trkpt>
      <trkpt lat="28.055668" lon="-14.319198">
        <ele>15.735</ele>
        <time>2024-03-21T14:19:10Z</time>
      </trkpt>
      <trkpt lat="28.055048" lon="-14.320260">
        <ele>14.584</ele>
        <time>2024-03-21T14:20:42Z</time>
      </trkpt>
      <trkpt lat="28.054576" lon="-14.320632">
        <ele>11.685</ele>
        <time>2024-03-21T14:22:06Z</time>
      </trkpt>
      <trkpt lat="28.054292" lon="-14.322119">
        <ele>8.426</ele>
        <time>2024-03-21T14:24:09Z</time>
      </trkpt>
      <trkpt lat="28.052911" lon="-14.323181">
        <ele>7.916</ele>
        <time>2024-03-21T14:26:37Z</time>
      </trkpt>
      <trkpt lat="28.052534" lon="-14.323675">
        <ele>6.690</ele>
        <time>2024-03-21T14:27:25Z</time>
      </trkpt>
      <trkpt lat="28.049757" lon="-14.329137">
        <ele>10.378</ele>
        <time>2024-03-21T14:35:33Z</time>
      </trkpt>
      <trkpt lat="28.048409" lon="-14.335269">
        <ele>8.675</ele>
        <time>2024-03-21T14:44:45Z</time>
      </trkpt>
      <trkpt lat="28.048471" lon="-14.337354">
        <ele>8.517</ele>
        <time>2024-03-21T14:47:28Z</time>
      </trkpt>
      <trkpt lat="28.048375" lon="-14.337701">
        <ele>8.187</ele>
        <time>2024-03-21T14:47:56Z</time>
      </trkpt>
      <trkpt lat="28.048568" lon="-14.339145">
        <ele>11.515</ele>
        <time>2024-03-21T14:49:43Z</time>
      </trkpt>
      <trkpt lat="28.048238" lon="-14.339588">
        <ele>8.209</ele>
        <time>2024-03-21T14:50:27Z</time>
      </trkpt>
      <trkpt lat="28.046928" lon="-14.340288">
        <ele>6.362</ele>
        <time>2024-03-21T14:52:33Z</time>
      </trkpt>
      <trkpt lat="28.048709" lon="-14.346420">
        <ele>28.777</ele>
        <time>2024-03-21T15:00:59Z</time>
      </trkpt>
      <trkpt lat="28.049349" lon="-14.347943">
        <ele>32.476</ele>
        <time>2024-03-21T15:03:11Z</time>
      </trkpt>
      <trkpt lat="28.049511" lon="-14.349352">
        <ele>22.657</ele>
        <time>2024-03-21T15:04:42Z</time>
      </trkpt>
      <trkpt lat="28.049404" lon="-14.350158">
        <ele>20.188</ele>
        <time>2024-03-21T15:06:21Z</time>
      </trkpt>
      <trkpt lat="28.049639" lon="-14.352000">
        <ele>10.948</ele>
        <time>2024-03-21T15:09:25Z</time>
      </trkpt>
      <trkpt lat="28.049465" lon="-14.353127">
        <ele>16.562</ele>
        <time>2024-03-21T15:11:42Z</time>
      </trkpt>
      <trkpt lat="28.049636" lon="-14.353497">
        <ele>22.810</ele>
        <time>2024-03-21T15:12:42Z</time>
      </trkpt>
      <trkpt lat="28.049366" lon="-14.353411">
        <ele>18.317</ele>
        <time>2024-03-21T15:13:15Z</time>
      </trkpt>
      <trkpt lat="28.049415" lon="-14.353820">
        <ele>24.031</ele>
        <time>2024-03-21T15:14:00Z</time>
      </trkpt>
      <trkpt lat="28.049614" lon="-14.353962">
        <ele>28.361</ele>
        <time>2024-03-21T15:14:59Z</time>
      </trkpt>
      <trkpt lat="28.049431" lon="-14.354402">
        <ele>28.207</ele>
        <time>2024-03-21T15:15:43Z</time>
      </trkpt>
      <trkpt lat="28.050119" lon="-14.354687">
        <ele>39.109</ele>
        <time>2024-03-21T15:16:56Z</time>
      </trkpt>
      <trkpt lat="28.050876" lon="-14.356267">
        <ele>35.734</ele>
        <time>2024-03-21T15:19:13Z</time>
      </trkpt>
      <trkpt lat="28.051545" lon="-14.356531">
        <ele>35.429</ele>
        <time>2024-03-21T15:21:18Z</time>
      </trkpt>
    </trkseg>
  </trk></gpx>