<?xml version="1.0" encoding="UTF-8"?>
<gpx creator="Wikiloc - https://www.wikiloc.com" version="1.1" xmlns="http://www.topografix.com/GPX/1/1" xmlns:xsi="http://www.w3.org/2001/XMLSchema-instance" xsi:schemaLocation="http://www.topografix.com/GPX/1/1 http://www.topografix.com/GPX/1/1/gpx.xsd">
  <metadata>
    <name>Wikiloc - GRAN CANARIA. Tejeda. Circular por el Monumento Natural del ...</name>
    <link href="https://www.wikiloc.com/hiking-trails/gran-canaria-tejeda-circular-por-el-monumento-natural-del-roque-nublo-108759022">
      <text>GRAN CANARIA. Tejeda. Circular por el Monumento Natural del ... on Wikiloc</text>
    </link>
    <time>2022-07-24T21:17:31Z</time>
  </metadata>
  <trk>
    <name>GRAN CANARIA. Tejeda. Circular por el Monumento Natural del ... - Wikiloc</name>
    <cmt></cmt>
    <desc></desc>
    <trkseg>
      <trkpt lat="27.976497" lon="-15.600284">
        <ele>1222.785</ele>
        <time>2022-07-24T12:18:57Z</time>
      </trkpt>
      <trkpt lat="27.976617" lon="-15.600218">
        <ele>1221.489</ele>
        <time>2022-07-24T12:21:35Z</time>
      </trkpt>
      <trkpt lat="27.976776" lon="-15.600311">
        <ele>1223.017</ele>
        <time>2022-07-24T12:22:33Z</time>
      </trkpt>
      <trkpt lat="27.976570" lon="-15.600003">
        <ele>1225.609</ele>
        <time>2022-07-24T12:25:47Z</time>
      </trkpt>
      <trkpt lat="27.975984" lon="-15.599807">
        <ele>1227.829</ele>
        <time>2022-07-24T12:27:30Z</time>
      </trkpt>
      <trkpt lat="27.975533" lon="-15.599820">
        <ele>1232.728</ele>
        <time>2022-07-24T12:28:23Z</time>
      </trkpt>
      <trkpt lat="27.975361" lon="-15.599711">
        <ele>1233.956</ele>
        <time>2022-07-24T12:28:42Z</time>
      </trkpt>
      <trkpt lat="27.975406" lon="-15.599669">
        <ele>1235.485</ele>
        <time>2022-07-24T12:31:35Z</time>
      </trkpt>
      <trkpt lat="27.975119" lon="-15.599649">
        <ele>1235.083</ele>
        <time>2022-07-24T12:32:37Z</time>
      </trkpt>
      <trkpt lat="27.974808" lon="-15.599205">
        <ele>1243.987</ele>
        <time>2022-07-24T12:35:07Z</time>
      </trkpt>
      <trkpt lat="27.974618" lon="-15.599341">
        <ele>1242.418</ele>
        <time>2022-07-24T12:36:09Z</time>
      </trkpt>
      <trkpt lat="27.974325" lon="-15.599132">
        <ele>1235.310</ele>
        <time>2022-07-24T12:42:38Z</time>
      </trkpt>
      <trkpt lat="27.974183" lon="-15.599166">
        <ele>1236.220</ele>
        <time>2022-07-24T12:42:53Z</time>
      </trkpt>
      <trkpt lat="27.974202" lon="-15.599384">
        <ele>1237.275</ele>
        <time>2022-07-24T12:43:17Z</time>
      </trkpt>
      <trkpt lat="27.973915" lon="-15.599710">
        <ele>1246.828</ele>
        <time>2022-07-24T12:46:33Z</time>
      </trkpt>
      <trkpt lat="27.973602" lon="-15.599691">
        <ele>1255.120</ele>
        <time>2022-07-24T12:54:03Z</time>
      </trkpt>
      <trkpt lat="27.973429" lon="-15.599437">
        <ele>1258.109</ele>
        <time>2022-07-24T12:54:33Z</time>
      </trkpt>
      <trkpt lat="27.973142" lon="-15.599456">
        <ele>1265.128</ele>
        <time>2022-07-24T12:55:19Z</time>
      </trkpt>
      <trkpt lat="27.972860" lon="-15.599603">
        <ele>1276.157</ele>
        <time>2022-07-24T12:57:48Z</time>
      </trkpt>
      <trkpt lat="27.972806" lon="-15.599738">
        <ele>1278.545</ele>
        <time>2022-07-24T12:59:12Z</time>
      </trkpt>
      <trkpt lat="27.972568" lon="-15.599909">
        <ele>1284.844</ele>
        <time>2022-07-24T13:07:55Z</time>
      </trkpt>
      <trkpt lat="27.972473" lon="-15.599934">
        <ele>1285.932</ele>
        <time>2022-07-24T13:08:15Z</time>
      </trkpt>
      <trkpt lat="27.972409" lon="-15.599840">
        <ele>1290.336</ele>
        <time>2022-07-24T13:08:49Z</time>
      </trkpt>
      <trkpt lat="27.972110" lon="-15.599974">
        <ele>1298.557</ele>
        <time>2022-07-24T13:10:35Z</time>
      </trkpt>
      <trkpt lat="27.972053" lon="-15.599890">
        <ele>1298.869</ele>
        <time>2022-07-24T13:10:49Z</time>
      </trkpt>
      <trkpt lat="27.971936" lon="-15.599948">
        <ele>1300.859</ele>
        <time>2022-07-24T13:11:11Z</time>
      </trkpt>
      <trkpt lat="27.971903" lon="-15.599795">
        <ele>1305.913</ele>
        <time>2022-07-24T13:12:14Z</time>
      </trkpt>
      <trkpt lat="27.971772" lon="-15.599790">
        <ele>1308.943</ele>
        <time>2022-07-24T13:13:59Z</time>
      </trkpt>
      <trkpt lat="27.971808" lon="-15.599634">
        <ele>1313.407</ele>
        <time>2022-07-24T13:16:13Z</time>
      </trkpt>
      <trkpt lat="27.971506" lon="-15.599730">
        <ele>1319.109</ele>
        <time>2022-07-24T13:17:33Z</time>
      </trkpt>
      <trkpt lat="27.971613" lon="-15.599559">
        <ele>1323.752</ele>
        <time>2022-07-24T13:22:12Z</time>
      </trkpt>
      <trkpt lat="27.971516" lon="-15.599627">
        <ele>1327.621</ele>
        <time>2022-07-24T13:24:13Z</time>
      </trkpt>
      <trkpt lat="27.971391" lon="-15.599486">
        <ele>1329.919</ele>
        <time>2022-07-24T13:26:34Z</time>
      </trkpt>
      <trkpt lat="27.971216" lon="-15.599593">
        <ele>1334.828</ele>
        <time>2022-07-24T13:31:40Z</time>
      </trkpt>
      <trkpt lat="27.970986" lon="-15.599974">
        <ele>1343.036</ele>
        <time>2022-07-24T13:37:51Z</time>
      </trkpt>
      <trkpt lat="27.971103" lon="-15.599871">
        <ele>1345.470</ele>
        <time>2022-07-24T13:39:22Z</time>
      </trkpt>
      <trkpt lat="27.971026" lon="-15.599691">
        <ele>1343.121</ele>
        <time>2022-07-24T13:40:54Z</time>
      </trkpt>
      <trkpt lat="27.971074" lon="-15.599491">
        <ele>1348.643</ele>
        <time>2022-07-24T13:43:43Z</time>
      </trkpt>
      <trkpt lat="27.971283" lon="-15.599196">
        <ele>1355.023</ele>
        <time>2022-07-24T13:45:36Z</time>
      </trkpt>
      <trkpt lat="27.971243" lon="-15.599223">
        <ele>1357.895</ele>
        <time>2022-07-24T13:49:36Z</time>
      </trkpt>
      <trkpt lat="27.971163" lon="-15.599057">
        <ele>1360.249</ele>
        <time>2022-07-24T13:50:41Z</time>
      </trkpt>
      <trkpt lat="27.971105" lon="-15.599134">
        <ele>1361.723</ele>
        <time>2022-07-24T14:01:44Z</time>
      </trkpt>
      <trkpt lat="27.970961" lon="-15.599118">
        <ele>1362.409</ele>
        <time>2022-07-24T14:02:19Z</time>
      </trkpt>
      <trkpt lat="27.970694" lon="-15.599242">
        <ele>1368.440</ele>
        <time>2022-07-24T14:05:01Z</time>
      </trkpt>
      <trkpt lat="27.970606" lon="-15.599478">
        <ele>1372.529</ele>
        <time>2022-07-24T14:05:31Z</time>
      </trkpt>
      <trkpt lat="27.970528" lon="-15.599409">
        <ele>1374.117</ele>
        <time>2022-07-24T14:05:45Z</time>
      </trkpt>
      <trkpt lat="27.970334" lon="-15.599476">
        <ele>1381.066</ele>
        <time>2022-07-24T14:11:41Z</time>
      </trkpt>
      <trkpt lat="27.970348" lon="-15.599575">
        <ele>1381.184</ele>
        <time>2022-07-24T14:12:04Z</time>
      </trkpt>
      <trkpt lat="27.970254" lon="-15.599573">
        <ele>1383.798</ele>
        <time>2022-07-24T14:14:37Z</time>
      </trkpt>
      <trkpt lat="27.970091" lon="-15.600093">
        <ele>1391.549</ele>
        <time>2022-07-24T14:20:20Z</time>
      </trkpt>
      <trkpt lat="27.969741" lon="-15.600277">
        <ele>1397.261</ele>
        <time>2022-07-24T14:22:24Z</time>
      </trkpt>
      <trkpt lat="27.969589" lon="-15.600481">
        <ele>1399.031</ele>
        <time>2022-07-24T14:23:47Z</time>
      </trkpt>
      <trkpt lat="27.969453" lon="-15.600511">
        <ele>1401.283</ele>
        <time>2022-07-24T14:24:44Z</time>
      </trkpt>
      <trkpt lat="27.969488" lon="-15.600246">
        <ele>1404.525</ele>
        <time>2022-07-24T14:26:01Z</time>
      </trkpt>
      <trkpt lat="27.969282" lon="-15.600353">
        <ele>1414.417</ele>
        <time>2022-07-24T14:30:22Z</time>
      </trkpt>
      <trkpt lat="27.969357" lon="-15.600238">
        <ele>1417.909</ele>
        <time>2022-07-24T14:32:57Z</time>
      </trkpt>
      <trkpt lat="27.969241" lon="-15.600287">
        <ele>1420.039</ele>
        <time>2022-07-24T14:33:29Z</time>
      </trkpt>
      <trkpt lat="27.969220" lon="-15.600168">
        <ele>1421.938</ele>
        <time>2022-07-24T14:36:10Z</time>
      </trkpt>
      <trkpt lat="27.968923" lon="-15.600503">
        <ele>1427.766</ele>
        <time>2022-07-24T14:37:28Z</time>
      </trkpt>
      <trkpt lat="27.968852" lon="-15.600695">
        <ele>1433.585</ele>
        <time>2022-07-24T14:41:12Z</time>
      </trkpt>
      <trkpt lat="27.968761" lon="-15.600692">
        <ele>1435.463</ele>
        <time>2022-07-24T14:44:26Z</time>
      </trkpt>
      <trkpt lat="27.968641" lon="-15.600475">
        <ele>1440.017</ele>
        <time>2022-07-24T14:49:16Z</time>
      </trkpt>
      <trkpt lat="27.968657" lon="-15.600564">
        <ele>1442.998</ele>
        <time>2022-07-24T14:51:29Z</time>
      </trkpt>
      <trkpt lat="27.968521" lon="-15.600583">
        <ele>1447.450</ele>
        <time>2022-07-24T14:52:26Z</time>
      </trkpt>
      <trkpt lat="27.968519" lon="-15.600660">
        <ele>1449.570</ele>
        <time>2022-07-24T14:53:57Z</time>
      </trkpt>
      <trkpt lat="27.968145" lon="-15.600709">
        <ele>1451.625</ele>
        <time>2022-07-24T14:58:52Z</time>
      </trkpt>
      <trkpt lat="27.968021" lon="-15.600554">
        <ele>1452.726</ele>
        <time>2022-07-24T14:59:28Z</time>
      </trkpt>
      <trkpt lat="27.967888" lon="-15.600597">
        <ele>1451.008</ele>
        <time>2022-07-24T14:59:47Z</time>
      </trkpt>
      <trkpt lat="27.967872" lon="-15.600731">
        <ele>1453.609</ele>
        <time>2022-07-24T15:00:30Z</time>
      </trkpt>
      <trkpt lat="27.967750" lon="-15.600652">
        <ele>1456.063</ele>
        <time>2022-07-24T15:00:50Z</time>
      </trkpt>
      <trkpt lat="27.967721" lon="-15.600497">
        <ele>1459.752</ele>
        <time>2022-07-24T15:01:15Z</time>
      </trkpt>
      <trkpt lat="27.967632" lon="-15.600561">
        <ele>1463.560</ele>
        <time>2022-07-24T15:02:56Z</time>
      </trkpt>
      <trkpt lat="27.967571" lon="-15.600419">
        <ele>1467.499</ele>
        <time>2022-07-24T15:04:43Z</time>
      </trkpt>
      <trkpt lat="27.967497" lon="-15.600663">
        <ele>1471.647</ele>
        <time>2022-07-24T15:06:18Z</time>
      </trkpt>
      <trkpt lat="27.967565" lon="-15.600878">
        <ele>1471.751</ele>
        <time>2022-07-24T15:07:03Z</time>
      </trkpt>
      <trkpt lat="27.967405" lon="-15.600819">
        <ele>1473.832</ele>
        <time>2022-07-24T15:07:25Z</time>
      </trkpt>
      <trkpt lat="27.967412" lon="-15.600875">
        <ele>1474.854</ele>
        <time>2022-07-24T15:07:32Z</time>
      </trkpt>
      <trkpt lat="27.967610" lon="-15.601318">
        <ele>1485.424</ele>
        <time>2022-07-24T15:10:26Z</time>
      </trkpt>
      <trkpt lat="27.967891" lon="-15.601312">
        <ele>1489.759</ele>
        <time>2022-07-24T15:12:14Z</time>
      </trkpt>
      <trkpt lat="27.967431" lon="-15.601267">
        <ele>1491.803</ele>
        <time>2022-07-24T15:17:18Z</time>
      </trkpt>
      <trkpt lat="27.967312" lon="-15.601326">
        <ele>1496.223</ele>
        <time>2022-07-24T15:18:34Z</time>
      </trkpt>
      <trkpt lat="27.967255" lon="-15.601246">
        <ele>1498.109</ele>
        <time>2022-07-24T15:19:18Z</time>
      </trkpt>
      <trkpt lat="27.967122" lon="-15.601424">
        <ele>1505.876</ele>
        <time>2022-07-24T15:22:53Z</time>
      </trkpt>
      <trkpt lat="27.967030" lon="-15.601438">
        <ele>1508.635</ele>
        <time>2022-07-24T15:23:20Z</time>
      </trkpt>
      <trkpt lat="27.966943" lon="-15.601280">
        <ele>1516.033</ele>
        <time>2022-07-24T15:24:26Z</time>
      </trkpt>
      <trkpt lat="27.966758" lon="-15.601188">
        <ele>1519.542</ele>
        <time>2022-07-24T15:25:45Z</time>
      </trkpt>
      <trkpt lat="27.966725" lon="-15.601348">
        <ele>1520.420</ele>
        <time>2022-07-24T15:26:22Z</time>
      </trkpt>
      <trkpt lat="27.966646" lon="-15.601367">
        <ele>1524.274</ele>
        <time>2022-07-24T15:26:50Z</time>
      </trkpt>
      <trkpt lat="27.966679" lon="-15.601515">
        <ele>1529.265</ele>
        <time>2022-07-24T15:27:50Z</time>
      </trkpt>
      <trkpt lat="27.966551" lon="-15.601443">
        <ele>1531.187</ele>
        <time>2022-07-24T15:28:11Z</time>
      </trkpt>
      <trkpt lat="27.966481" lon="-15.601518">
        <ele>1535.787</ele>
        <time>2022-07-24T15:28:43Z</time>
      </trkpt>
      <trkpt lat="27.966248" lon="-15.601538">
        <ele>1545.613</ele>
        <time>2022-07-24T15:30:35Z</time>
      </trkpt>
      <trkpt lat="27.966074" lon="-15.601448">
        <ele>1548.443</ele>
        <time>2022-07-24T15:31:03Z</time>
      </trkpt>
      <trkpt lat="27.966164" lon="-15.601601">
        <ele>1553.907</ele>
        <time>2022-07-24T15:31:46Z</time>
      </trkpt>
      <trkpt lat="27.965863" lon="-15.601627">
        <ele>1560.309</ele>
        <time>2022-07-24T15:33:24Z</time>
      </trkpt>
      <trkpt lat="27.965826" lon="-15.601815">
        <ele>1566.522</ele>
        <time>2022-07-24T15:34:09Z</time>
      </trkpt>
      <trkpt lat="27.965761" lon="-15.601630">
        <ele>1566.481</ele>
        <time>2022-07-24T15:36:22Z</time>
      </trkpt>
      <trkpt lat="27.965903" lon="-15.601734">
        <ele>1567.079</ele>
        <time>2022-07-24T15:37:45Z</time>
      </trkpt>
      <trkpt lat="27.965762" lon="-15.601726">
        <ele>1568.918</ele>
        <time>2022-07-24T16:11:06Z</time>
      </trkpt>
      <trkpt lat="27.965665" lon="-15.601486">
        <ele>1569.086</ele>
        <time>2022-07-24T16:11:33Z</time>
      </trkpt>
      <trkpt lat="27.965792" lon="-15.601532">
        <ele>1569.410</ele>
        <time>2022-07-24T16:11:48Z</time>
      </trkpt>
      <trkpt lat="27.965738" lon="-15.601618">
        <ele>1569.631</ele>
        <time>2022-07-24T16:12:14Z</time>
      </trkpt>
      <trkpt lat="27.966188" lon="-15.602572">
        <ele>1571.043</ele>
        <time>2022-07-24T16:15:10Z</time>
      </trkpt>
      <trkpt lat="27.966935" lon="-15.603436">
        <ele>1578.483</ele>
        <time>2022-07-24T16:19:23Z</time>
      </trkpt>
      <trkpt lat="27.967022" lon="-15.604068">
        <ele>1582.121</ele>
        <time>2022-07-24T16:20:16Z</time>
      </trkpt>
      <trkpt lat="27.967274" lon="-15.604372">
        <ele>1583.341</ele>
        <time>2022-07-24T16:20:50Z</time>
      </trkpt>
      <trkpt lat="27.967254" lon="-15.604484">
        <ele>1582.905</ele>
        <time>2022-07-24T16:21:05Z</time>
      </trkpt>
      <trkpt lat="27.967576" lon="-15.605218">
        <ele>1587.709</ele>
        <time>2022-07-24T16:22:23Z</time>
      </trkpt>
      <trkpt lat="27.967733" lon="-15.605339">
        <ele>1591.753</ele>
        <time>2022-07-24T16:24:16Z</time>
      </trkpt>
      <trkpt lat="27.968000" lon="-15.605868">
        <ele>1599.942</ele>
        <time>2022-07-24T16:25:22Z</time>
      </trkpt>
      <trkpt lat="27.968187" lon="-15.606547">
        <ele>1609.040</ele>
        <time>2022-07-24T16:28:57Z</time>
      </trkpt>
      <trkpt lat="27.968328" lon="-15.606777">
        <ele>1610.379</ele>
        <time>2022-07-24T16:30:38Z</time>
      </trkpt>
      <trkpt lat="27.968253" lon="-15.607298">
        <ele>1623.617</ele>
        <time>2022-07-24T16:33:09Z</time>
      </trkpt>
      <trkpt lat="27.968187" lon="-15.607264">
        <ele>1628.031</ele>
        <time>2022-07-24T16:33:48Z</time>
      </trkpt>
      <trkpt lat="27.968166" lon="-15.607419">
        <ele>1629.652</ele>
        <time>2022-07-24T16:35:10Z</time>
      </trkpt>
      <trkpt lat="27.968421" lon="-15.607747">
        <ele>1636.234</ele>
        <time>2022-07-24T16:36:23Z</time>
      </trkpt>
      <trkpt lat="27.968519" lon="-15.608072">
        <ele>1638.724</ele>
        <time>2022-07-24T16:36:58Z</time>
      </trkpt>
      <trkpt lat="27.968298" lon="-15.608446">
        <ele>1646.993</ele>
        <time>2022-07-24T16:40:02Z</time>
      </trkpt>
      <trkpt lat="27.968175" lon="-15.608522">
        <ele>1649.465</ele>
        <time>2022-07-24T16:40:22Z</time>
      </trkpt>
      <trkpt lat="27.968152" lon="-15.608787">
        <ele>1653.521</ele>
        <time>2022-07-24T16:41:12Z</time>
      </trkpt>
      <trkpt lat="27.967951" lon="-15.608693">
        <ele>1660.409</ele>
        <time>2022-07-24T16:43:13Z</time>
      </trkpt>
      <trkpt lat="27.968005" lon="-15.608450">
        <ele>1662.030</ele>
        <time>2022-07-24T16:44:40Z</time>
      </trkpt>
      <trkpt lat="27.967994" lon="-15.608723">
        <ele>1665.379</ele>
        <time>2022-07-24T16:46:33Z</time>
      </trkpt>
      <trkpt lat="27.968101" lon="-15.608722">
        <ele>1662.387</ele>
        <time>2022-07-24T16:47:31Z</time>
      </trkpt>
      <trkpt lat="27.968207" lon="-15.608858">
        <ele>1659.546</ele>
        <time>2022-07-24T16:48:34Z</time>
      </trkpt>
      <trkpt lat="27.968180" lon="-15.609053">
        <ele>1657.344</ele>
        <time>2022-07-24T16:49:21Z</time>
      </trkpt>
      <trkpt lat="27.968298" lon="-15.609354">
        <ele>1661.938</ele>
        <time>2022-07-24T16:50:01Z</time>
      </trkpt>
      <trkpt lat="27.968274" lon="-15.609850">
        <ele>1666.349</ele>
        <time>2022-07-24T16:51:34Z</time>
      </trkpt>
      <trkpt lat="27.968376" lon="-15.610058">
        <ele>1671.931</ele>
        <time>2022-07-24T16:52:31Z</time>
      </trkpt>
      <trkpt lat="27.968004" lon="-15.610097">
        <ele>1680.631</ele>
        <time>2022-07-24T16:53:44Z</time>
      </trkpt>
      <trkpt lat="27.968027" lon="-15.610314">
        <ele>1687.959</ele>
        <time>2022-07-24T16:58:30Z</time>
      </trkpt>
      <trkpt lat="27.968219" lon="-15.610362">
        <ele>1691.403</ele>
        <time>2022-07-24T16:58:56Z</time>
      </trkpt>
      <trkpt lat="27.968298" lon="-15.610500">
        <ele>1690.623</ele>
        <time>2022-07-24T16:59:14Z</time>
      </trkpt>
      <trkpt lat="27.968349" lon="-15.610285">
        <ele>1694.309</ele>
        <time>2022-07-24T17:00:49Z</time>
      </trkpt>
      <trkpt lat="27.968437" lon="-15.610399">
        <ele>1699.636</ele>
        <time>2022-07-24T17:01:55Z</time>
      </trkpt>
      <trkpt lat="27.968469" lon="-15.610346">
        <ele>1701.975</ele>
        <time>2022-07-24T17:04:27Z</time>
      </trkpt>
      <trkpt lat="27.968538" lon="-15.610420">
        <ele>1702.053</ele>
        <time>2022-07-24T17:05:29Z</time>
      </trkpt>
      <trkpt lat="27.968469" lon="-15.610341">
        <ele>1703.062</ele>
        <time>2022-07-24T17:06:32Z</time>
      </trkpt>
      <trkpt lat="27.968530" lon="-15.610366">
        <ele>1703.680</ele>
        <time>2022-07-24T17:07:23Z</time>
      </trkpt>
      <trkpt lat="27.968876" lon="-15.611204">
        <ele>1709.864</ele>
        <time>2022-07-24T17:11:05Z</time>
      </trkpt>
      <trkpt lat="27.969081" lon="-15.611332">
        <ele>1718.475</ele>
        <time>2022-07-24T17:13:02Z</time>
      </trkpt>
      <trkpt lat="27.969176" lon="-15.611523">
        <ele>1718.417</ele>
        <time>2022-07-24T17:17:54Z</time>
      </trkpt>
      <trkpt lat="27.969598" lon="-15.611914">
        <ele>1721.117</ele>
        <time>2022-07-24T17:20:47Z</time>
      </trkpt>
      <trkpt lat="27.969941" lon="-15.612087">
        <ele>1724.773</ele>
        <time>2022-07-24T17:22:20Z</time>
      </trkpt>
      <trkpt lat="27.970046" lon="-15.611972">
        <ele>1725.885</ele>
        <time>2022-07-24T17:23:22Z</time>
      </trkpt>
      <trkpt lat="27.970138" lon="-15.612475">
        <ele>1730.413</ele>
        <time>2022-07-24T17:27:07Z</time>
      </trkpt>
      <trkpt lat="27.970233" lon="-15.612452">
        <ele>1731.509</ele>
        <time>2022-07-24T17:27:20Z</time>
      </trkpt>
      <trkpt lat="27.970366" lon="-15.612621">
        <ele>1731.598</ele>
        <time>2022-07-24T17:29:12Z</time>
      </trkpt>
      <trkpt lat="27.970507" lon="-15.612617">
        <ele>1731.437</ele>
        <time>2022-07-24T17:34:56Z</time>
      </trkpt>
      <trkpt lat="27.970551" lon="-15.612515">
        <ele>1730.255</ele>
        <time>2022-07-24T17:35:22Z</time>
      </trkpt>
      <trkpt lat="27.970684" lon="-15.612542">
        <ele>1730.034</ele>
        <time>2022-07-24T17:35:54Z</time>
      </trkpt>
      <trkpt lat="27.970708" lon="-15.612394">
        <ele>1732.012</ele>
        <time>2022-07-24T17:36:15Z</time>
      </trkpt>
      <trkpt lat="27.970745" lon="-15.612466">
        <ele>1735.176</ele>
        <time>2022-07-24T17:37:07Z</time>
      </trkpt>
      <trkpt lat="27.970864" lon="-15.612391">
        <ele>1734.947</ele>
        <time>2022-07-24T17:38:59Z</time>
      </trkpt>
      <trkpt lat="27.970726" lon="-15.612445">
        <ele>1733.579</ele>
        <time>2022-07-24T17:43:16Z</time>
      </trkpt>
      <trkpt lat="27.970633" lon="-15.612630">
        <ele>1734.659</ele>
        <time>2022-07-24T17:44:48Z</time>
      </trkpt>
      <trkpt lat="27.970742" lon="-15.612785">
        <ele>1732.264</ele>
        <time>2022-07-24T17:46:05Z</time>
      </trkpt>
      <trkpt lat="27.970629" lon="-15.612675">
        <ele>1731.906</ele>
        <time>2022-07-24T17:49:19Z</time>
      </trkpt>
      <trkpt lat="27.970660" lon="-15.612556">
        <ele>1732.516</ele>
        <time>2022-07-24T17:50:06Z</time>
      </trkpt>
      <trkpt lat="27.970427" lon="-15.612645">
        <ele>1729.909</ele>
        <time>2022-07-24T17:52:43Z</time>
      </trkpt>
      <trkpt lat="27.970201" lon="-15.612511">
        <ele>1731.667</ele>
        <time>2022-07-24T17:53:37Z</time>
      </trkpt>
      <trkpt lat="27.970067" lon="-15.612313">
        <ele>1730.226</ele>
        <time>2022-07-24T17:54:39Z</time>
      </trkpt>
      <trkpt lat="27.969884" lon="-15.612466">
        <ele>1726.394</ele>
        <time>2022-07-24T17:55:21Z</time>
      </trkpt>
      <trkpt lat="27.969801" lon="-15.612412">
        <ele>1724.553</ele>
        <time>2022-07-24T17:55:37Z</time>
      </trkpt>
      <trkpt lat="27.969722" lon="-15.612217">
        <ele>1723.931</ele>
        <time>2022-07-24T17:56:07Z</time>
      </trkpt>
      <trkpt lat="27.969540" lon="-15.612137">
        <ele>1723.535</ele>
        <time>2022-07-24T17:56:39Z</time>
      </trkpt>
      <trkpt lat="27.969094" lon="-15.611352">
        <ele>1718.336</ele>
        <time>2022-07-24T17:58:56Z</time>
      </trkpt>
      <trkpt lat="27.968848" lon="-15.611195">
        <ele>1715.138</ele>
        <time>2022-07-24T17:59:51Z</time>
      </trkpt>
      <trkpt lat="27.968865" lon="-15.610960">
        <ele>1710.928</ele>
        <time>2022-07-24T18:00:48Z</time>
      </trkpt>
      <trkpt lat="27.968611" lon="-15.610716">
        <ele>1703.555</ele>
        <time>2022-07-24T18:01:45Z</time>
      </trkpt>
      <trkpt lat="27.968577" lon="-15.610450">
        <ele>1704.307</ele>
        <time>2022-07-24T18:02:16Z</time>
      </trkpt>
      <trkpt lat="27.968398" lon="-15.610362">
        <ele>1702.717</ele>
        <time>2022-07-24T18:02:41Z</time>
      </trkpt>
      <trkpt lat="27.968332" lon="-15.610596">
        <ele>1695.109</ele>
        <time>2022-07-24T18:04:12Z</time>
      </trkpt>
      <trkpt lat="27.968250" lon="-15.610401">
        <ele>1692.986</ele>
        <time>2022-07-24T18:04:39Z</time>
      </trkpt>
      <trkpt lat="27.968055" lon="-15.610335">
        <ele>1691.145</ele>
        <time>2022-07-24T18:05:04Z</time>
      </trkpt>
      <trkpt lat="27.967989" lon="-15.610013">
        <ele>1688.363</ele>
        <time>2022-07-24T18:06:23Z</time>
      </trkpt>
      <trkpt lat="27.968055" lon="-15.610041">
        <ele>1687.952</ele>
        <time>2022-07-24T18:06:38Z</time>
      </trkpt>
      <trkpt lat="27.968101" lon="-15.609954">
        <ele>1685.430</ele>
        <time>2022-07-24T18:07:16Z</time>
      </trkpt>
      <trkpt lat="27.967998" lon="-15.610038">
        <ele>1683.914</ele>
        <time>2022-07-24T18:08:55Z</time>
      </trkpt>
      <trkpt lat="27.968025" lon="-15.610301">
        <ele>1689.795</ele>
        <time>2022-07-24T18:09:31Z</time>
      </trkpt>
      <trkpt lat="27.967797" lon="-15.610552">
        <ele>1685.487</ele>
        <time>2022-07-24T18:12:03Z</time>
      </trkpt>
      <trkpt lat="27.967978" lon="-15.610603">
        <ele>1680.587</ele>
        <time>2022-07-24T18:12:57Z</time>
      </trkpt>
      <trkpt lat="27.968182" lon="-15.610983">
        <ele>1676.097</ele>
        <time>2022-07-24T18:14:28Z</time>
      </trkpt>
      <trkpt lat="27.968146" lon="-15.611134">
        <ele>1674.023</ele>
        <time>2022-07-24T18:14:47Z</time>
      </trkpt>
      <trkpt lat="27.968242" lon="-15.611722">
        <ele>1660.725</ele>
        <time>2022-07-24T18:16:18Z</time>
      </trkpt>
      <trkpt lat="27.968189" lon="-15.612083">
        <ele>1655.309</ele>
        <time>2022-07-24T18:17:28Z</time>
      </trkpt>
      <trkpt lat="27.968046" lon="-15.612355">
        <ele>1649.520</ele>
        <time>2022-07-24T18:18:38Z</time>
      </trkpt>
      <trkpt lat="27.968068" lon="-15.612623">
        <ele>1645.679</ele>
        <time>2022-07-24T18:19:28Z</time>
      </trkpt>
      <trkpt lat="27.968217" lon="-15.612749">
        <ele>1643.087</ele>
        <time>2022-07-24T18:20:21Z</time>
      </trkpt>
      <trkpt lat="27.968402" lon="-15.612719">
        <ele>1640.516</ele>
        <time>2022-07-24T18:20:43Z</time>
      </trkpt>
      <trkpt lat="27.968439" lon="-15.613037">
        <ele>1635.234</ele>
        <time>2022-07-24T18:21:53Z</time>
      </trkpt>
      <trkpt lat="27.968570" lon="-15.613082">
        <ele>1631.148</ele>
        <time>2022-07-24T18:23:25Z</time>
      </trkpt>
      <trkpt lat="27.968923" lon="-15.613787">
        <ele>1624.439</ele>
        <time>2022-07-24T18:26:11Z</time>
      </trkpt>
      <trkpt lat="27.968867" lon="-15.613879">
        <ele>1622.081</ele>
        <time>2022-07-24T18:27:56Z</time>
      </trkpt>
      <trkpt lat="27.968994" lon="-15.614679">
        <ele>1621.171</ele>
        <time>2022-07-24T18:30:11Z</time>
      </trkpt>
      <trkpt lat="27.969370" lon="-15.615044">
        <ele>1614.387</ele>
        <time>2022-07-24T18:32:57Z</time>
      </trkpt>
      <trkpt lat="27.969549" lon="-15.615005">
        <ele>1612.142</ele>
        <time>2022-07-24T18:33:50Z</time>
      </trkpt>
      <trkpt lat="27.969847" lon="-15.614683">
        <ele>1608.626</ele>
        <time>2022-07-24T18:36:25Z</time>
      </trkpt>
      <trkpt lat="27.970130" lon="-15.614589">
        <ele>1607.809</ele>
        <time>2022-07-24T18:38:00Z</time>
      </trkpt>
      <trkpt lat="27.970587" lon="-15.614663">
        <ele>1608.349</ele>
        <time>2022-07-24T18:40:26Z</time>
      </trkpt>
      <trkpt lat="27.971096" lon="-15.614534">
        <ele>1608.698</ele>
        <time>2022-07-24T18:42:58Z</time>
      </trkpt>
      <trkpt lat="27.971326" lon="-15.614650">
        <ele>1610.436</ele>
        <time>2022-07-24T18:44:03Z</time>
      </trkpt>
      <trkpt lat="27.971454" lon="-15.614555">
        <ele>1612.135</ele>
        <time>2022-07-24T18:45:10Z</time>
      </trkpt>
      <trkpt lat="27.971805" lon="-15.614497">
        <ele>1612.913</ele>
        <time>2022-07-24T18:47:38Z</time>
      </trkpt>
      <trkpt lat="27.972015" lon="-15.613997">
        <ele>1615.577</ele>
        <time>2022-07-24T18:49:05Z</time>
      </trkpt>
      <trkpt lat="27.972244" lon="-15.613764">
        <ele>1614.668</ele>
        <time>2022-07-24T18:49:48Z</time>
      </trkpt>
      <trkpt lat="27.972248" lon="-15.613163">
        <ele>1612.130</ele>
        <time>2022-07-24T18:50:57Z</time>
      </trkpt>
      <trkpt lat="27.972411" lon="-15.613078">
        <ele>1611.310</ele>
        <time>2022-07-24T18:52:54Z</time>
      </trkpt>
      <trkpt lat="27.972554" lon="-15.612843">
        <ele>1607.697</ele>
        <time>2022-07-24T18:53:42Z</time>
      </trkpt>
      <trkpt lat="27.972523" lon="-15.612684">
        <ele>1607.923</ele>
        <time>2022-07-24T18:54:09Z</time>
      </trkpt>
      <trkpt lat="27.972815" lon="-15.612306">
        <ele>1607.025</ele>
        <time>2022-07-24T18:55:27Z</time>
      </trkpt>
      <trkpt lat="27.973023" lon="-15.612204">
        <ele>1607.109</ele>
        <time>2022-07-24T18:56:10Z</time>
      </trkpt>
      <trkpt lat="27.973115" lon="-15.611906">
        <ele>1608.980</ele>
        <time>2022-07-24T18:57:02Z</time>
      </trkpt>
      <trkpt lat="27.972964" lon="-15.611700">
        <ele>1609.199</ele>
        <time>2022-07-24T19:00:55Z</time>
      </trkpt>
      <trkpt lat="27.972669" lon="-15.611509">
        <ele>1605.837</ele>
        <time>2022-07-24T19:01:58Z</time>
      </trkpt>
      <trkpt lat="27.972534" lon="-15.611227">
        <ele>1603.126</ele>
        <time>2022-07-24T19:02:38Z</time>
      </trkpt>
      <trkpt lat="27.972599" lon="-15.610992">
        <ele>1600.494</ele>
        <time>2022-07-24T19:05:27Z</time>
      </trkpt>
      <trkpt lat="27.972465" lon="-15.610856">
        <ele>1598.428</ele>
        <time>2022-07-24T19:05:52Z</time>
      </trkpt>
      <trkpt lat="27.972424" lon="-15.610251">
        <ele>1589.199</ele>
        <time>2022-07-24T19:07:10Z</time>
      </trkpt>
      <trkpt lat="27.972270" lon="-15.609843">
        <ele>1582.791</ele>
        <time>2022-07-24T19:07:56Z</time>
      </trkpt>
      <trkpt lat="27.972287" lon="-15.609503">
        <ele>1578.191</ele>
        <time>2022-07-24T19:08:33Z</time>
      </trkpt>
      <trkpt lat="27.972130" lon="-15.609309">
        <ele>1576.875</ele>
        <time>2022-07-24T19:09:42Z</time>
      </trkpt>
      <trkpt lat="27.972014" lon="-15.608809">
        <ele>1564.028</ele>
        <time>2022-07-24T19:13:01Z</time>
      </trkpt>
      <trkpt lat="27.972173" lon="-15.608529">
        <ele>1559.220</ele>
        <time>2022-07-24T19:14:56Z</time>
      </trkpt>
      <trkpt lat="27.972096" lon="-15.608459">
        <ele>1554.909</ele>
        <time>2022-07-24T19:15:32Z</time>
      </trkpt>
      <trkpt lat="27.972152" lon="-15.608321">
        <ele>1553.748</ele>
        <time>2022-07-24T19:15:54Z</time>
      </trkpt>
      <trkpt lat="27.972065" lon="-15.608275">
        <ele>1550.737</ele>
        <time>2022-07-24T19:16:24Z</time>
      </trkpt>
      <trkpt lat="27.972093" lon="-15.607962">
        <ele>1544.655</ele>
        <time>2022-07-24T19:17:13Z</time>
      </trkpt>
      <trkpt lat="27.972003" lon="-15.607940">
        <ele>1539.644</ele>
        <time>2022-07-24T19:17:46Z</time>
      </trkpt>
      <trkpt lat="27.971889" lon="-15.608113">
        <ele>1536.732</ele>
        <time>2022-07-24T19:18:38Z</time>
      </trkpt>
      <trkpt lat="27.971806" lon="-15.608070">
        <ele>1533.346</ele>
        <time>2022-07-24T19:19:11Z</time>
      </trkpt>
      <trkpt lat="27.971677" lon="-15.608172">
        <ele>1532.987</ele>
        <time>2022-07-24T19:19:28Z</time>
      </trkpt>
      <trkpt lat="27.971694" lon="-15.608115">
        <ele>1532.949</ele>
        <time>2022-07-24T19:19:31Z</time>
      </trkpt>
      <trkpt lat="27.971532" lon="-15.608227">
        <ele>1531.859</ele>
        <time>2022-07-24T19:19:51Z</time>
      </trkpt>
      <trkpt lat="27.971390" lon="-15.608229">
        <ele>1530.587</ele>
        <time>2022-07-24T19:20:10Z</time>
      </trkpt>
      <trkpt lat="27.971436" lon="-15.608034">
        <ele>1527.942</ele>
        <time>2022-07-24T19:20:38Z</time>
      </trkpt>
      <trkpt lat="27.971362" lon="-15.607986">
        <ele>1525.026</ele>
        <time>2022-07-24T19:21:00Z</time>
      </trkpt>
      <trkpt lat="27.971365" lon="-15.607876">
        <ele>1523.709</ele>
        <time>2022-07-24T19:21:21Z</time>
      </trkpt>
      <trkpt lat="27.971177" lon="-15.607863">
        <ele>1520.399</ele>
        <time>2022-07-24T19:21:51Z</time>
      </trkpt>
      <trkpt lat="27.971374" lon="-15.607319">
        <ele>1514.918</ele>
        <time>2022-07-24T19:23:06Z</time>
      </trkpt>
      <trkpt lat="27.971280" lon="-15.607020">
        <ele>1515.196</ele>
        <time>2022-07-24T19:24:06Z</time>
      </trkpt>
      <trkpt lat="27.971349" lon="-15.606930">
        <ele>1515.235</ele>
        <time>2022-07-24T19:24:17Z</time>
      </trkpt>
      <trkpt lat="27.971352" lon="-15.606671">
        <ele>1515.083</ele>
        <time>2022-07-24T19:24:42Z</time>
      </trkpt>
      <trkpt lat="27.971050" lon="-15.606138">
        <ele>1514.747</ele>
        <time>2022-07-24T19:26:24Z</time>
      </trkpt>
      <trkpt lat="27.971454" lon="-15.605518">
        <ele>1511.488</ele>
        <time>2022-07-24T19:28:09Z</time>
      </trkpt>
      <trkpt lat="27.971630" lon="-15.605432">
        <ele>1510.930</ele>
        <time>2022-07-24T19:33:16Z</time>
      </trkpt>
      <trkpt lat="27.972025" lon="-15.604937">
        <ele>1508.160</ele>
        <time>2022-07-24T19:35:34Z</time>
      </trkpt>
      <trkpt lat="27.972002" lon="-15.604885">
        <ele>1508.174</ele>
        <time>2022-07-24T19:35:39Z</time>
      </trkpt>
      <trkpt lat="27.972085" lon="-15.604860">
        <ele>1505.256</ele>
        <time>2022-07-24T19:35:49Z</time>
      </trkpt>
      <trkpt lat="27.972199" lon="-15.604637">
        <ele>1500.421</ele>
        <time>2022-07-24T19:36:42Z</time>
      </trkpt>
      <trkpt lat="27.972191" lon="-15.604485">
        <ele>1495.009</ele>
        <time>2022-07-24T19:37:20Z</time>
      </trkpt>
      <trkpt lat="27.972281" lon="-15.604457">
        <ele>1494.868</ele>
        <time>2022-07-24T19:37:35Z</time>
      </trkpt>
      <trkpt lat="27.972329" lon="-15.604247">
        <ele>1489.397</ele>
        <time>2022-07-24T19:38:30Z</time>
      </trkpt>
      <trkpt lat="27.972507" lon="-15.604083">
        <ele>1484.875</ele>
        <time>2022-07-24T19:39:26Z</time>
      </trkpt>
      <trkpt lat="27.972465" lon="-15.604049">
        <ele>1483.614</ele>
        <time>2022-07-24T19:39:34Z</time>
      </trkpt>
      <trkpt lat="27.972626" lon="-15.603537">
        <ele>1471.782</ele>
        <time>2022-07-24T19:41:10Z</time>
      </trkpt>
      <trkpt lat="27.972550" lon="-15.603488">
        <ele>1468.046</ele>
        <time>2022-07-24T19:42:33Z</time>
      </trkpt>
      <trkpt lat="27.972626" lon="-15.603384">
        <ele>1465.147</ele>
        <time>2022-07-24T19:43:22Z</time>
      </trkpt>
      <trkpt lat="27.972532" lon="-15.603241">
        <ele>1459.749</ele>
        <time>2022-07-24T19:44:53Z</time>
      </trkpt>
      <trkpt lat="27.972613" lon="-15.603120">
        <ele>1456.439</ele>
        <time>2022-07-24T19:45:32Z</time>
      </trkpt>
      <trkpt lat="27.972488" lon="-15.603072">
        <ele>1453.633</ele>
        <time>2022-07-24T19:46:27Z</time>
      </trkpt>
      <trkpt lat="27.971968" lon="-15.603394">
        <ele>1442.323</ele>
        <time>2022-07-24T19:48:14Z</time>
      </trkpt>
      <trkpt lat="27.971762" lon="-15.603301">
        <ele>1438.015</ele>
        <time>2022-07-24T19:49:05Z</time>
      </trkpt>
      <trkpt lat="27.971945" lon="-15.603043">
        <ele>1434.609</ele>
        <time>2022-07-24T19:50:35Z</time>
      </trkpt>
      <trkpt lat="27.972006" lon="-15.602687">
        <ele>1423.494</ele>
        <time>2022-07-24T19:52:47Z</time>
      </trkpt>
      <trkpt lat="27.971954" lon="-15.602676">
        <ele>1422.343</ele>
        <time>2022-07-24T19:52:58Z</time>
      </trkpt>
      <trkpt lat="27.972065" lon="-15.602588">
        <ele>1416.651</ele>
        <time>2022-07-24T19:53:26Z</time>
      </trkpt>
      <trkpt lat="27.972009" lon="-15.602535">
        <ele>1414.150</ele>
        <time>2022-07-24T19:55:02Z</time>
      </trkpt>
      <trkpt lat="27.972132" lon="-15.602373">
        <ele>1408.888</ele>
        <time>2022-07-24T19:56:07Z</time>
      </trkpt>
      <trkpt lat="27.972180" lon="-15.602082">
        <ele>1401.442</ele>
        <time>2022-07-24T19:58:36Z</time>
      </trkpt>
      <trkpt lat="27.972293" lon="-15.601990">
        <ele>1399.043</ele>
        <time>2022-07-24T19:59:05Z</time>
      </trkpt>
      <trkpt lat="27.972036" lon="-15.602018">
        <ele>1392.975</ele>
        <time>2022-07-24T20:00:22Z</time>
      </trkpt>
      <trkpt lat="27.971945" lon="-15.601655">
        <ele>1391.215</ele>
        <time>2022-07-24T20:01:40Z</time>
      </trkpt>
      <trkpt lat="27.971859" lon="-15.601604">
        <ele>1391.089</ele>
        <time>2022-07-24T20:02:00Z</time>
      </trkpt>
      <trkpt lat="27.972053" lon="-15.601552">
        <ele>1390.506</ele>
        <time>2022-07-24T20:02:45Z</time>
      </trkpt>
      <trkpt lat="27.971224" lon="-15.601739">
        <ele>1382.526</ele>
        <time>2022-07-24T20:07:05Z</time>
      </trkpt>
      <trkpt lat="27.971252" lon="-15.601688">
        <ele>1382.409</ele>
        <time>2022-07-24T20:07:11Z</time>
      </trkpt>
      <trkpt lat="27.971115" lon="-15.601647">
        <ele>1376.299</ele>
        <time>2022-07-24T20:08:10Z</time>
      </trkpt>
      <trkpt lat="27.971287" lon="-15.601435">
        <ele>1365.478</ele>
        <time>2022-07-24T20:09:37Z</time>
      </trkpt>
      <trkpt lat="27.971087" lon="-15.601352">
        <ele>1359.976</ele>
        <time>2022-07-24T20:10:14Z</time>
      </trkpt>
      <trkpt lat="27.971041" lon="-15.601176">
        <ele>1356.475</ele>
        <time>2022-07-24T20:10:55Z</time>
      </trkpt>
      <trkpt lat="27.970817" lon="-15.601025">
        <ele>1350.893</ele>
        <time>2022-07-24T20:14:16Z</time>
      </trkpt>
      <trkpt lat="27.970800" lon="-15.600923">
        <ele>1350.867</ele>
        <time>2022-07-24T20:14:42Z</time>
      </trkpt>
      <trkpt lat="27.971146" lon="-15.600583">
        <ele>1348.828</ele>
        <time>2022-07-24T20:21:27Z</time>
      </trkpt>
      <trkpt lat="27.971322" lon="-15.600277">
        <ele>1341.460</ele>
        <time>2022-07-24T20:24:54Z</time>
      </trkpt>
      <trkpt lat="27.971424" lon="-15.600260">
        <ele>1341.130</ele>
        <time>2022-07-24T20:25:05Z</time>
      </trkpt>
      <trkpt lat="27.971410" lon="-15.600018">
        <ele>1337.447</ele>
        <time>2022-07-24T20:25:38Z</time>
      </trkpt>
      <trkpt lat="27.971502" lon="-15.599721">
        <ele>1336.829</ele>
        <time>2022-07-24T20:26:08Z</time>
      </trkpt>
      <trkpt lat="27.971874" lon="-15.599628">
        <ele>1331.021</ele>
        <time>2022-07-24T20:30:16Z</time>
      </trkpt>
      <trkpt lat="27.971790" lon="-15.599812">
        <ele>1327.309</ele>
        <time>2022-07-24T20:30:56Z</time>
      </trkpt>
      <trkpt lat="27.971925" lon="-15.599773">
        <ele>1322.825</ele>
        <time>2022-07-24T20:31:21Z</time>
      </trkpt>
      <trkpt lat="27.971930" lon="-15.599937">
        <ele>1320.074</ele>
        <time>2022-07-24T20:31:41Z</time>
      </trkpt>
      <trkpt lat="27.972135" lon="-15.599876">
        <ele>1314.662</ele>
        <time>2022-07-24T20:32:19Z</time>
      </trkpt>
      <trkpt lat="27.972130" lon="-15.599930">
        <ele>1313.711</ele>
        <time>2022-07-24T20:32:27Z</time>
      </trkpt>
      <trkpt lat="27.972412" lon="-15.599868">
        <ele>1308.289</ele>
        <time>2022-07-24T20:33:11Z</time>
      </trkpt>
      <trkpt lat="27.972579" lon="-15.599908">
        <ele>1301.463</ele>
        <time>2022-07-24T20:34:08Z</time>
      </trkpt>
      <trkpt lat="27.972828" lon="-15.599741">
        <ele>1295.214</ele>
        <time>2022-07-24T20:34:54Z</time>
      </trkpt>
      <trkpt lat="27.972832" lon="-15.599629">
        <ele>1294.696</ele>
        <time>2022-07-24T20:35:07Z</time>
      </trkpt>
      <trkpt lat="27.973025" lon="-15.599490">
        <ele>1288.676</ele>
        <time>2022-07-24T20:36:52Z</time>
      </trkpt>
      <trkpt lat="27.973436" lon="-15.599403">
        <ele>1276.585</ele>
        <time>2022-07-24T20:38:54Z</time>
      </trkpt>
      <trkpt lat="27.973520" lon="-15.599450">
        <ele>1273.489</ele>
        <time>2022-07-24T20:39:06Z</time>
      </trkpt>
      <trkpt lat="27.973565" lon="-15.599654">
        <ele>1268.317</ele>
        <time>2022-07-24T20:39:49Z</time>
      </trkpt>
      <trkpt lat="27.973926" lon="-15.599711">
        <ele>1262.809</ele>
        <time>2022-07-24T20:41:54Z</time>
      </trkpt>
      <trkpt lat="27.974192" lon="-15.599374">
        <ele>1252.679</ele>
        <time>2022-07-24T20:44:05Z</time>
      </trkpt>
      <trkpt lat="27.974175" lon="-15.599160">
        <ele>1248.788</ele>
        <time>2022-07-24T20:44:32Z</time>
      </trkpt>
      <trkpt lat="27.974248" lon="-15.599099">
        <ele>1246.856</ele>
        <time>2022-07-24T20:44:42Z</time>
      </trkpt>
      <trkpt lat="27.974647" lon="-15.599345">
        <ele>1246.965</ele>
        <time>2022-07-24T20:45:37Z</time>
      </trkpt>
      <trkpt lat="27.974832" lon="-15.599168">
        <ele>1250.263</ele>
        <time>2022-07-24T20:46:09Z</time>
      </trkpt>
      <trkpt lat="27.975199" lon="-15.599662">
        <ele>1249.597</ele>
        <time>2022-07-24T20:47:16Z</time>
      </trkpt>
      <trkpt lat="27.975516" lon="-15.599817">
        <ele>1245.348</ele>
        <time>2022-07-24T20:47:53Z</time>
      </trkpt>
      <trkpt lat="27.976140" lon="-15.599824">
        <ele>1237.920</ele>
        <time>2022-07-24T20:52:46Z</time>
      </trkpt>
      <trkpt lat="27.976093" lon="-15.599833">
        <ele>1237.390</ele>
        <time>2022-07-24T21:16:02Z</time>
      </trkpt>
      <trkpt lat="27.976580" lon="-15.600039">
        <ele>1235.978</ele>
        <time>2022-07-24T21:17:05Z</time>
      </trkpt>
      <trkpt lat="27.976758" lon="-15.600233">
        <ele>1234.433</ele>
        <time>2022-07-24T21:17:31Z</time>
      </trkpt>
    </trkseg>
  </trk></gpx>