<?xml version="1.0" encoding="UTF-8"?>
<gpx creator="Wikiloc - https://www.wikiloc.com" version="1.1" xmlns="http://www.topografix.com/GPX/1/1" xmlns:xsi="http://www.w3.org/2001/XMLSchema-instance" xsi:schemaLocation="http://www.topografix.com/GPX/1/1 http://www.topografix.com/GPX/1/1/gpx.xsd">
  <metadata>
    <name>Wikiloc - Gran Tarajal - Playa del Aceituno - Playa de Agando - Costa ...</name>
    <link href="https://www.wikiloc.com/hiking-trails/gran-tarajal-playa-del-aceituno-playa-de-agando-costa-calma-154898934">
      <text>Gran Tarajal - Playa del Aceituno - Playa de Agando - Costa ... on Wikiloc</text>
    </link>
    <time>2023-12-04T16:32:38Z</time>
  </metadata>
  <trk>
    <name>Gran Tarajal - Playa del Aceituno - Playa de Agando - Costa ... - Wikiloc</name>
    <cmt></cmt>
    <desc></desc>
    <trkseg>
      <trkpt lat="28.213373" lon="-14.022773">
        <ele>26.996</ele>
        <time>2023-12-04T09:38:58Z</time>
      </trkpt>
      <trkpt lat="28.213499" lon="-14.022740">
        <ele>21.031</ele>
        <time>2023-12-04T09:39:57Z</time>
      </trkpt>
      <trkpt lat="28.213357" lon="-14.022753">
        <ele>15.124</ele>
        <time>2023-12-04T09:40:21Z</time>
      </trkpt>
      <trkpt lat="28.213379" lon="-14.022891">
        <ele>15.109</ele>
        <time>2023-12-04T09:41:17Z</time>
      </trkpt>
      <trkpt lat="28.213709" lon="-14.022757">
        <ele>15.120</ele>
        <time>2023-12-04T09:41:31Z</time>
      </trkpt>
      <trkpt lat="28.213373" lon="-14.022875">
        <ele>14.984</ele>
        <time>2023-12-04T09:41:58Z</time>
      </trkpt>
      <trkpt lat="28.213565" lon="-14.022953">
        <ele>14.853</ele>
        <time>2023-12-04T09:42:00Z</time>
      </trkpt>
      <trkpt lat="28.213376" lon="-14.022880">
        <ele>14.877</ele>
        <time>2023-12-04T09:42:05Z</time>
      </trkpt>
      <trkpt lat="28.213452" lon="-14.022694">
        <ele>15.058</ele>
        <time>2023-12-04T09:42:35Z</time>
      </trkpt>
      <trkpt lat="28.213321" lon="-14.022832">
        <ele>15.077</ele>
        <time>2023-12-04T09:43:31Z</time>
      </trkpt>
      <trkpt lat="28.212304" lon="-14.021488">
        <ele>-2.598</ele>
        <time>2023-12-04T09:45:11Z</time>
      </trkpt>
      <trkpt lat="28.212205" lon="-14.021512">
        <ele>-3.062</ele>
        <time>2023-12-04T09:45:17Z</time>
      </trkpt>
      <trkpt lat="28.212187" lon="-14.021230">
        <ele>-3.393</ele>
        <time>2023-12-04T09:45:32Z</time>
      </trkpt>
      <trkpt lat="28.211903" lon="-14.020887">
        <ele>-3.659</ele>
        <time>2023-12-04T09:45:59Z</time>
      </trkpt>
      <trkpt lat="28.211548" lon="-14.021006">
        <ele>-3.603</ele>
        <time>2023-12-04T09:46:25Z</time>
      </trkpt>
      <trkpt lat="28.209817" lon="-14.023014">
        <ele>-3.223</ele>
        <time>2023-12-04T09:48:44Z</time>
      </trkpt>
      <trkpt lat="28.209261" lon="-14.023309">
        <ele>-3.209</ele>
        <time>2023-12-04T09:49:20Z</time>
      </trkpt>
      <trkpt lat="28.209094" lon="-14.023807">
        <ele>-3.086</ele>
        <time>2023-12-04T09:49:42Z</time>
      </trkpt>
      <trkpt lat="28.208529" lon="-14.024326">
        <ele>-3.220</ele>
        <time>2023-12-04T09:50:21Z</time>
      </trkpt>
      <trkpt lat="28.208517" lon="-14.025258">
        <ele>-3.739</ele>
        <time>2023-12-04T09:51:02Z</time>
      </trkpt>
      <trkpt lat="28.207650" lon="-14.027145">
        <ele>-4.573</ele>
        <time>2023-12-04T09:52:38Z</time>
      </trkpt>
      <trkpt lat="28.206969" lon="-14.027382">
        <ele>-4.764</ele>
        <time>2023-12-04T09:53:13Z</time>
      </trkpt>
      <trkpt lat="28.206503" lon="-14.028580">
        <ele>3.323</ele>
        <time>2023-12-04T09:54:11Z</time>
      </trkpt>
      <trkpt lat="28.206578" lon="-14.028948">
        <ele>3.794</ele>
        <time>2023-12-04T09:54:35Z</time>
      </trkpt>
      <trkpt lat="28.207154" lon="-14.029370">
        <ele>4.678</ele>
        <time>2023-12-04T09:55:16Z</time>
      </trkpt>
      <trkpt lat="28.207643" lon="-14.029964">
        <ele>4.619</ele>
        <time>2023-12-04T09:55:55Z</time>
      </trkpt>
      <trkpt lat="28.208008" lon="-14.031007">
        <ele>5.468</ele>
        <time>2023-12-04T09:56:55Z</time>
      </trkpt>
      <trkpt lat="28.208030" lon="-14.031853">
        <ele>9.642</ele>
        <time>2023-12-04T09:57:50Z</time>
      </trkpt>
      <trkpt lat="28.208160" lon="-14.032209">
        <ele>15.926</ele>
        <time>2023-12-04T09:58:24Z</time>
      </trkpt>
      <trkpt lat="28.208712" lon="-14.032828">
        <ele>23.809</ele>
        <time>2023-12-04T09:59:30Z</time>
      </trkpt>
      <trkpt lat="28.208930" lon="-14.033646">
        <ele>33.037</ele>
        <time>2023-12-04T10:00:22Z</time>
      </trkpt>
      <trkpt lat="28.208895" lon="-14.034147">
        <ele>37.551</ele>
        <time>2023-12-04T10:00:53Z</time>
      </trkpt>
      <trkpt lat="28.208391" lon="-14.035301">
        <ele>38.180</ele>
        <time>2023-12-04T10:02:07Z</time>
      </trkpt>
      <trkpt lat="28.208321" lon="-14.035924">
        <ele>40.384</ele>
        <time>2023-12-04T10:02:51Z</time>
      </trkpt>
      <trkpt lat="28.207760" lon="-14.035994">
        <ele>46.415</ele>
        <time>2023-12-04T10:04:19Z</time>
      </trkpt>
      <trkpt lat="28.207599" lon="-14.036529">
        <ele>40.134</ele>
        <time>2023-12-04T10:08:12Z</time>
      </trkpt>
      <trkpt lat="28.206891" lon="-14.037192">
        <ele>55.585</ele>
        <time>2023-12-04T10:11:31Z</time>
      </trkpt>
      <trkpt lat="28.206984" lon="-14.037154">
        <ele>57.979</ele>
        <time>2023-12-04T10:11:46Z</time>
      </trkpt>
      <trkpt lat="28.207116" lon="-14.037451">
        <ele>66.810</ele>
        <time>2023-12-04T10:13:10Z</time>
      </trkpt>
      <trkpt lat="28.207077" lon="-14.037635">
        <ele>74.059</ele>
        <time>2023-12-04T10:15:39Z</time>
      </trkpt>
      <trkpt lat="28.207386" lon="-14.037628">
        <ele>79.103</ele>
        <time>2023-12-04T10:16:24Z</time>
      </trkpt>
      <trkpt lat="28.207058" lon="-14.037979">
        <ele>85.723</ele>
        <time>2023-12-04T10:17:19Z</time>
      </trkpt>
      <trkpt lat="28.206899" lon="-14.038584">
        <ele>98.009</ele>
        <time>2023-12-04T10:19:39Z</time>
      </trkpt>
      <trkpt lat="28.207347" lon="-14.038552">
        <ele>111.196</ele>
        <time>2023-12-04T10:21:19Z</time>
      </trkpt>
      <trkpt lat="28.207693" lon="-14.039038">
        <ele>139.080</ele>
        <time>2023-12-04T10:25:06Z</time>
      </trkpt>
      <trkpt lat="28.207111" lon="-14.040322">
        <ele>163.119</ele>
        <time>2023-12-04T10:31:25Z</time>
      </trkpt>
      <trkpt lat="28.207158" lon="-14.040748">
        <ele>167.653</ele>
        <time>2023-12-04T10:32:21Z</time>
      </trkpt>
      <trkpt lat="28.206926" lon="-14.041526">
        <ele>171.574</ele>
        <time>2023-12-04T10:33:47Z</time>
      </trkpt>
      <trkpt lat="28.206910" lon="-14.042240">
        <ele>175.273</ele>
        <time>2023-12-04T10:35:05Z</time>
      </trkpt>
      <trkpt lat="28.207144" lon="-14.043129">
        <ele>191.354</ele>
        <time>2023-12-04T10:37:49Z</time>
      </trkpt>
      <trkpt lat="28.207676" lon="-14.043577">
        <ele>198.158</ele>
        <time>2023-12-04T10:40:16Z</time>
      </trkpt>
      <trkpt lat="28.207882" lon="-14.044280">
        <ele>203.789</ele>
        <time>2023-12-04T10:43:45Z</time>
      </trkpt>
      <trkpt lat="28.208466" lon="-14.045191">
        <ele>183.462</ele>
        <time>2023-12-04T10:47:50Z</time>
      </trkpt>
      <trkpt lat="28.208584" lon="-14.045644">
        <ele>171.183</ele>
        <time>2023-12-04T10:48:38Z</time>
      </trkpt>
      <trkpt lat="28.208482" lon="-14.045914">
        <ele>162.611</ele>
        <time>2023-12-04T10:50:04Z</time>
      </trkpt>
      <trkpt lat="28.208708" lon="-14.046253">
        <ele>150.109</ele>
        <time>2023-12-04T10:51:41Z</time>
      </trkpt>
      <trkpt lat="28.208428" lon="-14.046437">
        <ele>141.077</ele>
        <time>2023-12-04T10:52:42Z</time>
      </trkpt>
      <trkpt lat="28.208723" lon="-14.046777">
        <ele>130.141</ele>
        <time>2023-12-04T10:55:18Z</time>
      </trkpt>
      <trkpt lat="28.208275" lon="-14.046972">
        <ele>115.190</ele>
        <time>2023-12-04T10:57:14Z</time>
      </trkpt>
      <trkpt lat="28.207934" lon="-14.047941">
        <ele>85.784</ele>
        <time>2023-12-04T10:59:42Z</time>
      </trkpt>
      <trkpt lat="28.207896" lon="-14.048713">
        <ele>64.685</ele>
        <time>2023-12-04T11:01:48Z</time>
      </trkpt>
      <trkpt lat="28.207698" lon="-14.048930">
        <ele>56.034</ele>
        <time>2023-12-04T11:03:38Z</time>
      </trkpt>
      <trkpt lat="28.207740" lon="-14.049210">
        <ele>44.765</ele>
        <time>2023-12-04T11:04:58Z</time>
      </trkpt>
      <trkpt lat="28.207971" lon="-14.049443">
        <ele>36.949</ele>
        <time>2023-12-04T11:05:31Z</time>
      </trkpt>
      <trkpt lat="28.208033" lon="-14.049984">
        <ele>30.440</ele>
        <time>2023-12-04T11:06:12Z</time>
      </trkpt>
      <trkpt lat="28.207810" lon="-14.050317">
        <ele>26.833</ele>
        <time>2023-12-04T11:06:41Z</time>
      </trkpt>
      <trkpt lat="28.206687" lon="-14.050908">
        <ele>19.323</ele>
        <time>2023-12-04T11:08:30Z</time>
      </trkpt>
      <trkpt lat="28.205787" lon="-14.050754">
        <ele>15.315</ele>
        <time>2023-12-04T11:09:35Z</time>
      </trkpt>
      <trkpt lat="28.205336" lon="-14.050439">
        <ele>12.909</ele>
        <time>2023-12-04T11:10:12Z</time>
      </trkpt>
      <trkpt lat="28.204694" lon="-14.050462">
        <ele>9.224</ele>
        <time>2023-12-04T11:10:58Z</time>
      </trkpt>
      <trkpt lat="28.203780" lon="-14.050082">
        <ele>5.158</ele>
        <time>2023-12-04T11:11:59Z</time>
      </trkpt>
      <trkpt lat="28.203617" lon="-14.050155">
        <ele>4.657</ele>
        <time>2023-12-04T11:12:13Z</time>
      </trkpt>
      <trkpt lat="28.203607" lon="-14.050767">
        <ele>4.881</ele>
        <time>2023-12-04T11:13:13Z</time>
      </trkpt>
      <trkpt lat="28.203839" lon="-14.050974">
        <ele>5.742</ele>
        <time>2023-12-04T11:13:45Z</time>
      </trkpt>
      <trkpt lat="28.204232" lon="-14.051804">
        <ele>10.461</ele>
        <time>2023-12-04T11:15:02Z</time>
      </trkpt>
      <trkpt lat="28.203719" lon="-14.053161">
        <ele>46.872</ele>
        <time>2023-12-04T11:20:06Z</time>
      </trkpt>
      <trkpt lat="28.203846" lon="-14.053435">
        <ele>56.916</ele>
        <time>2023-12-04T11:21:59Z</time>
      </trkpt>
      <trkpt lat="28.203321" lon="-14.053974">
        <ele>77.557</ele>
        <time>2023-12-04T11:26:53Z</time>
      </trkpt>
      <trkpt lat="28.203423" lon="-14.053841">
        <ele>79.922</ele>
        <time>2023-12-04T11:26:54Z</time>
      </trkpt>
      <trkpt lat="28.203425" lon="-14.054206">
        <ele>87.962</ele>
        <time>2023-12-04T11:28:20Z</time>
      </trkpt>
      <trkpt lat="28.204195" lon="-14.054760">
        <ele>112.608</ele>
        <time>2023-12-04T11:30:57Z</time>
      </trkpt>
      <trkpt lat="28.204346" lon="-14.055083">
        <ele>125.809</ele>
        <time>2023-12-04T11:32:04Z</time>
      </trkpt>
      <trkpt lat="28.204328" lon="-14.055949">
        <ele>140.843</ele>
        <time>2023-12-04T11:33:35Z</time>
      </trkpt>
      <trkpt lat="28.203717" lon="-14.056761">
        <ele>129.927</ele>
        <time>2023-12-04T11:35:00Z</time>
      </trkpt>
      <trkpt lat="28.203773" lon="-14.057317">
        <ele>115.646</ele>
        <time>2023-12-04T11:38:31Z</time>
      </trkpt>
      <trkpt lat="28.202718" lon="-14.058244">
        <ele>81.650</ele>
        <time>2023-12-04T11:43:44Z</time>
      </trkpt>
      <trkpt lat="28.202876" lon="-14.058370">
        <ele>79.331</ele>
        <time>2023-12-04T11:44:31Z</time>
      </trkpt>
      <trkpt lat="28.202969" lon="-14.058823">
        <ele>63.740</ele>
        <time>2023-12-04T11:48:04Z</time>
      </trkpt>
      <trkpt lat="28.202604" lon="-14.060249">
        <ele>20.681</ele>
        <time>2023-12-04T11:52:15Z</time>
      </trkpt>
      <trkpt lat="28.202850" lon="-14.060448">
        <ele>13.115</ele>
        <time>2023-12-04T11:53:50Z</time>
      </trkpt>
      <trkpt lat="28.202427" lon="-14.060941">
        <ele>7.256</ele>
        <time>2023-12-04T11:54:36Z</time>
      </trkpt>
      <trkpt lat="28.202430" lon="-14.060448">
        <ele>6.138</ele>
        <time>2023-12-04T11:55:33Z</time>
      </trkpt>
      <trkpt lat="28.201533" lon="-14.062825">
        <ele>5.670</ele>
        <time>2023-12-04T11:59:39Z</time>
      </trkpt>
      <trkpt lat="28.201682" lon="-14.063845">
        <ele>8.017</ele>
        <time>2023-12-04T12:02:15Z</time>
      </trkpt>
      <trkpt lat="28.201512" lon="-14.064898">
        <ele>8.309</ele>
        <time>2023-12-04T12:04:01Z</time>
      </trkpt>
      <trkpt lat="28.201694" lon="-14.065271">
        <ele>17.194</ele>
        <time>2023-12-04T12:05:19Z</time>
      </trkpt>
      <trkpt lat="28.201188" lon="-14.065580">
        <ele>28.878</ele>
        <time>2023-12-04T12:06:44Z</time>
      </trkpt>
      <trkpt lat="28.201094" lon="-14.065840">
        <ele>30.417</ele>
        <time>2023-12-04T12:07:09Z</time>
      </trkpt>
      <trkpt lat="28.201374" lon="-14.065766">
        <ele>36.991</ele>
        <time>2023-12-04T12:09:02Z</time>
      </trkpt>
      <trkpt lat="28.201137" lon="-14.066506">
        <ele>60.732</ele>
        <time>2023-12-04T12:11:52Z</time>
      </trkpt>
      <trkpt lat="28.200374" lon="-14.067302">
        <ele>49.581</ele>
        <time>2023-12-04T12:14:41Z</time>
      </trkpt>
      <trkpt lat="28.200422" lon="-14.067650">
        <ele>44.472</ele>
        <time>2023-12-04T12:15:04Z</time>
      </trkpt>
      <trkpt lat="28.200108" lon="-14.068099">
        <ele>44.756</ele>
        <time>2023-12-04T12:15:48Z</time>
      </trkpt>
      <trkpt lat="28.200102" lon="-14.069206">
        <ele>40.517</ele>
        <time>2023-12-04T12:17:09Z</time>
      </trkpt>
      <trkpt lat="28.200304" lon="-14.070070">
        <ele>43.885</ele>
        <time>2023-12-04T12:18:09Z</time>
      </trkpt>
      <trkpt lat="28.201173" lon="-14.071179">
        <ele>37.689</ele>
        <time>2023-12-04T12:19:39Z</time>
      </trkpt>
      <trkpt lat="28.201579" lon="-14.071464">
        <ele>33.117</ele>
        <time>2023-12-04T12:21:24Z</time>
      </trkpt>
      <trkpt lat="28.201947" lon="-14.071447">
        <ele>25.509</ele>
        <time>2023-12-04T12:22:20Z</time>
      </trkpt>
      <trkpt lat="28.201901" lon="-14.071749">
        <ele>20.649</ele>
        <time>2023-12-04T12:22:50Z</time>
      </trkpt>
      <trkpt lat="28.202226" lon="-14.072049">
        <ele>18.013</ele>
        <time>2023-12-04T12:23:41Z</time>
      </trkpt>
      <trkpt lat="28.201895" lon="-14.072371">
        <ele>13.372</ele>
        <time>2023-12-04T12:24:29Z</time>
      </trkpt>
      <trkpt lat="28.202014" lon="-14.072748">
        <ele>13.346</ele>
        <time>2023-12-04T12:25:08Z</time>
      </trkpt>
      <trkpt lat="28.201753" lon="-14.074452">
        <ele>14.437</ele>
        <time>2023-12-04T12:29:28Z</time>
      </trkpt>
      <trkpt lat="28.201205" lon="-14.075165">
        <ele>10.336</ele>
        <time>2023-12-04T12:30:38Z</time>
      </trkpt>
      <trkpt lat="28.200374" lon="-14.076963">
        <ele>9.017</ele>
        <time>2023-12-04T12:33:34Z</time>
      </trkpt>
      <trkpt lat="28.199066" lon="-14.077459">
        <ele>38.861</ele>
        <time>2023-12-04T12:36:34Z</time>
      </trkpt>
      <trkpt lat="28.198778" lon="-14.077407">
        <ele>47.922</ele>
        <time>2023-12-04T12:37:16Z</time>
      </trkpt>
      <trkpt lat="28.198587" lon="-14.077696">
        <ele>52.714</ele>
        <time>2023-12-04T12:38:17Z</time>
      </trkpt>
      <trkpt lat="28.198603" lon="-14.078076">
        <ele>53.954</ele>
        <time>2023-12-04T12:38:35Z</time>
      </trkpt>
      <trkpt lat="28.199010" lon="-14.078852">
        <ele>49.709</ele>
        <time>2023-12-04T12:39:43Z</time>
      </trkpt>
      <trkpt lat="28.198839" lon="-14.079090">
        <ele>50.109</ele>
        <time>2023-12-04T12:40:01Z</time>
      </trkpt>
      <trkpt lat="28.198488" lon="-14.079177">
        <ele>52.662</ele>
        <time>2023-12-04T12:40:30Z</time>
      </trkpt>
      <trkpt lat="28.198286" lon="-14.080018">
        <ele>42.926</ele>
        <time>2023-12-04T12:41:37Z</time>
      </trkpt>
      <trkpt lat="28.198555" lon="-14.080594">
        <ele>38.885</ele>
        <time>2023-12-04T12:42:20Z</time>
      </trkpt>
      <trkpt lat="28.198710" lon="-14.080652">
        <ele>35.379</ele>
        <time>2023-12-04T12:43:29Z</time>
      </trkpt>
      <trkpt lat="28.198731" lon="-14.081405">
        <ele>20.490</ele>
        <time>2023-12-04T12:47:29Z</time>
      </trkpt>
      <trkpt lat="28.198548" lon="-14.081806">
        <ele>21.919</ele>
        <time>2023-12-04T12:47:59Z</time>
      </trkpt>
      <trkpt lat="28.198151" lon="-14.081871">
        <ele>27.250</ele>
        <time>2023-12-04T12:48:34Z</time>
      </trkpt>
      <trkpt lat="28.197573" lon="-14.082246">
        <ele>20.744</ele>
        <time>2023-12-04T12:49:19Z</time>
      </trkpt>
      <trkpt lat="28.197798" lon="-14.082358">
        <ele>15.355</ele>
        <time>2023-12-04T12:50:00Z</time>
      </trkpt>
      <trkpt lat="28.197583" lon="-14.082574">
        <ele>15.119</ele>
        <time>2023-12-04T12:50:57Z</time>
      </trkpt>
      <trkpt lat="28.197635" lon="-14.082725">
        <ele>18.109</ele>
        <time>2023-12-04T12:51:20Z</time>
      </trkpt>
      <trkpt lat="28.197503" lon="-14.082802">
        <ele>20.619</ele>
        <time>2023-12-04T12:51:34Z</time>
      </trkpt>
      <trkpt lat="28.197290" lon="-14.083532">
        <ele>23.709</ele>
        <time>2023-12-04T12:52:17Z</time>
      </trkpt>
      <trkpt lat="28.196808" lon="-14.084348">
        <ele>18.722</ele>
        <time>2023-12-04T12:53:11Z</time>
      </trkpt>
      <trkpt lat="28.196771" lon="-14.085734">
        <ele>19.666</ele>
        <time>2023-12-04T12:55:10Z</time>
      </trkpt>
      <trkpt lat="28.196425" lon="-14.087169">
        <ele>32.225</ele>
        <time>2023-12-04T12:56:49Z</time>
      </trkpt>
      <trkpt lat="28.195896" lon="-14.088123">
        <ele>35.959</ele>
        <time>2023-12-04T12:58:08Z</time>
      </trkpt>
      <trkpt lat="28.195991" lon="-14.088462">
        <ele>35.250</ele>
        <time>2023-12-04T12:58:27Z</time>
      </trkpt>
      <trkpt lat="28.195722" lon="-14.088713">
        <ele>35.399</ele>
        <time>2023-12-04T12:58:49Z</time>
      </trkpt>
      <trkpt lat="28.195848" lon="-14.089036">
        <ele>33.640</ele>
        <time>2023-12-04T12:59:07Z</time>
      </trkpt>
      <trkpt lat="28.195444" lon="-14.089325">
        <ele>37.084</ele>
        <time>2023-12-04T12:59:42Z</time>
      </trkpt>
      <trkpt lat="28.195402" lon="-14.089664">
        <ele>37.995</ele>
        <time>2023-12-04T13:00:00Z</time>
      </trkpt>
      <trkpt lat="28.194931" lon="-14.090458">
        <ele>38.032</ele>
        <time>2023-12-04T13:00:57Z</time>
      </trkpt>
      <trkpt lat="28.195092" lon="-14.091422">
        <ele>42.792</ele>
        <time>2023-12-04T13:02:05Z</time>
      </trkpt>
      <trkpt lat="28.194845" lon="-14.092264">
        <ele>47.211</ele>
        <time>2023-12-04T13:02:58Z</time>
      </trkpt>
      <trkpt lat="28.194987" lon="-14.092844">
        <ele>41.609</ele>
        <time>2023-12-04T13:03:33Z</time>
      </trkpt>
      <trkpt lat="28.195311" lon="-14.093140">
        <ele>28.444</ele>
        <time>2023-12-04T13:04:11Z</time>
      </trkpt>
      <trkpt lat="28.195459" lon="-14.093978">
        <ele>27.228</ele>
        <time>2023-12-04T13:04:52Z</time>
      </trkpt>
      <trkpt lat="28.195214" lon="-14.095848">
        <ele>31.487</ele>
        <time>2023-12-04T13:07:06Z</time>
      </trkpt>
      <trkpt lat="28.194920" lon="-14.096137">
        <ele>27.651</ele>
        <time>2023-12-04T13:07:26Z</time>
      </trkpt>
      <trkpt lat="28.195124" lon="-14.096309">
        <ele>31.172</ele>
        <time>2023-12-04T13:07:50Z</time>
      </trkpt>
      <trkpt lat="28.195296" lon="-14.098162">
        <ele>16.961</ele>
        <time>2023-12-04T13:10:03Z</time>
      </trkpt>
      <trkpt lat="28.195172" lon="-14.098603">
        <ele>27.422</ele>
        <time>2023-12-04T13:10:53Z</time>
      </trkpt>
      <trkpt lat="28.195339" lon="-14.098718">
        <ele>33.846</ele>
        <time>2023-12-04T13:11:16Z</time>
      </trkpt>
      <trkpt lat="28.195034" lon="-14.099171">
        <ele>39.657</ele>
        <time>2023-12-04T13:12:06Z</time>
      </trkpt>
      <trkpt lat="28.195120" lon="-14.099669">
        <ele>28.422</ele>
        <time>2023-12-04T13:12:59Z</time>
      </trkpt>
      <trkpt lat="28.194897" lon="-14.099779">
        <ele>21.962</ele>
        <time>2023-12-04T13:13:18Z</time>
      </trkpt>
      <trkpt lat="28.194905" lon="-14.100234">
        <ele>18.208</ele>
        <time>2023-12-04T13:14:51Z</time>
      </trkpt>
      <trkpt lat="28.194621" lon="-14.100474">
        <ele>30.309</ele>
        <time>2023-12-04T13:15:39Z</time>
      </trkpt>
      <trkpt lat="28.194275" lon="-14.101352">
        <ele>51.313</ele>
        <time>2023-12-04T13:17:08Z</time>
      </trkpt>
      <trkpt lat="28.194251" lon="-14.102060">
        <ele>53.637</ele>
        <time>2023-12-04T13:17:53Z</time>
      </trkpt>
      <trkpt lat="28.193370" lon="-14.103168">
        <ele>47.286</ele>
        <time>2023-12-04T13:19:07Z</time>
      </trkpt>
      <trkpt lat="28.193755" lon="-14.103763">
        <ele>37.770</ele>
        <time>2023-12-04T13:19:51Z</time>
      </trkpt>
      <trkpt lat="28.193439" lon="-14.104352">
        <ele>28.641</ele>
        <time>2023-12-04T13:20:28Z</time>
      </trkpt>
      <trkpt lat="28.193127" lon="-14.105709">
        <ele>14.150</ele>
        <time>2023-12-04T13:22:08Z</time>
      </trkpt>
      <trkpt lat="28.192194" lon="-14.107071">
        <ele>10.081</ele>
        <time>2023-12-04T13:23:54Z</time>
      </trkpt>
      <trkpt lat="28.192302" lon="-14.107421">
        <ele>16.375</ele>
        <time>2023-12-04T13:24:30Z</time>
      </trkpt>
      <trkpt lat="28.191840" lon="-14.107803">
        <ele>29.656</ele>
        <time>2023-12-04T13:25:36Z</time>
      </trkpt>
      <trkpt lat="28.191434" lon="-14.107572">
        <ele>29.495</ele>
        <time>2023-12-04T13:26:15Z</time>
      </trkpt>
      <trkpt lat="28.191607" lon="-14.108066">
        <ele>38.649</ele>
        <time>2023-12-04T13:27:15Z</time>
      </trkpt>
      <trkpt lat="28.191299" lon="-14.108166">
        <ele>43.823</ele>
        <time>2023-12-04T13:27:48Z</time>
      </trkpt>
      <trkpt lat="28.190965" lon="-14.109226">
        <ele>35.809</ele>
        <time>2023-12-04T13:29:03Z</time>
      </trkpt>
      <trkpt lat="28.190769" lon="-14.109592">
        <ele>25.220</ele>
        <time>2023-12-04T13:29:29Z</time>
      </trkpt>
      <trkpt lat="28.190470" lon="-14.109772">
        <ele>17.064</ele>
        <time>2023-12-04T13:29:55Z</time>
      </trkpt>
      <trkpt lat="28.190548" lon="-14.110142">
        <ele>18.333</ele>
        <time>2023-12-04T13:30:40Z</time>
      </trkpt>
      <trkpt lat="28.191080" lon="-14.110194">
        <ele>31.677</ele>
        <time>2023-12-04T13:31:38Z</time>
      </trkpt>
      <trkpt lat="28.191340" lon="-14.110424">
        <ele>40.368</ele>
        <time>2023-12-04T13:32:21Z</time>
      </trkpt>
      <trkpt lat="28.190803" lon="-14.110594">
        <ele>45.077</ele>
        <time>2023-12-04T13:33:09Z</time>
      </trkpt>
      <trkpt lat="28.189977" lon="-14.110571">
        <ele>41.948</ele>
        <time>2023-12-04T13:34:00Z</time>
      </trkpt>
      <trkpt lat="28.189931" lon="-14.110847">
        <ele>42.972</ele>
        <time>2023-12-04T13:34:18Z</time>
      </trkpt>
      <trkpt lat="28.189609" lon="-14.111134">
        <ele>41.823</ele>
        <time>2023-12-04T13:34:46Z</time>
      </trkpt>
      <trkpt lat="28.189474" lon="-14.111740">
        <ele>39.878</ele>
        <time>2023-12-04T13:35:13Z</time>
      </trkpt>
      <trkpt lat="28.189036" lon="-14.112242">
        <ele>33.733</ele>
        <time>2023-12-04T13:35:48Z</time>
      </trkpt>
      <trkpt lat="28.189243" lon="-14.112760">
        <ele>30.226</ele>
        <time>2023-12-04T13:36:19Z</time>
      </trkpt>
      <trkpt lat="28.189691" lon="-14.113017">
        <ele>31.009</ele>
        <time>2023-12-04T13:36:48Z</time>
      </trkpt>
      <trkpt lat="28.189770" lon="-14.113725">
        <ele>27.538</ele>
        <time>2023-12-04T13:37:28Z</time>
      </trkpt>
      <trkpt lat="28.190112" lon="-14.114222">
        <ele>29.142</ele>
        <time>2023-12-04T13:37:57Z</time>
      </trkpt>
      <trkpt lat="28.191209" lon="-14.114969">
        <ele>27.291</ele>
        <time>2023-12-04T13:39:15Z</time>
      </trkpt>
      <trkpt lat="28.191752" lon="-14.115034">
        <ele>16.485</ele>
        <time>2023-12-04T13:39:50Z</time>
      </trkpt>
      <trkpt lat="28.191815" lon="-14.115258">
        <ele>12.076</ele>
        <time>2023-12-04T13:40:01Z</time>
      </trkpt>
      <trkpt lat="28.191659" lon="-14.115498">
        <ele>10.725</ele>
        <time>2023-12-04T13:40:19Z</time>
      </trkpt>
      <trkpt lat="28.191889" lon="-14.115428">
        <ele>11.076</ele>
        <time>2023-12-04T13:40:41Z</time>
      </trkpt>
      <trkpt lat="28.192008" lon="-14.116036">
        <ele>10.280</ele>
        <time>2023-12-04T13:41:31Z</time>
      </trkpt>
      <trkpt lat="28.192469" lon="-14.115961">
        <ele>11.131</ele>
        <time>2023-12-04T13:43:45Z</time>
      </trkpt>
      <trkpt lat="28.192588" lon="-14.116064">
        <ele>11.082</ele>
        <time>2023-12-04T13:44:09Z</time>
      </trkpt>
      <trkpt lat="28.192489" lon="-14.115984">
        <ele>10.743</ele>
        <time>2023-12-04T13:44:57Z</time>
      </trkpt>
      <trkpt lat="28.192597" lon="-14.116048">
        <ele>10.317</ele>
        <time>2023-12-04T13:45:06Z</time>
      </trkpt>
      <trkpt lat="28.192647" lon="-14.115440">
        <ele>10.009</ele>
        <time>2023-12-04T13:45:35Z</time>
      </trkpt>
      <trkpt lat="28.192574" lon="-14.116022">
        <ele>9.929</ele>
        <time>2023-12-04T13:45:38Z</time>
      </trkpt>
      <trkpt lat="28.192795" lon="-14.115266">
        <ele>10.183</ele>
        <time>2023-12-04T13:45:45Z</time>
      </trkpt>
      <trkpt lat="28.192559" lon="-14.116027">
        <ele>10.222</ele>
        <time>2023-12-04T13:45:49Z</time>
      </trkpt>
      <trkpt lat="28.192771" lon="-14.116308">
        <ele>10.546</ele>
        <time>2023-12-04T13:46:32Z</time>
      </trkpt>
      <trkpt lat="28.192605" lon="-14.115914">
        <ele>10.177</ele>
        <time>2023-12-04T13:51:26Z</time>
      </trkpt>
      <trkpt lat="28.192503" lon="-14.115973">
        <ele>8.846</ele>
        <time>2023-12-04T13:59:06Z</time>
      </trkpt>
      <trkpt lat="28.192629" lon="-14.116031">
        <ele>8.847</ele>
        <time>2023-12-04T14:00:57Z</time>
      </trkpt>
      <trkpt lat="28.192578" lon="-14.116325">
        <ele>8.761</ele>
        <time>2023-12-04T14:01:14Z</time>
      </trkpt>
      <trkpt lat="28.192524" lon="-14.116000">
        <ele>8.872</ele>
        <time>2023-12-04T14:04:34Z</time>
      </trkpt>
      <trkpt lat="28.192439" lon="-14.116348">
        <ele>9.564</ele>
        <time>2023-12-04T14:06:11Z</time>
      </trkpt>
      <trkpt lat="28.192526" lon="-14.116024">
        <ele>9.606</ele>
        <time>2023-12-04T14:06:16Z</time>
      </trkpt>
      <trkpt lat="28.192685" lon="-14.116046">
        <ele>9.616</ele>
        <time>2023-12-04T14:06:23Z</time>
      </trkpt>
      <trkpt lat="28.192600" lon="-14.116304">
        <ele>9.609</ele>
        <time>2023-12-04T14:06:25Z</time>
      </trkpt>
      <trkpt lat="28.192550" lon="-14.115896">
        <ele>9.427</ele>
        <time>2023-12-04T14:08:06Z</time>
      </trkpt>
      <trkpt lat="28.192576" lon="-14.116573">
        <ele>9.711</ele>
        <time>2023-12-04T14:10:55Z</time>
      </trkpt>
      <trkpt lat="28.192276" lon="-14.117090">
        <ele>9.260</ele>
        <time>2023-12-04T14:12:52Z</time>
      </trkpt>
      <trkpt lat="28.192027" lon="-14.117252">
        <ele>9.484</ele>
        <time>2023-12-04T14:13:21Z</time>
      </trkpt>
      <trkpt lat="28.192114" lon="-14.118147">
        <ele>10.065</ele>
        <time>2023-12-04T14:14:00Z</time>
      </trkpt>
      <trkpt lat="28.191837" lon="-14.120998">
        <ele>9.674</ele>
        <time>2023-12-04T14:16:08Z</time>
      </trkpt>
      <trkpt lat="28.190937" lon="-14.125909">
        <ele>10.925</ele>
        <time>2023-12-04T14:19:53Z</time>
      </trkpt>
      <trkpt lat="28.191076" lon="-14.128131">
        <ele>15.629</ele>
        <time>2023-12-04T14:21:34Z</time>
      </trkpt>
      <trkpt lat="28.190443" lon="-14.128959">
        <ele>14.850</ele>
        <time>2023-12-04T14:22:18Z</time>
      </trkpt>
      <trkpt lat="28.189979" lon="-14.129984">
        <ele>17.934</ele>
        <time>2023-12-04T14:23:08Z</time>
      </trkpt>
      <trkpt lat="28.188862" lon="-14.131374">
        <ele>20.555</ele>
        <time>2023-12-04T14:24:49Z</time>
      </trkpt>
      <trkpt lat="28.188749" lon="-14.132552">
        <ele>9.310</ele>
        <time>2023-12-04T14:25:33Z</time>
      </trkpt>
      <trkpt lat="28.188407" lon="-14.133496">
        <ele>16.509</ele>
        <time>2023-12-04T14:26:34Z</time>
      </trkpt>
      <trkpt lat="28.187981" lon="-14.136005">
        <ele>14.494</ele>
        <time>2023-12-04T14:29:06Z</time>
      </trkpt>
      <trkpt lat="28.187367" lon="-14.137346">
        <ele>7.328</ele>
        <time>2023-12-04T14:30:06Z</time>
      </trkpt>
      <trkpt lat="28.186881" lon="-14.137989">
        <ele>4.197</ele>
        <time>2023-12-04T14:30:40Z</time>
      </trkpt>
      <trkpt lat="28.186122" lon="-14.138588">
        <ele>4.321</ele>
        <time>2023-12-04T14:31:30Z</time>
      </trkpt>
      <trkpt lat="28.185723" lon="-14.138690">
        <ele>4.152</ele>
        <time>2023-12-04T14:31:49Z</time>
      </trkpt>
      <trkpt lat="28.185578" lon="-14.138865">
        <ele>4.561</ele>
        <time>2023-12-04T14:31:59Z</time>
      </trkpt>
      <trkpt lat="28.184427" lon="-14.139032">
        <ele>12.442</ele>
        <time>2023-12-04T14:33:33Z</time>
      </trkpt>
      <trkpt lat="28.183745" lon="-14.140256">
        <ele>31.846</ele>
        <time>2023-12-04T14:35:18Z</time>
      </trkpt>
      <trkpt lat="28.184199" lon="-14.144339">
        <ele>53.437</ele>
        <time>2023-12-04T14:39:27Z</time>
      </trkpt>
      <trkpt lat="28.184236" lon="-14.145545">
        <ele>57.097</ele>
        <time>2023-12-04T14:40:38Z</time>
      </trkpt>
      <trkpt lat="28.183986" lon="-14.146946">
        <ele>57.523</ele>
        <time>2023-12-04T14:42:06Z</time>
      </trkpt>
      <trkpt lat="28.184238" lon="-14.149048">
        <ele>23.625</ele>
        <time>2023-12-04T14:44:00Z</time>
      </trkpt>
      <trkpt lat="28.183978" lon="-14.149244">
        <ele>17.509</ele>
        <time>2023-12-04T14:44:17Z</time>
      </trkpt>
      <trkpt lat="28.183678" lon="-14.149930">
        <ele>13.920</ele>
        <time>2023-12-04T14:45:01Z</time>
      </trkpt>
      <trkpt lat="28.183546" lon="-14.151254">
        <ele>8.464</ele>
        <time>2023-12-04T14:46:21Z</time>
      </trkpt>
      <trkpt lat="28.183230" lon="-14.151408">
        <ele>6.453</ele>
        <time>2023-12-04T14:46:45Z</time>
      </trkpt>
      <trkpt lat="28.183191" lon="-14.152158">
        <ele>5.957</ele>
        <time>2023-12-04T14:47:30Z</time>
      </trkpt>
      <trkpt lat="28.183301" lon="-14.152347">
        <ele>6.338</ele>
        <time>2023-12-04T14:47:44Z</time>
      </trkpt>
      <trkpt lat="28.183044" lon="-14.153461">
        <ele>10.367</ele>
        <time>2023-12-04T14:48:55Z</time>
      </trkpt>
      <trkpt lat="28.183341" lon="-14.153744">
        <ele>11.148</ele>
        <time>2023-12-04T14:49:22Z</time>
      </trkpt>
      <trkpt lat="28.182940" lon="-14.155757">
        <ele>10.322</ele>
        <time>2023-12-04T14:51:27Z</time>
      </trkpt>
      <trkpt lat="28.183547" lon="-14.156625">
        <ele>10.073</ele>
        <time>2023-12-04T14:52:34Z</time>
      </trkpt>
      <trkpt lat="28.183757" lon="-14.157484">
        <ele>13.263</ele>
        <time>2023-12-04T14:53:27Z</time>
      </trkpt>
      <trkpt lat="28.184298" lon="-14.158445">
        <ele>20.844</ele>
        <time>2023-12-04T14:54:34Z</time>
      </trkpt>
      <trkpt lat="28.184355" lon="-14.159523">
        <ele>23.018</ele>
        <time>2023-12-04T14:55:38Z</time>
      </trkpt>
      <trkpt lat="28.183379" lon="-14.160738">
        <ele>30.509</ele>
        <time>2023-12-04T14:57:16Z</time>
      </trkpt>
      <trkpt lat="28.182744" lon="-14.161054">
        <ele>30.117</ele>
        <time>2023-12-04T14:57:56Z</time>
      </trkpt>
      <trkpt lat="28.180804" lon="-14.161578">
        <ele>20.621</ele>
        <time>2023-12-04T14:59:30Z</time>
      </trkpt>
      <trkpt lat="28.179573" lon="-14.161649">
        <ele>16.510</ele>
        <time>2023-12-04T15:00:27Z</time>
      </trkpt>
      <trkpt lat="28.179073" lon="-14.161882">
        <ele>14.524</ele>
        <time>2023-12-04T15:00:54Z</time>
      </trkpt>
      <trkpt lat="28.177650" lon="-14.163139">
        <ele>6.695</ele>
        <time>2023-12-04T15:02:22Z</time>
      </trkpt>
      <trkpt lat="28.177294" lon="-14.164060">
        <ele>8.484</ele>
        <time>2023-12-04T15:03:22Z</time>
      </trkpt>
      <trkpt lat="28.177303" lon="-14.164832">
        <ele>24.655</ele>
        <time>2023-12-04T15:04:54Z</time>
      </trkpt>
      <trkpt lat="28.176822" lon="-14.165265">
        <ele>30.219</ele>
        <time>2023-12-04T15:09:55Z</time>
      </trkpt>
      <trkpt lat="28.176307" lon="-14.165451">
        <ele>30.640</ele>
        <time>2023-12-04T15:10:36Z</time>
      </trkpt>
      <trkpt lat="28.175895" lon="-14.165916">
        <ele>30.478</ele>
        <time>2023-12-04T15:11:09Z</time>
      </trkpt>
      <trkpt lat="28.175678" lon="-14.166289">
        <ele>32.633</ele>
        <time>2023-12-04T15:11:31Z</time>
      </trkpt>
      <trkpt lat="28.175732" lon="-14.166514">
        <ele>32.726</ele>
        <time>2023-12-04T15:11:41Z</time>
      </trkpt>
      <trkpt lat="28.175531" lon="-14.166598">
        <ele>32.009</ele>
        <time>2023-12-04T15:11:51Z</time>
      </trkpt>
      <trkpt lat="28.175500" lon="-14.166912">
        <ele>32.228</ele>
        <time>2023-12-04T15:12:07Z</time>
      </trkpt>
      <trkpt lat="28.175298" lon="-14.167065">
        <ele>32.972</ele>
        <time>2023-12-04T15:12:22Z</time>
      </trkpt>
      <trkpt lat="28.175122" lon="-14.167574">
        <ele>34.511</ele>
        <time>2023-12-04T15:12:49Z</time>
      </trkpt>
      <trkpt lat="28.175200" lon="-14.168830">
        <ele>32.415</ele>
        <time>2023-12-04T15:14:02Z</time>
      </trkpt>
      <trkpt lat="28.175516" lon="-14.169014">
        <ele>32.826</ele>
        <time>2023-12-04T15:15:25Z</time>
      </trkpt>
      <trkpt lat="28.175327" lon="-14.169375">
        <ele>29.365</ele>
        <time>2023-12-04T15:15:35Z</time>
      </trkpt>
      <trkpt lat="28.175473" lon="-14.169316">
        <ele>29.256</ele>
        <time>2023-12-04T15:15:36Z</time>
      </trkpt>
      <trkpt lat="28.175524" lon="-14.168956">
        <ele>31.610</ele>
        <time>2023-12-04T15:15:49Z</time>
      </trkpt>
      <trkpt lat="28.175326" lon="-14.169138">
        <ele>32.331</ele>
        <time>2023-12-04T15:17:01Z</time>
      </trkpt>
      <trkpt lat="28.175529" lon="-14.169462">
        <ele>27.294</ele>
        <time>2023-12-04T15:17:31Z</time>
      </trkpt>
      <trkpt lat="28.175459" lon="-14.169927">
        <ele>21.857</ele>
        <time>2023-12-04T15:18:02Z</time>
      </trkpt>
      <trkpt lat="28.175785" lon="-14.170312">
        <ele>13.822</ele>
        <time>2023-12-04T15:18:39Z</time>
      </trkpt>
      <trkpt lat="28.175421" lon="-14.171899">
        <ele>23.709</ele>
        <time>2023-12-04T15:20:35Z</time>
      </trkpt>
      <trkpt lat="28.175697" lon="-14.172815">
        <ele>16.480</ele>
        <time>2023-12-04T15:21:39Z</time>
      </trkpt>
      <trkpt lat="28.175839" lon="-14.172911">
        <ele>11.074</ele>
        <time>2023-12-04T15:21:56Z</time>
      </trkpt>
      <trkpt lat="28.175638" lon="-14.173167">
        <ele>14.573</ele>
        <time>2023-12-04T15:22:21Z</time>
      </trkpt>
      <trkpt lat="28.175674" lon="-14.173533">
        <ele>15.517</ele>
        <time>2023-12-04T15:22:54Z</time>
      </trkpt>
      <trkpt lat="28.175087" lon="-14.174405">
        <ele>19.068</ele>
        <time>2023-12-04T15:24:16Z</time>
      </trkpt>
      <trkpt lat="28.175210" lon="-14.174624">
        <ele>24.247</ele>
        <time>2023-12-04T15:24:52Z</time>
      </trkpt>
      <trkpt lat="28.175157" lon="-14.175531">
        <ele>24.698</ele>
        <time>2023-12-04T15:25:49Z</time>
      </trkpt>
      <trkpt lat="28.174793" lon="-14.176507">
        <ele>22.362</ele>
        <time>2023-12-04T15:26:53Z</time>
      </trkpt>
      <trkpt lat="28.174188" lon="-14.177053">
        <ele>20.253</ele>
        <time>2023-12-04T15:27:50Z</time>
      </trkpt>
      <trkpt lat="28.174461" lon="-14.177679">
        <ele>15.323</ele>
        <time>2023-12-04T15:28:33Z</time>
      </trkpt>
      <trkpt lat="28.175021" lon="-14.177934">
        <ele>13.883</ele>
        <time>2023-12-04T15:29:13Z</time>
      </trkpt>
      <trkpt lat="28.174814" lon="-14.178328">
        <ele>16.611</ele>
        <time>2023-12-04T15:29:46Z</time>
      </trkpt>
      <trkpt lat="28.174964" lon="-14.179084">
        <ele>20.009</ele>
        <time>2023-12-04T15:30:34Z</time>
      </trkpt>
      <trkpt lat="28.174305" lon="-14.179591">
        <ele>17.813</ele>
        <time>2023-12-04T15:31:17Z</time>
      </trkpt>
      <trkpt lat="28.174165" lon="-14.180081">
        <ele>12.217</ele>
        <time>2023-12-04T15:31:54Z</time>
      </trkpt>
      <trkpt lat="28.174509" lon="-14.180428">
        <ele>9.546</ele>
        <time>2023-12-04T15:32:17Z</time>
      </trkpt>
      <trkpt lat="28.174532" lon="-14.180721">
        <ele>10.080</ele>
        <time>2023-12-04T15:32:31Z</time>
      </trkpt>
      <trkpt lat="28.175047" lon="-14.181189">
        <ele>17.211</ele>
        <time>2023-12-04T15:33:22Z</time>
      </trkpt>
      <trkpt lat="28.175068" lon="-14.181299">
        <ele>17.390</ele>
        <time>2023-12-04T15:33:30Z</time>
      </trkpt>
      <trkpt lat="28.174819" lon="-14.181335">
        <ele>16.871</ele>
        <time>2023-12-04T15:33:49Z</time>
      </trkpt>
      <trkpt lat="28.174835" lon="-14.181505">
        <ele>16.615</ele>
        <time>2023-12-04T15:34:03Z</time>
      </trkpt>
      <trkpt lat="28.175872" lon="-14.183512">
        <ele>13.956</ele>
        <time>2023-12-04T15:36:28Z</time>
      </trkpt>
      <trkpt lat="28.175758" lon="-14.184257">
        <ele>18.465</ele>
        <time>2023-12-04T15:37:21Z</time>
      </trkpt>
      <trkpt lat="28.174761" lon="-14.185390">
        <ele>15.268</ele>
        <time>2023-12-04T15:38:34Z</time>
      </trkpt>
      <trkpt lat="28.174220" lon="-14.186616">
        <ele>9.214</ele>
        <time>2023-12-04T15:39:46Z</time>
      </trkpt>
      <trkpt lat="28.174096" lon="-14.187834">
        <ele>6.409</ele>
        <time>2023-12-04T15:41:02Z</time>
      </trkpt>
      <trkpt lat="28.173851" lon="-14.188608">
        <ele>14.437</ele>
        <time>2023-12-04T15:42:03Z</time>
      </trkpt>
      <trkpt lat="28.174322" lon="-14.189227">
        <ele>15.911</ele>
        <time>2023-12-04T15:42:46Z</time>
      </trkpt>
      <trkpt lat="28.174667" lon="-14.191605">
        <ele>12.520</ele>
        <time>2023-12-04T15:45:15Z</time>
      </trkpt>
      <trkpt lat="28.174517" lon="-14.192230">
        <ele>11.764</ele>
        <time>2023-12-04T15:46:54Z</time>
      </trkpt>
      <trkpt lat="28.174571" lon="-14.195635">
        <ele>9.375</ele>
        <time>2023-12-04T15:50:11Z</time>
      </trkpt>
      <trkpt lat="28.173970" lon="-14.197494">
        <ele>4.614</ele>
        <time>2023-12-04T15:52:12Z</time>
      </trkpt>
      <trkpt lat="28.174362" lon="-14.197762">
        <ele>5.535</ele>
        <time>2023-12-04T15:52:49Z</time>
      </trkpt>
      <trkpt lat="28.174842" lon="-14.198394">
        <ele>7.599</ele>
        <time>2023-12-04T15:53:40Z</time>
      </trkpt>
      <trkpt lat="28.174641" lon="-14.199826">
        <ele>16.370</ele>
        <time>2023-12-04T15:55:11Z</time>
      </trkpt>
      <trkpt lat="28.174362" lon="-14.200694">
        <ele>21.257</ele>
        <time>2023-12-04T15:56:08Z</time>
      </trkpt>
      <trkpt lat="28.173631" lon="-14.201629">
        <ele>20.600</ele>
        <time>2023-12-04T15:57:26Z</time>
      </trkpt>
      <trkpt lat="28.173348" lon="-14.202326">
        <ele>14.220</ele>
        <time>2023-12-04T15:58:13Z</time>
      </trkpt>
      <trkpt lat="28.170951" lon="-14.203514">
        <ele>5.209</ele>
        <time>2023-12-04T16:01:20Z</time>
      </trkpt>
      <trkpt lat="28.169317" lon="-14.204972">
        <ele>7.556</ele>
        <time>2023-12-04T16:03:56Z</time>
      </trkpt>
      <trkpt lat="28.168551" lon="-14.205350">
        <ele>16.530</ele>
        <time>2023-12-04T16:05:01Z</time>
      </trkpt>
      <trkpt lat="28.168371" lon="-14.205858">
        <ele>19.569</ele>
        <time>2023-12-04T16:05:37Z</time>
      </trkpt>
      <trkpt lat="28.167730" lon="-14.206149">
        <ele>20.023</ele>
        <time>2023-12-04T16:06:25Z</time>
      </trkpt>
      <trkpt lat="28.167312" lon="-14.207413">
        <ele>20.824</ele>
        <time>2023-12-04T16:07:49Z</time>
      </trkpt>
      <trkpt lat="28.167643" lon="-14.208169">
        <ele>22.633</ele>
        <time>2023-12-04T16:08:41Z</time>
      </trkpt>
      <trkpt lat="28.166805" lon="-14.208919">
        <ele>19.484</ele>
        <time>2023-12-04T16:09:50Z</time>
      </trkpt>
      <trkpt lat="28.164972" lon="-14.213426">
        <ele>13.198</ele>
        <time>2023-12-04T16:14:49Z</time>
      </trkpt>
      <trkpt lat="28.164997" lon="-14.214072">
        <ele>12.519</ele>
        <time>2023-12-04T16:15:30Z</time>
      </trkpt>
      <trkpt lat="28.165207" lon="-14.214688">
        <ele>11.159</ele>
        <time>2023-12-04T16:16:10Z</time>
      </trkpt>
      <trkpt lat="28.165816" lon="-14.215741">
        <ele>9.103</ele>
        <time>2023-12-04T16:17:29Z</time>
      </trkpt>
      <trkpt lat="28.166538" lon="-14.216356">
        <ele>9.423</ele>
        <time>2023-12-04T16:18:28Z</time>
      </trkpt>
      <trkpt lat="28.167640" lon="-14.216575">
        <ele>13.709</ele>
        <time>2023-12-04T16:19:53Z</time>
      </trkpt>
      <trkpt lat="28.167354" lon="-14.219365">
        <ele>10.376</ele>
        <time>2023-12-04T16:22:41Z</time>
      </trkpt>
      <trkpt lat="28.167175" lon="-14.219709">
        <ele>7.830</ele>
        <time>2023-12-04T16:23:05Z</time>
      </trkpt>
      <trkpt lat="28.167367" lon="-14.220953">
        <ele>6.779</ele>
        <time>2023-12-04T16:24:21Z</time>
      </trkpt>
      <trkpt lat="28.167949" lon="-14.221112">
        <ele>6.563</ele>
        <time>2023-12-04T16:24:55Z</time>
      </trkpt>
      <trkpt lat="28.168276" lon="-14.221716">
        <ele>6.854</ele>
        <time>2023-12-04T16:25:36Z</time>
      </trkpt>
      <trkpt lat="28.168707" lon="-14.222119">
        <ele>7.863</ele>
        <time>2023-12-04T16:26:14Z</time>
      </trkpt>
      <trkpt lat="28.169243" lon="-14.222149">
        <ele>8.324</ele>
        <time>2023-12-04T16:26:50Z</time>
      </trkpt>
      <trkpt lat="28.170362" lon="-14.221472">
        <ele>13.438</ele>
        <time>2023-12-04T16:28:15Z</time>
      </trkpt>
      <trkpt lat="28.172065" lon="-14.222660">
        <ele>18.429</ele>
        <time>2023-12-04T16:30:32Z</time>
      </trkpt>
      <trkpt lat="28.172587" lon="-14.222876">
        <ele>21.524</ele>
        <time>2023-12-04T16:31:10Z</time>
      </trkpt>
      <trkpt lat="28.173436" lon="-14.222888">
        <ele>27.804</ele>
        <time>2023-12-04T16:32:13Z</time>
      </trkpt>
      <trkpt lat="28.173616" lon="-14.223158">
        <ele>30.514</ele>
        <time>2023-12-04T16:32:38Z</time>
      </trkpt>
    </trkseg>
  </trk></gpx>