<?xml version="1.0" encoding="UTF-8"?>
<gpx creator="Wikiloc - https://www.wikiloc.com" version="1.1" xmlns="http://www.topografix.com/GPX/1/1" xmlns:xsi="http://www.w3.org/2001/XMLSchema-instance" xsi:schemaLocation="http://www.topografix.com/GPX/1/1 http://www.topografix.com/GPX/1/1/gpx.xsd">
  <metadata>
    <name>Wikiloc - Lanzarote: El Golfo -Ruta del Litoral</name>
    <link href="https://www.wikiloc.com/hiking-trails/lanzarote-el-golfo-ruta-del-litoral-83158615">
      <text>Lanzarote: El Golfo -Ruta del Litoral - Wikiloc on Wikiloc</text>
    </link>
    <time>2021-09-06T14:17:31Z</time>
  </metadata>
  <trk>
    <name>Lanzarote: El Golfo -Ruta del Litoral - Wikiloc</name>
    <cmt></cmt>
    <desc></desc>
    <trkseg>
      <trkpt lat="28.985486" lon="-13.831885">
        <ele>6.267</ele>
        <time>2021-09-06T10:00:49Z</time>
      </trkpt>
      <trkpt lat="28.985599" lon="-13.832067">
        <ele>5.981</ele>
        <time>2021-09-06T10:01:09Z</time>
      </trkpt>
      <trkpt lat="28.986303" lon="-13.832101">
        <ele>10.319</ele>
        <time>2021-09-06T10:02:47Z</time>
      </trkpt>
      <trkpt lat="28.987426" lon="-13.832375">
        <ele>4.708</ele>
        <time>2021-09-06T10:04:53Z</time>
      </trkpt>
      <trkpt lat="28.987716" lon="-13.832548">
        <ele>3.974</ele>
        <time>2021-09-06T10:05:21Z</time>
      </trkpt>
      <trkpt lat="28.988492" lon="-13.832667">
        <ele>9.149</ele>
        <time>2021-09-06T10:08:59Z</time>
      </trkpt>
      <trkpt lat="28.988614" lon="-13.832540">
        <ele>12.447</ele>
        <time>2021-09-06T10:09:26Z</time>
      </trkpt>
      <trkpt lat="28.988859" lon="-13.832563">
        <ele>13.221</ele>
        <time>2021-09-06T10:09:52Z</time>
      </trkpt>
      <trkpt lat="28.988821" lon="-13.832752">
        <ele>10.824</ele>
        <time>2021-09-06T10:13:17Z</time>
      </trkpt>
      <trkpt lat="28.988972" lon="-13.832950">
        <ele>11.152</ele>
        <time>2021-09-06T10:13:44Z</time>
      </trkpt>
      <trkpt lat="28.988893" lon="-13.833146">
        <ele>8.177</ele>
        <time>2021-09-06T10:14:05Z</time>
      </trkpt>
      <trkpt lat="28.989061" lon="-13.833257">
        <ele>9.011</ele>
        <time>2021-09-06T10:14:31Z</time>
      </trkpt>
      <trkpt lat="28.990026" lon="-13.833280">
        <ele>10.789</ele>
        <time>2021-09-06T10:16:43Z</time>
      </trkpt>
      <trkpt lat="28.990491" lon="-13.833117">
        <ele>13.206</ele>
        <time>2021-09-06T10:17:57Z</time>
      </trkpt>
      <trkpt lat="28.990640" lon="-13.833156">
        <ele>11.826</ele>
        <time>2021-09-06T10:18:33Z</time>
      </trkpt>
      <trkpt lat="28.990584" lon="-13.833112">
        <ele>12.908</ele>
        <time>2021-09-06T10:19:43Z</time>
      </trkpt>
      <trkpt lat="28.990918" lon="-13.832828">
        <ele>21.716</ele>
        <time>2021-09-06T10:21:42Z</time>
      </trkpt>
      <trkpt lat="28.991285" lon="-13.832954">
        <ele>15.741</ele>
        <time>2021-09-06T10:22:26Z</time>
      </trkpt>
      <trkpt lat="28.991914" lon="-13.832410">
        <ele>21.259</ele>
        <time>2021-09-06T10:24:51Z</time>
      </trkpt>
      <trkpt lat="28.992417" lon="-13.832207">
        <ele>23.273</ele>
        <time>2021-09-06T10:26:03Z</time>
      </trkpt>
      <trkpt lat="28.993198" lon="-13.832339">
        <ele>22.476</ele>
        <time>2021-09-06T10:27:42Z</time>
      </trkpt>
      <trkpt lat="28.993376" lon="-13.832438">
        <ele>19.154</ele>
        <time>2021-09-06T10:28:08Z</time>
      </trkpt>
      <trkpt lat="28.993826" lon="-13.832380">
        <ele>9.999</ele>
        <time>2021-09-06T10:28:51Z</time>
      </trkpt>
      <trkpt lat="28.994134" lon="-13.832117">
        <ele>11.243</ele>
        <time>2021-09-06T10:29:53Z</time>
      </trkpt>
      <trkpt lat="28.994074" lon="-13.831298">
        <ele>24.049</ele>
        <time>2021-09-06T10:31:45Z</time>
      </trkpt>
      <trkpt lat="28.994230" lon="-13.831157">
        <ele>22.702</ele>
        <time>2021-09-06T10:32:02Z</time>
      </trkpt>
      <trkpt lat="28.994521" lon="-13.831074">
        <ele>22.022</ele>
        <time>2021-09-06T10:32:30Z</time>
      </trkpt>
      <trkpt lat="28.994663" lon="-13.830843">
        <ele>25.708</ele>
        <time>2021-09-06T10:32:56Z</time>
      </trkpt>
      <trkpt lat="28.995496" lon="-13.830682">
        <ele>26.092</ele>
        <time>2021-09-06T10:34:30Z</time>
      </trkpt>
      <trkpt lat="28.995802" lon="-13.830515">
        <ele>30.127</ele>
        <time>2021-09-06T10:35:23Z</time>
      </trkpt>
      <trkpt lat="28.996032" lon="-13.830136">
        <ele>28.665</ele>
        <time>2021-09-06T10:36:11Z</time>
      </trkpt>
      <trkpt lat="28.996234" lon="-13.829996">
        <ele>27.019</ele>
        <time>2021-09-06T10:37:26Z</time>
      </trkpt>
      <trkpt lat="28.996203" lon="-13.829838">
        <ele>32.192</ele>
        <time>2021-09-06T10:38:00Z</time>
      </trkpt>
      <trkpt lat="28.996316" lon="-13.829718">
        <ele>36.050</ele>
        <time>2021-09-06T10:38:14Z</time>
      </trkpt>
      <trkpt lat="28.996586" lon="-13.829634">
        <ele>37.295</ele>
        <time>2021-09-06T10:38:49Z</time>
      </trkpt>
      <trkpt lat="28.997110" lon="-13.829748">
        <ele>32.539</ele>
        <time>2021-09-06T10:40:03Z</time>
      </trkpt>
      <trkpt lat="28.997245" lon="-13.829696">
        <ele>32.562</ele>
        <time>2021-09-06T10:40:26Z</time>
      </trkpt>
      <trkpt lat="28.997261" lon="-13.829594">
        <ele>36.783</ele>
        <time>2021-09-06T10:41:07Z</time>
      </trkpt>
      <trkpt lat="28.997932" lon="-13.829472">
        <ele>34.711</ele>
        <time>2021-09-06T10:43:17Z</time>
      </trkpt>
      <trkpt lat="28.998035" lon="-13.829072">
        <ele>41.808</ele>
        <time>2021-09-06T10:44:12Z</time>
      </trkpt>
      <trkpt lat="28.998430" lon="-13.828640">
        <ele>44.234</ele>
        <time>2021-09-06T10:45:42Z</time>
      </trkpt>
      <trkpt lat="28.998537" lon="-13.828639">
        <ele>42.659</ele>
        <time>2021-09-06T10:46:23Z</time>
      </trkpt>
      <trkpt lat="28.998856" lon="-13.828155">
        <ele>45.597</ele>
        <time>2021-09-06T10:47:31Z</time>
      </trkpt>
      <trkpt lat="28.999143" lon="-13.828144">
        <ele>39.771</ele>
        <time>2021-09-06T10:48:19Z</time>
      </trkpt>
      <trkpt lat="28.999287" lon="-13.827923">
        <ele>40.384</ele>
        <time>2021-09-06T10:49:01Z</time>
      </trkpt>
      <trkpt lat="28.999798" lon="-13.827600">
        <ele>34.252</ele>
        <time>2021-09-06T10:50:21Z</time>
      </trkpt>
      <trkpt lat="29.000071" lon="-13.827499">
        <ele>32.787</ele>
        <time>2021-09-06T10:50:54Z</time>
      </trkpt>
      <trkpt lat="29.000355" lon="-13.827549">
        <ele>31.091</ele>
        <time>2021-09-06T10:51:37Z</time>
      </trkpt>
      <trkpt lat="29.000862" lon="-13.827338">
        <ele>29.067</ele>
        <time>2021-09-06T10:52:40Z</time>
      </trkpt>
      <trkpt lat="29.000968" lon="-13.827450">
        <ele>26.681</ele>
        <time>2021-09-06T10:52:57Z</time>
      </trkpt>
      <trkpt lat="29.001196" lon="-13.827499">
        <ele>25.619</ele>
        <time>2021-09-06T10:53:26Z</time>
      </trkpt>
      <trkpt lat="29.002061" lon="-13.828168">
        <ele>26.208</ele>
        <time>2021-09-06T10:58:20Z</time>
      </trkpt>
      <trkpt lat="29.002546" lon="-13.828303">
        <ele>24.074</ele>
        <time>2021-09-06T10:59:15Z</time>
      </trkpt>
      <trkpt lat="29.003755" lon="-13.829271">
        <ele>20.559</ele>
        <time>2021-09-06T11:05:34Z</time>
      </trkpt>
      <trkpt lat="29.003943" lon="-13.829336">
        <ele>17.927</ele>
        <time>2021-09-06T11:05:59Z</time>
      </trkpt>
      <trkpt lat="29.004342" lon="-13.829179">
        <ele>15.821</ele>
        <time>2021-09-06T11:08:41Z</time>
      </trkpt>
      <trkpt lat="29.004592" lon="-13.829334">
        <ele>14.464</ele>
        <time>2021-09-06T11:09:15Z</time>
      </trkpt>
      <trkpt lat="29.004961" lon="-13.829087">
        <ele>15.362</ele>
        <time>2021-09-06T11:13:05Z</time>
      </trkpt>
      <trkpt lat="29.005286" lon="-13.829285">
        <ele>7.527</ele>
        <time>2021-09-06T11:14:23Z</time>
      </trkpt>
      <trkpt lat="29.005429" lon="-13.829251">
        <ele>9.171</ele>
        <time>2021-09-06T11:14:40Z</time>
      </trkpt>
      <trkpt lat="29.005748" lon="-13.829360">
        <ele>9.886</ele>
        <time>2021-09-06T11:15:26Z</time>
      </trkpt>
      <trkpt lat="29.005721" lon="-13.829442">
        <ele>8.260</ele>
        <time>2021-09-06T11:16:27Z</time>
      </trkpt>
      <trkpt lat="29.005843" lon="-13.829487">
        <ele>8.126</ele>
        <time>2021-09-06T11:20:10Z</time>
      </trkpt>
      <trkpt lat="29.006814" lon="-13.829673">
        <ele>8.408</ele>
        <time>2021-09-06T11:22:36Z</time>
      </trkpt>
      <trkpt lat="29.007018" lon="-13.829644">
        <ele>7.596</ele>
        <time>2021-09-06T11:22:56Z</time>
      </trkpt>
      <trkpt lat="29.007898" lon="-13.829010">
        <ele>13.351</ele>
        <time>2021-09-06T11:24:52Z</time>
      </trkpt>
      <trkpt lat="29.008181" lon="-13.828972">
        <ele>12.179</ele>
        <time>2021-09-06T11:25:23Z</time>
      </trkpt>
      <trkpt lat="29.008830" lon="-13.828505">
        <ele>13.063</ele>
        <time>2021-09-06T11:27:01Z</time>
      </trkpt>
      <trkpt lat="29.009204" lon="-13.828158">
        <ele>11.956</ele>
        <time>2021-09-06T11:28:32Z</time>
      </trkpt>
      <trkpt lat="29.009326" lon="-13.827912">
        <ele>13.754</ele>
        <time>2021-09-06T11:29:01Z</time>
      </trkpt>
      <trkpt lat="29.009692" lon="-13.827621">
        <ele>16.339</ele>
        <time>2021-09-06T11:29:51Z</time>
      </trkpt>
      <trkpt lat="29.009819" lon="-13.827388">
        <ele>17.593</ele>
        <time>2021-09-06T11:30:19Z</time>
      </trkpt>
      <trkpt lat="29.010480" lon="-13.827159">
        <ele>18.966</ele>
        <time>2021-09-06T11:31:58Z</time>
      </trkpt>
      <trkpt lat="29.010751" lon="-13.827329">
        <ele>11.929</ele>
        <time>2021-09-06T11:33:10Z</time>
      </trkpt>
      <trkpt lat="29.011150" lon="-13.826835">
        <ele>12.521</ele>
        <time>2021-09-06T11:34:12Z</time>
      </trkpt>
      <trkpt lat="29.011680" lon="-13.826567">
        <ele>14.408</ele>
        <time>2021-09-06T11:35:12Z</time>
      </trkpt>
      <trkpt lat="29.011922" lon="-13.826602">
        <ele>12.914</ele>
        <time>2021-09-06T11:35:54Z</time>
      </trkpt>
      <trkpt lat="29.012186" lon="-13.826356">
        <ele>14.399</ele>
        <time>2021-09-06T11:36:28Z</time>
      </trkpt>
      <trkpt lat="29.012448" lon="-13.826273">
        <ele>12.547</ele>
        <time>2021-09-06T11:36:57Z</time>
      </trkpt>
      <trkpt lat="29.013077" lon="-13.825516">
        <ele>17.381</ele>
        <time>2021-09-06T11:39:43Z</time>
      </trkpt>
      <trkpt lat="29.013089" lon="-13.825167">
        <ele>19.794</ele>
        <time>2021-09-06T11:40:29Z</time>
      </trkpt>
      <trkpt lat="29.013343" lon="-13.825179">
        <ele>15.692</ele>
        <time>2021-09-06T11:41:09Z</time>
      </trkpt>
      <trkpt lat="29.013782" lon="-13.824735">
        <ele>18.487</ele>
        <time>2021-09-06T11:42:55Z</time>
      </trkpt>
      <trkpt lat="29.015300" lon="-13.824017">
        <ele>8.091</ele>
        <time>2021-09-06T11:46:43Z</time>
      </trkpt>
      <trkpt lat="29.015888" lon="-13.823484">
        <ele>10.252</ele>
        <time>2021-09-06T11:59:24Z</time>
      </trkpt>
      <trkpt lat="29.015974" lon="-13.823215">
        <ele>12.453</ele>
        <time>2021-09-06T11:59:48Z</time>
      </trkpt>
      <trkpt lat="29.016307" lon="-13.822868">
        <ele>12.808</ele>
        <time>2021-09-06T12:00:43Z</time>
      </trkpt>
      <trkpt lat="29.016386" lon="-13.822573">
        <ele>13.708</ele>
        <time>2021-09-06T12:01:41Z</time>
      </trkpt>
      <trkpt lat="29.017592" lon="-13.821993">
        <ele>10.583</ele>
        <time>2021-09-06T12:04:03Z</time>
      </trkpt>
      <trkpt lat="29.017939" lon="-13.822057">
        <ele>11.488</ele>
        <time>2021-09-06T12:04:37Z</time>
      </trkpt>
      <trkpt lat="29.018280" lon="-13.821934">
        <ele>11.446</ele>
        <time>2021-09-06T12:05:09Z</time>
      </trkpt>
      <trkpt lat="29.018863" lon="-13.821904">
        <ele>7.760</ele>
        <time>2021-09-06T12:06:20Z</time>
      </trkpt>
      <trkpt lat="29.019229" lon="-13.821387">
        <ele>14.033</ele>
        <time>2021-09-06T12:07:20Z</time>
      </trkpt>
      <trkpt lat="29.020249" lon="-13.820621">
        <ele>13.141</ele>
        <time>2021-09-06T12:09:43Z</time>
      </trkpt>
      <trkpt lat="29.020556" lon="-13.820615">
        <ele>11.426</ele>
        <time>2021-09-06T12:10:30Z</time>
      </trkpt>
      <trkpt lat="29.020646" lon="-13.820491">
        <ele>12.750</ele>
        <time>2021-09-06T12:11:11Z</time>
      </trkpt>
      <trkpt lat="29.021024" lon="-13.820397">
        <ele>13.069</ele>
        <time>2021-09-06T12:12:18Z</time>
      </trkpt>
      <trkpt lat="29.021446" lon="-13.819943">
        <ele>13.504</ele>
        <time>2021-09-06T12:13:15Z</time>
      </trkpt>
      <trkpt lat="29.021607" lon="-13.820062">
        <ele>10.124</ele>
        <time>2021-09-06T12:13:37Z</time>
      </trkpt>
      <trkpt lat="29.021810" lon="-13.820054">
        <ele>8.508</ele>
        <time>2021-09-06T12:14:10Z</time>
      </trkpt>
      <trkpt lat="29.022160" lon="-13.819732">
        <ele>10.474</ele>
        <time>2021-09-06T12:14:58Z</time>
      </trkpt>
      <trkpt lat="29.022230" lon="-13.819539">
        <ele>11.319</ele>
        <time>2021-09-06T12:15:20Z</time>
      </trkpt>
      <trkpt lat="29.022472" lon="-13.819623">
        <ele>9.627</ele>
        <time>2021-09-06T12:15:48Z</time>
      </trkpt>
      <trkpt lat="29.023352" lon="-13.819097">
        <ele>9.461</ele>
        <time>2021-09-06T12:18:18Z</time>
      </trkpt>
      <trkpt lat="29.023558" lon="-13.818783">
        <ele>11.614</ele>
        <time>2021-09-06T12:18:55Z</time>
      </trkpt>
      <trkpt lat="29.023753" lon="-13.818722">
        <ele>10.972</ele>
        <time>2021-09-06T12:19:19Z</time>
      </trkpt>
      <trkpt lat="29.024020" lon="-13.818367">
        <ele>13.977</ele>
        <time>2021-09-06T12:20:56Z</time>
      </trkpt>
      <trkpt lat="29.024157" lon="-13.818346">
        <ele>11.971</ele>
        <time>2021-09-06T12:21:25Z</time>
      </trkpt>
      <trkpt lat="29.024217" lon="-13.818148">
        <ele>15.373</ele>
        <time>2021-09-06T12:22:28Z</time>
      </trkpt>
      <trkpt lat="29.024745" lon="-13.817907">
        <ele>16.085</ele>
        <time>2021-09-06T12:24:14Z</time>
      </trkpt>
      <trkpt lat="29.025134" lon="-13.817260">
        <ele>10.813</ele>
        <time>2021-09-06T12:25:25Z</time>
      </trkpt>
      <trkpt lat="29.025270" lon="-13.817187">
        <ele>10.308</ele>
        <time>2021-09-06T12:25:42Z</time>
      </trkpt>
      <trkpt lat="29.025490" lon="-13.817259">
        <ele>11.995</ele>
        <time>2021-09-06T12:26:08Z</time>
      </trkpt>
      <trkpt lat="29.026211" lon="-13.816921">
        <ele>13.170</ele>
        <time>2021-09-06T12:27:38Z</time>
      </trkpt>
      <trkpt lat="29.026469" lon="-13.816915">
        <ele>11.218</ele>
        <time>2021-09-06T12:28:07Z</time>
      </trkpt>
      <trkpt lat="29.026877" lon="-13.816760">
        <ele>10.262</ele>
        <time>2021-09-06T12:28:53Z</time>
      </trkpt>
      <trkpt lat="29.027717" lon="-13.816224">
        <ele>8.425</ele>
        <time>2021-09-06T12:31:24Z</time>
      </trkpt>
      <trkpt lat="29.027313" lon="-13.816547">
        <ele>9.153</ele>
        <time>2021-09-06T12:34:57Z</time>
      </trkpt>
      <trkpt lat="29.026927" lon="-13.816696">
        <ele>10.028</ele>
        <time>2021-09-06T12:36:02Z</time>
      </trkpt>
      <trkpt lat="29.026880" lon="-13.816799">
        <ele>10.072</ele>
        <time>2021-09-06T12:36:16Z</time>
      </trkpt>
      <trkpt lat="29.026388" lon="-13.816885">
        <ele>11.473</ele>
        <time>2021-09-06T12:37:06Z</time>
      </trkpt>
      <trkpt lat="29.025517" lon="-13.817281">
        <ele>12.085</ele>
        <time>2021-09-06T12:39:02Z</time>
      </trkpt>
      <trkpt lat="29.025284" lon="-13.817227">
        <ele>10.013</ele>
        <time>2021-09-06T12:39:28Z</time>
      </trkpt>
      <trkpt lat="29.025143" lon="-13.817296">
        <ele>10.608</ele>
        <time>2021-09-06T12:40:02Z</time>
      </trkpt>
      <trkpt lat="29.024808" lon="-13.817901">
        <ele>14.615</ele>
        <time>2021-09-06T12:41:09Z</time>
      </trkpt>
      <trkpt lat="29.024331" lon="-13.818046">
        <ele>17.040</ele>
        <time>2021-09-06T12:42:08Z</time>
      </trkpt>
      <trkpt lat="29.024139" lon="-13.818372">
        <ele>11.768</ele>
        <time>2021-09-06T12:43:04Z</time>
      </trkpt>
      <trkpt lat="29.023888" lon="-13.818540">
        <ele>12.572</ele>
        <time>2021-09-06T12:43:33Z</time>
      </trkpt>
      <trkpt lat="29.023786" lon="-13.818731">
        <ele>10.465</ele>
        <time>2021-09-06T12:43:52Z</time>
      </trkpt>
      <trkpt lat="29.023560" lon="-13.818834">
        <ele>10.913</ele>
        <time>2021-09-06T12:44:30Z</time>
      </trkpt>
      <trkpt lat="29.023267" lon="-13.819194">
        <ele>8.938</ele>
        <time>2021-09-06T12:45:18Z</time>
      </trkpt>
      <trkpt lat="29.023115" lon="-13.819215">
        <ele>9.822</ele>
        <time>2021-09-06T12:45:34Z</time>
      </trkpt>
      <trkpt lat="29.022869" lon="-13.819449">
        <ele>8.949</ele>
        <time>2021-09-06T12:46:25Z</time>
      </trkpt>
      <trkpt lat="29.022458" lon="-13.819638">
        <ele>9.402</ele>
        <time>2021-09-06T12:47:24Z</time>
      </trkpt>
      <trkpt lat="29.022226" lon="-13.819572">
        <ele>11.122</ele>
        <time>2021-09-06T12:47:46Z</time>
      </trkpt>
      <trkpt lat="29.022125" lon="-13.819839">
        <ele>9.708</ele>
        <time>2021-09-06T12:48:15Z</time>
      </trkpt>
      <trkpt lat="29.021820" lon="-13.820074">
        <ele>7.952</ele>
        <time>2021-09-06T12:49:00Z</time>
      </trkpt>
      <trkpt lat="29.021479" lon="-13.819971">
        <ele>13.177</ele>
        <time>2021-09-06T12:49:43Z</time>
      </trkpt>
      <trkpt lat="29.021102" lon="-13.820380">
        <ele>12.975</ele>
        <time>2021-09-06T12:50:39Z</time>
      </trkpt>
      <trkpt lat="29.020646" lon="-13.820491">
        <ele>12.769</ele>
        <time>2021-09-06T12:51:40Z</time>
      </trkpt>
      <trkpt lat="29.020609" lon="-13.820604">
        <ele>11.472</ele>
        <time>2021-09-06T12:51:52Z</time>
      </trkpt>
      <trkpt lat="29.020324" lon="-13.820606">
        <ele>12.410</ele>
        <time>2021-09-06T12:52:38Z</time>
      </trkpt>
      <trkpt lat="29.019896" lon="-13.820851">
        <ele>15.295</ele>
        <time>2021-09-06T12:53:25Z</time>
      </trkpt>
      <trkpt lat="29.019269" lon="-13.821367">
        <ele>14.129</ele>
        <time>2021-09-06T12:55:20Z</time>
      </trkpt>
      <trkpt lat="29.018887" lon="-13.821923">
        <ele>7.383</ele>
        <time>2021-09-06T12:56:46Z</time>
      </trkpt>
      <trkpt lat="29.018285" lon="-13.821908">
        <ele>11.525</ele>
        <time>2021-09-06T12:57:43Z</time>
      </trkpt>
      <trkpt lat="29.017948" lon="-13.822033">
        <ele>11.617</ele>
        <time>2021-09-06T12:58:16Z</time>
      </trkpt>
      <trkpt lat="29.017553" lon="-13.821980">
        <ele>10.608</ele>
        <time>2021-09-06T12:59:08Z</time>
      </trkpt>
      <trkpt lat="29.017510" lon="-13.822067">
        <ele>10.196</ele>
        <time>2021-09-06T12:59:18Z</time>
      </trkpt>
      <trkpt lat="29.016425" lon="-13.822531">
        <ele>13.581</ele>
        <time>2021-09-06T13:01:06Z</time>
      </trkpt>
      <trkpt lat="29.016352" lon="-13.822605">
        <ele>13.879</ele>
        <time>2021-09-06T13:01:16Z</time>
      </trkpt>
      <trkpt lat="29.016351" lon="-13.822880">
        <ele>12.063</ele>
        <time>2021-09-06T13:01:59Z</time>
      </trkpt>
      <trkpt lat="29.016009" lon="-13.823199">
        <ele>12.586</ele>
        <time>2021-09-06T13:02:45Z</time>
      </trkpt>
      <trkpt lat="29.015954" lon="-13.823483">
        <ele>9.984</ele>
        <time>2021-09-06T13:03:10Z</time>
      </trkpt>
      <trkpt lat="29.015744" lon="-13.823706">
        <ele>8.319</ele>
        <time>2021-09-06T13:04:09Z</time>
      </trkpt>
      <trkpt lat="29.015493" lon="-13.823812">
        <ele>8.473</ele>
        <time>2021-09-06T13:04:36Z</time>
      </trkpt>
      <trkpt lat="29.015149" lon="-13.824128">
        <ele>8.286</ele>
        <time>2021-09-06T13:05:21Z</time>
      </trkpt>
      <trkpt lat="29.013981" lon="-13.824638">
        <ele>15.460</ele>
        <time>2021-09-06T13:07:46Z</time>
      </trkpt>
      <trkpt lat="29.013398" lon="-13.825156">
        <ele>15.126</ele>
        <time>2021-09-06T13:09:05Z</time>
      </trkpt>
      <trkpt lat="29.013087" lon="-13.825165">
        <ele>19.808</ele>
        <time>2021-09-06T13:09:36Z</time>
      </trkpt>
      <trkpt lat="29.013061" lon="-13.825584">
        <ele>17.016</ele>
        <time>2021-09-06T13:10:20Z</time>
      </trkpt>
      <trkpt lat="29.012501" lon="-13.826275">
        <ele>11.971</ele>
        <time>2021-09-06T13:11:45Z</time>
      </trkpt>
      <trkpt lat="29.012218" lon="-13.826355">
        <ele>13.769</ele>
        <time>2021-09-06T13:12:14Z</time>
      </trkpt>
      <trkpt lat="29.011961" lon="-13.826613">
        <ele>12.343</ele>
        <time>2021-09-06T13:12:51Z</time>
      </trkpt>
      <trkpt lat="29.011702" lon="-13.826587">
        <ele>14.086</ele>
        <time>2021-09-06T13:13:20Z</time>
      </trkpt>
      <trkpt lat="29.011269" lon="-13.826766">
        <ele>11.464</ele>
        <time>2021-09-06T13:14:03Z</time>
      </trkpt>
      <trkpt lat="29.010728" lon="-13.827292">
        <ele>13.289</ele>
        <time>2021-09-06T13:16:02Z</time>
      </trkpt>
      <trkpt lat="29.010458" lon="-13.827157">
        <ele>18.893</ele>
        <time>2021-09-06T13:16:28Z</time>
      </trkpt>
      <trkpt lat="29.010216" lon="-13.827312">
        <ele>15.626</ele>
        <time>2021-09-06T13:16:53Z</time>
      </trkpt>
      <trkpt lat="29.009863" lon="-13.827373">
        <ele>17.147</ele>
        <time>2021-09-06T13:17:29Z</time>
      </trkpt>
      <trkpt lat="29.009703" lon="-13.827659">
        <ele>15.811</ele>
        <time>2021-09-06T13:18:02Z</time>
      </trkpt>
      <trkpt lat="29.009336" lon="-13.827924">
        <ele>13.508</ele>
        <time>2021-09-06T13:18:46Z</time>
      </trkpt>
      <trkpt lat="29.009264" lon="-13.828153">
        <ele>11.450</ele>
        <time>2021-09-06T13:19:15Z</time>
      </trkpt>
      <trkpt lat="29.008921" lon="-13.828465">
        <ele>12.355</ele>
        <time>2021-09-06T13:20:03Z</time>
      </trkpt>
      <trkpt lat="29.008266" lon="-13.828961">
        <ele>11.223</ele>
        <time>2021-09-06T13:21:34Z</time>
      </trkpt>
      <trkpt lat="29.007921" lon="-13.829016">
        <ele>13.127</ele>
        <time>2021-09-06T13:22:23Z</time>
      </trkpt>
      <trkpt lat="29.007002" lon="-13.829685">
        <ele>7.040</ele>
        <time>2021-09-06T13:24:26Z</time>
      </trkpt>
      <trkpt lat="29.005883" lon="-13.829495">
        <ele>8.588</ele>
        <time>2021-09-06T13:26:17Z</time>
      </trkpt>
      <trkpt lat="29.005776" lon="-13.829355">
        <ele>10.123</ele>
        <time>2021-09-06T13:26:32Z</time>
      </trkpt>
      <trkpt lat="29.005237" lon="-13.829252">
        <ele>8.887</ele>
        <time>2021-09-06T13:27:32Z</time>
      </trkpt>
      <trkpt lat="29.005031" lon="-13.829111">
        <ele>14.646</ele>
        <time>2021-09-06T13:27:55Z</time>
      </trkpt>
      <trkpt lat="29.004933" lon="-13.829106">
        <ele>15.588</ele>
        <time>2021-09-06T13:28:07Z</time>
      </trkpt>
      <trkpt lat="29.004659" lon="-13.829338">
        <ele>14.816</ele>
        <time>2021-09-06T13:28:46Z</time>
      </trkpt>
      <trkpt lat="29.004395" lon="-13.829194">
        <ele>15.608</ele>
        <time>2021-09-06T13:29:16Z</time>
      </trkpt>
      <trkpt lat="29.003986" lon="-13.829332">
        <ele>17.212</ele>
        <time>2021-09-06T13:30:41Z</time>
      </trkpt>
      <trkpt lat="29.003908" lon="-13.829254">
        <ele>19.177</ele>
        <time>2021-09-06T13:30:50Z</time>
      </trkpt>
      <trkpt lat="29.003808" lon="-13.829297">
        <ele>19.815</ele>
        <time>2021-09-06T13:31:00Z</time>
      </trkpt>
      <trkpt lat="29.003181" lon="-13.828729">
        <ele>22.579</ele>
        <time>2021-09-06T13:32:18Z</time>
      </trkpt>
      <trkpt lat="29.002678" lon="-13.828462">
        <ele>22.932</ele>
        <time>2021-09-06T13:33:15Z</time>
      </trkpt>
      <trkpt lat="29.002576" lon="-13.828318">
        <ele>23.810</ele>
        <time>2021-09-06T13:33:31Z</time>
      </trkpt>
      <trkpt lat="29.002103" lon="-13.828188">
        <ele>26.075</ele>
        <time>2021-09-06T13:34:19Z</time>
      </trkpt>
      <trkpt lat="29.001260" lon="-13.827537">
        <ele>26.139</ele>
        <time>2021-09-06T13:35:59Z</time>
      </trkpt>
      <trkpt lat="29.000987" lon="-13.827463">
        <ele>26.349</ele>
        <time>2021-09-06T13:38:05Z</time>
      </trkpt>
      <trkpt lat="29.000885" lon="-13.827345">
        <ele>28.702</ele>
        <time>2021-09-06T13:38:20Z</time>
      </trkpt>
      <trkpt lat="29.000385" lon="-13.827571">
        <ele>30.622</ele>
        <time>2021-09-06T13:39:17Z</time>
      </trkpt>
      <trkpt lat="29.000142" lon="-13.827524">
        <ele>32.308</ele>
        <time>2021-09-06T13:39:49Z</time>
      </trkpt>
      <trkpt lat="28.999849" lon="-13.827618">
        <ele>33.542</ele>
        <time>2021-09-06T13:40:22Z</time>
      </trkpt>
      <trkpt lat="28.999354" lon="-13.827904">
        <ele>39.367</ele>
        <time>2021-09-06T13:41:35Z</time>
      </trkpt>
      <trkpt lat="28.999220" lon="-13.828143">
        <ele>37.795</ele>
        <time>2021-09-06T13:42:03Z</time>
      </trkpt>
      <trkpt lat="28.998939" lon="-13.828143">
        <ele>44.389</ele>
        <time>2021-09-06T13:42:43Z</time>
      </trkpt>
      <trkpt lat="28.998580" lon="-13.828663">
        <ele>41.642</ele>
        <time>2021-09-06T13:43:54Z</time>
      </trkpt>
      <trkpt lat="28.998348" lon="-13.828761">
        <ele>44.190</ele>
        <time>2021-09-06T13:44:27Z</time>
      </trkpt>
      <trkpt lat="28.998002" lon="-13.829199">
        <ele>39.615</ele>
        <time>2021-09-06T13:45:40Z</time>
      </trkpt>
      <trkpt lat="28.997954" lon="-13.829500">
        <ele>33.949</ele>
        <time>2021-09-06T13:46:37Z</time>
      </trkpt>
      <trkpt lat="28.997269" lon="-13.829612">
        <ele>35.729</ele>
        <time>2021-09-06T13:48:08Z</time>
      </trkpt>
      <trkpt lat="28.997201" lon="-13.829738">
        <ele>31.400</ele>
        <time>2021-09-06T13:48:31Z</time>
      </trkpt>
      <trkpt lat="28.996855" lon="-13.829771">
        <ele>34.620</ele>
        <time>2021-09-06T13:49:09Z</time>
      </trkpt>
      <trkpt lat="28.996630" lon="-13.829663">
        <ele>36.808</ele>
        <time>2021-09-06T13:49:32Z</time>
      </trkpt>
      <trkpt lat="28.996298" lon="-13.829745">
        <ele>35.390</ele>
        <time>2021-09-06T13:50:13Z</time>
      </trkpt>
      <trkpt lat="28.996230" lon="-13.830003">
        <ele>26.835</ele>
        <time>2021-09-06T13:50:43Z</time>
      </trkpt>
      <trkpt lat="28.995785" lon="-13.830549">
        <ele>29.953</ele>
        <time>2021-09-06T13:52:06Z</time>
      </trkpt>
      <trkpt lat="28.995482" lon="-13.830714">
        <ele>25.367</ele>
        <time>2021-09-06T13:52:46Z</time>
      </trkpt>
      <trkpt lat="28.994688" lon="-13.830890">
        <ele>25.240</ele>
        <time>2021-09-06T13:54:02Z</time>
      </trkpt>
      <trkpt lat="28.994529" lon="-13.831097">
        <ele>21.828</ele>
        <time>2021-09-06T13:54:27Z</time>
      </trkpt>
      <trkpt lat="28.994157" lon="-13.831246">
        <ele>22.793</ele>
        <time>2021-09-06T13:55:02Z</time>
      </trkpt>
      <trkpt lat="28.994093" lon="-13.831330">
        <ele>23.387</ele>
        <time>2021-09-06T13:55:11Z</time>
      </trkpt>
      <trkpt lat="28.994163" lon="-13.832043">
        <ele>11.478</ele>
        <time>2021-09-06T13:56:36Z</time>
      </trkpt>
      <trkpt lat="28.993887" lon="-13.832364">
        <ele>9.433</ele>
        <time>2021-09-06T13:57:26Z</time>
      </trkpt>
      <trkpt lat="28.993398" lon="-13.832424">
        <ele>19.126</ele>
        <time>2021-09-06T13:58:12Z</time>
      </trkpt>
      <trkpt lat="28.992682" lon="-13.832301">
        <ele>22.308</ele>
        <time>2021-09-06T13:59:22Z</time>
      </trkpt>
      <trkpt lat="28.992576" lon="-13.832190">
        <ele>23.755</ele>
        <time>2021-09-06T13:59:39Z</time>
      </trkpt>
      <trkpt lat="28.992284" lon="-13.832244">
        <ele>22.570</ele>
        <time>2021-09-06T14:00:13Z</time>
      </trkpt>
      <trkpt lat="28.991925" lon="-13.832412">
        <ele>21.038</ele>
        <time>2021-09-06T14:00:56Z</time>
      </trkpt>
      <trkpt lat="28.991223" lon="-13.833001">
        <ele>15.332</ele>
        <time>2021-09-06T14:02:39Z</time>
      </trkpt>
      <trkpt lat="28.990971" lon="-13.832838">
        <ele>21.555</ele>
        <time>2021-09-06T14:03:14Z</time>
      </trkpt>
      <trkpt lat="28.990565" lon="-13.833121">
        <ele>12.823</ele>
        <time>2021-09-06T14:04:14Z</time>
      </trkpt>
      <trkpt lat="28.990152" lon="-13.833249">
        <ele>11.668</ele>
        <time>2021-09-06T14:05:06Z</time>
      </trkpt>
      <trkpt lat="28.989096" lon="-13.833284">
        <ele>9.032</ele>
        <time>2021-09-06T14:07:07Z</time>
      </trkpt>
      <trkpt lat="28.988939" lon="-13.833170">
        <ele>8.574</ele>
        <time>2021-09-06T14:07:31Z</time>
      </trkpt>
      <trkpt lat="28.989006" lon="-13.832974">
        <ele>11.656</ele>
        <time>2021-09-06T14:07:53Z</time>
      </trkpt>
      <trkpt lat="28.988873" lon="-13.832778">
        <ele>10.921</ele>
        <time>2021-09-06T14:08:23Z</time>
      </trkpt>
      <trkpt lat="28.988891" lon="-13.832561">
        <ele>13.408</ele>
        <time>2021-09-06T14:08:46Z</time>
      </trkpt>
      <trkpt lat="28.988656" lon="-13.832577">
        <ele>12.165</ele>
        <time>2021-09-06T14:09:49Z</time>
      </trkpt>
      <trkpt lat="28.988524" lon="-13.832701">
        <ele>9.120</ele>
        <time>2021-09-06T14:10:07Z</time>
      </trkpt>
      <trkpt lat="28.988313" lon="-13.832588">
        <ele>7.928</ele>
        <time>2021-09-06T14:10:30Z</time>
      </trkpt>
      <trkpt lat="28.987772" lon="-13.832598">
        <ele>3.572</ele>
        <time>2021-09-06T14:11:25Z</time>
      </trkpt>
      <trkpt lat="28.987470" lon="-13.832400">
        <ele>4.255</ele>
        <time>2021-09-06T14:11:57Z</time>
      </trkpt>
      <trkpt lat="28.987112" lon="-13.832398">
        <ele>5.113</ele>
        <time>2021-09-06T14:12:28Z</time>
      </trkpt>
      <trkpt lat="28.986320" lon="-13.832117">
        <ele>10.278</ele>
        <time>2021-09-06T14:14:00Z</time>
      </trkpt>
      <trkpt lat="28.985679" lon="-13.832116">
        <ele>6.232</ele>
        <time>2021-09-06T14:15:10Z</time>
      </trkpt>
      <trkpt lat="28.985435" lon="-13.831712">
        <ele>7.678</ele>
        <time>2021-09-06T14:16:04Z</time>
      </trkpt>
      <trkpt lat="28.985293" lon="-13.831709">
        <ele>7.633</ele>
        <time>2021-09-06T14:16:23Z</time>
      </trkpt>
      <trkpt lat="28.984768" lon="-13.831342">
        <ele>6.426</ele>
        <time>2021-09-06T14:17:31Z</time>
      </trkpt>
    </trkseg>
  </trk></gpx>