<?xml version="1.0" encoding="UTF-8"?>
<gpx creator="Wikiloc - https://www.wikiloc.com" version="1.1" xmlns="http://www.topografix.com/GPX/1/1" xmlns:xsi="http://www.w3.org/2001/XMLSchema-instance" xsi:schemaLocation="http://www.topografix.com/GPX/1/1 http://www.topografix.com/GPX/1/1/gpx.xsd">
  <metadata>
    <name>Wikiloc - PR FV 9: Tindaya - Vallebrón - Tefía (Circular)</name>
    <link href="https://www.wikiloc.com/hiking-trails/pr-fv-9-tindaya-vallebron-tefia-circular-16554157">
      <text>PR FV 9: Tindaya - Vallebrón - Tefía (Circular) - Wikiloc on Wikiloc</text>
    </link>
    <time>2017-02-25T14:10:36Z</time>
  </metadata>
  <trk>
    <name>PR FV 9: Tindaya - Vallebrón - Tefía (Circular) - Wikiloc</name>
    <cmt></cmt>
    <desc></desc>
    <trkseg>
      <trkpt lat="28.559416" lon="-13.959282">
        <ele>357.058</ele>
        <time>2017-02-25T08:24:48Z</time>
      </trkpt>
      <trkpt lat="28.559825" lon="-13.958929">
        <ele>358.052</ele>
        <time>2017-02-25T08:26:16Z</time>
      </trkpt>
      <trkpt lat="28.559942" lon="-13.957050">
        <ele>357.317</ele>
        <time>2017-02-25T08:28:28Z</time>
      </trkpt>
      <trkpt lat="28.560679" lon="-13.956871">
        <ele>358.608</ele>
        <time>2017-02-25T08:30:02Z</time>
      </trkpt>
      <trkpt lat="28.560942" lon="-13.956976">
        <ele>358.676</ele>
        <time>2017-02-25T08:30:32Z</time>
      </trkpt>
      <trkpt lat="28.561207" lon="-13.957334">
        <ele>356.941</ele>
        <time>2017-02-25T08:31:14Z</time>
      </trkpt>
      <trkpt lat="28.561943" lon="-13.957090">
        <ele>358.630</ele>
        <time>2017-02-25T08:32:31Z</time>
      </trkpt>
      <trkpt lat="28.562589" lon="-13.956085">
        <ele>368.930</ele>
        <time>2017-02-25T08:33:57Z</time>
      </trkpt>
      <trkpt lat="28.563675" lon="-13.955254">
        <ele>394.219</ele>
        <time>2017-02-25T08:37:46Z</time>
      </trkpt>
      <trkpt lat="28.565735" lon="-13.955293">
        <ele>438.156</ele>
        <time>2017-02-25T08:43:17Z</time>
      </trkpt>
      <trkpt lat="28.565904" lon="-13.954755">
        <ele>458.250</ele>
        <time>2017-02-25T08:45:31Z</time>
      </trkpt>
      <trkpt lat="28.566262" lon="-13.954661">
        <ele>468.482</ele>
        <time>2017-02-25T08:46:43Z</time>
      </trkpt>
      <trkpt lat="28.566219" lon="-13.954511">
        <ele>469.444</ele>
        <time>2017-02-25T08:46:59Z</time>
      </trkpt>
      <trkpt lat="28.566453" lon="-13.954392">
        <ele>473.805</ele>
        <time>2017-02-25T08:47:42Z</time>
      </trkpt>
      <trkpt lat="28.566443" lon="-13.954268">
        <ele>474.715</ele>
        <time>2017-02-25T08:47:57Z</time>
      </trkpt>
      <trkpt lat="28.566873" lon="-13.954280">
        <ele>481.308</ele>
        <time>2017-02-25T08:48:37Z</time>
      </trkpt>
      <trkpt lat="28.566739" lon="-13.954376">
        <ele>479.215</ele>
        <time>2017-02-25T08:49:14Z</time>
      </trkpt>
      <trkpt lat="28.568233" lon="-13.954036">
        <ele>487.620</ele>
        <time>2017-02-25T08:53:11Z</time>
      </trkpt>
      <trkpt lat="28.569534" lon="-13.954142">
        <ele>491.769</ele>
        <time>2017-02-25T08:56:00Z</time>
      </trkpt>
      <trkpt lat="28.570330" lon="-13.954987">
        <ele>482.379</ele>
        <time>2017-02-25T08:59:23Z</time>
      </trkpt>
      <trkpt lat="28.570781" lon="-13.955250">
        <ele>475.228</ele>
        <time>2017-02-25T09:00:42Z</time>
      </trkpt>
      <trkpt lat="28.571417" lon="-13.954759">
        <ele>477.875</ele>
        <time>2017-02-25T09:02:15Z</time>
      </trkpt>
      <trkpt lat="28.572164" lon="-13.954424">
        <ele>492.339</ele>
        <time>2017-02-25T09:04:40Z</time>
      </trkpt>
      <trkpt lat="28.572500" lon="-13.953633">
        <ele>497.151</ele>
        <time>2017-02-25T09:05:55Z</time>
      </trkpt>
      <trkpt lat="28.572711" lon="-13.951718">
        <ele>505.072</ele>
        <time>2017-02-25T09:08:53Z</time>
      </trkpt>
      <trkpt lat="28.572593" lon="-13.949645">
        <ele>501.113</ele>
        <time>2017-02-25T09:13:38Z</time>
      </trkpt>
      <trkpt lat="28.572809" lon="-13.949874">
        <ele>502.214</ele>
        <time>2017-02-25T09:14:38Z</time>
      </trkpt>
      <trkpt lat="28.572996" lon="-13.949663">
        <ele>494.708</ele>
        <time>2017-02-25T09:16:15Z</time>
      </trkpt>
      <trkpt lat="28.572984" lon="-13.947932">
        <ele>481.788</ele>
        <time>2017-02-25T09:21:46Z</time>
      </trkpt>
      <trkpt lat="28.573472" lon="-13.946513">
        <ele>453.593</ele>
        <time>2017-02-25T09:26:00Z</time>
      </trkpt>
      <trkpt lat="28.573808" lon="-13.946030">
        <ele>434.962</ele>
        <time>2017-02-25T09:31:03Z</time>
      </trkpt>
      <trkpt lat="28.574006" lon="-13.946192">
        <ele>425.242</ele>
        <time>2017-02-25T09:32:16Z</time>
      </trkpt>
      <trkpt lat="28.574196" lon="-13.945991">
        <ele>410.311</ele>
        <time>2017-02-25T09:33:37Z</time>
      </trkpt>
      <trkpt lat="28.574186" lon="-13.945700">
        <ele>408.468</ele>
        <time>2017-02-25T09:34:07Z</time>
      </trkpt>
      <trkpt lat="28.574367" lon="-13.945772">
        <ele>396.982</ele>
        <time>2017-02-25T09:35:09Z</time>
      </trkpt>
      <trkpt lat="28.574513" lon="-13.944829">
        <ele>384.614</ele>
        <time>2017-02-25T09:37:14Z</time>
      </trkpt>
      <trkpt lat="28.574407" lon="-13.944061">
        <ele>374.351</ele>
        <time>2017-02-25T09:38:54Z</time>
      </trkpt>
      <trkpt lat="28.574487" lon="-13.943746">
        <ele>366.401</ele>
        <time>2017-02-25T09:41:18Z</time>
      </trkpt>
      <trkpt lat="28.574600" lon="-13.943779">
        <ele>364.411</ele>
        <time>2017-02-25T09:41:54Z</time>
      </trkpt>
      <trkpt lat="28.574634" lon="-13.943510">
        <ele>358.308</ele>
        <time>2017-02-25T09:42:59Z</time>
      </trkpt>
      <trkpt lat="28.575377" lon="-13.943269">
        <ele>323.696</ele>
        <time>2017-02-25T09:48:30Z</time>
      </trkpt>
      <trkpt lat="28.575985" lon="-13.942766">
        <ele>310.151</ele>
        <time>2017-02-25T09:52:22Z</time>
      </trkpt>
      <trkpt lat="28.576507" lon="-13.942842">
        <ele>298.850</ele>
        <time>2017-02-25T09:54:12Z</time>
      </trkpt>
      <trkpt lat="28.576616" lon="-13.942601">
        <ele>295.550</ele>
        <time>2017-02-25T09:55:00Z</time>
      </trkpt>
      <trkpt lat="28.577061" lon="-13.942335">
        <ele>285.529</ele>
        <time>2017-02-25T09:56:10Z</time>
      </trkpt>
      <trkpt lat="28.577229" lon="-13.942331">
        <ele>281.866</ele>
        <time>2017-02-25T09:56:44Z</time>
      </trkpt>
      <trkpt lat="28.577464" lon="-13.942619">
        <ele>280.220</ele>
        <time>2017-02-25T09:57:14Z</time>
      </trkpt>
      <trkpt lat="28.578531" lon="-13.942371">
        <ele>280.542</ele>
        <time>2017-02-25T09:59:24Z</time>
      </trkpt>
      <trkpt lat="28.578782" lon="-13.937801">
        <ele>269.791</ele>
        <time>2017-02-25T10:04:45Z</time>
      </trkpt>
      <trkpt lat="28.579436" lon="-13.936017">
        <ele>264.981</ele>
        <time>2017-02-25T10:06:54Z</time>
      </trkpt>
      <trkpt lat="28.580813" lon="-13.934556">
        <ele>254.219</ele>
        <time>2017-02-25T10:09:42Z</time>
      </trkpt>
      <trkpt lat="28.581146" lon="-13.933550">
        <ele>252.308</ele>
        <time>2017-02-25T10:11:21Z</time>
      </trkpt>
      <trkpt lat="28.581337" lon="-13.933570">
        <ele>254.020</ele>
        <time>2017-02-25T10:11:49Z</time>
      </trkpt>
      <trkpt lat="28.581806" lon="-13.934041">
        <ele>261.295</ele>
        <time>2017-02-25T10:13:01Z</time>
      </trkpt>
      <trkpt lat="28.582599" lon="-13.934036">
        <ele>265.744</ele>
        <time>2017-02-25T10:14:48Z</time>
      </trkpt>
      <trkpt lat="28.583619" lon="-13.936229">
        <ele>279.684</ele>
        <time>2017-02-25T10:18:11Z</time>
      </trkpt>
      <trkpt lat="28.584124" lon="-13.937775">
        <ele>282.573</ele>
        <time>2017-02-25T10:20:00Z</time>
      </trkpt>
      <trkpt lat="28.584841" lon="-13.938865">
        <ele>289.980</ele>
        <time>2017-02-25T10:21:35Z</time>
      </trkpt>
      <trkpt lat="28.585510" lon="-13.940578">
        <ele>292.584</ele>
        <time>2017-02-25T10:24:08Z</time>
      </trkpt>
      <trkpt lat="28.586494" lon="-13.942404">
        <ele>305.776</ele>
        <time>2017-02-25T10:27:06Z</time>
      </trkpt>
      <trkpt lat="28.586793" lon="-13.943770">
        <ele>307.499</ele>
        <time>2017-02-25T10:28:48Z</time>
      </trkpt>
      <trkpt lat="28.587952" lon="-13.946399">
        <ele>318.807</ele>
        <time>2017-02-25T10:33:09Z</time>
      </trkpt>
      <trkpt lat="28.588068" lon="-13.947312">
        <ele>318.327</ele>
        <time>2017-02-25T10:35:10Z</time>
      </trkpt>
      <trkpt lat="28.588569" lon="-13.948467">
        <ele>318.908</ele>
        <time>2017-02-25T10:37:02Z</time>
      </trkpt>
      <trkpt lat="28.588918" lon="-13.948911">
        <ele>325.440</ele>
        <time>2017-02-25T10:37:42Z</time>
      </trkpt>
      <trkpt lat="28.589073" lon="-13.949488">
        <ele>333.675</ele>
        <time>2017-02-25T10:38:22Z</time>
      </trkpt>
      <trkpt lat="28.589066" lon="-13.950412">
        <ele>331.324</ele>
        <time>2017-02-25T10:39:26Z</time>
      </trkpt>
      <trkpt lat="28.589253" lon="-13.951018">
        <ele>315.274</ele>
        <time>2017-02-25T10:56:15Z</time>
      </trkpt>
      <trkpt lat="28.590112" lon="-13.951133">
        <ele>307.793</ele>
        <time>2017-02-25T11:08:18Z</time>
      </trkpt>
      <trkpt lat="28.590574" lon="-13.951941">
        <ele>293.420</ele>
        <time>2017-02-25T11:10:27Z</time>
      </trkpt>
      <trkpt lat="28.590770" lon="-13.952868">
        <ele>277.744</ele>
        <time>2017-02-25T11:12:33Z</time>
      </trkpt>
      <trkpt lat="28.590495" lon="-13.955376">
        <ele>250.426</ele>
        <time>2017-02-25T11:18:10Z</time>
      </trkpt>
      <trkpt lat="28.590922" lon="-13.955927">
        <ele>248.445</ele>
        <time>2017-02-25T11:19:07Z</time>
      </trkpt>
      <trkpt lat="28.591148" lon="-13.957327">
        <ele>228.747</ele>
        <time>2017-02-25T11:20:50Z</time>
      </trkpt>
      <trkpt lat="28.591080" lon="-13.957757">
        <ele>222.711</ele>
        <time>2017-02-25T11:21:27Z</time>
      </trkpt>
      <trkpt lat="28.591706" lon="-13.958887">
        <ele>224.008</ele>
        <time>2017-02-25T11:22:57Z</time>
      </trkpt>
      <trkpt lat="28.591842" lon="-13.959621">
        <ele>216.315</ele>
        <time>2017-02-25T11:23:48Z</time>
      </trkpt>
      <trkpt lat="28.591651" lon="-13.960603">
        <ele>207.940</ele>
        <time>2017-02-25T11:25:30Z</time>
      </trkpt>
      <trkpt lat="28.590226" lon="-13.962155">
        <ele>208.889</ele>
        <time>2017-02-25T11:29:58Z</time>
      </trkpt>
      <trkpt lat="28.590211" lon="-13.962663">
        <ele>207.469</ele>
        <time>2017-02-25T11:30:59Z</time>
      </trkpt>
      <trkpt lat="28.588697" lon="-13.964228">
        <ele>195.498</ele>
        <time>2017-02-25T11:34:54Z</time>
      </trkpt>
      <trkpt lat="28.588377" lon="-13.965067">
        <ele>198.565</ele>
        <time>2017-02-25T11:35:57Z</time>
      </trkpt>
      <trkpt lat="28.587536" lon="-13.966136">
        <ele>192.949</ele>
        <time>2017-02-25T11:38:38Z</time>
      </trkpt>
      <trkpt lat="28.586133" lon="-13.969417">
        <ele>193.821</ele>
        <time>2017-02-25T11:43:06Z</time>
      </trkpt>
      <trkpt lat="28.585368" lon="-13.970474">
        <ele>194.475</ele>
        <time>2017-02-25T11:44:35Z</time>
      </trkpt>
      <trkpt lat="28.585281" lon="-13.971476">
        <ele>196.728</ele>
        <time>2017-02-25T11:46:46Z</time>
      </trkpt>
      <trkpt lat="28.585482" lon="-13.974886">
        <ele>194.520</ele>
        <time>2017-02-25T11:50:52Z</time>
      </trkpt>
      <trkpt lat="28.586139" lon="-13.977091">
        <ele>192.608</ele>
        <time>2017-02-25T11:54:38Z</time>
      </trkpt>
      <trkpt lat="28.586239" lon="-13.978606">
        <ele>192.178</ele>
        <time>2017-02-25T11:56:53Z</time>
      </trkpt>
      <trkpt lat="28.586613" lon="-13.979952">
        <ele>193.593</ele>
        <time>2017-02-25T12:00:42Z</time>
      </trkpt>
      <trkpt lat="28.585794" lon="-13.979516">
        <ele>203.692</ele>
        <time>2017-02-25T12:02:26Z</time>
      </trkpt>
      <trkpt lat="28.585148" lon="-13.979470">
        <ele>210.482</ele>
        <time>2017-02-25T12:03:18Z</time>
      </trkpt>
      <trkpt lat="28.584605" lon="-13.979030">
        <ele>213.451</ele>
        <time>2017-02-25T12:04:47Z</time>
      </trkpt>
      <trkpt lat="28.584122" lon="-13.978825">
        <ele>211.388</ele>
        <time>2017-02-25T12:05:26Z</time>
      </trkpt>
      <trkpt lat="28.582917" lon="-13.978529">
        <ele>219.422</ele>
        <time>2017-02-25T12:06:56Z</time>
      </trkpt>
      <trkpt lat="28.582481" lon="-13.978881">
        <ele>224.964</ele>
        <time>2017-02-25T12:07:38Z</time>
      </trkpt>
      <trkpt lat="28.580232" lon="-13.978700">
        <ele>229.222</ele>
        <time>2017-02-25T12:11:24Z</time>
      </trkpt>
      <trkpt lat="28.579495" lon="-13.979002">
        <ele>234.662</ele>
        <time>2017-02-25T12:12:25Z</time>
      </trkpt>
      <trkpt lat="28.578038" lon="-13.979149">
        <ele>236.408</ele>
        <time>2017-02-25T12:14:14Z</time>
      </trkpt>
      <trkpt lat="28.577831" lon="-13.978837">
        <ele>230.108</ele>
        <time>2017-02-25T12:14:41Z</time>
      </trkpt>
      <trkpt lat="28.577681" lon="-13.977883">
        <ele>229.443</ele>
        <time>2017-02-25T12:16:13Z</time>
      </trkpt>
      <trkpt lat="28.577446" lon="-13.977837">
        <ele>232.118</ele>
        <time>2017-02-25T12:17:05Z</time>
      </trkpt>
      <trkpt lat="28.576593" lon="-13.978351">
        <ele>233.337</ele>
        <time>2017-02-25T12:18:32Z</time>
      </trkpt>
      <trkpt lat="28.575973" lon="-13.978482">
        <ele>235.717</ele>
        <time>2017-02-25T12:19:21Z</time>
      </trkpt>
      <trkpt lat="28.575029" lon="-13.978945">
        <ele>237.996</ele>
        <time>2017-02-25T12:20:37Z</time>
      </trkpt>
      <trkpt lat="28.574350" lon="-13.979422">
        <ele>233.033</ele>
        <time>2017-02-25T12:21:35Z</time>
      </trkpt>
      <trkpt lat="28.573567" lon="-13.979617">
        <ele>233.967</ele>
        <time>2017-02-25T12:22:55Z</time>
      </trkpt>
      <trkpt lat="28.570491" lon="-13.981341">
        <ele>225.039</ele>
        <time>2017-02-25T12:27:39Z</time>
      </trkpt>
      <trkpt lat="28.567396" lon="-13.982569">
        <ele>230.737</ele>
        <time>2017-02-25T12:32:35Z</time>
      </trkpt>
      <trkpt lat="28.566765" lon="-13.982944">
        <ele>224.749</ele>
        <time>2017-02-25T12:34:39Z</time>
      </trkpt>
      <trkpt lat="28.566041" lon="-13.984028">
        <ele>210.913</ele>
        <time>2017-02-25T12:37:01Z</time>
      </trkpt>
      <trkpt lat="28.565277" lon="-13.984695">
        <ele>200.908</ele>
        <time>2017-02-25T12:38:24Z</time>
      </trkpt>
      <trkpt lat="28.563371" lon="-13.984304">
        <ele>190.264</ele>
        <time>2017-02-25T12:41:49Z</time>
      </trkpt>
      <trkpt lat="28.561978" lon="-13.983864">
        <ele>187.379</ele>
        <time>2017-02-25T12:43:33Z</time>
      </trkpt>
      <trkpt lat="28.561417" lon="-13.983940">
        <ele>186.728</ele>
        <time>2017-02-25T12:44:14Z</time>
      </trkpt>
      <trkpt lat="28.560192" lon="-13.985210">
        <ele>186.318</ele>
        <time>2017-02-25T12:46:18Z</time>
      </trkpt>
      <trkpt lat="28.557292" lon="-13.986670">
        <ele>180.557</ele>
        <time>2017-02-25T12:51:26Z</time>
      </trkpt>
      <trkpt lat="28.555722" lon="-13.987867">
        <ele>175.344</ele>
        <time>2017-02-25T12:54:49Z</time>
      </trkpt>
      <trkpt lat="28.554909" lon="-13.988190">
        <ele>164.168</ele>
        <time>2017-02-25T12:56:19Z</time>
      </trkpt>
      <trkpt lat="28.555118" lon="-13.986632">
        <ele>169.870</ele>
        <time>2017-02-25T12:59:15Z</time>
      </trkpt>
      <trkpt lat="28.555000" lon="-13.986696">
        <ele>167.949</ele>
        <time>2017-02-25T12:59:50Z</time>
      </trkpt>
      <trkpt lat="28.554924" lon="-13.986525">
        <ele>168.102</ele>
        <time>2017-02-25T13:00:07Z</time>
      </trkpt>
      <trkpt lat="28.554896" lon="-13.985376">
        <ele>169.022</ele>
        <time>2017-02-25T13:01:49Z</time>
      </trkpt>
      <trkpt lat="28.554483" lon="-13.984947">
        <ele>174.608</ele>
        <time>2017-02-25T13:02:40Z</time>
      </trkpt>
      <trkpt lat="28.554230" lon="-13.983925">
        <ele>177.745</ele>
        <time>2017-02-25T13:04:14Z</time>
      </trkpt>
      <trkpt lat="28.554319" lon="-13.983579">
        <ele>179.650</ele>
        <time>2017-02-25T13:04:39Z</time>
      </trkpt>
      <trkpt lat="28.554161" lon="-13.983196">
        <ele>178.419</ele>
        <time>2017-02-25T13:05:10Z</time>
      </trkpt>
      <trkpt lat="28.554140" lon="-13.982111">
        <ele>185.089</ele>
        <time>2017-02-25T13:06:27Z</time>
      </trkpt>
      <trkpt lat="28.554402" lon="-13.981219">
        <ele>189.298</ele>
        <time>2017-02-25T13:07:35Z</time>
      </trkpt>
      <trkpt lat="28.555196" lon="-13.980419">
        <ele>193.865</ele>
        <time>2017-02-25T13:09:43Z</time>
      </trkpt>
      <trkpt lat="28.555364" lon="-13.979999">
        <ele>197.319</ele>
        <time>2017-02-25T13:10:54Z</time>
      </trkpt>
      <trkpt lat="28.554175" lon="-13.979306">
        <ele>201.361</ele>
        <time>2017-02-25T13:13:09Z</time>
      </trkpt>
      <trkpt lat="28.553752" lon="-13.979349">
        <ele>201.386</ele>
        <time>2017-02-25T13:13:53Z</time>
      </trkpt>
      <trkpt lat="28.552979" lon="-13.979183">
        <ele>189.360</ele>
        <time>2017-02-25T13:14:53Z</time>
      </trkpt>
      <trkpt lat="28.549977" lon="-13.979460">
        <ele>195.926</ele>
        <time>2017-02-25T13:18:40Z</time>
      </trkpt>
      <trkpt lat="28.549071" lon="-13.979807">
        <ele>209.308</ele>
        <time>2017-02-25T13:19:59Z</time>
      </trkpt>
      <trkpt lat="28.549014" lon="-13.979555">
        <ele>209.349</ele>
        <time>2017-02-25T13:21:29Z</time>
      </trkpt>
      <trkpt lat="28.549764" lon="-13.978285">
        <ele>205.214</ele>
        <time>2017-02-25T13:23:26Z</time>
      </trkpt>
      <trkpt lat="28.550495" lon="-13.976625">
        <ele>218.963</ele>
        <time>2017-02-25T13:25:41Z</time>
      </trkpt>
      <trkpt lat="28.551208" lon="-13.975792">
        <ele>220.863</ele>
        <time>2017-02-25T13:27:52Z</time>
      </trkpt>
      <trkpt lat="28.552319" lon="-13.973995">
        <ele>236.982</ele>
        <time>2017-02-25T13:30:59Z</time>
      </trkpt>
      <trkpt lat="28.553930" lon="-13.970768">
        <ele>246.759</ele>
        <time>2017-02-25T13:36:15Z</time>
      </trkpt>
      <trkpt lat="28.553965" lon="-13.970267">
        <ele>254.293</ele>
        <time>2017-02-25T13:45:31Z</time>
      </trkpt>
      <trkpt lat="28.554051" lon="-13.970325">
        <ele>252.865</ele>
        <time>2017-02-25T13:46:53Z</time>
      </trkpt>
      <trkpt lat="28.554639" lon="-13.969643">
        <ele>258.072</ele>
        <time>2017-02-25T13:48:31Z</time>
      </trkpt>
      <trkpt lat="28.555425" lon="-13.969422">
        <ele>269.013</ele>
        <time>2017-02-25T13:50:16Z</time>
      </trkpt>
      <trkpt lat="28.555600" lon="-13.969000">
        <ele>277.214</ele>
        <time>2017-02-25T13:52:12Z</time>
      </trkpt>
      <trkpt lat="28.557047" lon="-13.967295">
        <ele>301.208</ele>
        <time>2017-02-25T13:55:59Z</time>
      </trkpt>
      <trkpt lat="28.558041" lon="-13.964970">
        <ele>325.198</ele>
        <time>2017-02-25T13:59:37Z</time>
      </trkpt>
      <trkpt lat="28.558302" lon="-13.964758">
        <ele>326.533</ele>
        <time>2017-02-25T14:00:11Z</time>
      </trkpt>
      <trkpt lat="28.558740" lon="-13.964753">
        <ele>327.122</ele>
        <time>2017-02-25T14:01:08Z</time>
      </trkpt>
      <trkpt lat="28.558985" lon="-13.964486">
        <ele>336.042</ele>
        <time>2017-02-25T14:02:28Z</time>
      </trkpt>
      <trkpt lat="28.559584" lon="-13.962966">
        <ele>346.711</ele>
        <time>2017-02-25T14:04:51Z</time>
      </trkpt>
      <trkpt lat="28.559911" lon="-13.961086">
        <ele>350.728</ele>
        <time>2017-02-25T14:07:21Z</time>
      </trkpt>
      <trkpt lat="28.559876" lon="-13.959209">
        <ele>358.182</ele>
        <time>2017-02-25T14:09:55Z</time>
      </trkpt>
      <trkpt lat="28.559770" lon="-13.958937">
        <ele>358.094</ele>
        <time>2017-02-25T14:10:36Z</time>
      </trkpt>
    </trkseg>
  </trk></gpx>