<?xml version="1.0" encoding="UTF-8"?>
<gpx creator="Wikiloc - https://www.wikiloc.com" version="1.1" xmlns="http://www.topografix.com/GPX/1/1" xmlns:xsi="http://www.w3.org/2001/XMLSchema-instance" xsi:schemaLocation="http://www.topografix.com/GPX/1/1 http://www.topografix.com/GPX/1/1/gpx.xsd">
  <metadata>
    <name>Wikiloc - Circular Montaña Tindaya (03/06/2024)</name>
    <link href="https://www.wikiloc.com/hiking-trails/circular-montana-tindaya-03-06-2024-173499355">
      <text>Circular Montaña Tindaya (03/06/2024) - Wikiloc on Wikiloc</text>
    </link>
    <time>2024-06-03T15:06:03.588Z</time>
  </metadata>
  <trk>
    <name>Circular Montaña Tindaya (03/06/2024) - Wikiloc</name>
    <cmt></cmt>
    <desc></desc>
    <trkseg>
      <trkpt lat="28.590022" lon="-13.982407">
        <ele>222.225</ele>
        <time>2024-06-03T12:19:39.588Z</time>
      </trkpt>
      <trkpt lat="28.590414" lon="-13.982349">
        <ele>225.026</ele>
        <time>2024-06-03T12:20:28.588Z</time>
      </trkpt>
      <trkpt lat="28.590903" lon="-13.982449">
        <ele>220.808</ele>
        <time>2024-06-03T12:21:18.588Z</time>
      </trkpt>
      <trkpt lat="28.591423" lon="-13.982311">
        <ele>223.509</ele>
        <time>2024-06-03T12:22:58.588Z</time>
      </trkpt>
      <trkpt lat="28.591666" lon="-13.982340">
        <ele>224.443</ele>
        <time>2024-06-03T12:23:26.588Z</time>
      </trkpt>
      <trkpt lat="28.592184" lon="-13.982703">
        <ele>217.099</ele>
        <time>2024-06-03T12:27:16.588Z</time>
      </trkpt>
      <trkpt lat="28.592749" lon="-13.983383">
        <ele>213.515</ele>
        <time>2024-06-03T12:28:33.588Z</time>
      </trkpt>
      <trkpt lat="28.593104" lon="-13.983680">
        <ele>212.486</ele>
        <time>2024-06-03T12:29:13.588Z</time>
      </trkpt>
      <trkpt lat="28.595022" lon="-13.984439">
        <ele>208.411</ele>
        <time>2024-06-03T12:32:27.588Z</time>
      </trkpt>
      <trkpt lat="28.596532" lon="-13.984950">
        <ele>203.141</ele>
        <time>2024-06-03T12:35:47.588Z</time>
      </trkpt>
      <trkpt lat="28.597033" lon="-13.985391">
        <ele>198.985</ele>
        <time>2024-06-03T12:37:01.588Z</time>
      </trkpt>
      <trkpt lat="28.597987" lon="-13.985842">
        <ele>199.257</ele>
        <time>2024-06-03T12:38:40.588Z</time>
      </trkpt>
      <trkpt lat="28.598646" lon="-13.986378">
        <ele>195.517</ele>
        <time>2024-06-03T12:40:02.588Z</time>
      </trkpt>
      <trkpt lat="28.598742" lon="-13.986425">
        <ele>196.293</ele>
        <time>2024-06-03T12:41:49.588Z</time>
      </trkpt>
      <trkpt lat="28.598858" lon="-13.986338">
        <ele>197.265</ele>
        <time>2024-06-03T12:42:05.588Z</time>
      </trkpt>
      <trkpt lat="28.599427" lon="-13.985482">
        <ele>196.621</ele>
        <time>2024-06-03T12:43:59.588Z</time>
      </trkpt>
      <trkpt lat="28.600282" lon="-13.983719">
        <ele>196.809</ele>
        <time>2024-06-03T12:51:46.588Z</time>
      </trkpt>
      <trkpt lat="28.601032" lon="-13.982899">
        <ele>195.280</ele>
        <time>2024-06-03T12:53:33.588Z</time>
      </trkpt>
      <trkpt lat="28.601489" lon="-13.982240">
        <ele>195.466</ele>
        <time>2024-06-03T12:54:44.588Z</time>
      </trkpt>
      <trkpt lat="28.602540" lon="-13.980195">
        <ele>193.332</ele>
        <time>2024-06-03T12:59:28.588Z</time>
      </trkpt>
      <trkpt lat="28.602855" lon="-13.979367">
        <ele>193.813</ele>
        <time>2024-06-03T13:01:33.588Z</time>
      </trkpt>
      <trkpt lat="28.603031" lon="-13.978359">
        <ele>194.688</ele>
        <time>2024-06-03T13:03:14.588Z</time>
      </trkpt>
      <trkpt lat="28.603296" lon="-13.977619">
        <ele>195.918</ele>
        <time>2024-06-03T13:05:26.588Z</time>
      </trkpt>
      <trkpt lat="28.604414" lon="-13.975264">
        <ele>197.882</ele>
        <time>2024-06-03T13:10:25.588Z</time>
      </trkpt>
      <trkpt lat="28.604563" lon="-13.974459">
        <ele>196.244</ele>
        <time>2024-06-03T13:12:18.588Z</time>
      </trkpt>
      <trkpt lat="28.603986" lon="-13.973631">
        <ele>195.744</ele>
        <time>2024-06-03T13:17:30.588Z</time>
      </trkpt>
      <trkpt lat="28.603603" lon="-13.972828">
        <ele>198.451</ele>
        <time>2024-06-03T13:19:26.588Z</time>
      </trkpt>
      <trkpt lat="28.603206" lon="-13.972223">
        <ele>198.301</ele>
        <time>2024-06-03T13:20:35.588Z</time>
      </trkpt>
      <trkpt lat="28.602015" lon="-13.971189">
        <ele>199.811</ele>
        <time>2024-06-03T13:23:39.588Z</time>
      </trkpt>
      <trkpt lat="28.601579" lon="-13.970636">
        <ele>199.509</ele>
        <time>2024-06-03T13:24:43.588Z</time>
      </trkpt>
      <trkpt lat="28.600911" lon="-13.970226">
        <ele>198.716</ele>
        <time>2024-06-03T13:28:16.588Z</time>
      </trkpt>
      <trkpt lat="28.600369" lon="-13.970304">
        <ele>199.962</ele>
        <time>2024-06-03T13:29:16.588Z</time>
      </trkpt>
      <trkpt lat="28.599276" lon="-13.970075">
        <ele>196.848</ele>
        <time>2024-06-03T13:32:32.588Z</time>
      </trkpt>
      <trkpt lat="28.599107" lon="-13.969861">
        <ele>198.189</ele>
        <time>2024-06-03T13:32:54.588Z</time>
      </trkpt>
      <trkpt lat="28.598954" lon="-13.969134">
        <ele>200.974</ele>
        <time>2024-06-03T13:33:53.588Z</time>
      </trkpt>
      <trkpt lat="28.598892" lon="-13.969053">
        <ele>201.314</ele>
        <time>2024-06-03T13:34:03.588Z</time>
      </trkpt>
      <trkpt lat="28.598768" lon="-13.969031">
        <ele>203.288</ele>
        <time>2024-06-03T13:36:49.588Z</time>
      </trkpt>
      <trkpt lat="28.598070" lon="-13.969298">
        <ele>207.240</ele>
        <time>2024-06-03T13:38:19.588Z</time>
      </trkpt>
      <trkpt lat="28.598015" lon="-13.969377">
        <ele>206.220</ele>
        <time>2024-06-03T13:38:33.588Z</time>
      </trkpt>
      <trkpt lat="28.596901" lon="-13.969578">
        <ele>207.257</ele>
        <time>2024-06-03T13:42:26.588Z</time>
      </trkpt>
      <trkpt lat="28.595999" lon="-13.969980">
        <ele>207.600</ele>
        <time>2024-06-03T13:44:01.588Z</time>
      </trkpt>
      <trkpt lat="28.595482" lon="-13.970023">
        <ele>206.820</ele>
        <time>2024-06-03T13:44:51.588Z</time>
      </trkpt>
      <trkpt lat="28.595531" lon="-13.970195">
        <ele>207.709</ele>
        <time>2024-06-03T13:45:50.588Z</time>
      </trkpt>
      <trkpt lat="28.595437" lon="-13.970035">
        <ele>209.576</ele>
        <time>2024-06-03T13:46:52.588Z</time>
      </trkpt>
      <trkpt lat="28.595048" lon="-13.970164">
        <ele>207.972</ele>
        <time>2024-06-03T13:47:44.588Z</time>
      </trkpt>
      <trkpt lat="28.594770" lon="-13.970072">
        <ele>211.188</ele>
        <time>2024-06-03T13:49:47.588Z</time>
      </trkpt>
      <trkpt lat="28.594674" lon="-13.970095">
        <ele>209.939</ele>
        <time>2024-06-03T13:49:57.588Z</time>
      </trkpt>
      <trkpt lat="28.594446" lon="-13.970221">
        <ele>210.174</ele>
        <time>2024-06-03T13:50:21.588Z</time>
      </trkpt>
      <trkpt lat="28.594205" lon="-13.970655">
        <ele>214.754</ele>
        <time>2024-06-03T13:51:11.588Z</time>
      </trkpt>
      <trkpt lat="28.593865" lon="-13.970747">
        <ele>215.268</ele>
        <time>2024-06-03T13:51:45.588Z</time>
      </trkpt>
      <trkpt lat="28.593423" lon="-13.971019">
        <ele>217.650</ele>
        <time>2024-06-03T13:52:50.588Z</time>
      </trkpt>
      <trkpt lat="28.593077" lon="-13.971097">
        <ele>218.510</ele>
        <time>2024-06-03T13:53:28.588Z</time>
      </trkpt>
      <trkpt lat="28.592710" lon="-13.971272">
        <ele>220.252</ele>
        <time>2024-06-03T13:54:13.588Z</time>
      </trkpt>
      <trkpt lat="28.592592" lon="-13.971056">
        <ele>221.753</ele>
        <time>2024-06-03T13:55:10.588Z</time>
      </trkpt>
      <trkpt lat="28.592629" lon="-13.971023">
        <ele>218.408</ele>
        <time>2024-06-03T14:28:24.588Z</time>
      </trkpt>
      <trkpt lat="28.592684" lon="-13.971224">
        <ele>221.509</ele>
        <time>2024-06-03T14:28:52.588Z</time>
      </trkpt>
      <trkpt lat="28.592641" lon="-13.971315">
        <ele>223.076</ele>
        <time>2024-06-03T14:29:09.588Z</time>
      </trkpt>
      <trkpt lat="28.592321" lon="-13.971575">
        <ele>222.842</ele>
        <time>2024-06-03T14:34:01.588Z</time>
      </trkpt>
      <trkpt lat="28.591073" lon="-13.972967">
        <ele>221.788</ele>
        <time>2024-06-03T14:41:28.588Z</time>
      </trkpt>
      <trkpt lat="28.590469" lon="-13.973494">
        <ele>232.029</ele>
        <time>2024-06-03T14:42:40.588Z</time>
      </trkpt>
      <trkpt lat="28.590370" lon="-13.973502">
        <ele>233.154</ele>
        <time>2024-06-03T14:42:51.588Z</time>
      </trkpt>
      <trkpt lat="28.590358" lon="-13.973660">
        <ele>230.614</ele>
        <time>2024-06-03T14:43:17.588Z</time>
      </trkpt>
      <trkpt lat="28.589671" lon="-13.975288">
        <ele>228.818</ele>
        <time>2024-06-03T14:45:48.588Z</time>
      </trkpt>
      <trkpt lat="28.589480" lon="-13.975934">
        <ele>230.450</ele>
        <time>2024-06-03T14:46:53.588Z</time>
      </trkpt>
      <trkpt lat="28.589156" lon="-13.976510">
        <ele>230.240</ele>
        <time>2024-06-03T14:47:49.588Z</time>
      </trkpt>
      <trkpt lat="28.589096" lon="-13.976665">
        <ele>228.281</ele>
        <time>2024-06-03T14:48:05.588Z</time>
      </trkpt>
      <trkpt lat="28.589146" lon="-13.976686">
        <ele>229.561</ele>
        <time>2024-06-03T14:48:11.588Z</time>
      </trkpt>
      <trkpt lat="28.588919" lon="-13.976863">
        <ele>231.217</ele>
        <time>2024-06-03T14:49:37.588Z</time>
      </trkpt>
      <trkpt lat="28.588714" lon="-13.977176">
        <ele>232.509</ele>
        <time>2024-06-03T14:50:08.588Z</time>
      </trkpt>
      <trkpt lat="28.588438" lon="-13.977906">
        <ele>231.029</ele>
        <time>2024-06-03T14:51:20.588Z</time>
      </trkpt>
      <trkpt lat="28.588390" lon="-13.978250">
        <ele>233.915</ele>
        <time>2024-06-03T14:53:42.588Z</time>
      </trkpt>
      <trkpt lat="28.589208" lon="-13.978991">
        <ele>225.411</ele>
        <time>2024-06-03T14:55:27.588Z</time>
      </trkpt>
      <trkpt lat="28.590442" lon="-13.981006">
        <ele>223.962</ele>
        <time>2024-06-03T14:58:54.588Z</time>
      </trkpt>
      <trkpt lat="28.590892" lon="-13.981617">
        <ele>223.047</ele>
        <time>2024-06-03T15:00:08.588Z</time>
      </trkpt>
      <trkpt lat="28.591252" lon="-13.981909">
        <ele>221.587</ele>
        <time>2024-06-03T15:03:02.588Z</time>
      </trkpt>
      <trkpt lat="28.591420" lon="-13.982169">
        <ele>219.611</ele>
        <time>2024-06-03T15:03:32.588Z</time>
      </trkpt>
      <trkpt lat="28.591334" lon="-13.982310">
        <ele>219.663</ele>
        <time>2024-06-03T15:03:47.588Z</time>
      </trkpt>
      <trkpt lat="28.591013" lon="-13.982444">
        <ele>222.283</ele>
        <time>2024-06-03T15:04:22.588Z</time>
      </trkpt>
      <trkpt lat="28.590079" lon="-13.982373">
        <ele>221.047</ele>
        <time>2024-06-03T15:06:03.588Z</time>
      </trkpt>
    </trkseg>
  </trk></gpx>