<?xml version="1.0" encoding="UTF-8"?>
<gpx version="1.1" creator="Aventuras en Cada Paso" xmlns="http://www.topografix.com/GPX/1/1">
  <metadata>
    <name>Agaete – Tamadaba (Lineal)</name>
    <desc>Ascenso desde Agaete al pinar de Tamadaba por el Camino de los Romeros. Perfecta para hacer solo ida y volver en guagua. Vistas al océano.</desc>
    <author><name>Aventuras en Cada Paso</name></author>
    <time>2026-07-08T08:12:58.165Z</time>
    <keywords>Gran Canaria, Senderismo, Difícil, senderismo Canarias</keywords>
  </metadata>
  <wpt lat="28.0994" lon="-15.7094">
    <name>Agaete – Tamadaba (Lineal)</name>
    <desc>Ascenso desde Agaete al pinar de Tamadaba por el Camino de los Romeros. Perfecta para hacer solo ida y volver en guagua. Vistas al océano. | Isla: Gran Canaria | Tipo: Senderismo | Dificultad: Difícil | Distancia: 13km | Duración: 4-8 horas</desc>
    <type>Senderismo</type>
    <extensions>
      <isla>Gran Canaria</isla>
      <dificultad>Difícil</dificultad>
      <distancia>13</distancia>
      <duracion>4-8 horas</duracion>
    </extensions>
  </wpt>
</gpx>