<?xml version="1.0" encoding="UTF-8"?>
<gpx version="1.1" creator="Aventuras en Cada Paso" xmlns="http://www.topografix.com/GPX/1/1">
  <metadata>
    <name>Las Agujas Grandes – Norte Salvaje</name>
    <desc>Ruta hasta Las Agujas Grandes en el norte de La Graciosa. Formaciones volcánicas espectaculares y las vistas más salvajes de todo el Archipiélago Chinijo.</desc>
    <author><name>Aventuras en Cada Paso</name></author>
    <time>2026-07-08T08:12:58.210Z</time>
    <keywords>La Graciosa, Senderismo, Media, senderismo Canarias</keywords>
  </metadata>
  <wpt lat="29.265" lon="-13.505">
    <name>Las Agujas Grandes – Norte Salvaje</name>
    <desc>Ruta hasta Las Agujas Grandes en el norte de La Graciosa. Formaciones volcánicas espectaculares y las vistas más salvajes de todo el Archipiélago Chinijo. | Isla: La Graciosa | Tipo: Senderismo | Dificultad: Media | Distancia: 12km | Duración: 4-8 horas</desc>
    <type>Senderismo</type>
    <extensions>
      <isla>La Graciosa</isla>
      <dificultad>Media</dificultad>
      <distancia>12</distancia>
      <duracion>4-8 horas</duracion>
    </extensions>
  </wpt>
</gpx>