<?xml version="1.0" encoding="UTF-8"?>
<gpx creator="Wikiloc - https://www.wikiloc.com" version="1.1" xmlns="http://www.topografix.com/GPX/1/1" xmlns:xsi="http://www.w3.org/2001/XMLSchema-instance" xsi:schemaLocation="http://www.topografix.com/GPX/1/1 http://www.topografix.com/GPX/1/1/gpx.xsd">
  <metadata>
    <name>Wikiloc - Lanzarote: La Atalaya de Femés</name>
    <link href="https://www.wikiloc.com/hiking-trails/lanzarote-la-atalaya-de-femes-14120112">
      <text>Lanzarote: La Atalaya de Femés - Wikiloc on Wikiloc</text>
    </link>
    <time>2013-11-19T13:06:49Z</time>
  </metadata>
  <trk>
    <name>Lanzarote: La Atalaya de Femés - Wikiloc</name>
    <cmt></cmt>
    <desc></desc>
    <trkseg>
      <trkpt lat="28.913567" lon="-13.779652">
        <ele>364.947</ele>
        <time>2013-11-19T11:07:37Z</time>
      </trkpt>
      <trkpt lat="28.913619" lon="-13.779638">
        <ele>364.629</ele>
        <time>2013-11-19T11:08:02Z</time>
      </trkpt>
      <trkpt lat="28.913363" lon="-13.779288">
        <ele>364.521</ele>
        <time>2013-11-19T11:09:02Z</time>
      </trkpt>
      <trkpt lat="28.913610" lon="-13.779324">
        <ele>366.008</ele>
        <time>2013-11-19T11:09:29Z</time>
      </trkpt>
      <trkpt lat="28.913273" lon="-13.779221">
        <ele>363.025</ele>
        <time>2013-11-19T11:10:06Z</time>
      </trkpt>
      <trkpt lat="28.913239" lon="-13.779014">
        <ele>360.318</ele>
        <time>2013-11-19T11:10:19Z</time>
      </trkpt>
      <trkpt lat="28.914265" lon="-13.777351">
        <ele>353.865</ele>
        <time>2013-11-19T11:13:26Z</time>
      </trkpt>
      <trkpt lat="28.914328" lon="-13.777275">
        <ele>353.526</ele>
        <time>2013-11-19T11:13:35Z</time>
      </trkpt>
      <trkpt lat="28.914400" lon="-13.777331">
        <ele>353.594</ele>
        <time>2013-11-19T11:13:45Z</time>
      </trkpt>
      <trkpt lat="28.914430" lon="-13.777046">
        <ele>354.225</ele>
        <time>2013-11-19T11:14:07Z</time>
      </trkpt>
      <trkpt lat="28.914783" lon="-13.776476">
        <ele>355.795</ele>
        <time>2013-11-19T11:14:43Z</time>
      </trkpt>
      <trkpt lat="28.915356" lon="-13.776000">
        <ele>366.416</ele>
        <time>2013-11-19T11:15:52Z</time>
      </trkpt>
      <trkpt lat="28.915297" lon="-13.775946">
        <ele>365.123</ele>
        <time>2013-11-19T11:16:04Z</time>
      </trkpt>
      <trkpt lat="28.915332" lon="-13.776013">
        <ele>366.183</ele>
        <time>2013-11-19T11:16:22Z</time>
      </trkpt>
      <trkpt lat="28.916079" lon="-13.775693">
        <ele>372.811</ele>
        <time>2013-11-19T11:17:52Z</time>
      </trkpt>
      <trkpt lat="28.916469" lon="-13.775658">
        <ele>375.608</ele>
        <time>2013-11-19T11:19:04Z</time>
      </trkpt>
      <trkpt lat="28.916798" lon="-13.775830">
        <ele>378.033</ele>
        <time>2013-11-19T11:19:37Z</time>
      </trkpt>
      <trkpt lat="28.917111" lon="-13.776280">
        <ele>387.256</ele>
        <time>2013-11-19T11:20:40Z</time>
      </trkpt>
      <trkpt lat="28.916950" lon="-13.776551">
        <ele>396.043</ele>
        <time>2013-11-19T11:21:17Z</time>
      </trkpt>
      <trkpt lat="28.916798" lon="-13.776623">
        <ele>398.034</ele>
        <time>2013-11-19T11:21:35Z</time>
      </trkpt>
      <trkpt lat="28.916792" lon="-13.776726">
        <ele>400.882</ele>
        <time>2013-11-19T11:21:43Z</time>
      </trkpt>
      <trkpt lat="28.917044" lon="-13.777052">
        <ele>410.693</ele>
        <time>2013-11-19T11:22:22Z</time>
      </trkpt>
      <trkpt lat="28.917200" lon="-13.777392">
        <ele>419.483</ele>
        <time>2013-11-19T11:23:07Z</time>
      </trkpt>
      <trkpt lat="28.917137" lon="-13.777382">
        <ele>419.674</ele>
        <time>2013-11-19T11:23:31Z</time>
      </trkpt>
      <trkpt lat="28.917144" lon="-13.777461">
        <ele>421.446</ele>
        <time>2013-11-19T11:23:58Z</time>
      </trkpt>
      <trkpt lat="28.917490" lon="-13.778073">
        <ele>420.988</ele>
        <time>2013-11-19T11:24:52Z</time>
      </trkpt>
      <trkpt lat="28.918063" lon="-13.778889">
        <ele>445.816</ele>
        <time>2013-11-19T11:26:34Z</time>
      </trkpt>
      <trkpt lat="28.917965" lon="-13.778945">
        <ele>448.508</ele>
        <time>2013-11-19T11:26:46Z</time>
      </trkpt>
      <trkpt lat="28.917526" lon="-13.778839">
        <ele>449.745</ele>
        <time>2013-11-19T11:27:26Z</time>
      </trkpt>
      <trkpt lat="28.917431" lon="-13.779043">
        <ele>451.738</ele>
        <time>2013-11-19T11:27:47Z</time>
      </trkpt>
      <trkpt lat="28.917481" lon="-13.779627">
        <ele>458.545</ele>
        <time>2013-11-19T11:29:59Z</time>
      </trkpt>
      <trkpt lat="28.917750" lon="-13.779435">
        <ele>462.136</ele>
        <time>2013-11-19T11:30:29Z</time>
      </trkpt>
      <trkpt lat="28.918039" lon="-13.779569">
        <ele>469.594</ele>
        <time>2013-11-19T11:30:56Z</time>
      </trkpt>
      <trkpt lat="28.917842" lon="-13.779823">
        <ele>469.345</ele>
        <time>2013-11-19T11:31:26Z</time>
      </trkpt>
      <trkpt lat="28.917778" lon="-13.780300">
        <ele>474.635</ele>
        <time>2013-11-19T11:32:02Z</time>
      </trkpt>
      <trkpt lat="28.917855" lon="-13.780392">
        <ele>479.216</ele>
        <time>2013-11-19T11:32:14Z</time>
      </trkpt>
      <trkpt lat="28.918082" lon="-13.780070">
        <ele>478.841</ele>
        <time>2013-11-19T11:32:56Z</time>
      </trkpt>
      <trkpt lat="28.918262" lon="-13.780072">
        <ele>482.481</ele>
        <time>2013-11-19T11:33:47Z</time>
      </trkpt>
      <trkpt lat="28.918267" lon="-13.780216">
        <ele>485.909</ele>
        <time>2013-11-19T11:33:59Z</time>
      </trkpt>
      <trkpt lat="28.918092" lon="-13.780470">
        <ele>489.308</ele>
        <time>2013-11-19T11:34:29Z</time>
      </trkpt>
      <trkpt lat="28.918346" lon="-13.780449">
        <ele>499.815</ele>
        <time>2013-11-19T11:35:05Z</time>
      </trkpt>
      <trkpt lat="28.918401" lon="-13.780626">
        <ele>510.178</ele>
        <time>2013-11-19T11:35:26Z</time>
      </trkpt>
      <trkpt lat="28.918593" lon="-13.780540">
        <ele>510.975</ele>
        <time>2013-11-19T11:35:47Z</time>
      </trkpt>
      <trkpt lat="28.919074" lon="-13.780743">
        <ele>519.936</ele>
        <time>2013-11-19T11:36:38Z</time>
      </trkpt>
      <trkpt lat="28.919814" lon="-13.780500">
        <ele>522.564</ele>
        <time>2013-11-19T11:37:53Z</time>
      </trkpt>
      <trkpt lat="28.920491" lon="-13.780644">
        <ele>539.235</ele>
        <time>2013-11-19T11:39:14Z</time>
      </trkpt>
      <trkpt lat="28.921195" lon="-13.780370">
        <ele>539.395</ele>
        <time>2013-11-19T11:40:35Z</time>
      </trkpt>
      <trkpt lat="28.921216" lon="-13.781167">
        <ele>549.186</ele>
        <time>2013-11-19T11:41:53Z</time>
      </trkpt>
      <trkpt lat="28.920823" lon="-13.781754">
        <ele>569.472</ele>
        <time>2013-11-19T11:43:17Z</time>
      </trkpt>
      <trkpt lat="28.920999" lon="-13.782363">
        <ele>565.413</ele>
        <time>2013-11-19T11:45:29Z</time>
      </trkpt>
      <trkpt lat="28.920991" lon="-13.782635">
        <ele>566.414</ele>
        <time>2013-11-19T11:46:47Z</time>
      </trkpt>
      <trkpt lat="28.920151" lon="-13.782355">
        <ele>594.008</ele>
        <time>2013-11-19T11:48:29Z</time>
      </trkpt>
      <trkpt lat="28.919581" lon="-13.782652">
        <ele>594.158</ele>
        <time>2013-11-19T11:49:29Z</time>
      </trkpt>
      <trkpt lat="28.919102" lon="-13.783226">
        <ele>598.921</ele>
        <time>2013-11-19T11:50:29Z</time>
      </trkpt>
      <trkpt lat="28.918782" lon="-13.784002">
        <ele>606.338</ele>
        <time>2013-11-19T11:55:14Z</time>
      </trkpt>
      <trkpt lat="28.918830" lon="-13.783888">
        <ele>606.329</ele>
        <time>2013-11-19T11:57:07Z</time>
      </trkpt>
      <trkpt lat="28.918734" lon="-13.784356">
        <ele>604.867</ele>
        <time>2013-11-19T11:58:17Z</time>
      </trkpt>
      <trkpt lat="28.918873" lon="-13.784486">
        <ele>605.258</ele>
        <time>2013-11-19T11:58:53Z</time>
      </trkpt>
      <trkpt lat="28.918945" lon="-13.784335">
        <ele>606.118</ele>
        <time>2013-11-19T12:00:20Z</time>
      </trkpt>
      <trkpt lat="28.918762" lon="-13.784127">
        <ele>607.389</ele>
        <time>2013-11-19T12:01:23Z</time>
      </trkpt>
      <trkpt lat="28.918887" lon="-13.783667">
        <ele>604.047</ele>
        <time>2013-11-19T12:02:29Z</time>
      </trkpt>
      <trkpt lat="28.918982" lon="-13.783634">
        <ele>601.729</ele>
        <time>2013-11-19T12:02:36Z</time>
      </trkpt>
      <trkpt lat="28.918890" lon="-13.783642">
        <ele>603.521</ele>
        <time>2013-11-19T12:03:19Z</time>
      </trkpt>
      <trkpt lat="28.918984" lon="-13.783594">
        <ele>601.108</ele>
        <time>2013-11-19T12:04:27Z</time>
      </trkpt>
      <trkpt lat="28.919021" lon="-13.783187">
        <ele>598.215</ele>
        <time>2013-11-19T12:06:23Z</time>
      </trkpt>
      <trkpt lat="28.919148" lon="-13.783060">
        <ele>599.738</ele>
        <time>2013-11-19T12:07:02Z</time>
      </trkpt>
      <trkpt lat="28.919124" lon="-13.783141">
        <ele>599.225</ele>
        <time>2013-11-19T12:07:14Z</time>
      </trkpt>
      <trkpt lat="28.919093" lon="-13.782953">
        <ele>598.656</ele>
        <time>2013-11-19T12:08:35Z</time>
      </trkpt>
      <trkpt lat="28.919214" lon="-13.782694">
        <ele>599.244</ele>
        <time>2013-11-19T12:09:26Z</time>
      </trkpt>
      <trkpt lat="28.919621" lon="-13.782362">
        <ele>599.255</ele>
        <time>2013-11-19T12:14:45Z</time>
      </trkpt>
      <trkpt lat="28.919994" lon="-13.782231">
        <ele>595.195</ele>
        <time>2013-11-19T12:16:39Z</time>
      </trkpt>
      <trkpt lat="28.920415" lon="-13.782241">
        <ele>590.596</ele>
        <time>2013-11-19T12:17:36Z</time>
      </trkpt>
      <trkpt lat="28.920870" lon="-13.782461">
        <ele>567.171</ele>
        <time>2013-11-19T12:19:27Z</time>
      </trkpt>
      <trkpt lat="28.921373" lon="-13.782993">
        <ele>564.341</ele>
        <time>2013-11-19T12:21:24Z</time>
      </trkpt>
      <trkpt lat="28.921533" lon="-13.783441">
        <ele>561.015</ele>
        <time>2013-11-19T12:22:00Z</time>
      </trkpt>
      <trkpt lat="28.921312" lon="-13.783956">
        <ele>561.808</ele>
        <time>2013-11-19T12:22:54Z</time>
      </trkpt>
      <trkpt lat="28.921164" lon="-13.784178">
        <ele>561.868</ele>
        <time>2013-11-19T12:23:24Z</time>
      </trkpt>
      <trkpt lat="28.920888" lon="-13.784234">
        <ele>562.841</ele>
        <time>2013-11-19T12:24:27Z</time>
      </trkpt>
      <trkpt lat="28.920306" lon="-13.784111">
        <ele>561.828</ele>
        <time>2013-11-19T12:25:24Z</time>
      </trkpt>
      <trkpt lat="28.920047" lon="-13.783883">
        <ele>560.929</ele>
        <time>2013-11-19T12:25:51Z</time>
      </trkpt>
      <trkpt lat="28.920056" lon="-13.783257">
        <ele>570.947</ele>
        <time>2013-11-19T12:27:06Z</time>
      </trkpt>
      <trkpt lat="28.920166" lon="-13.783045">
        <ele>577.348</ele>
        <time>2013-11-19T12:27:30Z</time>
      </trkpt>
      <trkpt lat="28.920487" lon="-13.782771">
        <ele>582.698</ele>
        <time>2013-11-19T12:28:39Z</time>
      </trkpt>
      <trkpt lat="28.920897" lon="-13.782677">
        <ele>566.899</ele>
        <time>2013-11-19T12:29:15Z</time>
      </trkpt>
      <trkpt lat="28.920958" lon="-13.782594">
        <ele>566.416</ele>
        <time>2013-11-19T12:29:24Z</time>
      </trkpt>
      <trkpt lat="28.920942" lon="-13.782169">
        <ele>567.176</ele>
        <time>2013-11-19T12:30:24Z</time>
      </trkpt>
      <trkpt lat="28.920804" lon="-13.781646">
        <ele>567.413</ele>
        <time>2013-11-19T12:31:00Z</time>
      </trkpt>
      <trkpt lat="28.920939" lon="-13.781400">
        <ele>558.908</ele>
        <time>2013-11-19T12:31:36Z</time>
      </trkpt>
      <trkpt lat="28.920833" lon="-13.780747">
        <ele>539.442</ele>
        <time>2013-11-19T12:32:39Z</time>
      </trkpt>
      <trkpt lat="28.920737" lon="-13.780576">
        <ele>538.095</ele>
        <time>2013-11-19T12:33:01Z</time>
      </trkpt>
      <trkpt lat="28.920502" lon="-13.780636">
        <ele>539.042</ele>
        <time>2013-11-19T12:33:36Z</time>
      </trkpt>
      <trkpt lat="28.919706" lon="-13.780484">
        <ele>520.553</ele>
        <time>2013-11-19T12:34:42Z</time>
      </trkpt>
      <trkpt lat="28.919160" lon="-13.780667">
        <ele>516.241</ele>
        <time>2013-11-19T12:35:27Z</time>
      </trkpt>
      <trkpt lat="28.918582" lon="-13.780489">
        <ele>508.262</ele>
        <time>2013-11-19T12:36:12Z</time>
      </trkpt>
      <trkpt lat="28.918396" lon="-13.780601">
        <ele>509.142</ele>
        <time>2013-11-19T12:36:30Z</time>
      </trkpt>
      <trkpt lat="28.918303" lon="-13.780539">
        <ele>503.333</ele>
        <time>2013-11-19T12:36:39Z</time>
      </trkpt>
      <trkpt lat="28.918389" lon="-13.780430">
        <ele>499.994</ele>
        <time>2013-11-19T12:36:45Z</time>
      </trkpt>
      <trkpt lat="28.918318" lon="-13.780330">
        <ele>491.757</ele>
        <time>2013-11-19T12:36:54Z</time>
      </trkpt>
      <trkpt lat="28.918157" lon="-13.780442">
        <ele>491.222</ele>
        <time>2013-11-19T12:37:09Z</time>
      </trkpt>
      <trkpt lat="28.918142" lon="-13.780325">
        <ele>486.008</ele>
        <time>2013-11-19T12:37:21Z</time>
      </trkpt>
      <trkpt lat="28.918297" lon="-13.780135">
        <ele>484.650</ele>
        <time>2013-11-19T12:37:39Z</time>
      </trkpt>
      <trkpt lat="28.918200" lon="-13.780031">
        <ele>480.353</ele>
        <time>2013-11-19T12:37:48Z</time>
      </trkpt>
      <trkpt lat="28.917844" lon="-13.780333">
        <ele>477.330</ele>
        <time>2013-11-19T12:38:21Z</time>
      </trkpt>
      <trkpt lat="28.917792" lon="-13.780246">
        <ele>473.751</ele>
        <time>2013-11-19T12:38:27Z</time>
      </trkpt>
      <trkpt lat="28.917793" lon="-13.779711">
        <ele>468.089</ele>
        <time>2013-11-19T12:39:06Z</time>
      </trkpt>
      <trkpt lat="28.917513" lon="-13.779706">
        <ele>460.270</ele>
        <time>2013-11-19T12:39:54Z</time>
      </trkpt>
      <trkpt lat="28.917429" lon="-13.779471">
        <ele>455.710</ele>
        <time>2013-11-19T12:40:12Z</time>
      </trkpt>
      <trkpt lat="28.917431" lon="-13.779032">
        <ele>451.661</ele>
        <time>2013-11-19T12:40:40Z</time>
      </trkpt>
      <trkpt lat="28.917517" lon="-13.778864">
        <ele>450.337</ele>
        <time>2013-11-19T12:40:59Z</time>
      </trkpt>
      <trkpt lat="28.917693" lon="-13.778823">
        <ele>448.049</ele>
        <time>2013-11-19T12:41:15Z</time>
      </trkpt>
      <trkpt lat="28.918062" lon="-13.778949">
        <ele>447.813</ele>
        <time>2013-11-19T12:41:43Z</time>
      </trkpt>
      <trkpt lat="28.918139" lon="-13.778887">
        <ele>444.108</ele>
        <time>2013-11-19T12:41:48Z</time>
      </trkpt>
      <trkpt lat="28.918118" lon="-13.778772">
        <ele>440.634</ele>
        <time>2013-11-19T12:41:54Z</time>
      </trkpt>
      <trkpt lat="28.917298" lon="-13.777636">
        <ele>418.877</ele>
        <time>2013-11-19T12:43:06Z</time>
      </trkpt>
      <trkpt lat="28.916831" lon="-13.776721">
        <ele>400.714</ele>
        <time>2013-11-19T12:43:51Z</time>
      </trkpt>
      <trkpt lat="28.916838" lon="-13.776533">
        <ele>395.885</ele>
        <time>2013-11-19T12:44:12Z</time>
      </trkpt>
      <trkpt lat="28.917034" lon="-13.776482">
        <ele>393.313</ele>
        <time>2013-11-19T12:44:33Z</time>
      </trkpt>
      <trkpt lat="28.916904" lon="-13.775948">
        <ele>380.214</ele>
        <time>2013-11-19T12:45:21Z</time>
      </trkpt>
      <trkpt lat="28.916647" lon="-13.775660">
        <ele>375.174</ele>
        <time>2013-11-19T12:45:55Z</time>
      </trkpt>
      <trkpt lat="28.916146" lon="-13.775667">
        <ele>373.625</ele>
        <time>2013-11-19T12:46:30Z</time>
      </trkpt>
      <trkpt lat="28.915505" lon="-13.775845">
        <ele>366.648</ele>
        <time>2013-11-19T12:47:12Z</time>
      </trkpt>
      <trkpt lat="28.914747" lon="-13.776581">
        <ele>355.861</ele>
        <time>2013-11-19T12:50:09Z</time>
      </trkpt>
      <trkpt lat="28.913800" lon="-13.778130">
        <ele>359.217</ele>
        <time>2013-11-19T12:52:36Z</time>
      </trkpt>
      <trkpt lat="28.913907" lon="-13.778058">
        <ele>358.208</ele>
        <time>2013-11-19T12:53:00Z</time>
      </trkpt>
      <trkpt lat="28.913882" lon="-13.778111">
        <ele>358.835</ele>
        <time>2013-11-19T12:53:12Z</time>
      </trkpt>
      <trkpt lat="28.913312" lon="-13.778882">
        <ele>359.838</ele>
        <time>2013-11-19T12:54:51Z</time>
      </trkpt>
      <trkpt lat="28.913240" lon="-13.779443">
        <ele>365.665</ele>
        <time>2013-11-19T12:56:51Z</time>
      </trkpt>
      <trkpt lat="28.913036" lon="-13.779572">
        <ele>365.356</ele>
        <time>2013-11-19T12:57:27Z</time>
      </trkpt>
      <trkpt lat="28.912966" lon="-13.779762">
        <ele>365.244</ele>
        <time>2013-11-19T12:58:00Z</time>
      </trkpt>
      <trkpt lat="28.913043" lon="-13.780097">
        <ele>359.315</ele>
        <time>2013-11-19T12:58:30Z</time>
      </trkpt>
      <trkpt lat="28.913070" lon="-13.780024">
        <ele>361.445</ele>
        <time>2013-11-19T12:58:48Z</time>
      </trkpt>
      <trkpt lat="28.912943" lon="-13.780136">
        <ele>358.586</ele>
        <time>2013-11-19T12:59:09Z</time>
      </trkpt>
      <trkpt lat="28.913164" lon="-13.780132">
        <ele>359.586</ele>
        <time>2013-11-19T13:00:31Z</time>
      </trkpt>
      <trkpt lat="28.913083" lon="-13.780143">
        <ele>358.260</ele>
        <time>2013-11-19T13:01:13Z</time>
      </trkpt>
      <trkpt lat="28.913023" lon="-13.779898">
        <ele>363.626</ele>
        <time>2013-11-19T13:01:46Z</time>
      </trkpt>
      <trkpt lat="28.912968" lon="-13.780043">
        <ele>361.308</ele>
        <time>2013-11-19T13:02:08Z</time>
      </trkpt>
      <trkpt lat="28.913006" lon="-13.780164">
        <ele>357.499</ele>
        <time>2013-11-19T13:02:17Z</time>
      </trkpt>
      <trkpt lat="28.913066" lon="-13.780149">
        <ele>357.832</ele>
        <time>2013-11-19T13:02:29Z</time>
      </trkpt>
      <trkpt lat="28.913074" lon="-13.780050">
        <ele>360.799</ele>
        <time>2013-11-19T13:02:59Z</time>
      </trkpt>
      <trkpt lat="28.912971" lon="-13.780150">
        <ele>358.020</ele>
        <time>2013-11-19T13:03:53Z</time>
      </trkpt>
      <trkpt lat="28.912874" lon="-13.780092">
        <ele>360.218</ele>
        <time>2013-11-19T13:04:48Z</time>
      </trkpt>
      <trkpt lat="28.913150" lon="-13.779974">
        <ele>362.759</ele>
        <time>2013-11-19T13:05:29Z</time>
      </trkpt>
      <trkpt lat="28.913115" lon="-13.779912">
        <ele>363.519</ele>
        <time>2013-11-19T13:05:41Z</time>
      </trkpt>
      <trkpt lat="28.913424" lon="-13.779637">
        <ele>366.060</ele>
        <time>2013-11-19T13:06:23Z</time>
      </trkpt>
      <trkpt lat="28.913601" lon="-13.779557">
        <ele>365.214</ele>
        <time>2013-11-19T13:06:39Z</time>
      </trkpt>
      <trkpt lat="28.913645" lon="-13.779644">
        <ele>364.754</ele>
        <time>2013-11-19T13:06:49Z</time>
      </trkpt>
    </trkseg>
  </trk></gpx>