<?xml version="1.0" encoding="UTF-8"?>
<gpx creator="Wikiloc - https://www.wikiloc.com" version="1.1" xmlns="http://www.topografix.com/GPX/1/1" xmlns:xsi="http://www.w3.org/2001/XMLSchema-instance" xsi:schemaLocation="http://www.topografix.com/GPX/1/1 http://www.topografix.com/GPX/1/1/gpx.xsd">
  <metadata>
    <name>Wikiloc - Playa Quemada + P.N. Los Ajaches +Jardín Secreto</name>
    <link href="https://www.wikiloc.com/hiking-trails/playa-quemada-p-n-los-ajaches-jardin-secreto-163534206">
      <text>Playa Quemada + P.N. Los Ajaches +Jardín Secreto - Wikiloc on Wikiloc</text>
    </link>
    <time>2024-03-10T12:35:54.906Z</time>
  </metadata>
  <trk>
    <name>Playa Quemada + P.N. Los Ajaches +Jardín Secreto - Wikiloc</name>
    <cmt></cmt>
    <desc></desc>
    <trkseg>
      <trkpt lat="28.907483" lon="-13.734357">
        <ele>-0.545</ele>
        <time>2024-03-10T09:45:27Z</time>
      </trkpt>
      <trkpt lat="28.907580" lon="-13.734539">
        <ele>14.847</ele>
        <time>2024-03-10T09:51:18Z</time>
      </trkpt>
      <trkpt lat="28.907536" lon="-13.734740">
        <ele>12.011</ele>
        <time>2024-03-10T09:51:58Z</time>
      </trkpt>
      <trkpt lat="28.907363" lon="-13.734830">
        <ele>8.009</ele>
        <time>2024-03-10T09:52:16Z</time>
      </trkpt>
      <trkpt lat="28.907296" lon="-13.735021">
        <ele>3.655</ele>
        <time>2024-03-10T09:52:45Z</time>
      </trkpt>
      <trkpt lat="28.907241" lon="-13.735217">
        <ele>0.160</ele>
        <time>2024-03-10T09:53:05Z</time>
      </trkpt>
      <trkpt lat="28.907181" lon="-13.735412">
        <ele>4.087</ele>
        <time>2024-03-10T09:53:29Z</time>
      </trkpt>
      <trkpt lat="28.907166" lon="-13.735628">
        <ele>5.479</ele>
        <time>2024-03-10T09:53:51Z</time>
      </trkpt>
      <trkpt lat="28.907084" lon="-13.735819">
        <ele>7.587</ele>
        <time>2024-03-10T09:54:07Z</time>
      </trkpt>
      <trkpt lat="28.907018" lon="-13.736017">
        <ele>9.088</ele>
        <time>2024-03-10T09:54:29Z</time>
      </trkpt>
      <trkpt lat="28.906928" lon="-13.736211">
        <ele>6.386</ele>
        <time>2024-03-10T09:54:47Z</time>
      </trkpt>
      <trkpt lat="28.906825" lon="-13.736391">
        <ele>-1.714</ele>
        <time>2024-03-10T09:56:11Z</time>
      </trkpt>
      <trkpt lat="28.906734" lon="-13.736583">
        <ele>0.640</ele>
        <time>2024-03-10T09:56:32Z</time>
      </trkpt>
      <trkpt lat="28.906590" lon="-13.736719">
        <ele>4.888</ele>
        <time>2024-03-10T09:56:49Z</time>
      </trkpt>
      <trkpt lat="28.906499" lon="-13.736898">
        <ele>4.424</ele>
        <time>2024-03-10T09:57:12Z</time>
      </trkpt>
      <trkpt lat="28.906366" lon="-13.737044">
        <ele>0.126</ele>
        <time>2024-03-10T09:57:26Z</time>
      </trkpt>
      <trkpt lat="28.906200" lon="-13.737126">
        <ele>6.009</ele>
        <time>2024-03-10T09:57:47Z</time>
      </trkpt>
      <trkpt lat="28.906065" lon="-13.737269">
        <ele>5.619</ele>
        <time>2024-03-10T09:58:04Z</time>
      </trkpt>
      <trkpt lat="28.906039" lon="-13.737479">
        <ele>3.344</ele>
        <time>2024-03-10T09:58:29Z</time>
      </trkpt>
      <trkpt lat="28.905947" lon="-13.737671">
        <ele>7.131</ele>
        <time>2024-03-10T09:58:55Z</time>
      </trkpt>
      <trkpt lat="28.905867" lon="-13.737857">
        <ele>1.673</ele>
        <time>2024-03-10T09:59:34Z</time>
      </trkpt>
      <trkpt lat="28.905928" lon="-13.738056">
        <ele>1.171</ele>
        <time>2024-03-10T10:00:15Z</time>
      </trkpt>
      <trkpt lat="28.905916" lon="-13.738265">
        <ele>5.712</ele>
        <time>2024-03-10T10:00:41Z</time>
      </trkpt>
      <trkpt lat="28.906041" lon="-13.738427">
        <ele>9.520</ele>
        <time>2024-03-10T10:01:19Z</time>
      </trkpt>
      <trkpt lat="28.905991" lon="-13.738627">
        <ele>23.178</ele>
        <time>2024-03-10T10:01:52Z</time>
      </trkpt>
      <trkpt lat="28.905968" lon="-13.738835">
        <ele>27.134</ele>
        <time>2024-03-10T10:02:14Z</time>
      </trkpt>
      <trkpt lat="28.905901" lon="-13.739026">
        <ele>24.228</ele>
        <time>2024-03-10T10:02:47Z</time>
      </trkpt>
      <trkpt lat="28.905734" lon="-13.739108">
        <ele>34.189</ele>
        <time>2024-03-10T10:03:27Z</time>
      </trkpt>
      <trkpt lat="28.905648" lon="-13.739290">
        <ele>43.917</ele>
        <time>2024-03-10T10:04:48Z</time>
      </trkpt>
      <trkpt lat="28.905594" lon="-13.739491">
        <ele>51.009</ele>
        <time>2024-03-10T10:05:49Z</time>
      </trkpt>
      <trkpt lat="28.905511" lon="-13.739682">
        <ele>57.453</ele>
        <time>2024-03-10T10:06:19Z</time>
      </trkpt>
      <trkpt lat="28.905503" lon="-13.739887">
        <ele>68.768</ele>
        <time>2024-03-10T10:07:02Z</time>
      </trkpt>
      <trkpt lat="28.905549" lon="-13.740092">
        <ele>67.345</ele>
        <time>2024-03-10T10:07:59Z</time>
      </trkpt>
      <trkpt lat="28.905703" lon="-13.740213">
        <ele>74.367</ele>
        <time>2024-03-10T10:08:17Z</time>
      </trkpt>
      <trkpt lat="28.905579" lon="-13.740370">
        <ele>74.425</ele>
        <time>2024-03-10T10:08:56Z</time>
      </trkpt>
      <trkpt lat="28.905430" lon="-13.740487">
        <ele>75.986</ele>
        <time>2024-03-10T10:09:20Z</time>
      </trkpt>
      <trkpt lat="28.905266" lon="-13.740583">
        <ele>83.064</ele>
        <time>2024-03-10T10:09:46Z</time>
      </trkpt>
      <trkpt lat="28.905081" lon="-13.740562">
        <ele>88.482</ele>
        <time>2024-03-10T10:10:05Z</time>
      </trkpt>
      <trkpt lat="28.904900" lon="-13.740616">
        <ele>89.698</ele>
        <time>2024-03-10T10:10:23Z</time>
      </trkpt>
      <trkpt lat="28.904719" lon="-13.740651">
        <ele>91.536</ele>
        <time>2024-03-10T10:10:41Z</time>
      </trkpt>
      <trkpt lat="28.904545" lon="-13.740741">
        <ele>95.217</ele>
        <time>2024-03-10T10:10:59Z</time>
      </trkpt>
      <trkpt lat="28.904398" lon="-13.740868">
        <ele>93.818</ele>
        <time>2024-03-10T10:11:17Z</time>
      </trkpt>
      <trkpt lat="28.904311" lon="-13.741055">
        <ele>94.309</ele>
        <time>2024-03-10T10:11:35Z</time>
      </trkpt>
      <trkpt lat="28.904278" lon="-13.741263">
        <ele>87.584</ele>
        <time>2024-03-10T10:11:54Z</time>
      </trkpt>
      <trkpt lat="28.904109" lon="-13.741184">
        <ele>90.089</ele>
        <time>2024-03-10T10:12:09Z</time>
      </trkpt>
      <trkpt lat="28.903943" lon="-13.741091">
        <ele>91.516</ele>
        <time>2024-03-10T10:12:28Z</time>
      </trkpt>
      <trkpt lat="28.903779" lon="-13.740991">
        <ele>90.678</ele>
        <time>2024-03-10T10:12:46Z</time>
      </trkpt>
      <trkpt lat="28.903674" lon="-13.741169">
        <ele>86.266</ele>
        <time>2024-03-10T10:14:01Z</time>
      </trkpt>
      <trkpt lat="28.903550" lon="-13.741323">
        <ele>83.277</ele>
        <time>2024-03-10T10:14:25Z</time>
      </trkpt>
      <trkpt lat="28.903374" lon="-13.741371">
        <ele>80.795</ele>
        <time>2024-03-10T10:15:02Z</time>
      </trkpt>
      <trkpt lat="28.903220" lon="-13.741262">
        <ele>83.723</ele>
        <time>2024-03-10T10:15:30Z</time>
      </trkpt>
      <trkpt lat="28.903038" lon="-13.741250">
        <ele>77.749</ele>
        <time>2024-03-10T10:16:09Z</time>
      </trkpt>
      <trkpt lat="28.902850" lon="-13.741244">
        <ele>80.774</ele>
        <time>2024-03-10T10:19:03Z</time>
      </trkpt>
      <trkpt lat="28.902677" lon="-13.741322">
        <ele>77.856</ele>
        <time>2024-03-10T10:19:29Z</time>
      </trkpt>
      <trkpt lat="28.902545" lon="-13.741465">
        <ele>84.221</ele>
        <time>2024-03-10T10:19:55Z</time>
      </trkpt>
      <trkpt lat="28.902363" lon="-13.741518">
        <ele>79.009</ele>
        <time>2024-03-10T10:20:23Z</time>
      </trkpt>
      <trkpt lat="28.902194" lon="-13.741598">
        <ele>82.948</ele>
        <time>2024-03-10T10:20:44Z</time>
      </trkpt>
      <trkpt lat="28.902011" lon="-13.741590">
        <ele>83.413</ele>
        <time>2024-03-10T10:21:01Z</time>
      </trkpt>
      <trkpt lat="28.901841" lon="-13.741678">
        <ele>81.810</ele>
        <time>2024-03-10T10:21:18Z</time>
      </trkpt>
      <trkpt lat="28.901687" lon="-13.741796">
        <ele>79.372</ele>
        <time>2024-03-10T10:21:33Z</time>
      </trkpt>
      <trkpt lat="28.901558" lon="-13.741942">
        <ele>77.320</ele>
        <time>2024-03-10T10:21:52Z</time>
      </trkpt>
      <trkpt lat="28.901429" lon="-13.742087">
        <ele>78.191</ele>
        <time>2024-03-10T10:22:38Z</time>
      </trkpt>
      <trkpt lat="28.901329" lon="-13.742263">
        <ele>75.419</ele>
        <time>2024-03-10T10:23:12Z</time>
      </trkpt>
      <trkpt lat="28.901304" lon="-13.742471">
        <ele>74.847</ele>
        <time>2024-03-10T10:23:37Z</time>
      </trkpt>
      <trkpt lat="28.901129" lon="-13.742539">
        <ele>74.833</ele>
        <time>2024-03-10T10:24:07Z</time>
      </trkpt>
      <trkpt lat="28.901042" lon="-13.742726">
        <ele>69.967</ele>
        <time>2024-03-10T10:24:32Z</time>
      </trkpt>
      <trkpt lat="28.901035" lon="-13.742940">
        <ele>67.581</ele>
        <time>2024-03-10T10:25:04Z</time>
      </trkpt>
      <trkpt lat="28.900960" lon="-13.743128">
        <ele>57.019</ele>
        <time>2024-03-10T10:25:43Z</time>
      </trkpt>
      <trkpt lat="28.900871" lon="-13.743309">
        <ele>56.209</ele>
        <time>2024-03-10T10:26:02Z</time>
      </trkpt>
      <trkpt lat="28.900733" lon="-13.743450">
        <ele>46.497</ele>
        <time>2024-03-10T10:27:00Z</time>
      </trkpt>
      <trkpt lat="28.900719" lon="-13.743659">
        <ele>40.912</ele>
        <time>2024-03-10T10:27:43Z</time>
      </trkpt>
      <trkpt lat="28.900639" lon="-13.743856">
        <ele>36.099</ele>
        <time>2024-03-10T10:28:11Z</time>
      </trkpt>
      <trkpt lat="28.900531" lon="-13.744033">
        <ele>24.851</ele>
        <time>2024-03-10T10:27:41.948Z</time>
      </trkpt>
      <trkpt lat="28.900373" lon="-13.744114">
        <ele>20.829</ele>
        <time>2024-03-10T10:27:39.626Z</time>
      </trkpt>
      <trkpt lat="28.900131" lon="-13.744301">
        <ele>17.870</ele>
        <time>2024-03-10T10:28:16.564Z</time>
      </trkpt>
      <trkpt lat="28.900115" lon="-13.744359">
        <ele>35.688</ele>
        <time>2024-03-10T10:29:15.818Z</time>
      </trkpt>
      <trkpt lat="28.900058" lon="-13.744339">
        <ele>17.096</ele>
        <time>2024-03-10T10:29:56.759Z</time>
      </trkpt>
      <trkpt lat="28.899913" lon="-13.744546">
        <ele>15.892</ele>
        <time>2024-03-10T10:31:31.088Z</time>
      </trkpt>
      <trkpt lat="28.899826" lon="-13.744732">
        <ele>18.087</ele>
        <time>2024-03-10T10:31:59.044Z</time>
      </trkpt>
      <trkpt lat="28.899758" lon="-13.744925">
        <ele>20.142</ele>
        <time>2024-03-10T10:32:19.044Z</time>
      </trkpt>
      <trkpt lat="28.899620" lon="-13.745057">
        <ele>22.426</ele>
        <time>2024-03-10T10:32:41.044Z</time>
      </trkpt>
      <trkpt lat="28.899492" lon="-13.745208">
        <ele>26.009</ele>
        <time>2024-03-10T10:33:00.044Z</time>
      </trkpt>
      <trkpt lat="28.899343" lon="-13.745340">
        <ele>30.669</ele>
        <time>2024-03-10T10:33:28.044Z</time>
      </trkpt>
      <trkpt lat="28.899248" lon="-13.745524">
        <ele>30.714</ele>
        <time>2024-03-10T10:37:34.044Z</time>
      </trkpt>
      <trkpt lat="28.899128" lon="-13.745685">
        <ele>36.551</ele>
        <time>2024-03-10T10:40:36.044Z</time>
      </trkpt>
      <trkpt lat="28.898964" lon="-13.745790">
        <ele>38.553</ele>
        <time>2024-03-10T10:41:07.044Z</time>
      </trkpt>
      <trkpt lat="28.898819" lon="-13.745918">
        <ele>45.121</ele>
        <time>2024-03-10T10:41:34.044Z</time>
      </trkpt>
      <trkpt lat="28.898644" lon="-13.745967">
        <ele>49.572</ele>
        <time>2024-03-10T10:42:16.044Z</time>
      </trkpt>
      <trkpt lat="28.898471" lon="-13.746031">
        <ele>49.810</ele>
        <time>2024-03-10T10:42:38.044Z</time>
      </trkpt>
      <trkpt lat="28.898285" lon="-13.746066">
        <ele>50.158</ele>
        <time>2024-03-10T10:42:58.044Z</time>
      </trkpt>
      <trkpt lat="28.898115" lon="-13.746145">
        <ele>49.514</ele>
        <time>2024-03-10T10:43:15.044Z</time>
      </trkpt>
      <trkpt lat="28.897953" lon="-13.746254">
        <ele>48.234</ele>
        <time>2024-03-10T10:43:36.044Z</time>
      </trkpt>
      <trkpt lat="28.897954" lon="-13.746038">
        <ele>45.155</ele>
        <time>2024-03-10T10:43:59.044Z</time>
      </trkpt>
      <trkpt lat="28.897886" lon="-13.745840">
        <ele>46.710</ele>
        <time>2024-03-10T10:44:22.044Z</time>
      </trkpt>
      <trkpt lat="28.897863" lon="-13.745627">
        <ele>53.109</ele>
        <time>2024-03-10T10:45:01.044Z</time>
      </trkpt>
      <trkpt lat="28.897721" lon="-13.745494">
        <ele>57.664</ele>
        <time>2024-03-10T10:45:39.044Z</time>
      </trkpt>
      <trkpt lat="28.897563" lon="-13.745375">
        <ele>62.369</ele>
        <time>2024-03-10T10:46:22.044Z</time>
      </trkpt>
      <trkpt lat="28.897416" lon="-13.745250">
        <ele>69.766</ele>
        <time>2024-03-10T10:47:24.044Z</time>
      </trkpt>
      <trkpt lat="28.897258" lon="-13.745141">
        <ele>70.858</ele>
        <time>2024-03-10T10:47:44.044Z</time>
      </trkpt>
      <trkpt lat="28.897128" lon="-13.744997">
        <ele>71.436</ele>
        <time>2024-03-10T10:48:10.044Z</time>
      </trkpt>
      <trkpt lat="28.897017" lon="-13.744832">
        <ele>69.437</ele>
        <time>2024-03-10T10:48:35.044Z</time>
      </trkpt>
      <trkpt lat="28.896869" lon="-13.744712">
        <ele>72.765</ele>
        <time>2024-03-10T10:49:11.044Z</time>
      </trkpt>
      <trkpt lat="28.896709" lon="-13.744594">
        <ele>73.753</ele>
        <time>2024-03-10T10:50:10.044Z</time>
      </trkpt>
      <trkpt lat="28.896522" lon="-13.744590">
        <ele>73.499</ele>
        <time>2024-03-10T10:50:28.044Z</time>
      </trkpt>
      <trkpt lat="28.896342" lon="-13.744521">
        <ele>71.995</ele>
        <time>2024-03-10T10:50:49.044Z</time>
      </trkpt>
      <trkpt lat="28.896176" lon="-13.744429">
        <ele>72.049</ele>
        <time>2024-03-10T10:51:08.044Z</time>
      </trkpt>
      <trkpt lat="28.895995" lon="-13.744403">
        <ele>73.523</ele>
        <time>2024-03-10T10:51:25.044Z</time>
      </trkpt>
      <trkpt lat="28.895805" lon="-13.744369">
        <ele>71.409</ele>
        <time>2024-03-10T10:51:42.044Z</time>
      </trkpt>
      <trkpt lat="28.895620" lon="-13.744389">
        <ele>67.180</ele>
        <time>2024-03-10T10:51:59.044Z</time>
      </trkpt>
      <trkpt lat="28.895435" lon="-13.744395">
        <ele>69.125</ele>
        <time>2024-03-10T10:52:17.044Z</time>
      </trkpt>
      <trkpt lat="28.895258" lon="-13.744434">
        <ele>67.242</ele>
        <time>2024-03-10T10:52:38.044Z</time>
      </trkpt>
      <trkpt lat="28.895072" lon="-13.744484">
        <ele>67.784</ele>
        <time>2024-03-10T10:52:56.044Z</time>
      </trkpt>
      <trkpt lat="28.894899" lon="-13.744561">
        <ele>67.992</ele>
        <time>2024-03-10T10:53:13.044Z</time>
      </trkpt>
      <trkpt lat="28.894717" lon="-13.744586">
        <ele>65.623</ele>
        <time>2024-03-10T10:53:29.044Z</time>
      </trkpt>
      <trkpt lat="28.894550" lon="-13.744673">
        <ele>63.381</ele>
        <time>2024-03-10T10:53:45.044Z</time>
      </trkpt>
      <trkpt lat="28.894367" lon="-13.744695">
        <ele>64.089</ele>
        <time>2024-03-10T10:54:02.044Z</time>
      </trkpt>
      <trkpt lat="28.894184" lon="-13.744753">
        <ele>62.665</ele>
        <time>2024-03-10T10:54:19.044Z</time>
      </trkpt>
      <trkpt lat="28.894106" lon="-13.744948">
        <ele>62.128</ele>
        <time>2024-03-10T10:54:37.044Z</time>
      </trkpt>
      <trkpt lat="28.894139" lon="-13.745159">
        <ele>60.589</ele>
        <time>2024-03-10T10:54:57.044Z</time>
      </trkpt>
      <trkpt lat="28.893953" lon="-13.745161">
        <ele>64.117</ele>
        <time>2024-03-10T10:55:25.044Z</time>
      </trkpt>
      <trkpt lat="28.893792" lon="-13.745051">
        <ele>65.609</ele>
        <time>2024-03-10T10:55:44.044Z</time>
      </trkpt>
      <trkpt lat="28.893607" lon="-13.744996">
        <ele>65.753</ele>
        <time>2024-03-10T10:56:01.044Z</time>
      </trkpt>
      <trkpt lat="28.893425" lon="-13.744990">
        <ele>66.028</ele>
        <time>2024-03-10T10:56:17.044Z</time>
      </trkpt>
      <trkpt lat="28.893275" lon="-13.745107">
        <ele>60.785</ele>
        <time>2024-03-10T10:56:40.044Z</time>
      </trkpt>
      <trkpt lat="28.893106" lon="-13.745195">
        <ele>57.397</ele>
        <time>2024-03-10T10:57:06.044Z</time>
      </trkpt>
      <trkpt lat="28.892922" lon="-13.745199">
        <ele>59.985</ele>
        <time>2024-03-10T10:57:23.044Z</time>
      </trkpt>
      <trkpt lat="28.892736" lon="-13.745234">
        <ele>60.646</ele>
        <time>2024-03-10T10:57:43.044Z</time>
      </trkpt>
      <trkpt lat="28.892573" lon="-13.745335">
        <ele>58.644</ele>
        <time>2024-03-10T10:58:02.044Z</time>
      </trkpt>
      <trkpt lat="28.892421" lon="-13.745451">
        <ele>57.672</ele>
        <time>2024-03-10T10:58:23.044Z</time>
      </trkpt>
      <trkpt lat="28.892265" lon="-13.745559">
        <ele>51.568</ele>
        <time>2024-03-10T10:58:48.044Z</time>
      </trkpt>
      <trkpt lat="28.892121" lon="-13.745682">
        <ele>48.417</ele>
        <time>2024-03-10T10:59:13.044Z</time>
      </trkpt>
      <trkpt lat="28.891972" lon="-13.745802">
        <ele>51.087</ele>
        <time>2024-03-10T10:59:57.044Z</time>
      </trkpt>
      <trkpt lat="28.891790" lon="-13.745815">
        <ele>47.215</ele>
        <time>2024-03-10T11:00:40.044Z</time>
      </trkpt>
      <trkpt lat="28.891663" lon="-13.745656">
        <ele>41.709</ele>
        <time>2024-03-10T11:00:58.044Z</time>
      </trkpt>
      <trkpt lat="28.891556" lon="-13.745828">
        <ele>37.482</ele>
        <time>2024-03-10T11:01:52.044Z</time>
      </trkpt>
      <trkpt lat="28.891585" lon="-13.746041">
        <ele>27.567</ele>
        <time>2024-03-10T11:03:25.044Z</time>
      </trkpt>
      <trkpt lat="28.891698" lon="-13.746217">
        <ele>26.854</ele>
        <time>2024-03-10T11:03:42.044Z</time>
      </trkpt>
      <trkpt lat="28.891697" lon="-13.746427">
        <ele>23.896</ele>
        <time>2024-03-10T11:03:59.044Z</time>
      </trkpt>
      <trkpt lat="28.891591" lon="-13.746600">
        <ele>23.224</ele>
        <time>2024-03-10T11:04:22.044Z</time>
      </trkpt>
      <trkpt lat="28.891476" lon="-13.746429">
        <ele>20.465</ele>
        <time>2024-03-10T11:04:45.044Z</time>
      </trkpt>
      <trkpt lat="28.891417" lon="-13.746234">
        <ele>16.013</ele>
        <time>2024-03-10T11:05:01.044Z</time>
      </trkpt>
      <trkpt lat="28.891239" lon="-13.746177">
        <ele>10.461</ele>
        <time>2024-03-10T11:05:20.044Z</time>
      </trkpt>
      <trkpt lat="28.891053" lon="-13.746205">
        <ele>12.897</ele>
        <time>2024-03-10T11:05:40.044Z</time>
      </trkpt>
      <trkpt lat="28.890869" lon="-13.746177">
        <ele>14.365</ele>
        <time>2024-03-10T11:06:26.044Z</time>
      </trkpt>
      <trkpt lat="28.890691" lon="-13.746119">
        <ele>14.768</ele>
        <time>2024-03-10T11:07:20.044Z</time>
      </trkpt>
      <trkpt lat="28.890514" lon="-13.746067">
        <ele>12.414</ele>
        <time>2024-03-10T11:07:40.044Z</time>
      </trkpt>
      <trkpt lat="28.890424" lon="-13.745883">
        <ele>6.509</ele>
        <time>2024-03-10T11:13:45.044Z</time>
      </trkpt>
      <trkpt lat="28.890608" lon="-13.745876">
        <ele>9.437</ele>
        <time>2024-03-10T11:20:25.044Z</time>
      </trkpt>
      <trkpt lat="28.890728" lon="-13.746034">
        <ele>9.792</ele>
        <time>2024-03-10T11:20:55.044Z</time>
      </trkpt>
      <trkpt lat="28.890900" lon="-13.746113">
        <ele>11.219</ele>
        <time>2024-03-10T11:21:31.044Z</time>
      </trkpt>
      <trkpt lat="28.891074" lon="-13.746187">
        <ele>13.381</ele>
        <time>2024-03-10T11:21:56.044Z</time>
      </trkpt>
      <trkpt lat="28.891254" lon="-13.746161">
        <ele>14.579</ele>
        <time>2024-03-10T11:22:14.044Z</time>
      </trkpt>
      <trkpt lat="28.891421" lon="-13.746262">
        <ele>17.020</ele>
        <time>2024-03-10T11:22:34.044Z</time>
      </trkpt>
      <trkpt lat="28.891506" lon="-13.746444">
        <ele>17.428</ele>
        <time>2024-03-10T11:22:55.044Z</time>
      </trkpt>
      <trkpt lat="28.891686" lon="-13.746409">
        <ele>13.246</ele>
        <time>2024-03-10T11:25:09.044Z</time>
      </trkpt>
      <trkpt lat="28.891711" lon="-13.746197">
        <ele>19.062</ele>
        <time>2024-03-10T11:25:34.044Z</time>
      </trkpt>
      <trkpt lat="28.891637" lon="-13.746009">
        <ele>23.582</ele>
        <time>2024-03-10T11:26:03.044Z</time>
      </trkpt>
      <trkpt lat="28.891472" lon="-13.745927">
        <ele>25.243</ele>
        <time>2024-03-10T11:26:57.044Z</time>
      </trkpt>
      <trkpt lat="28.891558" lon="-13.745745">
        <ele>28.217</ele>
        <time>2024-03-10T11:29:08.044Z</time>
      </trkpt>
      <trkpt lat="28.891744" lon="-13.745734">
        <ele>35.409</ele>
        <time>2024-03-10T11:30:34.044Z</time>
      </trkpt>
      <trkpt lat="28.891898" lon="-13.745849">
        <ele>40.589</ele>
        <time>2024-03-10T11:30:57.044Z</time>
      </trkpt>
      <trkpt lat="28.892065" lon="-13.745748">
        <ele>40.924</ele>
        <time>2024-03-10T11:31:22.044Z</time>
      </trkpt>
      <trkpt lat="28.892239" lon="-13.745667">
        <ele>40.421</ele>
        <time>2024-03-10T11:31:42.044Z</time>
      </trkpt>
      <trkpt lat="28.892343" lon="-13.745497">
        <ele>44.063</ele>
        <time>2024-03-10T11:32:03.044Z</time>
      </trkpt>
      <trkpt lat="28.892496" lon="-13.745383">
        <ele>47.261</ele>
        <time>2024-03-10T11:32:23.044Z</time>
      </trkpt>
      <trkpt lat="28.892676" lon="-13.745325">
        <ele>52.712</ele>
        <time>2024-03-10T11:32:41.044Z</time>
      </trkpt>
      <trkpt lat="28.892846" lon="-13.745227">
        <ele>55.620</ele>
        <time>2024-03-10T11:32:58.044Z</time>
      </trkpt>
      <trkpt lat="28.893027" lon="-13.745174">
        <ele>53.818</ele>
        <time>2024-03-10T11:33:15.044Z</time>
      </trkpt>
      <trkpt lat="28.893212" lon="-13.745215">
        <ele>53.734</ele>
        <time>2024-03-10T11:33:32.044Z</time>
      </trkpt>
      <trkpt lat="28.893332" lon="-13.745057">
        <ele>55.698</ele>
        <time>2024-03-10T11:33:48.044Z</time>
      </trkpt>
      <trkpt lat="28.893477" lon="-13.744935">
        <ele>57.915</ele>
        <time>2024-03-10T11:34:06.044Z</time>
      </trkpt>
      <trkpt lat="28.893665" lon="-13.744955">
        <ele>61.226</ele>
        <time>2024-03-10T11:34:23.044Z</time>
      </trkpt>
      <trkpt lat="28.893823" lon="-13.745058">
        <ele>61.909</ele>
        <time>2024-03-10T11:34:53.044Z</time>
      </trkpt>
      <trkpt lat="28.893972" lon="-13.745180">
        <ele>62.720</ele>
        <time>2024-03-10T11:35:06.044Z</time>
      </trkpt>
      <trkpt lat="28.894155" lon="-13.745254">
        <ele>59.775</ele>
        <time>2024-03-10T11:35:21.044Z</time>
      </trkpt>
      <trkpt lat="28.894171" lon="-13.745035">
        <ele>62.292</ele>
        <time>2024-03-10T11:35:36.044Z</time>
      </trkpt>
      <trkpt lat="28.894228" lon="-13.744830">
        <ele>65.224</ele>
        <time>2024-03-10T11:35:54.044Z</time>
      </trkpt>
      <trkpt lat="28.894394" lon="-13.744751">
        <ele>67.872</ele>
        <time>2024-03-10T11:36:08.044Z</time>
      </trkpt>
      <trkpt lat="28.894577" lon="-13.744717">
        <ele>69.523</ele>
        <time>2024-03-10T11:36:25.044Z</time>
      </trkpt>
      <trkpt lat="28.894737" lon="-13.744600">
        <ele>68.211</ele>
        <time>2024-03-10T11:36:39.044Z</time>
      </trkpt>
      <trkpt lat="28.894918" lon="-13.744555">
        <ele>70.379</ele>
        <time>2024-03-10T11:36:57.044Z</time>
      </trkpt>
      <trkpt lat="28.895100" lon="-13.744517">
        <ele>68.265</ele>
        <time>2024-03-10T11:37:16.044Z</time>
      </trkpt>
      <trkpt lat="28.895286" lon="-13.744487">
        <ele>69.053</ele>
        <time>2024-03-10T11:37:32.044Z</time>
      </trkpt>
      <trkpt lat="28.895461" lon="-13.744403">
        <ele>70.304</ele>
        <time>2024-03-10T11:37:49.044Z</time>
      </trkpt>
      <trkpt lat="28.895645" lon="-13.744424">
        <ele>71.914</ele>
        <time>2024-03-10T11:38:07.044Z</time>
      </trkpt>
      <trkpt lat="28.895824" lon="-13.744383">
        <ele>72.409</ele>
        <time>2024-03-10T11:38:24.044Z</time>
      </trkpt>
      <trkpt lat="28.896005" lon="-13.744374">
        <ele>72.276</ele>
        <time>2024-03-10T11:38:41.044Z</time>
      </trkpt>
      <trkpt lat="28.896189" lon="-13.744401">
        <ele>73.011</ele>
        <time>2024-03-10T11:38:58.044Z</time>
      </trkpt>
      <trkpt lat="28.896361" lon="-13.744476">
        <ele>71.438</ele>
        <time>2024-03-10T11:39:24.044Z</time>
      </trkpt>
      <trkpt lat="28.896530" lon="-13.744553">
        <ele>75.150</ele>
        <time>2024-03-10T11:39:39.044Z</time>
      </trkpt>
      <trkpt lat="28.896715" lon="-13.744564">
        <ele>77.848</ele>
        <time>2024-03-10T11:39:52.044Z</time>
      </trkpt>
      <trkpt lat="28.896864" lon="-13.744683">
        <ele>76.529</ele>
        <time>2024-03-10T11:40:07.044Z</time>
      </trkpt>
      <trkpt lat="28.897000" lon="-13.744820">
        <ele>76.847</ele>
        <time>2024-03-10T11:40:27.044Z</time>
      </trkpt>
      <trkpt lat="28.897157" lon="-13.744947">
        <ele>76.685</ele>
        <time>2024-03-10T11:40:47.044Z</time>
      </trkpt>
      <trkpt lat="28.897256" lon="-13.745120">
        <ele>76.251</ele>
        <time>2024-03-10T11:41:06.044Z</time>
      </trkpt>
      <trkpt lat="28.897416" lon="-13.745221">
        <ele>76.691</ele>
        <time>2024-03-10T11:41:24.044Z</time>
      </trkpt>
      <trkpt lat="28.897568" lon="-13.745342">
        <ele>68.681</ele>
        <time>2024-03-10T11:42:04.044Z</time>
      </trkpt>
      <trkpt lat="28.897727" lon="-13.745444">
        <ele>68.019</ele>
        <time>2024-03-10T11:42:22.044Z</time>
      </trkpt>
      <trkpt lat="28.897869" lon="-13.745585">
        <ele>63.909</ele>
        <time>2024-03-10T11:42:43.044Z</time>
      </trkpt>
      <trkpt lat="28.897947" lon="-13.745775">
        <ele>55.280</ele>
        <time>2024-03-10T11:43:06.044Z</time>
      </trkpt>
      <trkpt lat="28.897975" lon="-13.745986">
        <ele>50.635</ele>
        <time>2024-03-10T11:43:30.044Z</time>
      </trkpt>
      <trkpt lat="28.897958" lon="-13.746200">
        <ele>46.192</ele>
        <time>2024-03-10T11:43:53.044Z</time>
      </trkpt>
      <trkpt lat="28.898139" lon="-13.746163">
        <ele>52.224</ele>
        <time>2024-03-10T11:44:34.044Z</time>
      </trkpt>
      <trkpt lat="28.898308" lon="-13.746077">
        <ele>50.482</ele>
        <time>2024-03-10T11:44:49.044Z</time>
      </trkpt>
      <trkpt lat="28.898493" lon="-13.746045">
        <ele>50.553</ele>
        <time>2024-03-10T11:45:08.044Z</time>
      </trkpt>
      <trkpt lat="28.898668" lon="-13.745987">
        <ele>48.091</ele>
        <time>2024-03-10T11:45:26.044Z</time>
      </trkpt>
      <trkpt lat="28.898842" lon="-13.745927">
        <ele>45.619</ele>
        <time>2024-03-10T11:45:46.044Z</time>
      </trkpt>
      <trkpt lat="28.899004" lon="-13.745833">
        <ele>40.525</ele>
        <time>2024-03-10T11:46:07.044Z</time>
      </trkpt>
      <trkpt lat="28.899077" lon="-13.745641">
        <ele>37.292</ele>
        <time>2024-03-10T11:46:38.044Z</time>
      </trkpt>
      <trkpt lat="28.899223" lon="-13.745519">
        <ele>32.473</ele>
        <time>2024-03-10T11:47:00.044Z</time>
      </trkpt>
      <trkpt lat="28.899358" lon="-13.745373">
        <ele>29.320</ele>
        <time>2024-03-10T11:47:18.044Z</time>
      </trkpt>
      <trkpt lat="28.899495" lon="-13.745233">
        <ele>25.309</ele>
        <time>2024-03-10T11:47:37.044Z</time>
      </trkpt>
      <trkpt lat="28.899636" lon="-13.745094">
        <ele>22.430</ele>
        <time>2024-03-10T11:47:57.044Z</time>
      </trkpt>
      <trkpt lat="28.899756" lon="-13.744924">
        <ele>22.455</ele>
        <time>2024-03-10T11:50:16.044Z</time>
      </trkpt>
      <trkpt lat="28.899856" lon="-13.744745">
        <ele>20.772</ele>
        <time>2024-03-10T11:50:36.044Z</time>
      </trkpt>
      <trkpt lat="28.899991" lon="-13.744604">
        <ele>17.474</ele>
        <time>2024-03-10T11:51:02.044Z</time>
      </trkpt>
      <trkpt lat="28.900095" lon="-13.744428">
        <ele>15.932</ele>
        <time>2024-03-10T11:51:55.044Z</time>
      </trkpt>
      <trkpt lat="28.900213" lon="-13.744266">
        <ele>19.783</ele>
        <time>2024-03-10T11:52:35.044Z</time>
      </trkpt>
      <trkpt lat="28.900330" lon="-13.744108">
        <ele>21.431</ele>
        <time>2024-03-10T11:53:17.044Z</time>
      </trkpt>
      <trkpt lat="28.900500" lon="-13.744038">
        <ele>25.529</ele>
        <time>2024-03-10T11:53:48.044Z</time>
      </trkpt>
      <trkpt lat="28.900598" lon="-13.743865">
        <ele>32.695</ele>
        <time>2024-03-10T11:54:20.044Z</time>
      </trkpt>
      <trkpt lat="28.900688" lon="-13.743683">
        <ele>31.948</ele>
        <time>2024-03-10T11:54:47.044Z</time>
      </trkpt>
      <trkpt lat="28.900773" lon="-13.743500">
        <ele>43.461</ele>
        <time>2024-03-10T11:55:25.044Z</time>
      </trkpt>
      <trkpt lat="28.900817" lon="-13.743295">
        <ele>49.417</ele>
        <time>2024-03-10T11:56:13.044Z</time>
      </trkpt>
      <trkpt lat="28.900955" lon="-13.743158">
        <ele>57.709</ele>
        <time>2024-03-10T11:56:49.044Z</time>
      </trkpt>
      <trkpt lat="28.901053" lon="-13.742982">
        <ele>57.035</ele>
        <time>2024-03-10T11:57:10.044Z</time>
      </trkpt>
      <trkpt lat="28.901097" lon="-13.742779">
        <ele>64.160</ele>
        <time>2024-03-10T11:57:30.044Z</time>
      </trkpt>
      <trkpt lat="28.901127" lon="-13.742573">
        <ele>68.497</ele>
        <time>2024-03-10T11:57:57.044Z</time>
      </trkpt>
      <trkpt lat="28.901294" lon="-13.742493">
        <ele>66.639</ele>
        <time>2024-03-10T12:00:59.044Z</time>
      </trkpt>
      <trkpt lat="28.901337" lon="-13.742291">
        <ele>69.897</ele>
        <time>2024-03-10T12:01:25.044Z</time>
      </trkpt>
      <trkpt lat="28.901423" lon="-13.742107">
        <ele>76.758</ele>
        <time>2024-03-10T12:02:06.044Z</time>
      </trkpt>
      <trkpt lat="28.901552" lon="-13.741954">
        <ele>76.966</ele>
        <time>2024-03-10T12:02:51.044Z</time>
      </trkpt>
      <trkpt lat="28.901707" lon="-13.741835">
        <ele>77.244</ele>
        <time>2024-03-10T12:03:08.044Z</time>
      </trkpt>
      <trkpt lat="28.901852" lon="-13.741714">
        <ele>76.040</ele>
        <time>2024-03-10T12:03:34.044Z</time>
      </trkpt>
      <trkpt lat="28.902002" lon="-13.741590">
        <ele>81.175</ele>
        <time>2024-03-10T12:03:55.044Z</time>
      </trkpt>
      <trkpt lat="28.902181" lon="-13.741560">
        <ele>85.028</ele>
        <time>2024-03-10T12:04:14.044Z</time>
      </trkpt>
      <trkpt lat="28.902359" lon="-13.741525">
        <ele>85.320</ele>
        <time>2024-03-10T12:04:32.044Z</time>
      </trkpt>
      <trkpt lat="28.902532" lon="-13.741450">
        <ele>81.109</ele>
        <time>2024-03-10T12:04:51.044Z</time>
      </trkpt>
      <trkpt lat="28.902703" lon="-13.741366">
        <ele>81.248</ele>
        <time>2024-03-10T12:05:17.044Z</time>
      </trkpt>
      <trkpt lat="28.902884" lon="-13.741366">
        <ele>82.473</ele>
        <time>2024-03-10T12:05:34.044Z</time>
      </trkpt>
      <trkpt lat="28.903066" lon="-13.741324">
        <ele>82.720</ele>
        <time>2024-03-10T12:06:11.044Z</time>
      </trkpt>
      <trkpt lat="28.903234" lon="-13.741232">
        <ele>81.632</ele>
        <time>2024-03-10T12:06:28.044Z</time>
      </trkpt>
      <trkpt lat="28.903389" lon="-13.741347">
        <ele>80.940</ele>
        <time>2024-03-10T12:07:22.044Z</time>
      </trkpt>
      <trkpt lat="28.903522" lon="-13.741498">
        <ele>84.521</ele>
        <time>2024-03-10T12:07:41.044Z</time>
      </trkpt>
      <trkpt lat="28.903619" lon="-13.741321">
        <ele>85.929</ele>
        <time>2024-03-10T12:08:07.044Z</time>
      </trkpt>
      <trkpt lat="28.903671" lon="-13.741116">
        <ele>88.837</ele>
        <time>2024-03-10T12:08:36.044Z</time>
      </trkpt>
      <trkpt lat="28.903800" lon="-13.740967">
        <ele>92.193</ele>
        <time>2024-03-10T12:08:54.044Z</time>
      </trkpt>
      <trkpt lat="28.903968" lon="-13.741042">
        <ele>92.872</ele>
        <time>2024-03-10T12:09:14.044Z</time>
      </trkpt>
      <trkpt lat="28.904122" lon="-13.741155">
        <ele>93.413</ele>
        <time>2024-03-10T12:09:31.044Z</time>
      </trkpt>
      <trkpt lat="28.904270" lon="-13.741288">
        <ele>95.914</ele>
        <time>2024-03-10T12:09:47.044Z</time>
      </trkpt>
      <trkpt lat="28.904350" lon="-13.741098">
        <ele>100.709</ele>
        <time>2024-03-10T12:10:23.044Z</time>
      </trkpt>
      <trkpt lat="28.904415" lon="-13.740897">
        <ele>99.268</ele>
        <time>2024-03-10T12:10:38.044Z</time>
      </trkpt>
      <trkpt lat="28.904525" lon="-13.740730">
        <ele>98.593</ele>
        <time>2024-03-10T12:10:58.044Z</time>
      </trkpt>
      <trkpt lat="28.904700" lon="-13.740656">
        <ele>91.470</ele>
        <time>2024-03-10T12:11:12.044Z</time>
      </trkpt>
      <trkpt lat="28.904886" lon="-13.740631">
        <ele>92.212</ele>
        <time>2024-03-10T12:11:26.044Z</time>
      </trkpt>
      <trkpt lat="28.905067" lon="-13.740580">
        <ele>93.860</ele>
        <time>2024-03-10T12:11:43.044Z</time>
      </trkpt>
      <trkpt lat="28.905252" lon="-13.740569">
        <ele>90.831</ele>
        <time>2024-03-10T12:11:59.044Z</time>
      </trkpt>
      <trkpt lat="28.905415" lon="-13.740674">
        <ele>80.579</ele>
        <time>2024-03-10T12:12:21.044Z</time>
      </trkpt>
      <trkpt lat="28.905467" lon="-13.740477">
        <ele>81.927</ele>
        <time>2024-03-10T12:12:41.044Z</time>
      </trkpt>
      <trkpt lat="28.905540" lon="-13.740282">
        <ele>84.853</ele>
        <time>2024-03-10T12:13:16.044Z</time>
      </trkpt>
      <trkpt lat="28.905554" lon="-13.740075">
        <ele>79.617</ele>
        <time>2024-03-10T12:13:42.044Z</time>
      </trkpt>
      <trkpt lat="28.905507" lon="-13.739870">
        <ele>76.487</ele>
        <time>2024-03-10T12:14:05.044Z</time>
      </trkpt>
      <trkpt lat="28.905594" lon="-13.739686">
        <ele>70.615</ele>
        <time>2024-03-10T12:14:44.044Z</time>
      </trkpt>
      <trkpt lat="28.905643" lon="-13.739485">
        <ele>65.009</ele>
        <time>2024-03-10T12:15:34.044Z</time>
      </trkpt>
      <trkpt lat="28.905684" lon="-13.739279">
        <ele>56.692</ele>
        <time>2024-03-10T12:16:44.044Z</time>
      </trkpt>
      <trkpt lat="28.905783" lon="-13.739103">
        <ele>47.977</ele>
        <time>2024-03-10T12:17:45.044Z</time>
      </trkpt>
      <trkpt lat="28.905951" lon="-13.739005">
        <ele>36.754</ele>
        <time>2024-03-10T12:18:32.044Z</time>
      </trkpt>
      <trkpt lat="28.906002" lon="-13.738800">
        <ele>34.546</ele>
        <time>2024-03-10T12:19:02.044Z</time>
      </trkpt>
      <trkpt lat="28.906142" lon="-13.738664">
        <ele>31.924</ele>
        <time>2024-03-10T12:19:37.044Z</time>
      </trkpt>
      <trkpt lat="28.906281" lon="-13.738525">
        <ele>36.185</ele>
        <time>2024-03-10T12:20:17.044Z</time>
      </trkpt>
      <trkpt lat="28.906462" lon="-13.738492">
        <ele>45.183</ele>
        <time>2024-03-10T12:21:20.044Z</time>
      </trkpt>
      <trkpt lat="28.906411" lon="-13.738294">
        <ele>48.561</ele>
        <time>2024-03-10T12:21:36.044Z</time>
      </trkpt>
      <trkpt lat="28.906430" lon="-13.738090">
        <ele>53.747</ele>
        <time>2024-03-10T12:22:07.044Z</time>
      </trkpt>
      <trkpt lat="28.906413" lon="-13.737879">
        <ele>54.093</ele>
        <time>2024-03-10T12:22:25.044Z</time>
      </trkpt>
      <trkpt lat="28.906464" lon="-13.737679">
        <ele>53.565</ele>
        <time>2024-03-10T12:22:41.044Z</time>
      </trkpt>
      <trkpt lat="28.906541" lon="-13.737482">
        <ele>52.821</ele>
        <time>2024-03-10T12:22:59.044Z</time>
      </trkpt>
      <trkpt lat="28.906686" lon="-13.737344">
        <ele>55.209</ele>
        <time>2024-03-10T12:23:17.044Z</time>
      </trkpt>
      <trkpt lat="28.906848" lon="-13.737255">
        <ele>51.470</ele>
        <time>2024-03-10T12:23:45.044Z</time>
      </trkpt>
      <trkpt lat="28.906882" lon="-13.737046">
        <ele>47.855</ele>
        <time>2024-03-10T12:24:19.044Z</time>
      </trkpt>
      <trkpt lat="28.906996" lon="-13.736885">
        <ele>45.092</ele>
        <time>2024-03-10T12:25:06.044Z</time>
      </trkpt>
      <trkpt lat="28.907108" lon="-13.736719">
        <ele>41.164</ele>
        <time>2024-03-10T12:25:27.044Z</time>
      </trkpt>
      <trkpt lat="28.907213" lon="-13.736553">
        <ele>37.472</ele>
        <time>2024-03-10T12:25:48.044Z</time>
      </trkpt>
      <trkpt lat="28.907233" lon="-13.736342">
        <ele>34.623</ele>
        <time>2024-03-10T12:26:11.044Z</time>
      </trkpt>
      <trkpt lat="28.907178" lon="-13.736078">
        <ele>37.071</ele>
        <time>2024-03-10T12:26:39.044Z</time>
      </trkpt>
      <trkpt lat="28.907353" lon="-13.735805">
        <ele>36.769</ele>
        <time>2024-03-10T12:26:41.044Z</time>
      </trkpt>
      <trkpt lat="28.907172" lon="-13.735836">
        <ele>36.775</ele>
        <time>2024-03-10T12:26:42.044Z</time>
      </trkpt>
      <trkpt lat="28.907226" lon="-13.736045">
        <ele>35.093</ele>
        <time>2024-03-10T12:26:47.044Z</time>
      </trkpt>
      <trkpt lat="28.907327" lon="-13.736233">
        <ele>33.065</ele>
        <time>2024-03-10T12:26:54.044Z</time>
      </trkpt>
      <trkpt lat="28.907487" lon="-13.736330">
        <ele>28.921</ele>
        <time>2024-03-10T12:27:09.044Z</time>
      </trkpt>
      <trkpt lat="28.907667" lon="-13.736280">
        <ele>22.909</ele>
        <time>2024-03-10T12:27:32.044Z</time>
      </trkpt>
      <trkpt lat="28.907820" lon="-13.736170">
        <ele>22.380</ele>
        <time>2024-03-10T12:27:56.044Z</time>
      </trkpt>
      <trkpt lat="28.907823" lon="-13.735957">
        <ele>26.685</ele>
        <time>2024-03-10T12:28:21.044Z</time>
      </trkpt>
      <trkpt lat="28.907838" lon="-13.735746">
        <ele>28.192</ele>
        <time>2024-03-10T12:28:39.044Z</time>
      </trkpt>
      <trkpt lat="28.907711" lon="-13.735588">
        <ele>23.054</ele>
        <time>2024-03-10T12:29:53.044Z</time>
      </trkpt>
      <trkpt lat="28.907545" lon="-13.735497">
        <ele>19.292</ele>
        <time>2024-03-10T12:30:17.044Z</time>
      </trkpt>
      <trkpt lat="28.907365" lon="-13.735530">
        <ele>18.193</ele>
        <time>2024-03-10T12:30:37.044Z</time>
      </trkpt>
      <trkpt lat="28.907265" lon="-13.735357">
        <ele>15.111</ele>
        <time>2024-03-10T12:31:08.044Z</time>
      </trkpt>
      <trkpt lat="28.907318" lon="-13.735156">
        <ele>18.279</ele>
        <time>2024-03-10T12:31:29.044Z</time>
      </trkpt>
      <trkpt lat="28.907336" lon="-13.734945">
        <ele>17.135</ele>
        <time>2024-03-10T12:31:49.044Z</time>
      </trkpt>
      <trkpt lat="28.907440" lon="-13.734775">
        <ele>15.833</ele>
        <time>2024-03-10T12:32:07.044Z</time>
      </trkpt>
      <trkpt lat="28.907455" lon="-13.734569">
        <ele>16.223</ele>
        <time>2024-03-10T12:32:42.044Z</time>
      </trkpt>
      <trkpt lat="28.907401" lon="-13.734369">
        <ele>15.915</ele>
        <time>2024-03-10T12:34:07.044Z</time>
      </trkpt>
      <trkpt lat="28.907372" lon="-13.734158">
        <ele>16.209</ele>
        <time>2024-03-10T12:34:25.044Z</time>
      </trkpt>
      <trkpt lat="28.907540" lon="-13.734068">
        <ele>15.354</ele>
        <time>2024-03-10T12:34:46.044Z</time>
      </trkpt>
      <trkpt lat="28.907623" lon="-13.734253">
        <ele>20.569</ele>
        <time>2024-03-10T12:35:25.044Z</time>
      </trkpt>
      <trkpt lat="28.907574" lon="-13.734031">
        <ele>9.266</ele>
        <time>2024-03-10T12:35:54.906Z</time>
      </trkpt>
    </trkseg>
  </trk></gpx>