<?xml version="1.0" encoding="UTF-8"?>
<gpx version="1.1" creator="Aventuras en Cada Paso" xmlns="http://www.topografix.com/GPX/1/1">
  <metadata>
    <name>Ajuy – Caleta Negra y Cuevas Marinas</name>
    <desc>Ruta costera a las cuevas marinas de Ajuy y los acantilados de Caleta Negra. Los materiales más antiguos de Canarias a nivel del mar.</desc>
    <author><name>Aventuras en Cada Paso</name></author>
    <time>2026-07-08T08:12:58.178Z</time>
    <keywords>Fuerteventura, Senderismo, Fácil, senderismo Canarias</keywords>
  </metadata>
  <wpt lat="28.3939" lon="-14.1692">
    <name>Ajuy – Caleta Negra y Cuevas Marinas</name>
    <desc>Ruta costera a las cuevas marinas de Ajuy y los acantilados de Caleta Negra. Los materiales más antiguos de Canarias a nivel del mar. | Isla: Fuerteventura | Tipo: Senderismo | Dificultad: Fácil | Distancia: 3km | Duración: Menos de 2h</desc>
    <type>Senderismo</type>
    <extensions>
      <isla>Fuerteventura</isla>
      <dificultad>Fácil</dificultad>
      <distancia>3</distancia>
      <duracion>Menos de 2h</duracion>
    </extensions>
  </wpt>
</gpx>