<?xml version="1.0" encoding="UTF-8"?>
<gpx version="1.1" creator="Aventuras en Cada Paso" xmlns="http://www.topografix.com/GPX/1/1">
  <metadata>
    <name>Playa de Amadores – Playa de Tauro</name>
    <desc>Paseo costero entre las playas más populares del suroeste. Acantilados de colores rojizos y vistas al Atlántico con parada en playa virgen.</desc>
    <author><name>Aventuras en Cada Paso</name></author>
    <time>2026-07-08T08:12:58.166Z</time>
    <keywords>Gran Canaria, Senderismo, Fácil, senderismo Canarias</keywords>
  </metadata>
  <wpt lat="27.8008" lon="-15.7283">
    <name>Playa de Amadores – Playa de Tauro</name>
    <desc>Paseo costero entre las playas más populares del suroeste. Acantilados de colores rojizos y vistas al Atlántico con parada en playa virgen. | Isla: Gran Canaria | Tipo: Senderismo | Dificultad: Fácil | Distancia: 5km | Duración: 2-4 horas</desc>
    <type>Senderismo</type>
    <extensions>
      <isla>Gran Canaria</isla>
      <dificultad>Fácil</dificultad>
      <distancia>5</distancia>
      <duracion>2-4 horas</duracion>
    </extensions>
  </wpt>
</gpx>