<?xml version="1.0" encoding="UTF-8"?>
<gpx version="1.1" creator="Aventuras en Cada Paso" xmlns="http://www.topografix.com/GPX/1/1">
  <metadata>
    <name>Amanecer en el Faro – Lobos</name>
    <desc>Ruta nocturna para ver el amanecer desde el Faro de Punta Martiño. El cielo sin contaminación lumínica de Lobos permite ver la Vía Láctea hasta el alba.</desc>
    <author><name>Aventuras en Cada Paso</name></author>
    <time>2026-07-08T08:12:58.213Z</time>
    <keywords>Isla de Lobos, Fotografía, Fácil, senderismo Canarias</keywords>
  </metadata>
  <wpt lat="28.7628" lon="-13.8106">
    <name>Amanecer en el Faro – Lobos</name>
    <desc>Ruta nocturna para ver el amanecer desde el Faro de Punta Martiño. El cielo sin contaminación lumínica de Lobos permite ver la Vía Láctea hasta el alba. | Isla: Isla de Lobos | Tipo: Fotografía | Dificultad: Fácil | Distancia: 6km | Duración: 2-4 horas</desc>
    <type>Fotografía</type>
    <extensions>
      <isla>Isla de Lobos</isla>
      <dificultad>Fácil</dificultad>
      <distancia>6</distancia>
      <duracion>2-4 horas</duracion>
    </extensions>
  </wpt>
</gpx>