<?xml version="1.0" encoding="UTF-8"?>
<gpx version="1.1" creator="Aventuras en Cada Paso" xmlns="http://www.topografix.com/GPX/1/1">
  <metadata>
    <name>Bosque de los Enigmas – Anaga</name>
    <desc>Circular sencilla desde el Mirador de Zapata por laurisilva bien señalizada. Perfecta para familias. Llevar ropa de abrigo por la humedad.</desc>
    <author><name>Aventuras en Cada Paso</name></author>
    <time>2026-07-08T08:12:58.156Z</time>
    <keywords>Tenerife, Senderismo, Fácil, senderismo Canarias</keywords>
  </metadata>
  <wpt lat="28.5511" lon="-16.2378">
    <name>Bosque de los Enigmas – Anaga</name>
    <desc>Circular sencilla desde el Mirador de Zapata por laurisilva bien señalizada. Perfecta para familias. Llevar ropa de abrigo por la humedad. | Isla: Tenerife | Tipo: Senderismo | Dificultad: Fácil | Distancia: 5km | Duración: 2-4 horas</desc>
    <type>Senderismo</type>
    <extensions>
      <isla>Tenerife</isla>
      <dificultad>Fácil</dificultad>
      <distancia>5</distancia>
      <duracion>2-4 horas</duracion>
    </extensions>
  </wpt>
</gpx>