<?xml version="1.0" encoding="UTF-8"?>
<gpx version="1.1" creator="Aventuras en Cada Paso" xmlns="http://www.topografix.com/GPX/1/1">
  <metadata>
    <name>Taganana – Playa del Tamadite</name>
    <desc>Ruta lineal hasta la playa del Tamadite, arena negra volcánica solo accesible a pie. La marea baja revela la playa en todo su esplendor.</desc>
    <author><name>Aventuras en Cada Paso</name></author>
    <time>2026-07-08T08:12:58.156Z</time>
    <keywords>Tenerife, Senderismo, Media, senderismo Canarias</keywords>
  </metadata>
  <wpt lat="28.5594" lon="-16.1633">
    <name>Taganana – Playa del Tamadite</name>
    <desc>Ruta lineal hasta la playa del Tamadite, arena negra volcánica solo accesible a pie. La marea baja revela la playa en todo su esplendor. | Isla: Tenerife | Tipo: Senderismo | Dificultad: Media | Distancia: 8km | Duración: 2-4 horas</desc>
    <type>Senderismo</type>
    <extensions>
      <isla>Tenerife</isla>
      <dificultad>Media</dificultad>
      <distancia>8</distancia>
      <duracion>2-4 horas</duracion>
    </extensions>
  </wpt>
</gpx>