<?xml version="1.0" encoding="UTF-8"?>
<gpx version="1.1" creator="Aventuras en Cada Paso" xmlns="http://www.topografix.com/GPX/1/1">
  <metadata>
    <name>Benijo – Cruz del Draguillo (PR-TF 6.3)</name>
    <desc>Precioso recorrido con vistas a la costa de Anaga y al caserío del Draguillo. Iniciar pronto por el aparcamiento limitado. Arquitectura rural única.</desc>
    <author><name>Aventuras en Cada Paso</name></author>
    <time>2026-07-08T08:12:58.157Z</time>
    <keywords>Tenerife, Senderismo, Media, senderismo Canarias</keywords>
  </metadata>
  <wpt lat="28.5811" lon="-16.1619">
    <name>Benijo – Cruz del Draguillo (PR-TF 6.3)</name>
    <desc>Precioso recorrido con vistas a la costa de Anaga y al caserío del Draguillo. Iniciar pronto por el aparcamiento limitado. Arquitectura rural única. | Isla: Tenerife | Tipo: Senderismo | Dificultad: Media | Distancia: 7km | Duración: 2-4 horas</desc>
    <type>Senderismo</type>
    <extensions>
      <isla>Tenerife</isla>
      <dificultad>Media</dificultad>
      <distancia>7</distancia>
      <duracion>2-4 horas</duracion>
    </extensions>
  </wpt>
</gpx>