<?xml version="1.0" encoding="UTF-8"?>
<gpx version="1.1" creator="Aventuras en Cada Paso" xmlns="http://www.topografix.com/GPX/1/1">
  <metadata>
    <name>Sendero de los Sentidos – Anaga</name>
    <desc>Triple ruta desde Cruz del Carmen con experiencia sensorial única entre laurisilva. Une Anaga con La Laguna. Muy didáctica y bien señalizada.</desc>
    <author><name>Aventuras en Cada Paso</name></author>
    <time>2026-07-08T08:12:58.160Z</time>
    <keywords>Tenerife, Senderismo, Fácil, senderismo Canarias</keywords>
  </metadata>
  <wpt lat="28.5578" lon="-16.2778">
    <name>Sendero de los Sentidos – Anaga</name>
    <desc>Triple ruta desde Cruz del Carmen con experiencia sensorial única entre laurisilva. Une Anaga con La Laguna. Muy didáctica y bien señalizada. | Isla: Tenerife | Tipo: Senderismo | Dificultad: Fácil | Distancia: 6km | Duración: 2-4 horas</desc>
    <type>Senderismo</type>
    <extensions>
      <isla>Tenerife</isla>
      <dificultad>Fácil</dificultad>
      <distancia>6</distancia>
      <duracion>2-4 horas</duracion>
    </extensions>
  </wpt>
</gpx>