<?xml version="1.0" encoding="UTF-8"?>
<gpx version="1.1" creator="Aventuras en Cada Paso" xmlns="http://www.topografix.com/GPX/1/1">
  <metadata>
    <name>Anaga – Afur a Taganana (Circular)</name>
    <desc>Una de las mejores rutas de Canarias. Laurisilva salvaje, barrancos profundos y la playa virgen del Tamadite. Joya del Macizo de Anaga.</desc>
    <author><name>Aventuras en Cada Paso</name></author>
    <time>2026-07-08T08:12:58.155Z</time>
    <keywords>Tenerife, Senderismo, Media, senderismo Canarias</keywords>
  </metadata>
  <wpt lat="28.5667" lon="-16.1833">
    <name>Anaga – Afur a Taganana (Circular)</name>
    <desc>Una de las mejores rutas de Canarias. Laurisilva salvaje, barrancos profundos y la playa virgen del Tamadite. Joya del Macizo de Anaga. | Isla: Tenerife | Tipo: Senderismo | Dificultad: Media | Distancia: 14km | Duración: 4-8 horas</desc>
    <type>Senderismo</type>
    <extensions>
      <isla>Tenerife</isla>
      <dificultad>Media</dificultad>
      <distancia>14</distancia>
      <duracion>4-8 horas</duracion>
    </extensions>
  </wpt>
</gpx>