<?xml version="1.0" encoding="UTF-8"?>
<gpx version="1.1" creator="Aventuras en Cada Paso" xmlns="http://www.topografix.com/GPX/1/1">
  <metadata>
    <name>Cruz del Carmen – Punta del Hidalgo</name>
    <desc>Ruta lineal desde el corazón de Anaga hasta la costa. Pasa por Chinamada, pueblo de casas-cueva habitadas y acantilados de Punta del Hidalgo.</desc>
    <author><name>Aventuras en Cada Paso</name></author>
    <time>2026-07-08T08:12:58.156Z</time>
    <keywords>Tenerife, Senderismo, Media, senderismo Canarias</keywords>
  </metadata>
  <wpt lat="28.5642" lon="-16.2817">
    <name>Cruz del Carmen – Punta del Hidalgo</name>
    <desc>Ruta lineal desde el corazón de Anaga hasta la costa. Pasa por Chinamada, pueblo de casas-cueva habitadas y acantilados de Punta del Hidalgo. | Isla: Tenerife | Tipo: Senderismo | Dificultad: Media | Distancia: 14km | Duración: 4-8 horas</desc>
    <type>Senderismo</type>
    <extensions>
      <isla>Tenerife</isla>
      <dificultad>Media</dificultad>
      <distancia>14</distancia>
      <duracion>4-8 horas</duracion>
    </extensions>
  </wpt>
</gpx>