<?xml version="1.0" encoding="UTF-8"?>
<gpx version="1.1" creator="Aventuras en Cada Paso" xmlns="http://www.topografix.com/GPX/1/1">
  <metadata>
    <name>Anaga – Roque Taborno</name>
    <desc>Sendero corto pero espectacular hasta el Roque Taborno. No apto para vértigo. Vistas únicas al Atlántico Norte y la costa salvaje de Anaga.</desc>
    <author><name>Aventuras en Cada Paso</name></author>
    <time>2026-07-08T08:12:58.156Z</time>
    <keywords>Tenerife, Senderismo, Media, senderismo Canarias</keywords>
  </metadata>
  <wpt lat="28.572" lon="-16.1956">
    <name>Anaga – Roque Taborno</name>
    <desc>Sendero corto pero espectacular hasta el Roque Taborno. No apto para vértigo. Vistas únicas al Atlántico Norte y la costa salvaje de Anaga. | Isla: Tenerife | Tipo: Senderismo | Dificultad: Media | Distancia: 4km | Duración: 2-4 horas</desc>
    <type>Senderismo</type>
    <extensions>
      <isla>Tenerife</isla>
      <dificultad>Media</dificultad>
      <distancia>4</distancia>
      <duracion>2-4 horas</duracion>
    </extensions>
  </wpt>
</gpx>