<?xml version="1.0" encoding="UTF-8"?>
<gpx creator="Wikiloc - https://www.wikiloc.com" version="1.1" xmlns="http://www.topografix.com/GPX/1/1" xmlns:xsi="http://www.w3.org/2001/XMLSchema-instance" xsi:schemaLocation="http://www.topografix.com/GPX/1/1 http://www.topografix.com/GPX/1/1/gpx.xsd">
  <metadata>
    <name>Wikiloc - 2022-10-14 12:15 - FUE - SL FV-6 Barranco Malpaso Ermita de ...</name>
    <link href="https://www.wikiloc.com/hiking-trails/2022-10-14-12-15-fue-sl-fv-6-barranco-malpaso-ermita-de-la-pena-arco-penitas-ibpindex-26-117001348">
      <text>2022-10-14 12:15 - FUE - SL FV-6 Barranco Malpaso Ermita de ... on Wikiloc</text>
    </link>
    <time>2022-10-14T13:29:52Z</time>
  </metadata>
  <trk>
    <name>2022-10-14 12:15 - FUE - SL FV-6 Barranco Malpaso Ermita de ... - Wikiloc</name>
    <cmt></cmt>
    <desc></desc>
    <trkseg>
      <trkpt lat="28.393591" lon="-14.087844">
        <ele>257.241</ele>
        <time>2022-10-14T10:16:02Z</time>
      </trkpt>
      <trkpt lat="28.393602" lon="-14.088576">
        <ele>236.681</ele>
        <time>2022-10-14T10:17:24Z</time>
      </trkpt>
      <trkpt lat="28.393779" lon="-14.088955">
        <ele>237.909</ele>
        <time>2022-10-14T10:18:59Z</time>
      </trkpt>
      <trkpt lat="28.393882" lon="-14.089586">
        <ele>233.909</ele>
        <time>2022-10-14T10:19:57Z</time>
      </trkpt>
      <trkpt lat="28.393829" lon="-14.089803">
        <ele>230.325</ele>
        <time>2022-10-14T10:20:14Z</time>
      </trkpt>
      <trkpt lat="28.393592" lon="-14.090143">
        <ele>225.775</ele>
        <time>2022-10-14T10:20:48Z</time>
      </trkpt>
      <trkpt lat="28.393339" lon="-14.090286">
        <ele>220.421</ele>
        <time>2022-10-14T10:21:12Z</time>
      </trkpt>
      <trkpt lat="28.391949" lon="-14.090709">
        <ele>224.994</ele>
        <time>2022-10-14T10:23:52Z</time>
      </trkpt>
      <trkpt lat="28.391737" lon="-14.090911">
        <ele>222.494</ele>
        <time>2022-10-14T10:24:16Z</time>
      </trkpt>
      <trkpt lat="28.391559" lon="-14.091534">
        <ele>224.535</ele>
        <time>2022-10-14T10:25:21Z</time>
      </trkpt>
      <trkpt lat="28.391527" lon="-14.092591">
        <ele>225.057</ele>
        <time>2022-10-14T10:27:06Z</time>
      </trkpt>
      <trkpt lat="28.391586" lon="-14.092686">
        <ele>224.938</ele>
        <time>2022-10-14T10:27:14Z</time>
      </trkpt>
      <trkpt lat="28.391416" lon="-14.093190">
        <ele>222.242</ele>
        <time>2022-10-14T10:27:52Z</time>
      </trkpt>
      <trkpt lat="28.391413" lon="-14.093724">
        <ele>221.975</ele>
        <time>2022-10-14T10:28:30Z</time>
      </trkpt>
      <trkpt lat="28.391306" lon="-14.093898">
        <ele>220.428</ele>
        <time>2022-10-14T10:28:54Z</time>
      </trkpt>
      <trkpt lat="28.390839" lon="-14.094249">
        <ele>219.720</ele>
        <time>2022-10-14T10:29:43Z</time>
      </trkpt>
      <trkpt lat="28.390270" lon="-14.094983">
        <ele>217.809</ele>
        <time>2022-10-14T10:30:57Z</time>
      </trkpt>
      <trkpt lat="28.389948" lon="-14.095658">
        <ele>218.368</ele>
        <time>2022-10-14T10:32:07Z</time>
      </trkpt>
      <trkpt lat="28.389131" lon="-14.096873">
        <ele>218.498</ele>
        <time>2022-10-14T10:34:55Z</time>
      </trkpt>
      <trkpt lat="28.389051" lon="-14.097284">
        <ele>220.364</ele>
        <time>2022-10-14T10:35:28Z</time>
      </trkpt>
      <trkpt lat="28.389090" lon="-14.097600">
        <ele>218.257</ele>
        <time>2022-10-14T10:36:04Z</time>
      </trkpt>
      <trkpt lat="28.388986" lon="-14.097773">
        <ele>220.227</ele>
        <time>2022-10-14T10:36:24Z</time>
      </trkpt>
      <trkpt lat="28.389086" lon="-14.098292">
        <ele>220.478</ele>
        <time>2022-10-14T10:37:07Z</time>
      </trkpt>
      <trkpt lat="28.388930" lon="-14.098805">
        <ele>215.790</ele>
        <time>2022-10-14T10:37:49Z</time>
      </trkpt>
      <trkpt lat="28.388909" lon="-14.099312">
        <ele>213.511</ele>
        <time>2022-10-14T10:38:29Z</time>
      </trkpt>
      <trkpt lat="28.388735" lon="-14.099704">
        <ele>212.395</ele>
        <time>2022-10-14T10:39:02Z</time>
      </trkpt>
      <trkpt lat="28.388722" lon="-14.100343">
        <ele>217.258</ele>
        <time>2022-10-14T10:41:53Z</time>
      </trkpt>
      <trkpt lat="28.388843" lon="-14.100514">
        <ele>209.252</ele>
        <time>2022-10-14T10:42:20Z</time>
      </trkpt>
      <trkpt lat="28.388664" lon="-14.100456">
        <ele>196.917</ele>
        <time>2022-10-14T10:42:48Z</time>
      </trkpt>
      <trkpt lat="28.388826" lon="-14.100712">
        <ele>188.109</ele>
        <time>2022-10-14T10:45:10Z</time>
      </trkpt>
      <trkpt lat="28.388892" lon="-14.101134">
        <ele>182.256</ele>
        <time>2022-10-14T10:46:01Z</time>
      </trkpt>
      <trkpt lat="28.388689" lon="-14.101848">
        <ele>182.396</ele>
        <time>2022-10-14T10:47:25Z</time>
      </trkpt>
      <trkpt lat="28.388752" lon="-14.102267">
        <ele>177.952</ele>
        <time>2022-10-14T10:48:29Z</time>
      </trkpt>
      <trkpt lat="28.388960" lon="-14.102750">
        <ele>179.055</ele>
        <time>2022-10-14T10:49:51Z</time>
      </trkpt>
      <trkpt lat="28.388887" lon="-14.103162">
        <ele>176.925</ele>
        <time>2022-10-14T10:50:33Z</time>
      </trkpt>
      <trkpt lat="28.388535" lon="-14.103881">
        <ele>166.436</ele>
        <time>2022-10-14T10:52:27Z</time>
      </trkpt>
      <trkpt lat="28.388457" lon="-14.104383">
        <ele>163.988</ele>
        <time>2022-10-14T10:53:21Z</time>
      </trkpt>
      <trkpt lat="28.388745" lon="-14.105166">
        <ele>167.859</ele>
        <time>2022-10-14T10:55:00Z</time>
      </trkpt>
      <trkpt lat="28.389257" lon="-14.105380">
        <ele>165.383</ele>
        <time>2022-10-14T10:56:05Z</time>
      </trkpt>
      <trkpt lat="28.389734" lon="-14.105711">
        <ele>153.698</ele>
        <time>2022-10-14T10:57:03Z</time>
      </trkpt>
      <trkpt lat="28.390083" lon="-14.105622">
        <ele>160.015</ele>
        <time>2022-10-14T10:59:08Z</time>
      </trkpt>
      <trkpt lat="28.390316" lon="-14.105451">
        <ele>162.326</ele>
        <time>2022-10-14T10:59:51Z</time>
      </trkpt>
      <trkpt lat="28.390484" lon="-14.105531">
        <ele>166.609</ele>
        <time>2022-10-14T11:00:38Z</time>
      </trkpt>
      <trkpt lat="28.390615" lon="-14.105391">
        <ele>170.430</ele>
        <time>2022-10-14T11:01:06Z</time>
      </trkpt>
      <trkpt lat="28.390863" lon="-14.105529">
        <ele>173.150</ele>
        <time>2022-10-14T11:01:53Z</time>
      </trkpt>
      <trkpt lat="28.391181" lon="-14.105342">
        <ele>182.546</ele>
        <time>2022-10-14T11:03:59Z</time>
      </trkpt>
      <trkpt lat="28.391167" lon="-14.105129">
        <ele>187.219</ele>
        <time>2022-10-14T11:06:49Z</time>
      </trkpt>
      <trkpt lat="28.391425" lon="-14.105017">
        <ele>196.049</ele>
        <time>2022-10-14T11:07:46Z</time>
      </trkpt>
      <trkpt lat="28.391472" lon="-14.104737">
        <ele>210.690</ele>
        <time>2022-10-14T11:09:43Z</time>
      </trkpt>
      <trkpt lat="28.391569" lon="-14.104727">
        <ele>211.382</ele>
        <time>2022-10-14T11:10:03Z</time>
      </trkpt>
      <trkpt lat="28.391713" lon="-14.104360">
        <ele>231.993</ele>
        <time>2022-10-14T11:12:32Z</time>
      </trkpt>
      <trkpt lat="28.391855" lon="-14.104243">
        <ele>238.667</ele>
        <time>2022-10-14T11:13:25Z</time>
      </trkpt>
      <trkpt lat="28.391827" lon="-14.104143">
        <ele>248.117</ele>
        <time>2022-10-14T11:15:44Z</time>
      </trkpt>
      <trkpt lat="28.391733" lon="-14.104154">
        <ele>252.787</ele>
        <time>2022-10-14T11:23:17Z</time>
      </trkpt>
      <trkpt lat="28.391769" lon="-14.103951">
        <ele>249.115</ele>
        <time>2022-10-14T11:25:02Z</time>
      </trkpt>
      <trkpt lat="28.391676" lon="-14.103957">
        <ele>243.809</ele>
        <time>2022-10-14T11:25:55Z</time>
      </trkpt>
      <trkpt lat="28.391480" lon="-14.104188">
        <ele>225.372</ele>
        <time>2022-10-14T11:29:10Z</time>
      </trkpt>
      <trkpt lat="28.391379" lon="-14.104473">
        <ele>214.542</ele>
        <time>2022-10-14T11:31:23Z</time>
      </trkpt>
      <trkpt lat="28.391206" lon="-14.104487">
        <ele>212.018</ele>
        <time>2022-10-14T11:32:50Z</time>
      </trkpt>
      <trkpt lat="28.391194" lon="-14.104593">
        <ele>207.631</ele>
        <time>2022-10-14T11:33:59Z</time>
      </trkpt>
      <trkpt lat="28.390788" lon="-14.105012">
        <ele>187.821</ele>
        <time>2022-10-14T11:38:54Z</time>
      </trkpt>
      <trkpt lat="28.390538" lon="-14.105143">
        <ele>181.492</ele>
        <time>2022-10-14T11:39:51Z</time>
      </trkpt>
      <trkpt lat="28.389864" lon="-14.105203">
        <ele>169.194</ele>
        <time>2022-10-14T11:42:06Z</time>
      </trkpt>
      <trkpt lat="28.389602" lon="-14.105343">
        <ele>171.425</ele>
        <time>2022-10-14T11:42:43Z</time>
      </trkpt>
      <trkpt lat="28.389144" lon="-14.105289">
        <ele>168.339</ele>
        <time>2022-10-14T11:43:23Z</time>
      </trkpt>
      <trkpt lat="28.389708" lon="-14.105671">
        <ele>157.033</ele>
        <time>2022-10-14T11:45:55Z</time>
      </trkpt>
      <trkpt lat="28.389737" lon="-14.105768">
        <ele>155.523</ele>
        <time>2022-10-14T11:46:03Z</time>
      </trkpt>
      <trkpt lat="28.389407" lon="-14.105962">
        <ele>146.615</ele>
        <time>2022-10-14T11:47:03Z</time>
      </trkpt>
      <trkpt lat="28.388493" lon="-14.105841">
        <ele>136.209</ele>
        <time>2022-10-14T12:05:57Z</time>
      </trkpt>
      <trkpt lat="28.388445" lon="-14.105754">
        <ele>135.734</ele>
        <time>2022-10-14T12:06:12Z</time>
      </trkpt>
      <trkpt lat="28.388153" lon="-14.105830">
        <ele>135.744</ele>
        <time>2022-10-14T12:06:41Z</time>
      </trkpt>
      <trkpt lat="28.387839" lon="-14.106034">
        <ele>131.740</ele>
        <time>2022-10-14T12:07:18Z</time>
      </trkpt>
      <trkpt lat="28.387391" lon="-14.105642">
        <ele>132.823</ele>
        <time>2022-10-14T12:10:54Z</time>
      </trkpt>
      <trkpt lat="28.386982" lon="-14.105944">
        <ele>134.663</ele>
        <time>2022-10-14T12:11:57Z</time>
      </trkpt>
      <trkpt lat="28.386797" lon="-14.105581">
        <ele>138.414</ele>
        <time>2022-10-14T12:12:43Z</time>
      </trkpt>
      <trkpt lat="28.386838" lon="-14.105386">
        <ele>145.816</ele>
        <time>2022-10-14T12:13:30Z</time>
      </trkpt>
      <trkpt lat="28.387185" lon="-14.105271">
        <ele>144.677</ele>
        <time>2022-10-14T12:14:25Z</time>
      </trkpt>
      <trkpt lat="28.387323" lon="-14.104778">
        <ele>143.951</ele>
        <time>2022-10-14T12:31:20Z</time>
      </trkpt>
      <trkpt lat="28.387931" lon="-14.104282">
        <ele>138.297</ele>
        <time>2022-10-14T12:34:48Z</time>
      </trkpt>
      <trkpt lat="28.388104" lon="-14.103791">
        <ele>142.123</ele>
        <time>2022-10-14T12:35:45Z</time>
      </trkpt>
      <trkpt lat="28.388191" lon="-14.103818">
        <ele>145.125</ele>
        <time>2022-10-14T12:36:51Z</time>
      </trkpt>
      <trkpt lat="28.388110" lon="-14.103751">
        <ele>141.509</ele>
        <time>2022-10-14T12:38:24Z</time>
      </trkpt>
      <trkpt lat="28.388340" lon="-14.103426">
        <ele>146.050</ele>
        <time>2022-10-14T12:40:10Z</time>
      </trkpt>
      <trkpt lat="28.388433" lon="-14.103417">
        <ele>149.770</ele>
        <time>2022-10-14T12:40:36Z</time>
      </trkpt>
      <trkpt lat="28.388501" lon="-14.103115">
        <ele>150.186</ele>
        <time>2022-10-14T12:42:27Z</time>
      </trkpt>
      <trkpt lat="28.388747" lon="-14.103025">
        <ele>158.839</ele>
        <time>2022-10-14T12:43:47Z</time>
      </trkpt>
      <trkpt lat="28.388876" lon="-14.102636">
        <ele>171.159</ele>
        <time>2022-10-14T12:46:35Z</time>
      </trkpt>
      <trkpt lat="28.388633" lon="-14.101946">
        <ele>178.220</ele>
        <time>2022-10-14T12:47:54Z</time>
      </trkpt>
      <trkpt lat="28.388860" lon="-14.101101">
        <ele>177.882</ele>
        <time>2022-10-14T12:49:07Z</time>
      </trkpt>
      <trkpt lat="28.388699" lon="-14.100309">
        <ele>208.653</ele>
        <time>2022-10-14T12:51:40Z</time>
      </trkpt>
      <trkpt lat="28.388755" lon="-14.099577">
        <ele>218.497</ele>
        <time>2022-10-14T12:53:02Z</time>
      </trkpt>
      <trkpt lat="28.388899" lon="-14.099306">
        <ele>220.987</ele>
        <time>2022-10-14T12:53:23Z</time>
      </trkpt>
      <trkpt lat="28.388904" lon="-14.098885">
        <ele>222.342</ele>
        <time>2022-10-14T12:53:56Z</time>
      </trkpt>
      <trkpt lat="28.389079" lon="-14.098261">
        <ele>226.726</ele>
        <time>2022-10-14T12:54:45Z</time>
      </trkpt>
      <trkpt lat="28.388974" lon="-14.097744">
        <ele>225.709</ele>
        <time>2022-10-14T12:55:29Z</time>
      </trkpt>
      <trkpt lat="28.389089" lon="-14.097582">
        <ele>224.459</ele>
        <time>2022-10-14T12:55:44Z</time>
      </trkpt>
      <trkpt lat="28.389042" lon="-14.097249">
        <ele>227.199</ele>
        <time>2022-10-14T12:56:51Z</time>
      </trkpt>
      <trkpt lat="28.389146" lon="-14.096824">
        <ele>227.785</ele>
        <time>2022-10-14T12:57:20Z</time>
      </trkpt>
      <trkpt lat="28.389891" lon="-14.095701">
        <ele>233.288</ele>
        <time>2022-10-14T12:58:58Z</time>
      </trkpt>
      <trkpt lat="28.390202" lon="-14.095031">
        <ele>229.178</ele>
        <time>2022-10-14T12:59:47Z</time>
      </trkpt>
      <trkpt lat="28.390851" lon="-14.094208">
        <ele>227.519</ele>
        <time>2022-10-14T13:01:03Z</time>
      </trkpt>
      <trkpt lat="28.391323" lon="-14.093842">
        <ele>229.151</ele>
        <time>2022-10-14T13:02:15Z</time>
      </trkpt>
      <trkpt lat="28.391408" lon="-14.093535">
        <ele>230.492</ele>
        <time>2022-10-14T13:02:39Z</time>
      </trkpt>
      <trkpt lat="28.391385" lon="-14.093199">
        <ele>228.886</ele>
        <time>2022-10-14T13:03:03Z</time>
      </trkpt>
      <trkpt lat="28.391564" lon="-14.092694">
        <ele>230.955</ele>
        <time>2022-10-14T13:03:39Z</time>
      </trkpt>
      <trkpt lat="28.391545" lon="-14.091429">
        <ele>228.407</ele>
        <time>2022-10-14T13:22:24Z</time>
      </trkpt>
      <trkpt lat="28.391782" lon="-14.090833">
        <ele>230.317</ele>
        <time>2022-10-14T13:23:12Z</time>
      </trkpt>
      <trkpt lat="28.391947" lon="-14.090706">
        <ele>229.609</ele>
        <time>2022-10-14T13:23:30Z</time>
      </trkpt>
      <trkpt lat="28.393140" lon="-14.090333">
        <ele>230.656</ele>
        <time>2022-10-14T13:25:11Z</time>
      </trkpt>
      <trkpt lat="28.393575" lon="-14.090101">
        <ele>232.796</ele>
        <time>2022-10-14T13:25:51Z</time>
      </trkpt>
      <trkpt lat="28.393821" lon="-14.089771">
        <ele>236.372</ele>
        <time>2022-10-14T13:26:24Z</time>
      </trkpt>
      <trkpt lat="28.393865" lon="-14.089565">
        <ele>236.445</ele>
        <time>2022-10-14T13:26:41Z</time>
      </trkpt>
      <trkpt lat="28.393778" lon="-14.088920">
        <ele>239.755</ele>
        <time>2022-10-14T13:27:32Z</time>
      </trkpt>
      <trkpt lat="28.393563" lon="-14.088432">
        <ele>244.326</ele>
        <time>2022-10-14T13:29:03Z</time>
      </trkpt>
      <trkpt lat="28.393620" lon="-14.087887">
        <ele>253.028</ele>
        <time>2022-10-14T13:29:52Z</time>
      </trkpt>
    </trkseg>
  </trk></gpx>