<?xml version="1.0" encoding="UTF-8"?>
<gpx creator="Wikiloc - https://www.wikiloc.com" version="1.1" xmlns="http://www.topografix.com/GPX/1/1" xmlns:xsi="http://www.w3.org/2001/XMLSchema-instance" xsi:schemaLocation="http://www.topografix.com/GPX/1/1 http://www.topografix.com/GPX/1/1/gpx.xsd">
  <metadata>
    <name>Wikiloc - ARGUINEGUIN. GRAN CANARIA.Playa Las Marañuelas - Playa Anfi ...</name>
    <link href="https://www.wikiloc.com/hiking-trails/arguineguin-gran-canaria-playa-las-maranuelas-playa-anfi-del-mar-playa-de-amadores-playa-de-tauro-p-203264220">
      <text>ARGUINEGUIN. GRAN CANARIA.Playa Las Marañuelas - Playa Anfi ... on Wikiloc</text>
    </link>
    <time>2025-02-28T17:15:05.499Z</time>
  </metadata>
  <trk>
    <name>ARGUINEGUIN. GRAN CANARIA.Playa Las Marañuelas - Playa Anfi ... - Wikiloc</name>
    <cmt></cmt>
    <desc></desc>
    <trkseg>
      <trkpt lat="27.757957" lon="-15.682388">
        <ele>9.366</ele>
        <time>2025-02-28T14:09:46.508Z</time>
      </trkpt>
      <trkpt lat="27.758737" lon="-15.681932">
        <ele>11.229</ele>
        <time>2025-02-28T14:11:40.508Z</time>
      </trkpt>
      <trkpt lat="27.759619" lon="-15.681967">
        <ele>14.121</ele>
        <time>2025-02-28T14:12:59.507Z</time>
      </trkpt>
      <trkpt lat="27.760114" lon="-15.682204">
        <ele>15.509</ele>
        <time>2025-02-28T14:13:48.507Z</time>
      </trkpt>
      <trkpt lat="27.760448" lon="-15.682466">
        <ele>20.718</ele>
        <time>2025-02-28T14:14:29.507Z</time>
      </trkpt>
      <trkpt lat="27.760313" lon="-15.682747">
        <ele>19.166</ele>
        <time>2025-02-28T14:14:41.507Z</time>
      </trkpt>
      <trkpt lat="27.760520" lon="-15.683115">
        <ele>23.689</ele>
        <time>2025-02-28T14:15:34.507Z</time>
      </trkpt>
      <trkpt lat="27.760324" lon="-15.683491">
        <ele>17.478</ele>
        <time>2025-02-28T14:16:00.507Z</time>
      </trkpt>
      <trkpt lat="27.760178" lon="-15.683517">
        <ele>14.922</ele>
        <time>2025-02-28T14:16:13.507Z</time>
      </trkpt>
      <trkpt lat="27.760118" lon="-15.683620">
        <ele>14.720</ele>
        <time>2025-02-28T14:16:23.507Z</time>
      </trkpt>
      <trkpt lat="27.760133" lon="-15.683792">
        <ele>12.788</ele>
        <time>2025-02-28T14:16:39.507Z</time>
      </trkpt>
      <trkpt lat="27.760294" lon="-15.684005">
        <ele>9.298</ele>
        <time>2025-02-28T14:17:02.507Z</time>
      </trkpt>
      <trkpt lat="27.760856" lon="-15.684316">
        <ele>13.986</ele>
        <time>2025-02-28T14:18:05.507Z</time>
      </trkpt>
      <trkpt lat="27.761031" lon="-15.684237">
        <ele>15.926</ele>
        <time>2025-02-28T14:18:32.507Z</time>
      </trkpt>
      <trkpt lat="27.761617" lon="-15.684228">
        <ele>14.447</ele>
        <time>2025-02-28T14:19:30.506Z</time>
      </trkpt>
      <trkpt lat="27.761915" lon="-15.684506">
        <ele>8.911</ele>
        <time>2025-02-28T14:20:00.506Z</time>
      </trkpt>
      <trkpt lat="27.761973" lon="-15.685026">
        <ele>5.009</ele>
        <time>2025-02-28T14:20:51.506Z</time>
      </trkpt>
      <trkpt lat="27.762351" lon="-15.684901">
        <ele>5.914</ele>
        <time>2025-02-28T14:21:29.506Z</time>
      </trkpt>
      <trkpt lat="27.763311" lon="-15.685387">
        <ele>10.692</ele>
        <time>2025-02-28T14:23:00.506Z</time>
      </trkpt>
      <trkpt lat="27.763558" lon="-15.685408">
        <ele>13.955</ele>
        <time>2025-02-28T14:23:30.506Z</time>
      </trkpt>
      <trkpt lat="27.763945" lon="-15.685611">
        <ele>18.874</ele>
        <time>2025-02-28T14:24:02.506Z</time>
      </trkpt>
      <trkpt lat="27.763990" lon="-15.685711">
        <ele>17.718</ele>
        <time>2025-02-28T14:24:10.506Z</time>
      </trkpt>
      <trkpt lat="27.763910" lon="-15.686025">
        <ele>13.216</ele>
        <time>2025-02-28T14:24:33.506Z</time>
      </trkpt>
      <trkpt lat="27.763720" lon="-15.686195">
        <ele>8.874</ele>
        <time>2025-02-28T14:24:55.505Z</time>
      </trkpt>
      <trkpt lat="27.763655" lon="-15.686394">
        <ele>7.634</ele>
        <time>2025-02-28T14:25:14.505Z</time>
      </trkpt>
      <trkpt lat="27.763875" lon="-15.687029">
        <ele>8.982</ele>
        <time>2025-02-28T14:26:07.505Z</time>
      </trkpt>
      <trkpt lat="27.764038" lon="-15.687139">
        <ele>9.377</ele>
        <time>2025-02-28T14:26:41.505Z</time>
      </trkpt>
      <trkpt lat="27.764522" lon="-15.687336">
        <ele>8.861</ele>
        <time>2025-02-28T14:27:37.505Z</time>
      </trkpt>
      <trkpt lat="27.764937" lon="-15.687201">
        <ele>13.227</ele>
        <time>2025-02-28T14:28:37.505Z</time>
      </trkpt>
      <trkpt lat="27.765260" lon="-15.687491">
        <ele>16.809</ele>
        <time>2025-02-28T14:29:10.505Z</time>
      </trkpt>
      <trkpt lat="27.765688" lon="-15.687649">
        <ele>20.339</ele>
        <time>2025-02-28T14:29:53.505Z</time>
      </trkpt>
      <trkpt lat="27.766011" lon="-15.687888">
        <ele>11.857</ele>
        <time>2025-02-28T14:30:53.504Z</time>
      </trkpt>
      <trkpt lat="27.766206" lon="-15.687806">
        <ele>17.150</ele>
        <time>2025-02-28T14:31:11.504Z</time>
      </trkpt>
      <trkpt lat="27.766692" lon="-15.687981">
        <ele>14.059</ele>
        <time>2025-02-28T14:31:53.504Z</time>
      </trkpt>
      <trkpt lat="27.766926" lon="-15.688084">
        <ele>10.823</ele>
        <time>2025-02-28T14:32:17.504Z</time>
      </trkpt>
      <trkpt lat="27.767299" lon="-15.688417">
        <ele>7.941</ele>
        <time>2025-02-28T14:33:17.504Z</time>
      </trkpt>
      <trkpt lat="27.768069" lon="-15.688711">
        <ele>17.119</ele>
        <time>2025-02-28T14:34:38.504Z</time>
      </trkpt>
      <trkpt lat="27.768361" lon="-15.688641">
        <ele>19.359</ele>
        <time>2025-02-28T14:35:18.504Z</time>
      </trkpt>
      <trkpt lat="27.769137" lon="-15.688189">
        <ele>21.057</ele>
        <time>2025-02-28T14:36:52.504Z</time>
      </trkpt>
      <trkpt lat="27.770115" lon="-15.688413">
        <ele>26.449</ele>
        <time>2025-02-28T14:38:21.503Z</time>
      </trkpt>
      <trkpt lat="27.770227" lon="-15.688282">
        <ele>27.002</ele>
        <time>2025-02-28T14:38:46.503Z</time>
      </trkpt>
      <trkpt lat="27.770327" lon="-15.688344">
        <ele>25.422</ele>
        <time>2025-02-28T14:40:44.503Z</time>
      </trkpt>
      <trkpt lat="27.770269" lon="-15.688381">
        <ele>24.709</ele>
        <time>2025-02-28T14:40:58.503Z</time>
      </trkpt>
      <trkpt lat="27.770624" lon="-15.688529">
        <ele>20.916</ele>
        <time>2025-02-28T14:41:54.503Z</time>
      </trkpt>
      <trkpt lat="27.770929" lon="-15.689201">
        <ele>21.744</ele>
        <time>2025-02-28T14:44:04.503Z</time>
      </trkpt>
      <trkpt lat="27.771603" lon="-15.689638">
        <ele>25.997</ele>
        <time>2025-02-28T14:45:14.502Z</time>
      </trkpt>
      <trkpt lat="27.771701" lon="-15.689956">
        <ele>25.826</ele>
        <time>2025-02-28T14:45:48.502Z</time>
      </trkpt>
      <trkpt lat="27.771440" lon="-15.690425">
        <ele>20.110</ele>
        <time>2025-02-28T14:46:33.502Z</time>
      </trkpt>
      <trkpt lat="27.771371" lon="-15.690818">
        <ele>14.178</ele>
        <time>2025-02-28T14:47:02.502Z</time>
      </trkpt>
      <trkpt lat="27.771376" lon="-15.691439">
        <ele>10.126</ele>
        <time>2025-02-28T14:47:52.502Z</time>
      </trkpt>
      <trkpt lat="27.771511" lon="-15.692039">
        <ele>10.346</ele>
        <time>2025-02-28T14:48:44.502Z</time>
      </trkpt>
      <trkpt lat="27.772221" lon="-15.691902">
        <ele>12.234</ele>
        <time>2025-02-28T14:50:42.501Z</time>
      </trkpt>
      <trkpt lat="27.772651" lon="-15.692390">
        <ele>16.393</ele>
        <time>2025-02-28T14:51:34.501Z</time>
      </trkpt>
      <trkpt lat="27.773057" lon="-15.693878">
        <ele>14.165</ele>
        <time>2025-02-28T14:55:09.501Z</time>
      </trkpt>
      <trkpt lat="27.773002" lon="-15.694537">
        <ele>6.621</ele>
        <time>2025-02-28T14:55:51.501Z</time>
      </trkpt>
      <trkpt lat="27.773143" lon="-15.694709">
        <ele>10.109</ele>
        <time>2025-02-28T14:56:07.500Z</time>
      </trkpt>
      <trkpt lat="27.773405" lon="-15.694752">
        <ele>13.561</ele>
        <time>2025-02-28T14:56:41.500Z</time>
      </trkpt>
      <trkpt lat="27.773453" lon="-15.695312">
        <ele>19.259</ele>
        <time>2025-02-28T14:57:25.500Z</time>
      </trkpt>
      <trkpt lat="27.773248" lon="-15.695937">
        <ele>22.182</ele>
        <time>2025-02-28T14:58:17.500Z</time>
      </trkpt>
      <trkpt lat="27.772903" lon="-15.696345">
        <ele>19.511</ele>
        <time>2025-02-28T14:59:01.500Z</time>
      </trkpt>
      <trkpt lat="27.772197" lon="-15.697481">
        <ele>15.265</ele>
        <time>2025-02-28T15:00:42.500Z</time>
      </trkpt>
      <trkpt lat="27.771939" lon="-15.697731">
        <ele>10.693</ele>
        <time>2025-02-28T15:02:09.499Z</time>
      </trkpt>
      <trkpt lat="27.771791" lon="-15.698217">
        <ele>15.381</ele>
        <time>2025-02-28T15:03:23.499Z</time>
      </trkpt>
      <trkpt lat="27.771678" lon="-15.698301">
        <ele>12.181</ele>
        <time>2025-02-28T15:05:06.499Z</time>
      </trkpt>
      <trkpt lat="27.771690" lon="-15.698241">
        <ele>11.929</ele>
        <time>2025-02-28T15:05:31.499Z</time>
      </trkpt>
      <trkpt lat="27.771777" lon="-15.698196">
        <ele>14.594</ele>
        <time>2025-02-28T15:06:12.499Z</time>
      </trkpt>
      <trkpt lat="27.771502" lon="-15.698612">
        <ele>10.757</ele>
        <time>2025-02-28T15:08:07.498Z</time>
      </trkpt>
      <trkpt lat="27.771304" lon="-15.698658">
        <ele>7.122</ele>
        <time>2025-02-28T15:08:24.498Z</time>
      </trkpt>
      <trkpt lat="27.770722" lon="-15.698293">
        <ele>6.909</ele>
        <time>2025-02-28T15:09:19.498Z</time>
      </trkpt>
      <trkpt lat="27.770403" lon="-15.698448">
        <ele>7.351</ele>
        <time>2025-02-28T15:09:47.498Z</time>
      </trkpt>
      <trkpt lat="27.770446" lon="-15.698757">
        <ele>6.989</ele>
        <time>2025-02-28T15:11:11.498Z</time>
      </trkpt>
      <trkpt lat="27.770970" lon="-15.700129">
        <ele>5.742</ele>
        <time>2025-02-28T15:12:56.497Z</time>
      </trkpt>
      <trkpt lat="27.771349" lon="-15.700577">
        <ele>5.861</ele>
        <time>2025-02-28T15:13:51.497Z</time>
      </trkpt>
      <trkpt lat="27.771876" lon="-15.700943">
        <ele>6.935</ele>
        <time>2025-02-28T15:15:19.497Z</time>
      </trkpt>
      <trkpt lat="27.772591" lon="-15.700944">
        <ele>9.333</ele>
        <time>2025-02-28T15:18:35.497Z</time>
      </trkpt>
      <trkpt lat="27.772861" lon="-15.700633">
        <ele>16.021</ele>
        <time>2025-02-28T15:19:42.497Z</time>
      </trkpt>
      <trkpt lat="27.772711" lon="-15.700131">
        <ele>30.731</ele>
        <time>2025-02-28T15:21:03.496Z</time>
      </trkpt>
      <trkpt lat="27.772581" lon="-15.700038">
        <ele>29.219</ele>
        <time>2025-02-28T15:21:24.496Z</time>
      </trkpt>
      <trkpt lat="27.772538" lon="-15.699881">
        <ele>31.669</ele>
        <time>2025-02-28T15:21:40.496Z</time>
      </trkpt>
      <trkpt lat="27.772869" lon="-15.700366">
        <ele>24.904</ele>
        <time>2025-02-28T15:23:16.496Z</time>
      </trkpt>
      <trkpt lat="27.773551" lon="-15.700186">
        <ele>28.124</ele>
        <time>2025-02-28T15:24:16.496Z</time>
      </trkpt>
      <trkpt lat="27.774162" lon="-15.699797">
        <ele>30.809</ele>
        <time>2025-02-28T15:25:16.496Z</time>
      </trkpt>
      <trkpt lat="27.774579" lon="-15.699369">
        <ele>33.638</ele>
        <time>2025-02-28T15:26:08.496Z</time>
      </trkpt>
      <trkpt lat="27.774654" lon="-15.699145">
        <ele>36.596</ele>
        <time>2025-02-28T15:26:28.496Z</time>
      </trkpt>
      <trkpt lat="27.774753" lon="-15.699167">
        <ele>34.229</ele>
        <time>2025-02-28T15:26:36.496Z</time>
      </trkpt>
      <trkpt lat="27.775385" lon="-15.700683">
        <ele>13.188</ele>
        <time>2025-02-28T15:31:45.495Z</time>
      </trkpt>
      <trkpt lat="27.775709" lon="-15.701174">
        <ele>24.272</ele>
        <time>2025-02-28T15:32:40.495Z</time>
      </trkpt>
      <trkpt lat="27.775951" lon="-15.701363">
        <ele>33.680</ele>
        <time>2025-02-28T15:33:24.495Z</time>
      </trkpt>
      <trkpt lat="27.776802" lon="-15.701510">
        <ele>36.578</ele>
        <time>2025-02-28T15:34:49.494Z</time>
      </trkpt>
      <trkpt lat="27.777199" lon="-15.701775">
        <ele>37.768</ele>
        <time>2025-02-28T15:35:32.494Z</time>
      </trkpt>
      <trkpt lat="27.777390" lon="-15.702043">
        <ele>37.916</ele>
        <time>2025-02-28T15:36:11.494Z</time>
      </trkpt>
      <trkpt lat="27.777515" lon="-15.702355">
        <ele>38.978</ele>
        <time>2025-02-28T15:36:36.494Z</time>
      </trkpt>
      <trkpt lat="27.777590" lon="-15.703092">
        <ele>45.233</ele>
        <time>2025-02-28T15:37:35.494Z</time>
      </trkpt>
      <trkpt lat="27.777512" lon="-15.703290">
        <ele>41.926</ele>
        <time>2025-02-28T15:37:56.494Z</time>
      </trkpt>
      <trkpt lat="27.777420" lon="-15.703312">
        <ele>39.009</ele>
        <time>2025-02-28T15:38:39.494Z</time>
      </trkpt>
      <trkpt lat="27.777488" lon="-15.703336">
        <ele>40.739</ele>
        <time>2025-02-28T15:38:58.494Z</time>
      </trkpt>
      <trkpt lat="27.777555" lon="-15.703639">
        <ele>43.837</ele>
        <time>2025-02-28T15:39:26.494Z</time>
      </trkpt>
      <trkpt lat="27.777525" lon="-15.704371">
        <ele>33.960</ele>
        <time>2025-02-28T15:40:42.493Z</time>
      </trkpt>
      <trkpt lat="27.777758" lon="-15.705212">
        <ele>30.779</ele>
        <time>2025-02-28T15:42:03.493Z</time>
      </trkpt>
      <trkpt lat="27.777966" lon="-15.705451">
        <ele>39.713</ele>
        <time>2025-02-28T15:42:50.493Z</time>
      </trkpt>
      <trkpt lat="27.778319" lon="-15.705629">
        <ele>52.991</ele>
        <time>2025-02-28T15:43:25.493Z</time>
      </trkpt>
      <trkpt lat="27.778865" lon="-15.706507">
        <ele>27.869</ele>
        <time>2025-02-28T15:44:56.493Z</time>
      </trkpt>
      <trkpt lat="27.778982" lon="-15.706612">
        <ele>28.169</ele>
        <time>2025-02-28T15:45:39.493Z</time>
      </trkpt>
      <trkpt lat="27.779042" lon="-15.706541">
        <ele>38.277</ele>
        <time>2025-02-28T15:46:01.492Z</time>
      </trkpt>
      <trkpt lat="27.779132" lon="-15.706599">
        <ele>42.311</ele>
        <time>2025-02-28T15:46:12.492Z</time>
      </trkpt>
      <trkpt lat="27.779525" lon="-15.706951">
        <ele>51.921</ele>
        <time>2025-02-28T15:46:54.492Z</time>
      </trkpt>
      <trkpt lat="27.779805" lon="-15.707479">
        <ele>45.403</ele>
        <time>2025-02-28T15:47:41.492Z</time>
      </trkpt>
      <trkpt lat="27.780183" lon="-15.707766">
        <ele>55.309</ele>
        <time>2025-02-28T15:48:20.492Z</time>
      </trkpt>
      <trkpt lat="27.780570" lon="-15.707907">
        <ele>55.813</ele>
        <time>2025-02-28T15:48:57.492Z</time>
      </trkpt>
      <trkpt lat="27.780629" lon="-15.708008">
        <ele>55.311</ele>
        <time>2025-02-28T15:49:19.492Z</time>
      </trkpt>
      <trkpt lat="27.780727" lon="-15.707960">
        <ele>56.924</ele>
        <time>2025-02-28T15:49:28.492Z</time>
      </trkpt>
      <trkpt lat="27.781603" lon="-15.708259">
        <ele>52.833</ele>
        <time>2025-02-28T15:51:04.511Z</time>
      </trkpt>
      <trkpt lat="27.781861" lon="-15.708295">
        <ele>41.137</ele>
        <time>2025-02-28T15:51:07.511Z</time>
      </trkpt>
      <trkpt lat="27.782038" lon="-15.708211">
        <ele>36.565</ele>
        <time>2025-02-28T15:51:23.511Z</time>
      </trkpt>
      <trkpt lat="27.783076" lon="-15.708388">
        <ele>28.993</ele>
        <time>2025-02-28T15:52:57.511Z</time>
      </trkpt>
      <trkpt lat="27.783364" lon="-15.708298">
        <ele>27.243</ele>
        <time>2025-02-28T15:53:30.511Z</time>
      </trkpt>
      <trkpt lat="27.783456" lon="-15.708013">
        <ele>30.791</ele>
        <time>2025-02-28T15:54:19.511Z</time>
      </trkpt>
      <trkpt lat="27.783800" lon="-15.708298">
        <ele>22.239</ele>
        <time>2025-02-28T15:55:21.511Z</time>
      </trkpt>
      <trkpt lat="27.783841" lon="-15.708501">
        <ele>23.201</ele>
        <time>2025-02-28T15:55:41.511Z</time>
      </trkpt>
      <trkpt lat="27.783513" lon="-15.708803">
        <ele>17.421</ele>
        <time>2025-02-28T15:56:30.511Z</time>
      </trkpt>
      <trkpt lat="27.783446" lon="-15.709890">
        <ele>14.409</ele>
        <time>2025-02-28T16:02:03.510Z</time>
      </trkpt>
      <trkpt lat="27.783201" lon="-15.710264">
        <ele>10.655</ele>
        <time>2025-02-28T16:02:40.510Z</time>
      </trkpt>
      <trkpt lat="27.783382" lon="-15.710673">
        <ele>18.743</ele>
        <time>2025-02-28T16:03:17.509Z</time>
      </trkpt>
      <trkpt lat="27.783500" lon="-15.711559">
        <ele>12.526</ele>
        <time>2025-02-28T16:04:27.509Z</time>
      </trkpt>
      <trkpt lat="27.783753" lon="-15.711967">
        <ele>6.555</ele>
        <time>2025-02-28T16:05:23.509Z</time>
      </trkpt>
      <trkpt lat="27.784939" lon="-15.712129">
        <ele>16.429</ele>
        <time>2025-02-28T16:07:35.509Z</time>
      </trkpt>
      <trkpt lat="27.785273" lon="-15.712296">
        <ele>14.977</ele>
        <time>2025-02-28T16:08:02.509Z</time>
      </trkpt>
      <trkpt lat="27.785519" lon="-15.712685">
        <ele>11.455</ele>
        <time>2025-02-28T16:09:40.508Z</time>
      </trkpt>
      <trkpt lat="27.785560" lon="-15.713309">
        <ele>11.265</ele>
        <time>2025-02-28T16:10:29.508Z</time>
      </trkpt>
      <trkpt lat="27.785287" lon="-15.714155">
        <ele>13.093</ele>
        <time>2025-02-28T16:11:39.508Z</time>
      </trkpt>
      <trkpt lat="27.784478" lon="-15.715378">
        <ele>12.046</ele>
        <time>2025-02-28T16:13:36.508Z</time>
      </trkpt>
      <trkpt lat="27.783701" lon="-15.716001">
        <ele>15.488</ele>
        <time>2025-02-28T16:15:03.507Z</time>
      </trkpt>
      <trkpt lat="27.783245" lon="-15.716215">
        <ele>9.916</ele>
        <time>2025-02-28T16:15:52.507Z</time>
      </trkpt>
      <trkpt lat="27.783086" lon="-15.716092">
        <ele>7.209</ele>
        <time>2025-02-28T16:16:12.507Z</time>
      </trkpt>
      <trkpt lat="27.783485" lon="-15.716607">
        <ele>18.686</ele>
        <time>2025-02-28T16:17:37.507Z</time>
      </trkpt>
      <trkpt lat="27.783473" lon="-15.717125">
        <ele>12.134</ele>
        <time>2025-02-28T16:18:13.507Z</time>
      </trkpt>
      <trkpt lat="27.784020" lon="-15.717609">
        <ele>39.747</ele>
        <time>2025-02-28T16:19:24.506Z</time>
      </trkpt>
      <trkpt lat="27.784053" lon="-15.717888">
        <ele>36.486</ele>
        <time>2025-02-28T16:19:41.506Z</time>
      </trkpt>
      <trkpt lat="27.784553" lon="-15.718507">
        <ele>43.130</ele>
        <time>2025-02-28T16:21:32.506Z</time>
      </trkpt>
      <trkpt lat="27.784594" lon="-15.718765">
        <ele>30.438</ele>
        <time>2025-02-28T16:21:56.506Z</time>
      </trkpt>
      <trkpt lat="27.785024" lon="-15.718964">
        <ele>31.916</ele>
        <time>2025-02-28T16:22:44.506Z</time>
      </trkpt>
      <trkpt lat="27.785096" lon="-15.719095">
        <ele>24.766</ele>
        <time>2025-02-28T16:22:58.506Z</time>
      </trkpt>
      <trkpt lat="27.785405" lon="-15.719121">
        <ele>28.674</ele>
        <time>2025-02-28T16:23:45.506Z</time>
      </trkpt>
      <trkpt lat="27.785360" lon="-15.719154">
        <ele>24.839</ele>
        <time>2025-02-28T16:26:34.505Z</time>
      </trkpt>
      <trkpt lat="27.785954" lon="-15.719333">
        <ele>45.701</ele>
        <time>2025-02-28T16:29:16.505Z</time>
      </trkpt>
      <trkpt lat="27.786093" lon="-15.719624">
        <ele>27.721</ele>
        <time>2025-02-28T16:29:39.505Z</time>
      </trkpt>
      <trkpt lat="27.786558" lon="-15.719899">
        <ele>34.709</ele>
        <time>2025-02-28T16:30:31.505Z</time>
      </trkpt>
      <trkpt lat="27.786737" lon="-15.720111">
        <ele>38.365</ele>
        <time>2025-02-28T16:30:54.505Z</time>
      </trkpt>
      <trkpt lat="27.787535" lon="-15.723072">
        <ele>6.643</ele>
        <time>2025-02-28T16:35:26.504Z</time>
      </trkpt>
      <trkpt lat="27.788032" lon="-15.723217">
        <ele>6.496</ele>
        <time>2025-02-28T16:36:43.504Z</time>
      </trkpt>
      <trkpt lat="27.788330" lon="-15.723036">
        <ele>18.585</ele>
        <time>2025-02-28T16:37:49.504Z</time>
      </trkpt>
      <trkpt lat="27.788687" lon="-15.722975">
        <ele>15.269</ele>
        <time>2025-02-28T16:38:18.504Z</time>
      </trkpt>
      <trkpt lat="27.788879" lon="-15.723364">
        <ele>10.717</ele>
        <time>2025-02-28T16:38:55.504Z</time>
      </trkpt>
      <trkpt lat="27.789282" lon="-15.723288">
        <ele>11.225</ele>
        <time>2025-02-28T16:40:05.504Z</time>
      </trkpt>
      <trkpt lat="27.790009" lon="-15.723427">
        <ele>9.455</ele>
        <time>2025-02-28T16:40:58.504Z</time>
      </trkpt>
      <trkpt lat="27.790154" lon="-15.723385">
        <ele>10.243</ele>
        <time>2025-02-28T16:41:13.504Z</time>
      </trkpt>
      <trkpt lat="27.790635" lon="-15.723623">
        <ele>9.712</ele>
        <time>2025-02-28T16:42:01.503Z</time>
      </trkpt>
      <trkpt lat="27.791083" lon="-15.723985">
        <ele>9.032</ele>
        <time>2025-02-28T16:42:49.503Z</time>
      </trkpt>
      <trkpt lat="27.791636" lon="-15.725137">
        <ele>2.505</ele>
        <time>2025-02-28T16:44:51.503Z</time>
      </trkpt>
      <trkpt lat="27.791842" lon="-15.726641">
        <ele>9.909</ele>
        <time>2025-02-28T16:47:47.503Z</time>
      </trkpt>
      <trkpt lat="27.792153" lon="-15.726741">
        <ele>8.773</ele>
        <time>2025-02-28T16:49:32.502Z</time>
      </trkpt>
      <trkpt lat="27.792025" lon="-15.726803">
        <ele>8.761</ele>
        <time>2025-02-28T16:51:32.502Z</time>
      </trkpt>
      <trkpt lat="27.791970" lon="-15.726714">
        <ele>9.664</ele>
        <time>2025-02-28T16:52:12.502Z</time>
      </trkpt>
      <trkpt lat="27.791874" lon="-15.726728">
        <ele>9.463</ele>
        <time>2025-02-28T16:52:23.502Z</time>
      </trkpt>
      <trkpt lat="27.791926" lon="-15.726891">
        <ele>8.497</ele>
        <time>2025-02-28T16:53:52.502Z</time>
      </trkpt>
      <trkpt lat="27.791865" lon="-15.727478">
        <ele>7.515</ele>
        <time>2025-02-28T16:54:47.502Z</time>
      </trkpt>
      <trkpt lat="27.792571" lon="-15.727983">
        <ele>8.383</ele>
        <time>2025-02-28T16:56:02.502Z</time>
      </trkpt>
      <trkpt lat="27.793052" lon="-15.728148">
        <ele>8.343</ele>
        <time>2025-02-28T16:56:45.501Z</time>
      </trkpt>
      <trkpt lat="27.793492" lon="-15.728004">
        <ele>10.151</ele>
        <time>2025-02-28T16:57:26.501Z</time>
      </trkpt>
      <trkpt lat="27.794018" lon="-15.727623">
        <ele>11.618</ele>
        <time>2025-02-28T16:58:31.501Z</time>
      </trkpt>
      <trkpt lat="27.794131" lon="-15.727363">
        <ele>11.898</ele>
        <time>2025-02-28T16:59:48.501Z</time>
      </trkpt>
      <trkpt lat="27.794493" lon="-15.726937">
        <ele>9.117</ele>
        <time>2025-02-28T17:00:31.501Z</time>
      </trkpt>
      <trkpt lat="27.795068" lon="-15.726802">
        <ele>9.009</ele>
        <time>2025-02-28T17:01:15.501Z</time>
      </trkpt>
      <trkpt lat="27.795657" lon="-15.727144">
        <ele>6.313</ele>
        <time>2025-02-28T17:02:09.501Z</time>
      </trkpt>
      <trkpt lat="27.796194" lon="-15.727684">
        <ele>7.591</ele>
        <time>2025-02-28T17:03:03.501Z</time>
      </trkpt>
      <trkpt lat="27.796284" lon="-15.727873">
        <ele>7.664</ele>
        <time>2025-02-28T17:03:21.501Z</time>
      </trkpt>
      <trkpt lat="27.796520" lon="-15.727902">
        <ele>7.053</ele>
        <time>2025-02-28T17:03:42.501Z</time>
      </trkpt>
      <trkpt lat="27.796746" lon="-15.728152">
        <ele>6.797</ele>
        <time>2025-02-28T17:04:10.501Z</time>
      </trkpt>
      <trkpt lat="27.796648" lon="-15.728507">
        <ele>6.475</ele>
        <time>2025-02-28T17:04:41.500Z</time>
      </trkpt>
      <trkpt lat="27.796882" lon="-15.729091">
        <ele>6.043</ele>
        <time>2025-02-28T17:05:42.500Z</time>
      </trkpt>
      <trkpt lat="27.797095" lon="-15.729276">
        <ele>6.293</ele>
        <time>2025-02-28T17:06:14.500Z</time>
      </trkpt>
      <trkpt lat="27.797202" lon="-15.729601">
        <ele>6.351</ele>
        <time>2025-02-28T17:07:06.500Z</time>
      </trkpt>
      <trkpt lat="27.797367" lon="-15.729710">
        <ele>8.686</ele>
        <time>2025-02-28T17:07:23.500Z</time>
      </trkpt>
      <trkpt lat="27.797576" lon="-15.730069">
        <ele>9.560</ele>
        <time>2025-02-28T17:08:14.500Z</time>
      </trkpt>
      <trkpt lat="27.797822" lon="-15.730179">
        <ele>8.126</ele>
        <time>2025-02-28T17:09:24.500Z</time>
      </trkpt>
      <trkpt lat="27.797918" lon="-15.730121">
        <ele>10.309</ele>
        <time>2025-02-28T17:09:40.500Z</time>
      </trkpt>
      <trkpt lat="27.798689" lon="-15.730808">
        <ele>14.040</ele>
        <time>2025-02-28T17:11:07.499Z</time>
      </trkpt>
      <trkpt lat="27.798896" lon="-15.731169">
        <ele>11.968</ele>
        <time>2025-02-28T17:12:01.499Z</time>
      </trkpt>
      <trkpt lat="27.799051" lon="-15.731706">
        <ele>7.911</ele>
        <time>2025-02-28T17:12:47.499Z</time>
      </trkpt>
      <trkpt lat="27.798901" lon="-15.732291">
        <ele>8.630</ele>
        <time>2025-02-28T17:14:00.499Z</time>
      </trkpt>
      <trkpt lat="27.799131" lon="-15.732286">
        <ele>10.044</ele>
        <time>2025-02-28T17:15:05.499Z</time>
      </trkpt>
    </trkseg>
  </trk></gpx>