<?xml version="1.0" encoding="UTF-8"?>
<gpx creator="Wikiloc - https://www.wikiloc.com" version="1.1" xmlns="http://www.topografix.com/GPX/1/1" xmlns:xsi="http://www.w3.org/2001/XMLSchema-instance" xsi:schemaLocation="http://www.topografix.com/GPX/1/1 http://www.topografix.com/GPX/1/1/gpx.xsd">
  <metadata>
    <name>Wikiloc - Paseo por Arrecife. Castillo de San Gabriel, punta de la Lag...</name>
    <link href="https://www.wikiloc.com/walking-trails/paseo-por-arrecife-castillo-de-san-gabriel-punta-de-la-lagarta-charco-de-san-gines-lanzarote-199656688">
      <text>Paseo por Arrecife. Castillo de San Gabriel, punta de la Lag... on Wikiloc</text>
    </link>
    <time>2025-01-29T15:24:17.745Z</time>
  </metadata>
  <trk>
    <name>Paseo por Arrecife. Castillo de San Gabriel, punta de la Lag... - Wikiloc</name>
    <cmt></cmt>
    <desc></desc>
    <trkseg>
      <trkpt lat="28.958036" lon="-13.561722">
        <ele>4.411</ele>
        <time>2025-01-29T12:28:42.783Z</time>
      </trkpt>
      <trkpt lat="28.958059" lon="-13.561428">
        <ele>7.621</ele>
        <time>2025-01-29T12:29:25.781Z</time>
      </trkpt>
      <trkpt lat="28.957890" lon="-13.561224">
        <ele>6.203</ele>
        <time>2025-01-29T12:29:44.784Z</time>
      </trkpt>
      <trkpt lat="28.957928" lon="-13.560814">
        <ele>3.509</ele>
        <time>2025-01-29T12:30:18.784Z</time>
      </trkpt>
      <trkpt lat="28.958140" lon="-13.560583">
        <ele>4.322</ele>
        <time>2025-01-29T12:30:53.782Z</time>
      </trkpt>
      <trkpt lat="28.958516" lon="-13.559775">
        <ele>4.690</ele>
        <time>2025-01-29T12:32:04.783Z</time>
      </trkpt>
      <trkpt lat="28.958668" lon="-13.559272">
        <ele>4.670</ele>
        <time>2025-01-29T12:32:43.787Z</time>
      </trkpt>
      <trkpt lat="28.958812" lon="-13.558651">
        <ele>8.877</ele>
        <time>2025-01-29T12:33:32.775Z</time>
      </trkpt>
      <trkpt lat="28.958730" lon="-13.557793">
        <ele>13.646</ele>
        <time>2025-01-29T12:34:35.783Z</time>
      </trkpt>
      <trkpt lat="28.958389" lon="-13.556344">
        <ele>17.677</ele>
        <time>2025-01-29T12:36:33.788Z</time>
      </trkpt>
      <trkpt lat="28.957930" lon="-13.555112">
        <ele>7.447</ele>
        <time>2025-01-29T12:38:18.785Z</time>
      </trkpt>
      <trkpt lat="28.957809" lon="-13.555020">
        <ele>3.329</ele>
        <time>2025-01-29T12:38:30.785Z</time>
      </trkpt>
      <trkpt lat="28.957617" lon="-13.555042">
        <ele>2.669</ele>
        <time>2025-01-29T12:38:46.787Z</time>
      </trkpt>
      <trkpt lat="28.957030" lon="-13.554904">
        <ele>4.159</ele>
        <time>2025-01-29T12:39:37.777Z</time>
      </trkpt>
      <trkpt lat="28.956900" lon="-13.554810">
        <ele>4.303</ele>
        <time>2025-01-29T12:39:52.778Z</time>
      </trkpt>
      <trkpt lat="28.956812" lon="-13.554568">
        <ele>4.623</ele>
        <time>2025-01-29T12:40:19.782Z</time>
      </trkpt>
      <trkpt lat="28.956886" lon="-13.553495">
        <ele>1.809</ele>
        <time>2025-01-29T12:42:21.794Z</time>
      </trkpt>
      <trkpt lat="28.957286" lon="-13.553443">
        <ele>3.746</ele>
        <time>2025-01-29T12:43:19.781Z</time>
      </trkpt>
      <trkpt lat="28.957437" lon="-13.552500">
        <ele>1.344</ele>
        <time>2025-01-29T12:44:59.780Z</time>
      </trkpt>
      <trkpt lat="28.957899" lon="-13.552173">
        <ele>7.944</ele>
        <time>2025-01-29T12:45:53.790Z</time>
      </trkpt>
      <trkpt lat="28.957940" lon="-13.551736">
        <ele>14.331</ele>
        <time>2025-01-29T12:46:29.792Z</time>
      </trkpt>
      <trkpt lat="28.957880" lon="-13.551646">
        <ele>13.460</ele>
        <time>2025-01-29T12:46:38.798Z</time>
      </trkpt>
      <trkpt lat="28.957247" lon="-13.551530">
        <ele>5.741</ele>
        <time>2025-01-29T12:47:34.791Z</time>
      </trkpt>
      <trkpt lat="28.957315" lon="-13.551206">
        <ele>9.041</ele>
        <time>2025-01-29T12:47:59.819Z</time>
      </trkpt>
      <trkpt lat="28.957203" lon="-13.551101">
        <ele>8.563</ele>
        <time>2025-01-29T12:48:13.777Z</time>
      </trkpt>
      <trkpt lat="28.957193" lon="-13.550982">
        <ele>8.523</ele>
        <time>2025-01-29T12:48:23.786Z</time>
      </trkpt>
      <trkpt lat="28.958068" lon="-13.549002">
        <ele>10.953</ele>
        <time>2025-01-29T12:51:34.822Z</time>
      </trkpt>
      <trkpt lat="28.958340" lon="-13.548076">
        <ele>9.904</ele>
        <time>2025-01-29T12:52:51.778Z</time>
      </trkpt>
      <trkpt lat="28.957548" lon="-13.547784">
        <ele>0.414</ele>
        <time>2025-01-29T12:54:33.779Z</time>
      </trkpt>
      <trkpt lat="28.956663" lon="-13.548225">
        <ele>4.609</ele>
        <time>2025-01-29T12:56:03.775Z</time>
      </trkpt>
      <trkpt lat="28.956608" lon="-13.548215">
        <ele>4.616</ele>
        <time>2025-01-29T12:56:08.782Z</time>
      </trkpt>
      <trkpt lat="28.956535" lon="-13.547942">
        <ele>3.344</ele>
        <time>2025-01-29T12:57:15.783Z</time>
      </trkpt>
      <trkpt lat="28.956428" lon="-13.547838">
        <ele>3.034</ele>
        <time>2025-01-29T12:57:30.791Z</time>
      </trkpt>
      <trkpt lat="28.956411" lon="-13.547897">
        <ele>3.041</ele>
        <time>2025-01-29T12:58:05.778Z</time>
      </trkpt>
      <trkpt lat="28.956382" lon="-13.547756">
        <ele>3.050</ele>
        <time>2025-01-29T12:58:32.774Z</time>
      </trkpt>
      <trkpt lat="28.956336" lon="-13.547766">
        <ele>2.771</ele>
        <time>2025-01-29T12:58:44.773Z</time>
      </trkpt>
      <trkpt lat="28.956269" lon="-13.547855">
        <ele>1.961</ele>
        <time>2025-01-29T12:59:07.786Z</time>
      </trkpt>
      <trkpt lat="28.956483" lon="-13.548311">
        <ele>5.523</ele>
        <time>2025-01-29T12:59:50.776Z</time>
      </trkpt>
      <trkpt lat="28.955974" lon="-13.548638">
        <ele>4.033</ele>
        <time>2025-01-29T13:00:40.784Z</time>
      </trkpt>
      <trkpt lat="28.955728" lon="-13.548714">
        <ele>2.942</ele>
        <time>2025-01-29T13:01:02.778Z</time>
      </trkpt>
      <trkpt lat="28.953828" lon="-13.547771">
        <ele>-1.022</ele>
        <time>2025-01-29T13:03:58.774Z</time>
      </trkpt>
      <trkpt lat="28.953342" lon="-13.547760">
        <ele>-0.114</ele>
        <time>2025-01-29T13:05:24.771Z</time>
      </trkpt>
      <trkpt lat="28.953130" lon="-13.547987">
        <ele>1.509</ele>
        <time>2025-01-29T13:05:52.771Z</time>
      </trkpt>
      <trkpt lat="28.952968" lon="-13.548312">
        <ele>0.865</ele>
        <time>2025-01-29T13:06:33.781Z</time>
      </trkpt>
      <trkpt lat="28.952462" lon="-13.550161">
        <ele>4.043</ele>
        <time>2025-01-29T13:09:17.773Z</time>
      </trkpt>
      <trkpt lat="28.952549" lon="-13.549719">
        <ele>6.863</ele>
        <time>2025-01-29T13:10:08.770Z</time>
      </trkpt>
      <trkpt lat="28.952872" lon="-13.548400">
        <ele>-0.670</ele>
        <time>2025-01-29T13:11:52.774Z</time>
      </trkpt>
      <trkpt lat="28.953270" lon="-13.547840">
        <ele>0.579</ele>
        <time>2025-01-29T13:12:47.792Z</time>
      </trkpt>
      <trkpt lat="28.953342" lon="-13.547900">
        <ele>0.460</ele>
        <time>2025-01-29T13:12:55.780Z</time>
      </trkpt>
      <trkpt lat="28.953255" lon="-13.547951">
        <ele>0.960</ele>
        <time>2025-01-29T13:13:05.792Z</time>
      </trkpt>
      <trkpt lat="28.953339" lon="-13.548069">
        <ele>0.942</ele>
        <time>2025-01-29T13:13:18.770Z</time>
      </trkpt>
      <trkpt lat="28.953602" lon="-13.547950">
        <ele>-1.532</ele>
        <time>2025-01-29T13:13:34.781Z</time>
      </trkpt>
      <trkpt lat="28.953950" lon="-13.547923">
        <ele>-0.462</ele>
        <time>2025-01-29T13:14:03.771Z</time>
      </trkpt>
      <trkpt lat="28.955642" lon="-13.548615">
        <ele>2.383</ele>
        <time>2025-01-29T13:16:14.781Z</time>
      </trkpt>
      <trkpt lat="28.956122" lon="-13.548528">
        <ele>4.411</ele>
        <time>2025-01-29T13:16:54.784Z</time>
      </trkpt>
      <trkpt lat="28.956000" lon="-13.548733">
        <ele>4.109</ele>
        <time>2025-01-29T13:17:22.773Z</time>
      </trkpt>
      <trkpt lat="28.956036" lon="-13.548593">
        <ele>4.357</ele>
        <time>2025-01-29T13:17:27.793Z</time>
      </trkpt>
      <trkpt lat="28.955823" lon="-13.548455">
        <ele>1.915</ele>
        <time>2025-01-29T13:17:57.779Z</time>
      </trkpt>
      <trkpt lat="28.955863" lon="-13.548183">
        <ele>0.015</ele>
        <time>2025-01-29T13:18:26.773Z</time>
      </trkpt>
      <trkpt lat="28.956163" lon="-13.548259">
        <ele>2.552</ele>
        <time>2025-01-29T13:18:45.783Z</time>
      </trkpt>
      <trkpt lat="28.956078" lon="-13.548300">
        <ele>2.311</ele>
        <time>2025-01-29T13:18:59.777Z</time>
      </trkpt>
      <trkpt lat="28.956131" lon="-13.548320">
        <ele>3.052</ele>
        <time>2025-01-29T13:19:05.776Z</time>
      </trkpt>
      <trkpt lat="28.956687" lon="-13.548199">
        <ele>4.472</ele>
        <time>2025-01-29T13:19:40.780Z</time>
      </trkpt>
      <trkpt lat="28.957032" lon="-13.548032">
        <ele>2.284</ele>
        <time>2025-01-29T13:20:01.775Z</time>
      </trkpt>
      <trkpt lat="28.957830" lon="-13.547467">
        <ele>2.294</ele>
        <time>2025-01-29T13:20:52.770Z</time>
      </trkpt>
      <trkpt lat="28.958236" lon="-13.547501">
        <ele>7.669</ele>
        <time>2025-01-29T13:21:17.770Z</time>
      </trkpt>
      <trkpt lat="28.958577" lon="-13.547734">
        <ele>18.804</ele>
        <time>2025-01-29T13:22:08.774Z</time>
      </trkpt>
      <trkpt lat="28.959023" lon="-13.546782">
        <ele>8.424</ele>
        <time>2025-01-29T13:23:36.771Z</time>
      </trkpt>
      <trkpt lat="28.959851" lon="-13.545812">
        <ele>2.509</ele>
        <time>2025-01-29T13:25:32.780Z</time>
      </trkpt>
      <trkpt lat="28.960183" lon="-13.545673">
        <ele>1.987</ele>
        <time>2025-01-29T13:26:28.772Z</time>
      </trkpt>
      <trkpt lat="28.960626" lon="-13.545661">
        <ele>0.445</ele>
        <time>2025-01-29T13:27:20.775Z</time>
      </trkpt>
      <trkpt lat="28.960744" lon="-13.544737">
        <ele>2.545</ele>
        <time>2025-01-29T13:28:47.770Z</time>
      </trkpt>
      <trkpt lat="28.960845" lon="-13.544465">
        <ele>2.922</ele>
        <time>2025-01-29T13:29:11.848Z</time>
      </trkpt>
      <trkpt lat="28.961512" lon="-13.544299">
        <ele>4.311</ele>
        <time>2025-01-29T13:30:44.771Z</time>
      </trkpt>
      <trkpt lat="28.961652" lon="-13.544343">
        <ele>6.282</ele>
        <time>2025-01-29T13:30:59.783Z</time>
      </trkpt>
      <trkpt lat="28.961600" lon="-13.544677">
        <ele>5.712</ele>
        <time>2025-01-29T13:31:52.111Z</time>
      </trkpt>
      <trkpt lat="28.961725" lon="-13.545741">
        <ele>0.164</ele>
        <time>2025-01-29T13:33:30.778Z</time>
      </trkpt>
      <trkpt lat="28.961931" lon="-13.546103">
        <ele>3.054</ele>
        <time>2025-01-29T13:34:07.771Z</time>
      </trkpt>
      <trkpt lat="28.962236" lon="-13.546407">
        <ele>5.579</ele>
        <time>2025-01-29T13:34:43.779Z</time>
      </trkpt>
      <trkpt lat="28.962397" lon="-13.546789">
        <ele>11.605</ele>
        <time>2025-01-29T13:35:48.766Z</time>
      </trkpt>
      <trkpt lat="28.962387" lon="-13.546850">
        <ele>11.825</ele>
        <time>2025-01-29T13:39:17.812Z</time>
      </trkpt>
      <trkpt lat="28.962303" lon="-13.546676">
        <ele>9.509</ele>
        <time>2025-01-29T14:20:58.758Z</time>
      </trkpt>
      <trkpt lat="28.962259" lon="-13.546726">
        <ele>9.298</ele>
        <time>2025-01-29T14:21:40.763Z</time>
      </trkpt>
      <trkpt lat="28.962325" lon="-13.546930">
        <ele>11.686</ele>
        <time>2025-01-29T14:22:15.786Z</time>
      </trkpt>
      <trkpt lat="28.962270" lon="-13.547464">
        <ele>9.046</ele>
        <time>2025-01-29T14:23:17.770Z</time>
      </trkpt>
      <trkpt lat="28.962067" lon="-13.548334">
        <ele>3.843</ele>
        <time>2025-01-29T14:24:52.764Z</time>
      </trkpt>
      <trkpt lat="28.962130" lon="-13.548593">
        <ele>5.032</ele>
        <time>2025-01-29T14:25:19.767Z</time>
      </trkpt>
      <trkpt lat="28.961711" lon="-13.548692">
        <ele>5.583</ele>
        <time>2025-01-29T14:26:55.761Z</time>
      </trkpt>
      <trkpt lat="28.961683" lon="-13.548523">
        <ele>4.083</ele>
        <time>2025-01-29T14:27:59.764Z</time>
      </trkpt>
      <trkpt lat="28.960813" lon="-13.548055">
        <ele>-0.875</ele>
        <time>2025-01-29T14:30:31.820Z</time>
      </trkpt>
      <trkpt lat="28.960483" lon="-13.547654">
        <ele>4.795</ele>
        <time>2025-01-29T14:31:48.761Z</time>
      </trkpt>
      <trkpt lat="28.960336" lon="-13.547248">
        <ele>5.972</ele>
        <time>2025-01-29T14:32:43.772Z</time>
      </trkpt>
      <trkpt lat="28.960382" lon="-13.547171">
        <ele>5.613</ele>
        <time>2025-01-29T14:32:54.762Z</time>
      </trkpt>
      <trkpt lat="28.960446" lon="-13.547494">
        <ele>6.214</ele>
        <time>2025-01-29T14:33:24.759Z</time>
      </trkpt>
      <trkpt lat="28.960292" lon="-13.547727">
        <ele>6.209</ele>
        <time>2025-01-29T14:33:48.761Z</time>
      </trkpt>
      <trkpt lat="28.960164" lon="-13.547804">
        <ele>6.898</ele>
        <time>2025-01-29T14:34:03.762Z</time>
      </trkpt>
      <trkpt lat="28.959867" lon="-13.547588">
        <ele>8.476</ele>
        <time>2025-01-29T14:34:41.763Z</time>
      </trkpt>
      <trkpt lat="28.959682" lon="-13.547565">
        <ele>9.886</ele>
        <time>2025-01-29T14:35:05.783Z</time>
      </trkpt>
      <trkpt lat="28.959233" lon="-13.548346">
        <ele>19.983</ele>
        <time>2025-01-29T14:37:05.755Z</time>
      </trkpt>
      <trkpt lat="28.959284" lon="-13.548488">
        <ele>21.922</ele>
        <time>2025-01-29T14:37:23.764Z</time>
      </trkpt>
      <trkpt lat="28.959565" lon="-13.548715">
        <ele>23.473</ele>
        <time>2025-01-29T14:38:14.755Z</time>
      </trkpt>
      <trkpt lat="28.960045" lon="-13.548847">
        <ele>19.713</ele>
        <time>2025-01-29T14:42:32.756Z</time>
      </trkpt>
      <trkpt lat="28.960103" lon="-13.548938">
        <ele>19.425</ele>
        <time>2025-01-29T14:42:51.755Z</time>
      </trkpt>
      <trkpt lat="28.960283" lon="-13.548888">
        <ele>18.995</ele>
        <time>2025-01-29T14:45:12.758Z</time>
      </trkpt>
      <trkpt lat="28.960442" lon="-13.549071">
        <ele>16.738</ele>
        <time>2025-01-29T14:45:57.762Z</time>
      </trkpt>
      <trkpt lat="28.961298" lon="-13.549342">
        <ele>11.870</ele>
        <time>2025-01-29T14:55:11.766Z</time>
      </trkpt>
      <trkpt lat="28.961259" lon="-13.549607">
        <ele>12.517</ele>
        <time>2025-01-29T14:56:48.752Z</time>
      </trkpt>
      <trkpt lat="28.961449" lon="-13.549981">
        <ele>11.109</ele>
        <time>2025-01-29T14:57:30.756Z</time>
      </trkpt>
      <trkpt lat="28.961672" lon="-13.550947">
        <ele>11.624</ele>
        <time>2025-01-29T14:59:13.754Z</time>
      </trkpt>
      <trkpt lat="28.961792" lon="-13.551105">
        <ele>13.952</ele>
        <time>2025-01-29T14:59:33.759Z</time>
      </trkpt>
      <trkpt lat="28.961894" lon="-13.551600">
        <ele>13.222</ele>
        <time>2025-01-29T15:00:33.766Z</time>
      </trkpt>
      <trkpt lat="28.962013" lon="-13.551778">
        <ele>11.089</ele>
        <time>2025-01-29T15:00:55.757Z</time>
      </trkpt>
      <trkpt lat="28.961975" lon="-13.551930">
        <ele>10.048</ele>
        <time>2025-01-29T15:01:33.757Z</time>
      </trkpt>
      <trkpt lat="28.962087" lon="-13.552010">
        <ele>9.179</ele>
        <time>2025-01-29T15:01:55.761Z</time>
      </trkpt>
      <trkpt lat="28.960913" lon="-13.554407">
        <ele>8.719</ele>
        <time>2025-01-29T15:05:57.752Z</time>
      </trkpt>
      <trkpt lat="28.960789" lon="-13.554899">
        <ele>7.661</ele>
        <time>2025-01-29T15:06:35.755Z</time>
      </trkpt>
      <trkpt lat="28.960574" lon="-13.555360">
        <ele>9.261</ele>
        <time>2025-01-29T15:07:16.753Z</time>
      </trkpt>
      <trkpt lat="28.960297" lon="-13.555378">
        <ele>9.711</ele>
        <time>2025-01-29T15:07:48.753Z</time>
      </trkpt>
      <trkpt lat="28.959877" lon="-13.555247">
        <ele>11.121</ele>
        <time>2025-01-29T15:08:32.765Z</time>
      </trkpt>
      <trkpt lat="28.959613" lon="-13.555103">
        <ele>10.503</ele>
        <time>2025-01-29T15:09:01.752Z</time>
      </trkpt>
      <trkpt lat="28.959486" lon="-13.554931">
        <ele>11.509</ele>
        <time>2025-01-29T15:09:42.757Z</time>
      </trkpt>
      <trkpt lat="28.959433" lon="-13.554930">
        <ele>12.042</ele>
        <time>2025-01-29T15:11:38.753Z</time>
      </trkpt>
      <trkpt lat="28.959344" lon="-13.555193">
        <ele>11.930</ele>
        <time>2025-01-29T15:12:02.748Z</time>
      </trkpt>
      <trkpt lat="28.958937" lon="-13.555157">
        <ele>13.220</ele>
        <time>2025-01-29T15:12:40.776Z</time>
      </trkpt>
      <trkpt lat="28.958569" lon="-13.555025">
        <ele>15.247</ele>
        <time>2025-01-29T15:13:17.763Z</time>
      </trkpt>
      <trkpt lat="28.958193" lon="-13.555117">
        <ele>12.646</ele>
        <time>2025-01-29T15:13:58.761Z</time>
      </trkpt>
      <trkpt lat="28.958163" lon="-13.555417">
        <ele>10.677</ele>
        <time>2025-01-29T15:14:23.761Z</time>
      </trkpt>
      <trkpt lat="28.958736" lon="-13.557316">
        <ele>17.787</ele>
        <time>2025-01-29T15:17:22.783Z</time>
      </trkpt>
      <trkpt lat="28.958667" lon="-13.557573">
        <ele>14.999</ele>
        <time>2025-01-29T15:17:46.754Z</time>
      </trkpt>
      <trkpt lat="28.958730" lon="-13.558420">
        <ele>10.789</ele>
        <time>2025-01-29T15:18:57.745Z</time>
      </trkpt>
      <trkpt lat="28.958668" lon="-13.558912">
        <ele>6.647</ele>
        <time>2025-01-29T15:19:38.751Z</time>
      </trkpt>
      <trkpt lat="28.958327" lon="-13.560053">
        <ele>7.029</ele>
        <time>2025-01-29T15:21:11.746Z</time>
      </trkpt>
      <trkpt lat="28.957955" lon="-13.560784">
        <ele>3.521</ele>
        <time>2025-01-29T15:22:15.766Z</time>
      </trkpt>
      <trkpt lat="28.957875" lon="-13.561163">
        <ele>5.909</ele>
        <time>2025-01-29T15:22:44.805Z</time>
      </trkpt>
      <trkpt lat="28.958012" lon="-13.561433">
        <ele>7.395</ele>
        <time>2025-01-29T15:23:10.767Z</time>
      </trkpt>
      <trkpt lat="28.957913" lon="-13.561941">
        <ele>3.613</ele>
        <time>2025-01-29T15:23:56.756Z</time>
      </trkpt>
      <trkpt lat="28.958055" lon="-13.562121">
        <ele>3.993</ele>
        <time>2025-01-29T15:24:17.745Z</time>
      </trkpt>
    </trkseg>
  </trk></gpx>