<?xml version="1.0" encoding="UTF-8"?>
<gpx creator="Wikiloc - https://www.wikiloc.com" version="1.1" xmlns="http://www.topografix.com/GPX/1/1" xmlns:xsi="http://www.w3.org/2001/XMLSchema-instance" xsi:schemaLocation="http://www.topografix.com/GPX/1/1 http://www.topografix.com/GPX/1/1/gpx.xsd">
  <metadata>
    <name>Wikiloc - GRAN CANARIA: CIRCULAR MONTAÑA ARTENARA- CUEVAS DEL CABALLER...</name>
    <link href="https://www.wikiloc.com/hiking-trails/gran-canaria-circular-montana-artenara-cuevas-del-caballero-5-de-diciembre-de-2021-90817671">
      <text>GRAN CANARIA: CIRCULAR MONTAÑA ARTENARA- CUEVAS DEL CABALLER... on Wikiloc</text>
    </link>
    <time>2021-12-05T17:29:17Z</time>
  </metadata>
  <trk>
    <name>GRAN CANARIA: CIRCULAR MONTAÑA ARTENARA- CUEVAS DEL CABALLER... - Wikiloc</name>
    <cmt></cmt>
    <desc></desc>
    <trkseg>
      <trkpt lat="28.020184" lon="-15.646706">
        <ele>1232.772</ele>
        <time>2021-12-05T10:34:54Z</time>
      </trkpt>
      <trkpt lat="28.020192" lon="-15.646340">
        <ele>1236.113</ele>
        <time>2021-12-05T10:35:44Z</time>
      </trkpt>
      <trkpt lat="28.019792" lon="-15.646410">
        <ele>1241.414</ele>
        <time>2021-12-05T10:36:57Z</time>
      </trkpt>
      <trkpt lat="28.019714" lon="-15.646239">
        <ele>1244.608</ele>
        <time>2021-12-05T10:37:35Z</time>
      </trkpt>
      <trkpt lat="28.019848" lon="-15.646046">
        <ele>1248.936</ele>
        <time>2021-12-05T10:38:07Z</time>
      </trkpt>
      <trkpt lat="28.020483" lon="-15.645846">
        <ele>1257.917</ele>
        <time>2021-12-05T10:40:36Z</time>
      </trkpt>
      <trkpt lat="28.021084" lon="-15.645433">
        <ele>1272.545</ele>
        <time>2021-12-05T10:43:31Z</time>
      </trkpt>
      <trkpt lat="28.021326" lon="-15.645417">
        <ele>1279.438</ele>
        <time>2021-12-05T10:44:19Z</time>
      </trkpt>
      <trkpt lat="28.021730" lon="-15.645661">
        <ele>1288.744</ele>
        <time>2021-12-05T10:51:59Z</time>
      </trkpt>
      <trkpt lat="28.021462" lon="-15.644915">
        <ele>1299.293</ele>
        <time>2021-12-05T10:56:30Z</time>
      </trkpt>
      <trkpt lat="28.020907" lon="-15.644238">
        <ele>1308.294</ele>
        <time>2021-12-05T10:59:09Z</time>
      </trkpt>
      <trkpt lat="28.019722" lon="-15.643383">
        <ele>1316.338</ele>
        <time>2021-12-05T11:05:49Z</time>
      </trkpt>
      <trkpt lat="28.019367" lon="-15.642458">
        <ele>1314.389</ele>
        <time>2021-12-05T11:07:40Z</time>
      </trkpt>
      <trkpt lat="28.019396" lon="-15.642186">
        <ele>1311.806</ele>
        <time>2021-12-05T11:09:25Z</time>
      </trkpt>
      <trkpt lat="28.019694" lon="-15.641888">
        <ele>1318.226</ele>
        <time>2021-12-05T11:12:53Z</time>
      </trkpt>
      <trkpt lat="28.019820" lon="-15.641445">
        <ele>1324.008</ele>
        <time>2021-12-05T11:16:48Z</time>
      </trkpt>
      <trkpt lat="28.020432" lon="-15.641960">
        <ele>1314.697</ele>
        <time>2021-12-05T11:19:27Z</time>
      </trkpt>
      <trkpt lat="28.020627" lon="-15.642248">
        <ele>1311.598</ele>
        <time>2021-12-05T11:20:34Z</time>
      </trkpt>
      <trkpt lat="28.020525" lon="-15.642303">
        <ele>1321.156</ele>
        <time>2021-12-05T11:46:07Z</time>
      </trkpt>
      <trkpt lat="28.020637" lon="-15.642226">
        <ele>1321.769</ele>
        <time>2021-12-05T11:46:56Z</time>
      </trkpt>
      <trkpt lat="28.020405" lon="-15.641914">
        <ele>1324.145</ele>
        <time>2021-12-05T11:49:12Z</time>
      </trkpt>
      <trkpt lat="28.020235" lon="-15.641865">
        <ele>1321.914</ele>
        <time>2021-12-05T11:49:32Z</time>
      </trkpt>
      <trkpt lat="28.020092" lon="-15.641588">
        <ele>1327.395</ele>
        <time>2021-12-05T11:50:28Z</time>
      </trkpt>
      <trkpt lat="28.019759" lon="-15.641354">
        <ele>1336.439</ele>
        <time>2021-12-05T11:52:55Z</time>
      </trkpt>
      <trkpt lat="28.019748" lon="-15.641136">
        <ele>1342.071</ele>
        <time>2021-12-05T11:53:52Z</time>
      </trkpt>
      <trkpt lat="28.019961" lon="-15.641036">
        <ele>1345.941</ele>
        <time>2021-12-05T11:54:44Z</time>
      </trkpt>
      <trkpt lat="28.020055" lon="-15.640761">
        <ele>1346.915</ele>
        <time>2021-12-05T11:57:08Z</time>
      </trkpt>
      <trkpt lat="28.019925" lon="-15.640442">
        <ele>1357.408</ele>
        <time>2021-12-05T11:59:11Z</time>
      </trkpt>
      <trkpt lat="28.019765" lon="-15.640488">
        <ele>1360.696</ele>
        <time>2021-12-05T12:00:14Z</time>
      </trkpt>
      <trkpt lat="28.019826" lon="-15.640249">
        <ele>1363.327</ele>
        <time>2021-12-05T12:01:51Z</time>
      </trkpt>
      <trkpt lat="28.019590" lon="-15.639862">
        <ele>1373.695</ele>
        <time>2021-12-05T12:03:27Z</time>
      </trkpt>
      <trkpt lat="28.020077" lon="-15.639297">
        <ele>1384.998</ele>
        <time>2021-12-05T12:06:06Z</time>
      </trkpt>
      <trkpt lat="28.020131" lon="-15.638847">
        <ele>1393.264</ele>
        <time>2021-12-05T12:07:24Z</time>
      </trkpt>
      <trkpt lat="28.019978" lon="-15.638467">
        <ele>1394.083</ele>
        <time>2021-12-05T12:08:39Z</time>
      </trkpt>
      <trkpt lat="28.020118" lon="-15.638242">
        <ele>1395.354</ele>
        <time>2021-12-05T12:09:45Z</time>
      </trkpt>
      <trkpt lat="28.020074" lon="-15.637984">
        <ele>1398.948</ele>
        <time>2021-12-05T12:10:51Z</time>
      </trkpt>
      <trkpt lat="28.020247" lon="-15.637737">
        <ele>1402.085</ele>
        <time>2021-12-05T12:11:30Z</time>
      </trkpt>
      <trkpt lat="28.020185" lon="-15.637532">
        <ele>1409.889</ele>
        <time>2021-12-05T12:17:28Z</time>
      </trkpt>
      <trkpt lat="28.020408" lon="-15.636961">
        <ele>1417.317</ele>
        <time>2021-12-05T12:18:55Z</time>
      </trkpt>
      <trkpt lat="28.020409" lon="-15.636516">
        <ele>1422.508</ele>
        <time>2021-12-05T12:19:52Z</time>
      </trkpt>
      <trkpt lat="28.019278" lon="-15.635356">
        <ele>1430.977</ele>
        <time>2021-12-05T12:24:18Z</time>
      </trkpt>
      <trkpt lat="28.019164" lon="-15.635468">
        <ele>1434.478</ele>
        <time>2021-12-05T12:25:06Z</time>
      </trkpt>
      <trkpt lat="28.019099" lon="-15.635386">
        <ele>1434.266</ele>
        <time>2021-12-05T12:25:27Z</time>
      </trkpt>
      <trkpt lat="28.018623" lon="-15.635397">
        <ele>1434.689</ele>
        <time>2021-12-05T12:26:31Z</time>
      </trkpt>
      <trkpt lat="28.018312" lon="-15.635648">
        <ele>1443.245</ele>
        <time>2021-12-05T12:28:01Z</time>
      </trkpt>
      <trkpt lat="28.018501" lon="-15.635830">
        <ele>1441.634</ele>
        <time>2021-12-05T12:30:28Z</time>
      </trkpt>
      <trkpt lat="28.019265" lon="-15.636044">
        <ele>1444.895</ele>
        <time>2021-12-05T12:32:42Z</time>
      </trkpt>
      <trkpt lat="28.019751" lon="-15.636585">
        <ele>1447.499</ele>
        <time>2021-12-05T12:34:35Z</time>
      </trkpt>
      <trkpt lat="28.019744" lon="-15.636813">
        <ele>1451.475</ele>
        <time>2021-12-05T12:35:15Z</time>
      </trkpt>
      <trkpt lat="28.019195" lon="-15.637222">
        <ele>1460.228</ele>
        <time>2021-12-05T12:37:36Z</time>
      </trkpt>
      <trkpt lat="28.018871" lon="-15.637036">
        <ele>1464.820</ele>
        <time>2021-12-05T12:39:23Z</time>
      </trkpt>
      <trkpt lat="28.018372" lon="-15.636995">
        <ele>1469.008</ele>
        <time>2021-12-05T12:41:02Z</time>
      </trkpt>
      <trkpt lat="28.017793" lon="-15.637114">
        <ele>1477.836</ele>
        <time>2021-12-05T12:42:13Z</time>
      </trkpt>
      <trkpt lat="28.017609" lon="-15.637274">
        <ele>1478.667</ele>
        <time>2021-12-05T12:43:01Z</time>
      </trkpt>
      <trkpt lat="28.018102" lon="-15.637630">
        <ele>1485.295</ele>
        <time>2021-12-05T12:49:36Z</time>
      </trkpt>
      <trkpt lat="28.018374" lon="-15.637621">
        <ele>1484.558</ele>
        <time>2021-12-05T12:50:09Z</time>
      </trkpt>
      <trkpt lat="28.018460" lon="-15.637521">
        <ele>1485.164</ele>
        <time>2021-12-05T12:50:31Z</time>
      </trkpt>
      <trkpt lat="28.018736" lon="-15.637691">
        <ele>1486.163</ele>
        <time>2021-12-05T12:51:36Z</time>
      </trkpt>
      <trkpt lat="28.018756" lon="-15.637802">
        <ele>1484.674</ele>
        <time>2021-12-05T12:54:07Z</time>
      </trkpt>
      <trkpt lat="28.018404" lon="-15.637340">
        <ele>1488.278</ele>
        <time>2021-12-05T13:07:44Z</time>
      </trkpt>
      <trkpt lat="28.018369" lon="-15.637640">
        <ele>1487.255</ele>
        <time>2021-12-05T13:10:09Z</time>
      </trkpt>
      <trkpt lat="28.018050" lon="-15.637633">
        <ele>1486.907</ele>
        <time>2021-12-05T13:10:47Z</time>
      </trkpt>
      <trkpt lat="28.017709" lon="-15.637458">
        <ele>1483.217</ele>
        <time>2021-12-05T13:11:25Z</time>
      </trkpt>
      <trkpt lat="28.017357" lon="-15.636663">
        <ele>1472.108</ele>
        <time>2021-12-05T13:17:05Z</time>
      </trkpt>
      <trkpt lat="28.017499" lon="-15.636891">
        <ele>1473.144</ele>
        <time>2021-12-05T13:18:16Z</time>
      </trkpt>
      <trkpt lat="28.017388" lon="-15.636395">
        <ele>1466.645</ele>
        <time>2021-12-05T13:20:23Z</time>
      </trkpt>
      <trkpt lat="28.017536" lon="-15.636541">
        <ele>1465.493</ele>
        <time>2021-12-05T13:21:26Z</time>
      </trkpt>
      <trkpt lat="28.017820" lon="-15.635809">
        <ele>1459.146</ele>
        <time>2021-12-05T13:23:34Z</time>
      </trkpt>
      <trkpt lat="28.017621" lon="-15.635039">
        <ele>1461.812</ele>
        <time>2021-12-05T13:26:24Z</time>
      </trkpt>
      <trkpt lat="28.017586" lon="-15.634644">
        <ele>1467.191</ele>
        <time>2021-12-05T13:27:18Z</time>
      </trkpt>
      <trkpt lat="28.017690" lon="-15.634347">
        <ele>1471.872</ele>
        <time>2021-12-05T13:28:15Z</time>
      </trkpt>
      <trkpt lat="28.017576" lon="-15.633836">
        <ele>1473.096</ele>
        <time>2021-12-05T13:29:58Z</time>
      </trkpt>
      <trkpt lat="28.017603" lon="-15.633390">
        <ele>1475.948</ele>
        <time>2021-12-05T13:44:55Z</time>
      </trkpt>
      <trkpt lat="28.017403" lon="-15.632914">
        <ele>1481.661</ele>
        <time>2021-12-05T13:46:19Z</time>
      </trkpt>
      <trkpt lat="28.017608" lon="-15.631059">
        <ele>1507.717</ele>
        <time>2021-12-05T13:54:08Z</time>
      </trkpt>
      <trkpt lat="28.017459" lon="-15.630501">
        <ele>1519.408</ele>
        <time>2021-12-05T13:56:12Z</time>
      </trkpt>
      <trkpt lat="28.017507" lon="-15.630074">
        <ele>1529.623</ele>
        <time>2021-12-05T13:57:35Z</time>
      </trkpt>
      <trkpt lat="28.017676" lon="-15.629372">
        <ele>1525.984</ele>
        <time>2021-12-05T14:02:01Z</time>
      </trkpt>
      <trkpt lat="28.017729" lon="-15.629258">
        <ele>1525.542</ele>
        <time>2021-12-05T14:02:19Z</time>
      </trkpt>
      <trkpt lat="28.017827" lon="-15.629290">
        <ele>1525.645</ele>
        <time>2021-12-05T14:04:05Z</time>
      </trkpt>
      <trkpt lat="28.017844" lon="-15.628646">
        <ele>1526.161</ele>
        <time>2021-12-05T14:05:19Z</time>
      </trkpt>
      <trkpt lat="28.018060" lon="-15.627675">
        <ele>1518.440</ele>
        <time>2021-12-05T14:07:14Z</time>
      </trkpt>
      <trkpt lat="28.017969" lon="-15.627407">
        <ele>1522.011</ele>
        <time>2021-12-05T14:10:17Z</time>
      </trkpt>
      <trkpt lat="28.018158" lon="-15.627241">
        <ele>1527.425</ele>
        <time>2021-12-05T14:11:22Z</time>
      </trkpt>
      <trkpt lat="28.018048" lon="-15.626547">
        <ele>1544.746</ele>
        <time>2021-12-05T14:14:19Z</time>
      </trkpt>
      <trkpt lat="28.018109" lon="-15.625439">
        <ele>1548.788</ele>
        <time>2021-12-05T14:17:45Z</time>
      </trkpt>
      <trkpt lat="28.018008" lon="-15.625116">
        <ele>1555.716</ele>
        <time>2021-12-05T14:18:35Z</time>
      </trkpt>
      <trkpt lat="28.018371" lon="-15.624937">
        <ele>1557.208</ele>
        <time>2021-12-05T14:19:33Z</time>
      </trkpt>
      <trkpt lat="28.018619" lon="-15.625205">
        <ele>1563.753</ele>
        <time>2021-12-05T14:20:47Z</time>
      </trkpt>
      <trkpt lat="28.018747" lon="-15.625036">
        <ele>1569.294</ele>
        <time>2021-12-05T14:21:47Z</time>
      </trkpt>
      <trkpt lat="28.018961" lon="-15.625348">
        <ele>1580.712</ele>
        <time>2021-12-05T14:22:56Z</time>
      </trkpt>
      <trkpt lat="28.019065" lon="-15.624985">
        <ele>1583.745</ele>
        <time>2021-12-05T14:24:00Z</time>
      </trkpt>
      <trkpt lat="28.019210" lon="-15.625091">
        <ele>1589.051</ele>
        <time>2021-12-05T14:24:55Z</time>
      </trkpt>
      <trkpt lat="28.019290" lon="-15.624747">
        <ele>1594.640</ele>
        <time>2021-12-05T14:25:43Z</time>
      </trkpt>
      <trkpt lat="28.019462" lon="-15.624956">
        <ele>1601.081</ele>
        <time>2021-12-05T14:26:59Z</time>
      </trkpt>
      <trkpt lat="28.019775" lon="-15.624624">
        <ele>1605.925</ele>
        <time>2021-12-05T14:31:13Z</time>
      </trkpt>
      <trkpt lat="28.018859" lon="-15.622726">
        <ele>1627.976</ele>
        <time>2021-12-05T14:36:12Z</time>
      </trkpt>
      <trkpt lat="28.018172" lon="-15.621992">
        <ele>1638.590</ele>
        <time>2021-12-05T14:38:57Z</time>
      </trkpt>
      <trkpt lat="28.017368" lon="-15.620764">
        <ele>1631.719</ele>
        <time>2021-12-05T14:41:41Z</time>
      </trkpt>
      <trkpt lat="28.017112" lon="-15.620148">
        <ele>1629.808</ele>
        <time>2021-12-05T14:43:26Z</time>
      </trkpt>
      <trkpt lat="28.016908" lon="-15.620249">
        <ele>1633.886</ele>
        <time>2021-12-05T14:46:17Z</time>
      </trkpt>
      <trkpt lat="28.016968" lon="-15.620414">
        <ele>1628.697</ele>
        <time>2021-12-05T14:49:16Z</time>
      </trkpt>
      <trkpt lat="28.016798" lon="-15.620493">
        <ele>1626.895</ele>
        <time>2021-12-05T14:50:26Z</time>
      </trkpt>
      <trkpt lat="28.016823" lon="-15.620587">
        <ele>1629.258</ele>
        <time>2021-12-05T14:52:06Z</time>
      </trkpt>
      <trkpt lat="28.016961" lon="-15.620641">
        <ele>1628.434</ele>
        <time>2021-12-05T14:54:12Z</time>
      </trkpt>
      <trkpt lat="28.016889" lon="-15.620592">
        <ele>1629.743</ele>
        <time>2021-12-05T14:54:38Z</time>
      </trkpt>
      <trkpt lat="28.016981" lon="-15.620460">
        <ele>1628.724</ele>
        <time>2021-12-05T14:57:38Z</time>
      </trkpt>
      <trkpt lat="28.016835" lon="-15.620518">
        <ele>1632.198</ele>
        <time>2021-12-05T14:59:37Z</time>
      </trkpt>
      <trkpt lat="28.016859" lon="-15.620286">
        <ele>1638.742</ele>
        <time>2021-12-05T15:01:09Z</time>
      </trkpt>
      <trkpt lat="28.016751" lon="-15.620193">
        <ele>1631.322</ele>
        <time>2021-12-05T15:03:06Z</time>
      </trkpt>
      <trkpt lat="28.016816" lon="-15.620060">
        <ele>1634.914</ele>
        <time>2021-12-05T15:05:32Z</time>
      </trkpt>
      <trkpt lat="28.016767" lon="-15.620236">
        <ele>1630.408</ele>
        <time>2021-12-05T15:06:49Z</time>
      </trkpt>
      <trkpt lat="28.016921" lon="-15.620335">
        <ele>1638.833</ele>
        <time>2021-12-05T15:07:35Z</time>
      </trkpt>
      <trkpt lat="28.017045" lon="-15.620021">
        <ele>1638.194</ele>
        <time>2021-12-05T15:08:42Z</time>
      </trkpt>
      <trkpt lat="28.016975" lon="-15.619681">
        <ele>1638.882</ele>
        <time>2021-12-05T15:09:47Z</time>
      </trkpt>
      <trkpt lat="28.016820" lon="-15.619822">
        <ele>1637.745</ele>
        <time>2021-12-05T15:10:37Z</time>
      </trkpt>
      <trkpt lat="28.016834" lon="-15.619973">
        <ele>1638.261</ele>
        <time>2021-12-05T15:11:04Z</time>
      </trkpt>
      <trkpt lat="28.016850" lon="-15.619779">
        <ele>1640.060</ele>
        <time>2021-12-05T15:11:40Z</time>
      </trkpt>
      <trkpt lat="28.016961" lon="-15.619703">
        <ele>1637.431</ele>
        <time>2021-12-05T15:14:55Z</time>
      </trkpt>
      <trkpt lat="28.017159" lon="-15.620516">
        <ele>1634.155</ele>
        <time>2021-12-05T15:17:26Z</time>
      </trkpt>
      <trkpt lat="28.017462" lon="-15.621154">
        <ele>1637.711</ele>
        <time>2021-12-05T15:19:32Z</time>
      </trkpt>
      <trkpt lat="28.018876" lon="-15.622858">
        <ele>1626.921</ele>
        <time>2021-12-05T15:23:02Z</time>
      </trkpt>
      <trkpt lat="28.019705" lon="-15.624678">
        <ele>1606.903</ele>
        <time>2021-12-05T15:26:05Z</time>
      </trkpt>
      <trkpt lat="28.019395" lon="-15.624949">
        <ele>1596.408</ele>
        <time>2021-12-05T15:27:17Z</time>
      </trkpt>
      <trkpt lat="28.019365" lon="-15.624736">
        <ele>1593.890</ele>
        <time>2021-12-05T15:27:42Z</time>
      </trkpt>
      <trkpt lat="28.019280" lon="-15.624800">
        <ele>1591.931</ele>
        <time>2021-12-05T15:28:02Z</time>
      </trkpt>
      <trkpt lat="28.019130" lon="-15.625168">
        <ele>1585.769</ele>
        <time>2021-12-05T15:29:40Z</time>
      </trkpt>
      <trkpt lat="28.018995" lon="-15.624978">
        <ele>1582.342</ele>
        <time>2021-12-05T15:30:19Z</time>
      </trkpt>
      <trkpt lat="28.018951" lon="-15.625350">
        <ele>1576.328</ele>
        <time>2021-12-05T15:31:15Z</time>
      </trkpt>
      <trkpt lat="28.018743" lon="-15.625083">
        <ele>1572.317</ele>
        <time>2021-12-05T15:32:16Z</time>
      </trkpt>
      <trkpt lat="28.018641" lon="-15.625230">
        <ele>1564.288</ele>
        <time>2021-12-05T15:32:59Z</time>
      </trkpt>
      <trkpt lat="28.018421" lon="-15.624920">
        <ele>1557.792</ele>
        <time>2021-12-05T15:33:55Z</time>
      </trkpt>
      <trkpt lat="28.018062" lon="-15.625096">
        <ele>1554.889</ele>
        <time>2021-12-05T15:34:46Z</time>
      </trkpt>
      <trkpt lat="28.018039" lon="-15.626651">
        <ele>1539.506</ele>
        <time>2021-12-05T15:38:50Z</time>
      </trkpt>
      <trkpt lat="28.018143" lon="-15.627251">
        <ele>1528.226</ele>
        <time>2021-12-05T15:40:43Z</time>
      </trkpt>
      <trkpt lat="28.018014" lon="-15.627368">
        <ele>1520.608</ele>
        <time>2021-12-05T15:41:28Z</time>
      </trkpt>
      <trkpt lat="28.018050" lon="-15.627626">
        <ele>1514.987</ele>
        <time>2021-12-05T15:42:18Z</time>
      </trkpt>
      <trkpt lat="28.017789" lon="-15.628948">
        <ele>1521.158</ele>
        <time>2021-12-05T15:45:44Z</time>
      </trkpt>
      <trkpt lat="28.017766" lon="-15.629885">
        <ele>1525.136</ele>
        <time>2021-12-05T15:47:33Z</time>
      </trkpt>
      <trkpt lat="28.017462" lon="-15.630378">
        <ele>1514.769</ele>
        <time>2021-12-05T15:48:43Z</time>
      </trkpt>
      <trkpt lat="28.017643" lon="-15.631422">
        <ele>1495.025</ele>
        <time>2021-12-05T15:52:11Z</time>
      </trkpt>
      <trkpt lat="28.017477" lon="-15.631721">
        <ele>1489.174</ele>
        <time>2021-12-05T15:53:06Z</time>
      </trkpt>
      <trkpt lat="28.017401" lon="-15.632599">
        <ele>1477.915</ele>
        <time>2021-12-05T15:54:57Z</time>
      </trkpt>
      <trkpt lat="28.017705" lon="-15.634299">
        <ele>1469.939</ele>
        <time>2021-12-05T15:58:41Z</time>
      </trkpt>
      <trkpt lat="28.017656" lon="-15.635268">
        <ele>1452.229</ele>
        <time>2021-12-05T16:00:30Z</time>
      </trkpt>
      <trkpt lat="28.017824" lon="-15.635838">
        <ele>1451.100</ele>
        <time>2021-12-05T16:01:27Z</time>
      </trkpt>
      <trkpt lat="28.017519" lon="-15.636658">
        <ele>1463.620</ele>
        <time>2021-12-05T16:18:18Z</time>
      </trkpt>
      <trkpt lat="28.017485" lon="-15.637412">
        <ele>1467.908</ele>
        <time>2021-12-05T16:20:13Z</time>
      </trkpt>
      <trkpt lat="28.017259" lon="-15.637850">
        <ele>1460.891</ele>
        <time>2021-12-05T16:21:19Z</time>
      </trkpt>
      <trkpt lat="28.017349" lon="-15.638226">
        <ele>1455.442</ele>
        <time>2021-12-05T16:22:35Z</time>
      </trkpt>
      <trkpt lat="28.017584" lon="-15.638409">
        <ele>1451.670</ele>
        <time>2021-12-05T16:24:04Z</time>
      </trkpt>
      <trkpt lat="28.017519" lon="-15.638494">
        <ele>1445.783</ele>
        <time>2021-12-05T16:24:36Z</time>
      </trkpt>
      <trkpt lat="28.017945" lon="-15.638711">
        <ele>1436.169</ele>
        <time>2021-12-05T16:26:01Z</time>
      </trkpt>
      <trkpt lat="28.017791" lon="-15.638772">
        <ele>1432.428</ele>
        <time>2021-12-05T16:26:35Z</time>
      </trkpt>
      <trkpt lat="28.018720" lon="-15.639430">
        <ele>1411.139</ele>
        <time>2021-12-05T16:30:05Z</time>
      </trkpt>
      <trkpt lat="28.018941" lon="-15.639745">
        <ele>1397.873</ele>
        <time>2021-12-05T16:31:42Z</time>
      </trkpt>
      <trkpt lat="28.019244" lon="-15.639821">
        <ele>1390.736</ele>
        <time>2021-12-05T16:32:47Z</time>
      </trkpt>
      <trkpt lat="28.019156" lon="-15.640063">
        <ele>1381.017</ele>
        <time>2021-12-05T16:33:56Z</time>
      </trkpt>
      <trkpt lat="28.019009" lon="-15.640143">
        <ele>1375.518</ele>
        <time>2021-12-05T16:34:33Z</time>
      </trkpt>
      <trkpt lat="28.018970" lon="-15.640383">
        <ele>1368.208</ele>
        <time>2021-12-05T16:35:37Z</time>
      </trkpt>
      <trkpt lat="28.018957" lon="-15.640786">
        <ele>1362.142</ele>
        <time>2021-12-05T16:37:05Z</time>
      </trkpt>
      <trkpt lat="28.019153" lon="-15.641425">
        <ele>1351.753</ele>
        <time>2021-12-05T16:38:55Z</time>
      </trkpt>
      <trkpt lat="28.019359" lon="-15.641459">
        <ele>1346.861</ele>
        <time>2021-12-05T16:39:31Z</time>
      </trkpt>
      <trkpt lat="28.019346" lon="-15.641584">
        <ele>1342.674</ele>
        <time>2021-12-05T16:40:02Z</time>
      </trkpt>
      <trkpt lat="28.019684" lon="-15.641091">
        <ele>1336.020</ele>
        <time>2021-12-05T16:41:23Z</time>
      </trkpt>
      <trkpt lat="28.019773" lon="-15.641169">
        <ele>1333.939</ele>
        <time>2021-12-05T16:41:53Z</time>
      </trkpt>
      <trkpt lat="28.019748" lon="-15.641336">
        <ele>1330.910</ele>
        <time>2021-12-05T16:42:26Z</time>
      </trkpt>
      <trkpt lat="28.019896" lon="-15.641415">
        <ele>1327.414</ele>
        <time>2021-12-05T16:43:17Z</time>
      </trkpt>
      <trkpt lat="28.019781" lon="-15.641504">
        <ele>1324.556</ele>
        <time>2021-12-05T16:43:46Z</time>
      </trkpt>
      <trkpt lat="28.019613" lon="-15.642033">
        <ele>1317.159</ele>
        <time>2021-12-05T16:44:54Z</time>
      </trkpt>
      <trkpt lat="28.019284" lon="-15.642240">
        <ele>1316.014</ele>
        <time>2021-12-05T16:46:11Z</time>
      </trkpt>
      <trkpt lat="28.019136" lon="-15.642555">
        <ele>1321.908</ele>
        <time>2021-12-05T16:48:05Z</time>
      </trkpt>
      <trkpt lat="28.018878" lon="-15.642675">
        <ele>1305.014</ele>
        <time>2021-12-05T16:51:27Z</time>
      </trkpt>
      <trkpt lat="28.018856" lon="-15.642885">
        <ele>1297.165</ele>
        <time>2021-12-05T16:53:04Z</time>
      </trkpt>
      <trkpt lat="28.018723" lon="-15.642761">
        <ele>1294.053</ele>
        <time>2021-12-05T16:53:41Z</time>
      </trkpt>
      <trkpt lat="28.018653" lon="-15.642891">
        <ele>1284.826</ele>
        <time>2021-12-05T16:55:22Z</time>
      </trkpt>
      <trkpt lat="28.018552" lon="-15.642660">
        <ele>1282.882</ele>
        <time>2021-12-05T17:07:55Z</time>
      </trkpt>
      <trkpt lat="28.018692" lon="-15.643106">
        <ele>1277.451</ele>
        <time>2021-12-05T17:15:55Z</time>
      </trkpt>
      <trkpt lat="28.018731" lon="-15.643820">
        <ele>1281.082</ele>
        <time>2021-12-05T17:18:52Z</time>
      </trkpt>
      <trkpt lat="28.018958" lon="-15.644296">
        <ele>1276.746</ele>
        <time>2021-12-05T17:19:58Z</time>
      </trkpt>
      <trkpt lat="28.019415" lon="-15.644661">
        <ele>1269.192</ele>
        <time>2021-12-05T17:21:56Z</time>
      </trkpt>
      <trkpt lat="28.019539" lon="-15.645615">
        <ele>1261.673</ele>
        <time>2021-12-05T17:24:14Z</time>
      </trkpt>
      <trkpt lat="28.019784" lon="-15.646069">
        <ele>1252.420</ele>
        <time>2021-12-05T17:25:34Z</time>
      </trkpt>
      <trkpt lat="28.019734" lon="-15.646253">
        <ele>1247.408</ele>
        <time>2021-12-05T17:26:30Z</time>
      </trkpt>
      <trkpt lat="28.019822" lon="-15.646326">
        <ele>1245.148</ele>
        <time>2021-12-05T17:26:52Z</time>
      </trkpt>
      <trkpt lat="28.020110" lon="-15.646222">
        <ele>1242.929</ele>
        <time>2021-12-05T17:27:36Z</time>
      </trkpt>
      <trkpt lat="28.020203" lon="-15.646279">
        <ele>1241.097</ele>
        <time>2021-12-05T17:27:56Z</time>
      </trkpt>
      <trkpt lat="28.020221" lon="-15.646397">
        <ele>1239.080</ele>
        <time>2021-12-05T17:28:19Z</time>
      </trkpt>
      <trkpt lat="28.020047" lon="-15.646560">
        <ele>1238.326</ele>
        <time>2021-12-05T17:29:17Z</time>
      </trkpt>
    </trkseg>
  </trk></gpx>