<?xml version="1.0" encoding="UTF-8"?>
<gpx creator="Wikiloc - https://www.wikiloc.com" version="1.1" xmlns="http://www.topografix.com/GPX/1/1" xmlns:xsi="http://www.w3.org/2001/XMLSchema-instance" xsi:schemaLocation="http://www.topografix.com/GPX/1/1 http://www.topografix.com/GPX/1/1/gpx.xsd">
  <metadata>
    <name>Wikiloc - Ruta por reserva de Inagua hasta los azulejos</name>
    <link href="https://www.wikiloc.com/hiking-trails/ruta-por-reserva-de-inagua-hasta-los-azulejos-204945051">
      <text>Ruta por reserva de Inagua hasta los azulejos - Wikiloc on Wikiloc</text>
    </link>
    <time>2025-03-15T16:13:02Z</time>
  </metadata>
  <trk>
    <name>Ruta por reserva de Inagua hasta los azulejos - Wikiloc</name>
    <cmt></cmt>
    <desc></desc>
    <trkseg>
      <trkpt lat="27.955505" lon="-15.649255">
        <ele>1134.221</ele>
        <time>2025-03-15T09:28:31.500Z</time>
      </trkpt>
      <trkpt lat="27.955444" lon="-15.649091">
        <ele>1134.241</ele>
        <time>2025-03-15T09:28:33Z</time>
      </trkpt>
      <trkpt lat="27.955524" lon="-15.649194">
        <ele>1165.005</ele>
        <time>2025-03-15T09:38:19Z</time>
      </trkpt>
      <trkpt lat="27.955369" lon="-15.649234">
        <ele>1170.009</ele>
        <time>2025-03-15T09:38:42Z</time>
      </trkpt>
      <trkpt lat="27.954828" lon="-15.650354">
        <ele>1161.034</ele>
        <time>2025-03-15T09:40:30Z</time>
      </trkpt>
      <trkpt lat="27.954998" lon="-15.649551">
        <ele>1158.052</ele>
        <time>2025-03-15T09:41:38Z</time>
      </trkpt>
      <trkpt lat="27.954817" lon="-15.649410">
        <ele>1159.086</ele>
        <time>2025-03-15T09:41:53Z</time>
      </trkpt>
      <trkpt lat="27.954659" lon="-15.649581">
        <ele>1153.041</ele>
        <time>2025-03-15T09:42:18Z</time>
      </trkpt>
      <trkpt lat="27.954638" lon="-15.649366">
        <ele>1144.046</ele>
        <time>2025-03-15T09:42:38Z</time>
      </trkpt>
      <trkpt lat="27.954829" lon="-15.648244">
        <ele>1131.067</ele>
        <time>2025-03-15T09:44:02Z</time>
      </trkpt>
      <trkpt lat="27.954674" lon="-15.648018">
        <ele>1138.062</ele>
        <time>2025-03-15T09:44:23Z</time>
      </trkpt>
      <trkpt lat="27.954488" lon="-15.647983">
        <ele>1139.017</ele>
        <time>2025-03-15T09:44:39Z</time>
      </trkpt>
      <trkpt lat="27.954103" lon="-15.648487">
        <ele>1148.043</ele>
        <time>2025-03-15T09:45:35Z</time>
      </trkpt>
      <trkpt lat="27.953382" lon="-15.648763">
        <ele>1154.084</ele>
        <time>2025-03-15T09:46:51Z</time>
      </trkpt>
      <trkpt lat="27.953049" lon="-15.649216">
        <ele>1162.007</ele>
        <time>2025-03-15T09:47:43Z</time>
      </trkpt>
      <trkpt lat="27.952397" lon="-15.649546">
        <ele>1171.017</ele>
        <time>2025-03-15T09:48:53Z</time>
      </trkpt>
      <trkpt lat="27.952373" lon="-15.649809">
        <ele>1175.009</ele>
        <time>2025-03-15T09:49:13Z</time>
      </trkpt>
      <trkpt lat="27.952044" lon="-15.649901">
        <ele>1175.010</ele>
        <time>2025-03-15T09:49:45Z</time>
      </trkpt>
      <trkpt lat="27.951685" lon="-15.650746">
        <ele>1186.038</ele>
        <time>2025-03-15T09:51:00Z</time>
      </trkpt>
      <trkpt lat="27.951716" lon="-15.651320">
        <ele>1182.052</ele>
        <time>2025-03-15T09:51:42Z</time>
      </trkpt>
      <trkpt lat="27.951554" lon="-15.651966">
        <ele>1185.027</ele>
        <time>2025-03-15T09:52:32Z</time>
      </trkpt>
      <trkpt lat="27.951195" lon="-15.651509">
        <ele>1186.062</ele>
        <time>2025-03-15T09:53:26Z</time>
      </trkpt>
      <trkpt lat="27.950970" lon="-15.651406">
        <ele>1189.063</ele>
        <time>2025-03-15T09:53:45Z</time>
      </trkpt>
      <trkpt lat="27.950552" lon="-15.652192">
        <ele>1179.068</ele>
        <time>2025-03-15T09:54:52Z</time>
      </trkpt>
      <trkpt lat="27.950078" lon="-15.652178">
        <ele>1183.073</ele>
        <time>2025-03-15T09:55:33Z</time>
      </trkpt>
      <trkpt lat="27.949860" lon="-15.652315">
        <ele>1187.029</ele>
        <time>2025-03-15T09:55:52Z</time>
      </trkpt>
      <trkpt lat="27.950195" lon="-15.653006">
        <ele>1189.017</ele>
        <time>2025-03-15T09:56:50Z</time>
      </trkpt>
      <trkpt lat="27.950054" lon="-15.653419">
        <ele>1193.087</ele>
        <time>2025-03-15T09:57:27Z</time>
      </trkpt>
      <trkpt lat="27.950136" lon="-15.653974">
        <ele>1197.015</ele>
        <time>2025-03-15T09:58:11Z</time>
      </trkpt>
      <trkpt lat="27.949663" lon="-15.654403">
        <ele>1205.009</ele>
        <time>2025-03-15T09:59:10Z</time>
      </trkpt>
      <trkpt lat="27.949170" lon="-15.654473">
        <ele>1214.073</ele>
        <time>2025-03-15T09:59:59Z</time>
      </trkpt>
      <trkpt lat="27.949136" lon="-15.654645">
        <ele>1212.091</ele>
        <time>2025-03-15T10:00:18Z</time>
      </trkpt>
      <trkpt lat="27.950609" lon="-15.655964">
        <ele>1224.035</ele>
        <time>2025-03-15T10:03:00Z</time>
      </trkpt>
      <trkpt lat="27.950386" lon="-15.656338">
        <ele>1231.060</ele>
        <time>2025-03-15T10:03:36Z</time>
      </trkpt>
      <trkpt lat="27.950498" lon="-15.656827">
        <ele>1231.055</ele>
        <time>2025-03-15T10:04:14Z</time>
      </trkpt>
      <trkpt lat="27.950310" lon="-15.657271">
        <ele>1234.026</ele>
        <time>2025-03-15T10:04:57Z</time>
      </trkpt>
      <trkpt lat="27.950735" lon="-15.658201">
        <ele>1236.011</ele>
        <time>2025-03-15T10:06:10Z</time>
      </trkpt>
      <trkpt lat="27.950762" lon="-15.658795">
        <ele>1238.086</ele>
        <time>2025-03-15T10:06:57Z</time>
      </trkpt>
      <trkpt lat="27.950555" lon="-15.659118">
        <ele>1238.092</ele>
        <time>2025-03-15T10:08:20Z</time>
      </trkpt>
      <trkpt lat="27.950015" lon="-15.659391">
        <ele>1240.093</ele>
        <time>2025-03-15T10:10:49Z</time>
      </trkpt>
      <trkpt lat="27.949882" lon="-15.659568">
        <ele>1235.065</ele>
        <time>2025-03-15T10:11:06Z</time>
      </trkpt>
      <trkpt lat="27.949787" lon="-15.659823">
        <ele>1234.021</ele>
        <time>2025-03-15T10:11:31Z</time>
      </trkpt>
      <trkpt lat="27.949914" lon="-15.659868">
        <ele>1232.009</ele>
        <time>2025-03-15T10:11:52Z</time>
      </trkpt>
      <trkpt lat="27.950013" lon="-15.660134">
        <ele>1227.031</ele>
        <time>2025-03-15T10:12:41Z</time>
      </trkpt>
      <trkpt lat="27.950081" lon="-15.659988">
        <ele>1227.049</ele>
        <time>2025-03-15T10:13:18Z</time>
      </trkpt>
      <trkpt lat="27.949814" lon="-15.659921">
        <ele>1233.093</ele>
        <time>2025-03-15T10:15:24Z</time>
      </trkpt>
      <trkpt lat="27.949032" lon="-15.660200">
        <ele>1234.078</ele>
        <time>2025-03-15T10:16:31Z</time>
      </trkpt>
      <trkpt lat="27.948511" lon="-15.660574">
        <ele>1236.023</ele>
        <time>2025-03-15T10:17:18Z</time>
      </trkpt>
      <trkpt lat="27.947734" lon="-15.661527">
        <ele>1234.054</ele>
        <time>2025-03-15T10:18:45Z</time>
      </trkpt>
      <trkpt lat="27.947371" lon="-15.661740">
        <ele>1237.079</ele>
        <time>2025-03-15T10:19:17Z</time>
      </trkpt>
      <trkpt lat="27.946939" lon="-15.661667">
        <ele>1242.024</ele>
        <time>2025-03-15T10:19:54Z</time>
      </trkpt>
      <trkpt lat="27.946685" lon="-15.661505">
        <ele>1243.070</ele>
        <time>2025-03-15T10:20:21Z</time>
      </trkpt>
      <trkpt lat="27.946302" lon="-15.661609">
        <ele>1248.086</ele>
        <time>2025-03-15T10:20:56Z</time>
      </trkpt>
      <trkpt lat="27.946170" lon="-15.661799">
        <ele>1243.060</ele>
        <time>2025-03-15T10:21:13Z</time>
      </trkpt>
      <trkpt lat="27.946378" lon="-15.662258">
        <ele>1238.026</ele>
        <time>2025-03-15T10:21:47Z</time>
      </trkpt>
      <trkpt lat="27.946301" lon="-15.662989">
        <ele>1236.009</ele>
        <time>2025-03-15T10:22:41Z</time>
      </trkpt>
      <trkpt lat="27.945882" lon="-15.662780">
        <ele>1234.010</ele>
        <time>2025-03-15T10:23:16Z</time>
      </trkpt>
      <trkpt lat="27.945290" lon="-15.662897">
        <ele>1240.098</ele>
        <time>2025-03-15T10:24:03Z</time>
      </trkpt>
      <trkpt lat="27.944992" lon="-15.663133">
        <ele>1243.012</ele>
        <time>2025-03-15T10:24:34Z</time>
      </trkpt>
      <trkpt lat="27.944612" lon="-15.662984">
        <ele>1243.097</ele>
        <time>2025-03-15T10:25:08Z</time>
      </trkpt>
      <trkpt lat="27.944344" lon="-15.663250">
        <ele>1249.062</ele>
        <time>2025-03-15T10:25:38Z</time>
      </trkpt>
      <trkpt lat="27.943850" lon="-15.663843">
        <ele>1257.033</ele>
        <time>2025-03-15T10:26:46Z</time>
      </trkpt>
      <trkpt lat="27.943800" lon="-15.664103">
        <ele>1259.058</ele>
        <time>2025-03-15T10:27:10Z</time>
      </trkpt>
      <trkpt lat="27.943401" lon="-15.664400">
        <ele>1265.013</ele>
        <time>2025-03-15T10:28:49Z</time>
      </trkpt>
      <trkpt lat="27.943320" lon="-15.665082">
        <ele>1274.019</ele>
        <time>2025-03-15T10:33:36Z</time>
      </trkpt>
      <trkpt lat="27.942876" lon="-15.665601">
        <ele>1275.025</ele>
        <time>2025-03-15T10:34:45Z</time>
      </trkpt>
      <trkpt lat="27.942570" lon="-15.666188">
        <ele>1280.026</ele>
        <time>2025-03-15T10:35:41Z</time>
      </trkpt>
      <trkpt lat="27.942524" lon="-15.666683">
        <ele>1279.008</ele>
        <time>2025-03-15T10:36:17Z</time>
      </trkpt>
      <trkpt lat="27.942804" lon="-15.667019">
        <ele>1281.009</ele>
        <time>2025-03-15T10:37:03Z</time>
      </trkpt>
      <trkpt lat="27.942566" lon="-15.667084">
        <ele>1288.014</ele>
        <time>2025-03-15T10:37:32Z</time>
      </trkpt>
      <trkpt lat="27.942436" lon="-15.667255">
        <ele>1288.042</ele>
        <time>2025-03-15T10:37:46Z</time>
      </trkpt>
      <trkpt lat="27.942291" lon="-15.668485">
        <ele>1288.076</ele>
        <time>2025-03-15T10:39:33Z</time>
      </trkpt>
      <trkpt lat="27.941808" lon="-15.668891">
        <ele>1289.011</ele>
        <time>2025-03-15T10:40:29Z</time>
      </trkpt>
      <trkpt lat="27.941687" lon="-15.669514">
        <ele>1291.046</ele>
        <time>2025-03-15T10:41:20Z</time>
      </trkpt>
      <trkpt lat="27.941314" lon="-15.669971">
        <ele>1291.087</ele>
        <time>2025-03-15T10:42:06Z</time>
      </trkpt>
      <trkpt lat="27.941252" lon="-15.670285">
        <ele>1293.042</ele>
        <time>2025-03-15T10:42:31Z</time>
      </trkpt>
      <trkpt lat="27.940856" lon="-15.670366">
        <ele>1304.097</ele>
        <time>2025-03-15T10:43:20Z</time>
      </trkpt>
      <trkpt lat="27.940404" lon="-15.670766">
        <ele>1304.063</ele>
        <time>2025-03-15T10:44:22Z</time>
      </trkpt>
      <trkpt lat="27.940553" lon="-15.670881">
        <ele>1306.035</ele>
        <time>2025-03-15T10:44:47Z</time>
      </trkpt>
      <trkpt lat="27.940842" lon="-15.670879">
        <ele>1311.086</ele>
        <time>2025-03-15T10:45:22Z</time>
      </trkpt>
      <trkpt lat="27.940364" lon="-15.671388">
        <ele>1325.014</ele>
        <time>2025-03-15T10:47:33Z</time>
      </trkpt>
      <trkpt lat="27.940377" lon="-15.671722">
        <ele>1333.009</ele>
        <time>2025-03-15T10:48:21Z</time>
      </trkpt>
      <trkpt lat="27.940150" lon="-15.671896">
        <ele>1339.065</ele>
        <time>2025-03-15T10:49:33Z</time>
      </trkpt>
      <trkpt lat="27.940336" lon="-15.672120">
        <ele>1348.033</ele>
        <time>2025-03-15T10:50:28Z</time>
      </trkpt>
      <trkpt lat="27.940149" lon="-15.672255">
        <ele>1352.047</ele>
        <time>2025-03-15T10:50:55Z</time>
      </trkpt>
      <trkpt lat="27.939309" lon="-15.671842">
        <ele>1364.062</ele>
        <time>2025-03-15T10:52:38Z</time>
      </trkpt>
      <trkpt lat="27.939253" lon="-15.671912">
        <ele>1362.037</ele>
        <time>2025-03-15T11:04:20Z</time>
      </trkpt>
      <trkpt lat="27.939356" lon="-15.671918">
        <ele>1362.088</ele>
        <time>2025-03-15T11:10:45Z</time>
      </trkpt>
      <trkpt lat="27.939176" lon="-15.672007">
        <ele>1369.033</ele>
        <time>2025-03-15T11:11:49Z</time>
      </trkpt>
      <trkpt lat="27.939453" lon="-15.672205">
        <ele>1370.028</ele>
        <time>2025-03-15T11:12:24Z</time>
      </trkpt>
      <trkpt lat="27.939856" lon="-15.672803">
        <ele>1374.074</ele>
        <time>2025-03-15T11:14:47Z</time>
      </trkpt>
      <trkpt lat="27.940437" lon="-15.673062">
        <ele>1377.099</ele>
        <time>2025-03-15T11:15:48Z</time>
      </trkpt>
      <trkpt lat="27.941028" lon="-15.674055">
        <ele>1384.007</ele>
        <time>2025-03-15T11:17:31Z</time>
      </trkpt>
      <trkpt lat="27.940993" lon="-15.674313">
        <ele>1382.027</ele>
        <time>2025-03-15T11:18:18Z</time>
      </trkpt>
      <trkpt lat="27.941347" lon="-15.675638">
        <ele>1388.009</ele>
        <time>2025-03-15T11:20:23Z</time>
      </trkpt>
      <trkpt lat="27.941565" lon="-15.675959">
        <ele>1386.061</ele>
        <time>2025-03-15T11:20:54Z</time>
      </trkpt>
      <trkpt lat="27.941719" lon="-15.676543">
        <ele>1384.059</ele>
        <time>2025-03-15T11:21:40Z</time>
      </trkpt>
      <trkpt lat="27.941704" lon="-15.677708">
        <ele>1386.033</ele>
        <time>2025-03-15T11:23:22Z</time>
      </trkpt>
      <trkpt lat="27.941474" lon="-15.679092">
        <ele>1386.058</ele>
        <time>2025-03-15T11:25:20Z</time>
      </trkpt>
      <trkpt lat="27.942167" lon="-15.680256">
        <ele>1391.093</ele>
        <time>2025-03-15T11:27:17Z</time>
      </trkpt>
      <trkpt lat="27.942223" lon="-15.680702">
        <ele>1402.084</ele>
        <time>2025-03-15T11:28:02Z</time>
      </trkpt>
      <trkpt lat="27.942591" lon="-15.681347">
        <ele>1404.039</ele>
        <time>2025-03-15T11:29:48Z</time>
      </trkpt>
      <trkpt lat="27.942610" lon="-15.681747">
        <ele>1409.074</ele>
        <time>2025-03-15T11:30:21Z</time>
      </trkpt>
      <trkpt lat="27.942772" lon="-15.681970">
        <ele>1413.090</ele>
        <time>2025-03-15T11:30:48Z</time>
      </trkpt>
      <trkpt lat="27.943368" lon="-15.682346">
        <ele>1425.028</ele>
        <time>2025-03-15T11:32:32Z</time>
      </trkpt>
      <trkpt lat="27.943499" lon="-15.682990">
        <ele>1426.089</ele>
        <time>2025-03-15T11:34:14Z</time>
      </trkpt>
      <trkpt lat="27.944619" lon="-15.684877">
        <ele>1417.017</ele>
        <time>2025-03-15T11:37:19Z</time>
      </trkpt>
      <trkpt lat="27.944822" lon="-15.685405">
        <ele>1413.009</ele>
        <time>2025-03-15T11:38:00Z</time>
      </trkpt>
      <trkpt lat="27.945705" lon="-15.686366">
        <ele>1400.084</ele>
        <time>2025-03-15T11:39:47Z</time>
      </trkpt>
      <trkpt lat="27.945608" lon="-15.687333">
        <ele>1409.022</ele>
        <time>2025-03-15T11:42:26Z</time>
      </trkpt>
      <trkpt lat="27.946010" lon="-15.687526">
        <ele>1405.066</ele>
        <time>2025-03-15T11:43:08Z</time>
      </trkpt>
      <trkpt lat="27.946519" lon="-15.688062">
        <ele>1389.061</ele>
        <time>2025-03-15T11:44:24Z</time>
      </trkpt>
      <trkpt lat="27.946839" lon="-15.688194">
        <ele>1386.096</ele>
        <time>2025-03-15T11:44:59Z</time>
      </trkpt>
      <trkpt lat="27.946513" lon="-15.688361">
        <ele>1375.077</ele>
        <time>2025-03-15T11:46:04Z</time>
      </trkpt>
      <trkpt lat="27.946875" lon="-15.688509">
        <ele>1365.032</ele>
        <time>2025-03-15T11:46:59Z</time>
      </trkpt>
      <trkpt lat="27.946650" lon="-15.688866">
        <ele>1363.067</ele>
        <time>2025-03-15T11:48:39Z</time>
      </trkpt>
      <trkpt lat="27.946549" lon="-15.689347">
        <ele>1347.043</ele>
        <time>2025-03-15T11:50:08Z</time>
      </trkpt>
      <trkpt lat="27.946067" lon="-15.689647">
        <ele>1331.072</ele>
        <time>2025-03-15T11:51:46Z</time>
      </trkpt>
      <trkpt lat="27.946080" lon="-15.690206">
        <ele>1319.013</ele>
        <time>2025-03-15T11:53:24Z</time>
      </trkpt>
      <trkpt lat="27.945801" lon="-15.689970">
        <ele>1305.014</ele>
        <time>2025-03-15T11:54:28Z</time>
      </trkpt>
      <trkpt lat="27.945801" lon="-15.690319">
        <ele>1298.009</ele>
        <time>2025-03-15T11:55:05Z</time>
      </trkpt>
      <trkpt lat="27.945965" lon="-15.690595">
        <ele>1291.059</ele>
        <time>2025-03-15T11:55:37Z</time>
      </trkpt>
      <trkpt lat="27.945763" lon="-15.690732">
        <ele>1294.037</ele>
        <time>2025-03-15T11:56:30Z</time>
      </trkpt>
      <trkpt lat="27.945638" lon="-15.690574">
        <ele>1287.041</ele>
        <time>2025-03-15T11:57:09Z</time>
      </trkpt>
      <trkpt lat="27.945379" lon="-15.690932">
        <ele>1278.056</ele>
        <time>2025-03-15T11:57:58Z</time>
      </trkpt>
      <trkpt lat="27.945108" lon="-15.690965">
        <ele>1275.061</ele>
        <time>2025-03-15T11:58:36Z</time>
      </trkpt>
      <trkpt lat="27.944996" lon="-15.691129">
        <ele>1264.052</ele>
        <time>2025-03-15T11:59:10Z</time>
      </trkpt>
      <trkpt lat="27.944724" lon="-15.691220">
        <ele>1261.097</ele>
        <time>2025-03-15T11:59:39Z</time>
      </trkpt>
      <trkpt lat="27.944038" lon="-15.692019">
        <ele>1268.032</ele>
        <time>2025-03-15T12:01:17Z</time>
      </trkpt>
      <trkpt lat="27.943359" lon="-15.693237">
        <ele>1249.088</ele>
        <time>2025-03-15T12:03:26Z</time>
      </trkpt>
      <trkpt lat="27.943128" lon="-15.694443">
        <ele>1268.022</ele>
        <time>2025-03-15T12:06:22Z</time>
      </trkpt>
      <trkpt lat="27.942757" lon="-15.694604">
        <ele>1271.062</ele>
        <time>2025-03-15T12:07:03Z</time>
      </trkpt>
      <trkpt lat="27.942651" lon="-15.694916">
        <ele>1276.008</ele>
        <time>2025-03-15T12:07:32Z</time>
      </trkpt>
      <trkpt lat="27.942079" lon="-15.695332">
        <ele>1288.009</ele>
        <time>2025-03-15T12:08:55Z</time>
      </trkpt>
      <trkpt lat="27.941604" lon="-15.695991">
        <ele>1284.034</ele>
        <time>2025-03-15T12:10:04Z</time>
      </trkpt>
      <trkpt lat="27.941595" lon="-15.696868">
        <ele>1277.052</ele>
        <time>2025-03-15T12:11:09Z</time>
      </trkpt>
      <trkpt lat="27.941791" lon="-15.697378">
        <ele>1271.096</ele>
        <time>2025-03-15T12:11:50Z</time>
      </trkpt>
      <trkpt lat="27.941612" lon="-15.697573">
        <ele>1271.031</ele>
        <time>2025-03-15T12:12:21Z</time>
      </trkpt>
      <trkpt lat="27.941618" lon="-15.697730">
        <ele>1273.026</ele>
        <time>2025-03-15T12:12:34Z</time>
      </trkpt>
      <trkpt lat="27.942532" lon="-15.698387">
        <ele>1266.047</ele>
        <time>2025-03-15T12:14:17Z</time>
      </trkpt>
      <trkpt lat="27.943082" lon="-15.698447">
        <ele>1254.012</ele>
        <time>2025-03-15T12:15:16Z</time>
      </trkpt>
      <trkpt lat="27.943235" lon="-15.698679">
        <ele>1254.017</ele>
        <time>2025-03-15T12:15:41Z</time>
      </trkpt>
      <trkpt lat="27.943114" lon="-15.698985">
        <ele>1252.073</ele>
        <time>2025-03-15T12:16:30Z</time>
      </trkpt>
      <trkpt lat="27.942141" lon="-15.699680">
        <ele>1261.056</ele>
        <time>2025-03-15T12:18:16Z</time>
      </trkpt>
      <trkpt lat="27.942142" lon="-15.700359">
        <ele>1254.059</ele>
        <time>2025-03-15T12:19:08Z</time>
      </trkpt>
      <trkpt lat="27.942538" lon="-15.700757">
        <ele>1256.014</ele>
        <time>2025-03-15T12:19:55Z</time>
      </trkpt>
      <trkpt lat="27.942490" lon="-15.701104">
        <ele>1256.009</ele>
        <time>2025-03-15T12:20:34Z</time>
      </trkpt>
      <trkpt lat="27.942691" lon="-15.701255">
        <ele>1259.087</ele>
        <time>2025-03-15T12:30:16Z</time>
      </trkpt>
      <trkpt lat="27.942593" lon="-15.701161">
        <ele>1259.015</ele>
        <time>2025-03-15T12:30:51Z</time>
      </trkpt>
      <trkpt lat="27.942522" lon="-15.701257">
        <ele>1258.059</ele>
        <time>2025-03-15T12:31:23Z</time>
      </trkpt>
      <trkpt lat="27.942982" lon="-15.701996">
        <ele>1258.034</ele>
        <time>2025-03-15T12:32:39Z</time>
      </trkpt>
      <trkpt lat="27.943525" lon="-15.702412">
        <ele>1260.039</ele>
        <time>2025-03-15T12:33:33Z</time>
      </trkpt>
      <trkpt lat="27.944069" lon="-15.702464">
        <ele>1265.070</ele>
        <time>2025-03-15T12:35:16Z</time>
      </trkpt>
      <trkpt lat="27.943861" lon="-15.702502">
        <ele>1266.095</ele>
        <time>2025-03-15T12:38:05Z</time>
      </trkpt>
      <trkpt lat="27.943486" lon="-15.702950">
        <ele>1264.080</ele>
        <time>2025-03-15T12:38:54Z</time>
      </trkpt>
      <trkpt lat="27.943245" lon="-15.703064">
        <ele>1260.066</ele>
        <time>2025-03-15T12:39:16Z</time>
      </trkpt>
      <trkpt lat="27.943038" lon="-15.703508">
        <ele>1252.096</ele>
        <time>2025-03-15T12:39:50Z</time>
      </trkpt>
      <trkpt lat="27.943264" lon="-15.704280">
        <ele>1238.031</ele>
        <time>2025-03-15T12:40:48Z</time>
      </trkpt>
      <trkpt lat="27.943049" lon="-15.704468">
        <ele>1235.024</ele>
        <time>2025-03-15T12:41:19Z</time>
      </trkpt>
      <trkpt lat="27.942893" lon="-15.705144">
        <ele>1229.009</ele>
        <time>2025-03-15T12:42:13Z</time>
      </trkpt>
      <trkpt lat="27.943015" lon="-15.705496">
        <ele>1230.031</ele>
        <time>2025-03-15T12:42:38Z</time>
      </trkpt>
      <trkpt lat="27.942015" lon="-15.705330">
        <ele>1234.099</ele>
        <time>2025-03-15T12:44:18Z</time>
      </trkpt>
      <trkpt lat="27.941775" lon="-15.705483">
        <ele>1232.063</ele>
        <time>2025-03-15T12:44:41Z</time>
      </trkpt>
      <trkpt lat="27.941540" lon="-15.705399">
        <ele>1234.038</ele>
        <time>2025-03-15T12:45:04Z</time>
      </trkpt>
      <trkpt lat="27.940960" lon="-15.705480">
        <ele>1235.093</ele>
        <time>2025-03-15T12:45:53Z</time>
      </trkpt>
      <trkpt lat="27.940481" lon="-15.705077">
        <ele>1240.064</ele>
        <time>2025-03-15T12:46:44Z</time>
      </trkpt>
      <trkpt lat="27.940092" lon="-15.705334">
        <ele>1241.099</ele>
        <time>2025-03-15T12:47:27Z</time>
      </trkpt>
      <trkpt lat="27.938844" lon="-15.705284">
        <ele>1252.044</ele>
        <time>2025-03-15T12:49:24Z</time>
      </trkpt>
      <trkpt lat="27.938404" lon="-15.705644">
        <ele>1249.030</ele>
        <time>2025-03-15T12:50:18Z</time>
      </trkpt>
      <trkpt lat="27.938210" lon="-15.705658">
        <ele>1249.079</ele>
        <time>2025-03-15T12:50:37Z</time>
      </trkpt>
      <trkpt lat="27.937393" lon="-15.705276">
        <ele>1249.005</ele>
        <time>2025-03-15T12:51:52Z</time>
      </trkpt>
      <trkpt lat="27.936665" lon="-15.705423">
        <ele>1252.025</ele>
        <time>2025-03-15T12:53:03Z</time>
      </trkpt>
      <trkpt lat="27.936368" lon="-15.705569">
        <ele>1253.009</ele>
        <time>2025-03-15T12:54:18Z</time>
      </trkpt>
      <trkpt lat="27.936238" lon="-15.705887">
        <ele>1253.059</ele>
        <time>2025-03-15T12:56:26Z</time>
      </trkpt>
      <trkpt lat="27.935196" lon="-15.706915">
        <ele>1246.097</ele>
        <time>2025-03-15T12:58:33Z</time>
      </trkpt>
      <trkpt lat="27.934652" lon="-15.707822">
        <ele>1235.071</ele>
        <time>2025-03-15T13:00:07Z</time>
      </trkpt>
      <trkpt lat="27.934910" lon="-15.708160">
        <ele>1233.036</ele>
        <time>2025-03-15T13:01:26Z</time>
      </trkpt>
      <trkpt lat="27.935281" lon="-15.708313">
        <ele>1236.071</ele>
        <time>2025-03-15T13:02:01Z</time>
      </trkpt>
      <trkpt lat="27.935926" lon="-15.708204">
        <ele>1235.042</ele>
        <time>2025-03-15T13:02:54Z</time>
      </trkpt>
      <trkpt lat="27.936788" lon="-15.708549">
        <ele>1237.077</ele>
        <time>2025-03-15T13:04:04Z</time>
      </trkpt>
      <trkpt lat="27.937225" lon="-15.708429">
        <ele>1233.052</ele>
        <time>2025-03-15T13:04:41Z</time>
      </trkpt>
      <trkpt lat="27.937499" lon="-15.708569">
        <ele>1231.048</ele>
        <time>2025-03-15T13:05:11Z</time>
      </trkpt>
      <trkpt lat="27.938220" lon="-15.708507">
        <ele>1234.031</ele>
        <time>2025-03-15T13:06:09Z</time>
      </trkpt>
      <trkpt lat="27.938786" lon="-15.708745">
        <ele>1235.061</ele>
        <time>2025-03-15T13:07:04Z</time>
      </trkpt>
      <trkpt lat="27.938763" lon="-15.709116">
        <ele>1230.007</ele>
        <time>2025-03-15T13:07:38Z</time>
      </trkpt>
      <trkpt lat="27.938996" lon="-15.709383">
        <ele>1225.009</ele>
        <time>2025-03-15T13:08:03Z</time>
      </trkpt>
      <trkpt lat="27.939350" lon="-15.710724">
        <ele>1216.085</ele>
        <time>2025-03-15T13:09:52Z</time>
      </trkpt>
      <trkpt lat="27.938358" lon="-15.710657">
        <ele>1205.033</ele>
        <time>2025-03-15T13:11:18Z</time>
      </trkpt>
      <trkpt lat="27.938106" lon="-15.710847">
        <ele>1201.047</ele>
        <time>2025-03-15T13:11:43Z</time>
      </trkpt>
      <trkpt lat="27.937887" lon="-15.711225">
        <ele>1198.052</ele>
        <time>2025-03-15T13:12:16Z</time>
      </trkpt>
      <trkpt lat="27.937938" lon="-15.711675">
        <ele>1196.077</ele>
        <time>2025-03-15T13:12:50Z</time>
      </trkpt>
      <trkpt lat="27.938810" lon="-15.712617">
        <ele>1187.038</ele>
        <time>2025-03-15T13:14:26Z</time>
      </trkpt>
      <trkpt lat="27.938175" lon="-15.713235">
        <ele>1189.033</ele>
        <time>2025-03-15T13:15:36Z</time>
      </trkpt>
      <trkpt lat="27.938294" lon="-15.714711">
        <ele>1187.018</ele>
        <time>2025-03-15T13:17:25Z</time>
      </trkpt>
      <trkpt lat="27.938490" lon="-15.715043">
        <ele>1186.014</ele>
        <time>2025-03-15T13:17:51Z</time>
      </trkpt>
      <trkpt lat="27.938868" lon="-15.715248">
        <ele>1190.022</ele>
        <time>2025-03-15T13:18:26Z</time>
      </trkpt>
      <trkpt lat="27.939445" lon="-15.715836">
        <ele>1183.062</ele>
        <time>2025-03-15T13:19:33Z</time>
      </trkpt>
      <trkpt lat="27.939300" lon="-15.716371">
        <ele>1183.008</ele>
        <time>2025-03-15T13:20:17Z</time>
      </trkpt>
      <trkpt lat="27.939432" lon="-15.717033">
        <ele>1174.009</ele>
        <time>2025-03-15T13:21:11Z</time>
      </trkpt>
      <trkpt lat="27.938975" lon="-15.717813">
        <ele>1160.024</ele>
        <time>2025-03-15T13:22:23Z</time>
      </trkpt>
      <trkpt lat="27.938885" lon="-15.718253">
        <ele>1159.072</ele>
        <time>2025-03-15T13:22:54Z</time>
      </trkpt>
      <trkpt lat="27.939363" lon="-15.718261">
        <ele>1153.076</ele>
        <time>2025-03-15T13:23:39Z</time>
      </trkpt>
      <trkpt lat="27.939409" lon="-15.719210">
        <ele>1146.011</ele>
        <time>2025-03-15T13:24:51Z</time>
      </trkpt>
      <trkpt lat="27.939664" lon="-15.719646">
        <ele>1139.026</ele>
        <time>2025-03-15T13:25:25Z</time>
      </trkpt>
      <trkpt lat="27.940267" lon="-15.720031">
        <ele>1131.027</ele>
        <time>2025-03-15T13:26:20Z</time>
      </trkpt>
      <trkpt lat="27.940584" lon="-15.720014">
        <ele>1128.022</ele>
        <time>2025-03-15T13:26:43Z</time>
      </trkpt>
      <trkpt lat="27.940935" lon="-15.719838">
        <ele>1122.087</ele>
        <time>2025-03-15T13:27:25Z</time>
      </trkpt>
      <trkpt lat="27.940685" lon="-15.720709">
        <ele>1124.083</ele>
        <time>2025-03-15T13:31:01Z</time>
      </trkpt>
      <trkpt lat="27.940505" lon="-15.720641">
        <ele>1125.038</ele>
        <time>2025-03-15T13:31:24Z</time>
      </trkpt>
      <trkpt lat="27.940003" lon="-15.721208">
        <ele>1126.070</ele>
        <time>2025-03-15T13:32:30Z</time>
      </trkpt>
      <trkpt lat="27.939934" lon="-15.721478">
        <ele>1122.017</ele>
        <time>2025-03-15T13:32:51Z</time>
      </trkpt>
      <trkpt lat="27.939296" lon="-15.721172">
        <ele>1109.009</ele>
        <time>2025-03-15T13:34:01Z</time>
      </trkpt>
      <trkpt lat="27.937928" lon="-15.721891">
        <ele>1104.055</ele>
        <time>2025-03-15T13:36:37Z</time>
      </trkpt>
      <trkpt lat="27.937995" lon="-15.722254">
        <ele>1100.023</ele>
        <time>2025-03-15T13:37:09Z</time>
      </trkpt>
      <trkpt lat="27.937720" lon="-15.722625">
        <ele>1100.077</ele>
        <time>2025-03-15T13:37:55Z</time>
      </trkpt>
      <trkpt lat="27.937654" lon="-15.723796">
        <ele>1085.032</ele>
        <time>2025-03-15T13:41:24Z</time>
      </trkpt>
      <trkpt lat="27.937163" lon="-15.724697">
        <ele>1089.047</ele>
        <time>2025-03-15T13:42:55Z</time>
      </trkpt>
      <trkpt lat="27.936827" lon="-15.725591">
        <ele>1088.038</ele>
        <time>2025-03-15T13:44:05Z</time>
      </trkpt>
      <trkpt lat="27.936756" lon="-15.726224">
        <ele>1088.083</ele>
        <time>2025-03-15T13:44:50Z</time>
      </trkpt>
      <trkpt lat="27.936270" lon="-15.727557">
        <ele>1086.028</ele>
        <time>2025-03-15T13:47:45Z</time>
      </trkpt>
      <trkpt lat="27.935687" lon="-15.728672">
        <ele>1088.064</ele>
        <time>2025-03-15T13:49:18Z</time>
      </trkpt>
      <trkpt lat="27.935573" lon="-15.729272">
        <ele>1089.065</ele>
        <time>2025-03-15T13:50:02Z</time>
      </trkpt>
      <trkpt lat="27.935246" lon="-15.729843">
        <ele>1084.068</ele>
        <time>2025-03-15T13:51:45Z</time>
      </trkpt>
      <trkpt lat="27.934841" lon="-15.729387">
        <ele>1075.014</ele>
        <time>2025-03-15T13:53:30Z</time>
      </trkpt>
      <trkpt lat="27.934564" lon="-15.729377">
        <ele>1073.009</ele>
        <time>2025-03-15T13:53:53Z</time>
      </trkpt>
      <trkpt lat="27.934252" lon="-15.729137">
        <ele>1063.088</ele>
        <time>2025-03-15T13:54:30Z</time>
      </trkpt>
      <trkpt lat="27.934295" lon="-15.729840">
        <ele>1051.086</ele>
        <time>2025-03-15T13:55:41Z</time>
      </trkpt>
      <trkpt lat="27.934533" lon="-15.730069">
        <ele>1045.010</ele>
        <time>2025-03-15T13:56:15Z</time>
      </trkpt>
      <trkpt lat="27.934431" lon="-15.730543">
        <ele>1037.085</ele>
        <time>2025-03-15T13:57:07Z</time>
      </trkpt>
      <trkpt lat="27.934069" lon="-15.730705">
        <ele>1028.010</ele>
        <time>2025-03-15T13:58:01Z</time>
      </trkpt>
      <trkpt lat="27.933701" lon="-15.730526">
        <ele>1026.051</ele>
        <time>2025-03-15T13:58:44Z</time>
      </trkpt>
      <trkpt lat="27.933479" lon="-15.730184">
        <ele>1014.016</ele>
        <time>2025-03-15T13:59:28Z</time>
      </trkpt>
      <trkpt lat="27.933037" lon="-15.730159">
        <ele>1013.031</ele>
        <time>2025-03-15T14:00:17Z</time>
      </trkpt>
      <trkpt lat="27.932916" lon="-15.730255">
        <ele>1011.047</ele>
        <time>2025-03-15T14:00:32Z</time>
      </trkpt>
      <trkpt lat="27.932936" lon="-15.730691">
        <ele>1015.035</ele>
        <time>2025-03-15T14:02:39Z</time>
      </trkpt>
      <trkpt lat="27.932926" lon="-15.730164">
        <ele>1005.086</ele>
        <time>2025-03-15T14:19:45Z</time>
      </trkpt>
      <trkpt lat="27.932981" lon="-15.730247">
        <ele>1003.014</ele>
        <time>2025-03-15T14:24:01Z</time>
      </trkpt>
      <trkpt lat="27.933546" lon="-15.730182">
        <ele>1009.009</ele>
        <time>2025-03-15T14:25:17Z</time>
      </trkpt>
      <trkpt lat="27.933596" lon="-15.729908">
        <ele>1013.065</ele>
        <time>2025-03-15T14:25:39Z</time>
      </trkpt>
      <trkpt lat="27.933147" lon="-15.729137">
        <ele>1003.083</ele>
        <time>2025-03-15T14:26:58Z</time>
      </trkpt>
      <trkpt lat="27.932252" lon="-15.728802">
        <ele>1004.037</ele>
        <time>2025-03-15T14:28:29Z</time>
      </trkpt>
      <trkpt lat="27.932061" lon="-15.728369">
        <ele>1001.042</ele>
        <time>2025-03-15T14:29:10Z</time>
      </trkpt>
      <trkpt lat="27.932123" lon="-15.728135">
        <ele>998.047</ele>
        <time>2025-03-15T14:29:27Z</time>
      </trkpt>
      <trkpt lat="27.932448" lon="-15.727767">
        <ele>994.048</ele>
        <time>2025-03-15T14:30:09Z</time>
      </trkpt>
      <trkpt lat="27.932675" lon="-15.727638">
        <ele>988.043</ele>
        <time>2025-03-15T14:30:34Z</time>
      </trkpt>
      <trkpt lat="27.932991" lon="-15.727633">
        <ele>980.088</ele>
        <time>2025-03-15T14:31:04Z</time>
      </trkpt>
      <trkpt lat="27.933098" lon="-15.726943">
        <ele>981.064</ele>
        <time>2025-03-15T14:31:57Z</time>
      </trkpt>
      <trkpt lat="27.933920" lon="-15.726098">
        <ele>964.051</ele>
        <time>2025-03-15T14:33:31Z</time>
      </trkpt>
      <trkpt lat="27.934190" lon="-15.725374">
        <ele>960.001</ele>
        <time>2025-03-15T14:34:29Z</time>
      </trkpt>
      <trkpt lat="27.934158" lon="-15.725205">
        <ele>963.011</ele>
        <time>2025-03-15T14:34:40Z</time>
      </trkpt>
      <trkpt lat="27.933895" lon="-15.725082">
        <ele>961.009</ele>
        <time>2025-03-15T14:35:00Z</time>
      </trkpt>
      <trkpt lat="27.933589" lon="-15.725365">
        <ele>960.037</ele>
        <time>2025-03-15T14:35:33Z</time>
      </trkpt>
      <trkpt lat="27.933037" lon="-15.725502">
        <ele>959.035</ele>
        <time>2025-03-15T14:36:19Z</time>
      </trkpt>
      <trkpt lat="27.932010" lon="-15.725225">
        <ele>969.059</ele>
        <time>2025-03-15T14:37:44Z</time>
      </trkpt>
      <trkpt lat="27.931528" lon="-15.724661">
        <ele>970.054</ele>
        <time>2025-03-15T14:38:40Z</time>
      </trkpt>
      <trkpt lat="27.931116" lon="-15.724579">
        <ele>969.089</ele>
        <time>2025-03-15T14:39:14Z</time>
      </trkpt>
      <trkpt lat="27.930537" lon="-15.723462">
        <ele>979.010</ele>
        <time>2025-03-15T14:40:53Z</time>
      </trkpt>
      <trkpt lat="27.930053" lon="-15.723624">
        <ele>979.065</ele>
        <time>2025-03-15T14:41:38Z</time>
      </trkpt>
      <trkpt lat="27.929836" lon="-15.723481">
        <ele>982.060</ele>
        <time>2025-03-15T14:41:58Z</time>
      </trkpt>
      <trkpt lat="27.929689" lon="-15.723220">
        <ele>983.036</ele>
        <time>2025-03-15T14:42:24Z</time>
      </trkpt>
      <trkpt lat="27.929716" lon="-15.722537">
        <ele>977.018</ele>
        <time>2025-03-15T14:44:37Z</time>
      </trkpt>
      <trkpt lat="27.930302" lon="-15.722033">
        <ele>969.098</ele>
        <time>2025-03-15T14:45:42Z</time>
      </trkpt>
      <trkpt lat="27.930607" lon="-15.721573">
        <ele>967.017</ele>
        <time>2025-03-15T14:46:25Z</time>
      </trkpt>
      <trkpt lat="27.930719" lon="-15.720800">
        <ele>964.009</ele>
        <time>2025-03-15T14:47:28Z</time>
      </trkpt>
      <trkpt lat="27.930544" lon="-15.720490">
        <ele>952.093</ele>
        <time>2025-03-15T14:48:20Z</time>
      </trkpt>
      <trkpt lat="27.930243" lon="-15.720535">
        <ele>942.021</ele>
        <time>2025-03-15T14:49:09Z</time>
      </trkpt>
      <trkpt lat="27.929723" lon="-15.720144">
        <ele>930.035</ele>
        <time>2025-03-15T14:50:36Z</time>
      </trkpt>
      <trkpt lat="27.929648" lon="-15.720278">
        <ele>927.020</ele>
        <time>2025-03-15T14:51:07Z</time>
      </trkpt>
      <trkpt lat="27.929746" lon="-15.720400">
        <ele>926.015</ele>
        <time>2025-03-15T14:51:27Z</time>
      </trkpt>
      <trkpt lat="27.929526" lon="-15.720257">
        <ele>927.036</ele>
        <time>2025-03-15T14:52:19Z</time>
      </trkpt>
      <trkpt lat="27.929085" lon="-15.720886">
        <ele>932.041</ele>
        <time>2025-03-15T14:54:28Z</time>
      </trkpt>
      <trkpt lat="27.928701" lon="-15.721095">
        <ele>932.046</ele>
        <time>2025-03-15T14:55:50Z</time>
      </trkpt>
      <trkpt lat="27.927601" lon="-15.721292">
        <ele>928.072</ele>
        <time>2025-03-15T14:59:29Z</time>
      </trkpt>
      <trkpt lat="27.927379" lon="-15.721496">
        <ele>925.015</ele>
        <time>2025-03-15T15:00:05Z</time>
      </trkpt>
      <trkpt lat="27.927016" lon="-15.721611">
        <ele>923.065</ele>
        <time>2025-03-15T15:00:44Z</time>
      </trkpt>
      <trkpt lat="27.926524" lon="-15.721562">
        <ele>925.011</ele>
        <time>2025-03-15T15:02:14Z</time>
      </trkpt>
      <trkpt lat="27.926162" lon="-15.721719">
        <ele>917.009</ele>
        <time>2025-03-15T15:03:01Z</time>
      </trkpt>
      <trkpt lat="27.925807" lon="-15.721720">
        <ele>912.013</ele>
        <time>2025-03-15T15:03:35Z</time>
      </trkpt>
      <trkpt lat="27.925199" lon="-15.722457">
        <ele>896.031</ele>
        <time>2025-03-15T15:06:08Z</time>
      </trkpt>
      <trkpt lat="27.925038" lon="-15.722565">
        <ele>894.025</ele>
        <time>2025-03-15T15:06:31Z</time>
      </trkpt>
      <trkpt lat="27.924764" lon="-15.722467">
        <ele>886.030</ele>
        <time>2025-03-15T15:07:04Z</time>
      </trkpt>
      <trkpt lat="27.924932" lon="-15.722809">
        <ele>884.045</ele>
        <time>2025-03-15T15:07:46Z</time>
      </trkpt>
      <trkpt lat="27.925191" lon="-15.722948">
        <ele>872.016</ele>
        <time>2025-03-15T15:08:45Z</time>
      </trkpt>
      <trkpt lat="27.924950" lon="-15.723124">
        <ele>862.011</ele>
        <time>2025-03-15T15:09:33Z</time>
      </trkpt>
      <trkpt lat="27.924657" lon="-15.723041">
        <ele>862.046</ele>
        <time>2025-03-15T15:10:01Z</time>
      </trkpt>
      <trkpt lat="27.924729" lon="-15.723213">
        <ele>861.042</ele>
        <time>2025-03-15T15:10:40Z</time>
      </trkpt>
      <trkpt lat="27.924567" lon="-15.723297">
        <ele>846.061</ele>
        <time>2025-03-15T15:12:03Z</time>
      </trkpt>
      <trkpt lat="27.924795" lon="-15.723566">
        <ele>839.021</ele>
        <time>2025-03-15T15:13:05Z</time>
      </trkpt>
      <trkpt lat="27.924831" lon="-15.723818">
        <ele>823.013</ele>
        <time>2025-03-15T15:14:03Z</time>
      </trkpt>
      <trkpt lat="27.925143" lon="-15.723915">
        <ele>824.009</ele>
        <time>2025-03-15T15:14:57Z</time>
      </trkpt>
      <trkpt lat="27.925385" lon="-15.723719">
        <ele>815.058</ele>
        <time>2025-03-15T15:15:38Z</time>
      </trkpt>
      <trkpt lat="27.925800" lon="-15.723735">
        <ele>800.086</ele>
        <time>2025-03-15T15:17:03Z</time>
      </trkpt>
      <trkpt lat="27.925680" lon="-15.723818">
        <ele>797.030</ele>
        <time>2025-03-15T15:17:30Z</time>
      </trkpt>
      <trkpt lat="27.925904" lon="-15.724183">
        <ele>777.095</ele>
        <time>2025-03-15T15:19:46Z</time>
      </trkpt>
      <trkpt lat="27.925851" lon="-15.724248">
        <ele>762.090</ele>
        <time>2025-03-15T15:20:11Z</time>
      </trkpt>
      <trkpt lat="27.926069" lon="-15.724305">
        <ele>767.061</ele>
        <time>2025-03-15T15:20:53Z</time>
      </trkpt>
      <trkpt lat="27.925934" lon="-15.724472">
        <ele>747.086</ele>
        <time>2025-03-15T15:21:37Z</time>
      </trkpt>
      <trkpt lat="27.926099" lon="-15.724556">
        <ele>748.081</ele>
        <time>2025-03-15T15:22:09Z</time>
      </trkpt>
      <trkpt lat="27.926042" lon="-15.724652">
        <ele>738.047</ele>
        <time>2025-03-15T15:22:36Z</time>
      </trkpt>
      <trkpt lat="27.926128" lon="-15.724709">
        <ele>738.018</ele>
        <time>2025-03-15T15:22:50Z</time>
      </trkpt>
      <trkpt lat="27.926281" lon="-15.724671">
        <ele>729.098</ele>
        <time>2025-03-15T15:23:32Z</time>
      </trkpt>
      <trkpt lat="27.926261" lon="-15.725055">
        <ele>743.017</ele>
        <time>2025-03-15T15:26:42Z</time>
      </trkpt>
      <trkpt lat="27.926349" lon="-15.724795">
        <ele>725.009</ele>
        <time>2025-03-15T15:29:26Z</time>
      </trkpt>
      <trkpt lat="27.926249" lon="-15.724774">
        <ele>727.063</ele>
        <time>2025-03-15T15:32:33Z</time>
      </trkpt>
      <trkpt lat="27.926200" lon="-15.724965">
        <ele>726.071</ele>
        <time>2025-03-15T15:33:23Z</time>
      </trkpt>
      <trkpt lat="27.926284" lon="-15.724928">
        <ele>726.045</ele>
        <time>2025-03-15T15:36:41Z</time>
      </trkpt>
      <trkpt lat="27.926417" lon="-15.726417">
        <ele>686.090</ele>
        <time>2025-03-15T15:48:22Z</time>
      </trkpt>
      <trkpt lat="27.926262" lon="-15.726594">
        <ele>679.045</ele>
        <time>2025-03-15T15:48:59Z</time>
      </trkpt>
      <trkpt lat="27.926516" lon="-15.726926">
        <ele>670.066</ele>
        <time>2025-03-15T15:50:06Z</time>
      </trkpt>
      <trkpt lat="27.926500" lon="-15.727068">
        <ele>665.041</ele>
        <time>2025-03-15T15:50:31Z</time>
      </trkpt>
      <trkpt lat="27.926726" lon="-15.727125">
        <ele>666.076</ele>
        <time>2025-03-15T15:50:59Z</time>
      </trkpt>
      <trkpt lat="27.926504" lon="-15.727533">
        <ele>641.092</ele>
        <time>2025-03-15T15:52:56Z</time>
      </trkpt>
      <trkpt lat="27.926362" lon="-15.727471">
        <ele>640.036</ele>
        <time>2025-03-15T15:53:43Z</time>
      </trkpt>
      <trkpt lat="27.926079" lon="-15.727574">
        <ele>635.017</ele>
        <time>2025-03-15T15:54:21Z</time>
      </trkpt>
      <trkpt lat="27.925540" lon="-15.726997">
        <ele>621.018</ele>
        <time>2025-03-15T15:56:20Z</time>
      </trkpt>
      <trkpt lat="27.925233" lon="-15.726890">
        <ele>606.009</ele>
        <time>2025-03-15T15:57:31Z</time>
      </trkpt>
      <trkpt lat="27.925003" lon="-15.726979">
        <ele>592.085</ele>
        <time>2025-03-15T15:59:07Z</time>
      </trkpt>
      <trkpt lat="27.924968" lon="-15.726658">
        <ele>583.063</ele>
        <time>2025-03-15T16:00:23Z</time>
      </trkpt>
      <trkpt lat="27.924791" lon="-15.726789">
        <ele>562.047</ele>
        <time>2025-03-15T16:01:31Z</time>
      </trkpt>
      <trkpt lat="27.924731" lon="-15.726702">
        <ele>560.072</ele>
        <time>2025-03-15T16:02:04Z</time>
      </trkpt>
      <trkpt lat="27.924478" lon="-15.726749">
        <ele>542.097</ele>
        <time>2025-03-15T16:03:35Z</time>
      </trkpt>
      <trkpt lat="27.924489" lon="-15.726909">
        <ele>530.048</ele>
        <time>2025-03-15T16:04:03Z</time>
      </trkpt>
      <trkpt lat="27.924186" lon="-15.726928">
        <ele>519.093</ele>
        <time>2025-03-15T16:06:36Z</time>
      </trkpt>
      <trkpt lat="27.924070" lon="-15.727098">
        <ele>511.058</ele>
        <time>2025-03-15T16:07:33Z</time>
      </trkpt>
      <trkpt lat="27.923779" lon="-15.726710">
        <ele>511.074</ele>
        <time>2025-03-15T16:09:17Z</time>
      </trkpt>
      <trkpt lat="27.923421" lon="-15.726491">
        <ele>514.091</ele>
        <time>2025-03-15T16:09:46Z</time>
      </trkpt>
      <trkpt lat="27.922717" lon="-15.726206">
        <ele>514.081</ele>
        <time>2025-03-15T16:10:45Z</time>
      </trkpt>
      <trkpt lat="27.922505" lon="-15.726238">
        <ele>507.019</ele>
        <time>2025-03-15T16:11:17Z</time>
      </trkpt>
      <trkpt lat="27.922196" lon="-15.725906">
        <ele>509.009</ele>
        <time>2025-03-15T16:11:52Z</time>
      </trkpt>
      <trkpt lat="27.921625" lon="-15.725924">
        <ele>514.061</ele>
        <time>2025-03-15T16:13:02Z</time>
      </trkpt>
    </trkseg>
  </trk></gpx>