<?xml version="1.0" encoding="UTF-8"?>
<gpx creator="Wikiloc - https://www.wikiloc.com" version="1.1" xmlns="http://www.topografix.com/GPX/1/1" xmlns:xsi="http://www.w3.org/2001/XMLSchema-instance" xsi:schemaLocation="http://www.topografix.com/GPX/1/1 http://www.topografix.com/GPX/1/1/gpx.xsd">
  <metadata>
    <name>Wikiloc - CAMINO DE JINAMA (EL GOLFO) ISLA EL HIERRO</name>
    <link href="https://www.wikiloc.com/hiking-trails/camino-de-jinama-el-golfo-isla-el-hierro-111497491">
      <text>CAMINO DE JINAMA (EL GOLFO) ISLA EL HIERRO - Wikiloc on Wikiloc</text>
    </link>
    <time>2022-08-22T17:28:44Z</time>
  </metadata>
  <trk>
    <name>CAMINO DE JINAMA (EL GOLFO) ISLA EL HIERRO - Wikiloc</name>
    <cmt></cmt>
    <desc></desc>
    <trkseg>
      <trkpt lat="27.754892" lon="-18.002076">
        <ele>351.885</ele>
        <time>2022-08-22T09:54:00Z</time>
      </trkpt>
      <trkpt lat="27.754840" lon="-18.002052">
        <ele>352.789</ele>
        <time>2022-08-22T09:54:02Z</time>
      </trkpt>
      <trkpt lat="27.755227" lon="-18.001306">
        <ele>358.917</ele>
        <time>2022-08-22T09:56:27Z</time>
      </trkpt>
      <trkpt lat="27.755307" lon="-18.001431">
        <ele>358.909</ele>
        <time>2022-08-22T09:57:22Z</time>
      </trkpt>
      <trkpt lat="27.755237" lon="-18.001264">
        <ele>358.639</ele>
        <time>2022-08-22T09:58:39Z</time>
      </trkpt>
      <trkpt lat="27.754987" lon="-18.001184">
        <ele>359.539</ele>
        <time>2022-08-22T09:59:28Z</time>
      </trkpt>
      <trkpt lat="27.754537" lon="-17.999163">
        <ele>393.699</ele>
        <time>2022-08-22T10:04:20Z</time>
      </trkpt>
      <trkpt lat="27.754308" lon="-17.998828">
        <ele>402.012</ele>
        <time>2022-08-22T10:05:54Z</time>
      </trkpt>
      <trkpt lat="27.754039" lon="-17.998091">
        <ele>414.127</ele>
        <time>2022-08-22T10:06:59Z</time>
      </trkpt>
      <trkpt lat="27.753657" lon="-17.997387">
        <ele>429.035</ele>
        <time>2022-08-22T10:08:57Z</time>
      </trkpt>
      <trkpt lat="27.753473" lon="-17.996596">
        <ele>440.392</ele>
        <time>2022-08-22T10:10:23Z</time>
      </trkpt>
      <trkpt lat="27.753426" lon="-17.996505">
        <ele>442.727</ele>
        <time>2022-08-22T10:10:34Z</time>
      </trkpt>
      <trkpt lat="27.753338" lon="-17.996536">
        <ele>445.339</ele>
        <time>2022-08-22T10:11:38Z</time>
      </trkpt>
      <trkpt lat="27.753402" lon="-17.996273">
        <ele>451.731</ele>
        <time>2022-08-22T10:12:08Z</time>
      </trkpt>
      <trkpt lat="27.753319" lon="-17.996235">
        <ele>453.161</ele>
        <time>2022-08-22T10:12:33Z</time>
      </trkpt>
      <trkpt lat="27.753277" lon="-17.995376">
        <ele>477.307</ele>
        <time>2022-08-22T10:16:31Z</time>
      </trkpt>
      <trkpt lat="27.753102" lon="-17.994715">
        <ele>494.409</ele>
        <time>2022-08-22T10:24:54Z</time>
      </trkpt>
      <trkpt lat="27.752881" lon="-17.994485">
        <ele>501.214</ele>
        <time>2022-08-22T10:25:42Z</time>
      </trkpt>
      <trkpt lat="27.752905" lon="-17.994349">
        <ele>504.724</ele>
        <time>2022-08-22T10:26:01Z</time>
      </trkpt>
      <trkpt lat="27.752627" lon="-17.994395">
        <ele>509.714</ele>
        <time>2022-08-22T10:32:11Z</time>
      </trkpt>
      <trkpt lat="27.752453" lon="-17.994153">
        <ele>518.247</ele>
        <time>2022-08-22T10:33:13Z</time>
      </trkpt>
      <trkpt lat="27.752171" lon="-17.994080">
        <ele>530.072</ele>
        <time>2022-08-22T10:36:03Z</time>
      </trkpt>
      <trkpt lat="27.752253" lon="-17.993949">
        <ele>531.520</ele>
        <time>2022-08-22T10:36:20Z</time>
      </trkpt>
      <trkpt lat="27.752214" lon="-17.993735">
        <ele>535.297</ele>
        <time>2022-08-22T10:36:55Z</time>
      </trkpt>
      <trkpt lat="27.751968" lon="-17.993905">
        <ele>543.732</ele>
        <time>2022-08-22T10:38:10Z</time>
      </trkpt>
      <trkpt lat="27.752037" lon="-17.993590">
        <ele>552.744</ele>
        <time>2022-08-22T10:39:22Z</time>
      </trkpt>
      <trkpt lat="27.751793" lon="-17.993718">
        <ele>560.685</ele>
        <time>2022-08-22T10:44:56Z</time>
      </trkpt>
      <trkpt lat="27.751735" lon="-17.993467">
        <ele>570.589</ele>
        <time>2022-08-22T10:46:38Z</time>
      </trkpt>
      <trkpt lat="27.751513" lon="-17.993485">
        <ele>580.917</ele>
        <time>2022-08-22T10:49:20Z</time>
      </trkpt>
      <trkpt lat="27.751521" lon="-17.993254">
        <ele>588.509</ele>
        <time>2022-08-22T10:50:06Z</time>
      </trkpt>
      <trkpt lat="27.751380" lon="-17.993086">
        <ele>594.079</ele>
        <time>2022-08-22T10:50:53Z</time>
      </trkpt>
      <trkpt lat="27.751339" lon="-17.992817">
        <ele>598.139</ele>
        <time>2022-08-22T10:51:43Z</time>
      </trkpt>
      <trkpt lat="27.751598" lon="-17.992749">
        <ele>600.649</ele>
        <time>2022-08-22T10:52:18Z</time>
      </trkpt>
      <trkpt lat="27.751865" lon="-17.992436">
        <ele>603.122</ele>
        <time>2022-08-22T10:54:05Z</time>
      </trkpt>
      <trkpt lat="27.752019" lon="-17.991956">
        <ele>604.037</ele>
        <time>2022-08-22T10:55:05Z</time>
      </trkpt>
      <trkpt lat="27.752179" lon="-17.991962">
        <ele>605.165</ele>
        <time>2022-08-22T10:55:36Z</time>
      </trkpt>
      <trkpt lat="27.752545" lon="-17.991638">
        <ele>608.692</ele>
        <time>2022-08-22T10:56:46Z</time>
      </trkpt>
      <trkpt lat="27.752778" lon="-17.991574">
        <ele>612.477</ele>
        <time>2022-08-22T10:57:32Z</time>
      </trkpt>
      <trkpt lat="27.753138" lon="-17.991198">
        <ele>614.169</ele>
        <time>2022-08-22T10:58:34Z</time>
      </trkpt>
      <trkpt lat="27.753218" lon="-17.991268">
        <ele>512.554</ele>
        <time>2022-08-22T10:59:31Z</time>
      </trkpt>
      <trkpt lat="27.753163" lon="-17.991143">
        <ele>613.556</ele>
        <time>2022-08-22T10:59:52Z</time>
      </trkpt>
      <trkpt lat="27.753222" lon="-17.991248">
        <ele>613.511</ele>
        <time>2022-08-22T11:00:04Z</time>
      </trkpt>
      <trkpt lat="27.753453" lon="-17.991306">
        <ele>615.209</ele>
        <time>2022-08-22T11:00:58Z</time>
      </trkpt>
      <trkpt lat="27.753604" lon="-17.991254">
        <ele>620.176</ele>
        <time>2022-08-22T11:10:45Z</time>
      </trkpt>
      <trkpt lat="27.754113" lon="-17.990596">
        <ele>635.926</ele>
        <time>2022-08-22T11:13:17Z</time>
      </trkpt>
      <trkpt lat="27.753640" lon="-17.991217">
        <ele>628.726</ele>
        <time>2022-08-22T11:15:00Z</time>
      </trkpt>
      <trkpt lat="27.754129" lon="-17.990531">
        <ele>639.449</ele>
        <time>2022-08-22T11:16:45Z</time>
      </trkpt>
      <trkpt lat="27.753542" lon="-17.990691">
        <ele>653.814</ele>
        <time>2022-08-22T11:19:11Z</time>
      </trkpt>
      <trkpt lat="27.753798" lon="-17.990363">
        <ele>666.582</ele>
        <time>2022-08-22T11:24:03Z</time>
      </trkpt>
      <trkpt lat="27.753548" lon="-17.990404">
        <ele>673.349</ele>
        <time>2022-08-22T11:24:51Z</time>
      </trkpt>
      <trkpt lat="27.753713" lon="-17.990161">
        <ele>685.244</ele>
        <time>2022-08-22T11:26:29Z</time>
      </trkpt>
      <trkpt lat="27.753524" lon="-17.990221">
        <ele>688.686</ele>
        <time>2022-08-22T11:27:19Z</time>
      </trkpt>
      <trkpt lat="27.753172" lon="-17.990110">
        <ele>696.138</ele>
        <time>2022-08-22T11:28:59Z</time>
      </trkpt>
      <trkpt lat="27.753162" lon="-17.990049">
        <ele>697.670</ele>
        <time>2022-08-22T11:29:58Z</time>
      </trkpt>
      <trkpt lat="27.753293" lon="-17.990098">
        <ele>699.217</ele>
        <time>2022-08-22T11:30:41Z</time>
      </trkpt>
      <trkpt lat="27.753290" lon="-17.990040">
        <ele>701.109</ele>
        <time>2022-08-22T11:31:08Z</time>
      </trkpt>
      <trkpt lat="27.753131" lon="-17.990011">
        <ele>704.324</ele>
        <time>2022-08-22T11:31:35Z</time>
      </trkpt>
      <trkpt lat="27.753483" lon="-17.989936">
        <ele>715.594</ele>
        <time>2022-08-22T11:33:26Z</time>
      </trkpt>
      <trkpt lat="27.753516" lon="-17.989853">
        <ele>719.894</ele>
        <time>2022-08-22T11:34:02Z</time>
      </trkpt>
      <trkpt lat="27.753320" lon="-17.989711">
        <ele>732.527</ele>
        <time>2022-08-22T11:34:59Z</time>
      </trkpt>
      <trkpt lat="27.753424" lon="-17.989716">
        <ele>734.172</ele>
        <time>2022-08-22T11:35:52Z</time>
      </trkpt>
      <trkpt lat="27.753758" lon="-17.989431">
        <ele>742.650</ele>
        <time>2022-08-22T11:36:51Z</time>
      </trkpt>
      <trkpt lat="27.753610" lon="-17.989394">
        <ele>746.127</ele>
        <time>2022-08-22T11:39:21Z</time>
      </trkpt>
      <trkpt lat="27.753602" lon="-17.989321">
        <ele>748.322</ele>
        <time>2022-08-22T11:39:54Z</time>
      </trkpt>
      <trkpt lat="27.754185" lon="-17.988361">
        <ele>784.064</ele>
        <time>2022-08-22T11:44:33Z</time>
      </trkpt>
      <trkpt lat="27.754211" lon="-17.988222">
        <ele>786.367</ele>
        <time>2022-08-22T11:45:29Z</time>
      </trkpt>
      <trkpt lat="27.753996" lon="-17.988161">
        <ele>799.981</ele>
        <time>2022-08-22T11:46:48Z</time>
      </trkpt>
      <trkpt lat="27.754088" lon="-17.988117">
        <ele>800.919</ele>
        <time>2022-08-22T11:47:03Z</time>
      </trkpt>
      <trkpt lat="27.754045" lon="-17.987990">
        <ele>801.709</ele>
        <time>2022-08-22T11:48:08Z</time>
      </trkpt>
      <trkpt lat="27.754239" lon="-17.987926">
        <ele>812.057</ele>
        <time>2022-08-22T11:48:55Z</time>
      </trkpt>
      <trkpt lat="27.754306" lon="-17.987807">
        <ele>818.487</ele>
        <time>2022-08-22T11:49:23Z</time>
      </trkpt>
      <trkpt lat="27.754250" lon="-17.987867">
        <ele>818.487</ele>
        <time>2022-08-22T11:49:37Z</time>
      </trkpt>
      <trkpt lat="27.754330" lon="-17.987920">
        <ele>818.590</ele>
        <time>2022-08-22T11:51:11Z</time>
      </trkpt>
      <trkpt lat="27.754280" lon="-17.987876">
        <ele>818.925</ele>
        <time>2022-08-22T11:55:50Z</time>
      </trkpt>
      <trkpt lat="27.754119" lon="-17.988006">
        <ele>815.883</ele>
        <time>2022-08-22T11:57:25Z</time>
      </trkpt>
      <trkpt lat="27.754270" lon="-17.987893">
        <ele>814.040</ele>
        <time>2022-08-22T11:57:51Z</time>
      </trkpt>
      <trkpt lat="27.754507" lon="-17.987152">
        <ele>822.815</ele>
        <time>2022-08-22T11:59:30Z</time>
      </trkpt>
      <trkpt lat="27.754531" lon="-17.987236">
        <ele>824.987</ele>
        <time>2022-08-22T12:01:50Z</time>
      </trkpt>
      <trkpt lat="27.754565" lon="-17.987132">
        <ele>827.466</ele>
        <time>2022-08-22T12:02:01Z</time>
      </trkpt>
      <trkpt lat="27.754716" lon="-17.987140">
        <ele>829.129</ele>
        <time>2022-08-22T12:02:20Z</time>
      </trkpt>
      <trkpt lat="27.754629" lon="-17.987059">
        <ele>829.321</ele>
        <time>2022-08-22T12:02:46Z</time>
      </trkpt>
      <trkpt lat="27.754766" lon="-17.987177">
        <ele>829.309</ele>
        <time>2022-08-22T12:02:59Z</time>
      </trkpt>
      <trkpt lat="27.755095" lon="-17.986945">
        <ele>838.427</ele>
        <time>2022-08-22T12:05:07Z</time>
      </trkpt>
      <trkpt lat="27.755096" lon="-17.987077">
        <ele>838.657</ele>
        <time>2022-08-22T12:05:31Z</time>
      </trkpt>
      <trkpt lat="27.755193" lon="-17.987070">
        <ele>839.187</ele>
        <time>2022-08-22T12:05:52Z</time>
      </trkpt>
      <trkpt lat="27.755239" lon="-17.986924">
        <ele>844.570</ele>
        <time>2022-08-22T12:06:41Z</time>
      </trkpt>
      <trkpt lat="27.755424" lon="-17.987016">
        <ele>857.715</ele>
        <time>2022-08-22T12:08:48Z</time>
      </trkpt>
      <trkpt lat="27.755553" lon="-17.986967">
        <ele>871.263</ele>
        <time>2022-08-22T12:10:30Z</time>
      </trkpt>
      <trkpt lat="27.755633" lon="-17.986718">
        <ele>884.730</ele>
        <time>2022-08-22T12:20:31Z</time>
      </trkpt>
      <trkpt lat="27.755711" lon="-17.986785">
        <ele>898.755</ele>
        <time>2022-08-22T12:21:04Z</time>
      </trkpt>
      <trkpt lat="27.756031" lon="-17.986313">
        <ele>915.167</ele>
        <time>2022-08-22T12:23:45Z</time>
      </trkpt>
      <trkpt lat="27.756181" lon="-17.985812">
        <ele>933.179</ele>
        <time>2022-08-22T12:26:21Z</time>
      </trkpt>
      <trkpt lat="27.756460" lon="-17.985428">
        <ele>944.805</ele>
        <time>2022-08-22T12:28:09Z</time>
      </trkpt>
      <trkpt lat="27.756606" lon="-17.985374">
        <ele>948.925</ele>
        <time>2022-08-22T12:28:33Z</time>
      </trkpt>
      <trkpt lat="27.756695" lon="-17.985166">
        <ele>951.309</ele>
        <time>2022-08-22T12:29:08Z</time>
      </trkpt>
      <trkpt lat="27.756943" lon="-17.984976">
        <ele>955.598</ele>
        <time>2022-08-22T12:29:49Z</time>
      </trkpt>
      <trkpt lat="27.757043" lon="-17.984485">
        <ele>963.798</ele>
        <time>2022-08-22T12:31:18Z</time>
      </trkpt>
      <trkpt lat="27.756961" lon="-17.984389">
        <ele>967.678</ele>
        <time>2022-08-22T12:33:03Z</time>
      </trkpt>
      <trkpt lat="27.757148" lon="-17.984146">
        <ele>971.181</ele>
        <time>2022-08-22T12:33:45Z</time>
      </trkpt>
      <trkpt lat="27.756841" lon="-17.983366">
        <ele>990.886</ele>
        <time>2022-08-22T12:36:47Z</time>
      </trkpt>
      <trkpt lat="27.757105" lon="-17.983109">
        <ele>999.064</ele>
        <time>2022-08-22T12:39:30Z</time>
      </trkpt>
      <trkpt lat="27.757317" lon="-17.982623">
        <ele>1012.981</ele>
        <time>2022-08-22T12:43:09Z</time>
      </trkpt>
      <trkpt lat="27.757568" lon="-17.982423">
        <ele>1015.716</ele>
        <time>2022-08-22T12:43:45Z</time>
      </trkpt>
      <trkpt lat="27.757744" lon="-17.982386">
        <ele>1019.878</ele>
        <time>2022-08-22T12:44:23Z</time>
      </trkpt>
      <trkpt lat="27.758032" lon="-17.982487">
        <ele>1025.615</ele>
        <time>2022-08-22T12:45:14Z</time>
      </trkpt>
      <trkpt lat="27.758399" lon="-17.982352">
        <ele>1024.565</ele>
        <time>2022-08-22T12:45:56Z</time>
      </trkpt>
      <trkpt lat="27.758308" lon="-17.982300">
        <ele>1025.011</ele>
        <time>2022-08-22T12:46:21Z</time>
      </trkpt>
      <trkpt lat="27.758510" lon="-17.982452">
        <ele>1025.909</ele>
        <time>2022-08-22T12:46:51Z</time>
      </trkpt>
      <trkpt lat="27.758452" lon="-17.982267">
        <ele>1031.112</ele>
        <time>2022-08-22T12:51:13Z</time>
      </trkpt>
      <trkpt lat="27.758875" lon="-17.982297">
        <ele>1046.192</ele>
        <time>2022-08-22T12:54:34Z</time>
      </trkpt>
      <trkpt lat="27.759687" lon="-17.981952">
        <ele>1062.082</ele>
        <time>2022-08-22T12:56:42Z</time>
      </trkpt>
      <trkpt lat="27.759924" lon="-17.981814">
        <ele>1065.935</ele>
        <time>2022-08-22T12:57:22Z</time>
      </trkpt>
      <trkpt lat="27.760057" lon="-17.981537">
        <ele>1068.340</ele>
        <time>2022-08-22T12:57:55Z</time>
      </trkpt>
      <trkpt lat="27.760233" lon="-17.981524">
        <ele>1069.788</ele>
        <time>2022-08-22T12:58:33Z</time>
      </trkpt>
      <trkpt lat="27.760376" lon="-17.981129">
        <ele>1071.445</ele>
        <time>2022-08-22T12:59:16Z</time>
      </trkpt>
      <trkpt lat="27.760539" lon="-17.980956">
        <ele>1077.740</ele>
        <time>2022-08-22T13:00:09Z</time>
      </trkpt>
      <trkpt lat="27.760693" lon="-17.980990">
        <ele>1083.962</ele>
        <time>2022-08-22T13:00:53Z</time>
      </trkpt>
      <trkpt lat="27.761038" lon="-17.980888">
        <ele>1093.934</ele>
        <time>2022-08-22T13:03:08Z</time>
      </trkpt>
      <trkpt lat="27.760983" lon="-17.981007">
        <ele>1095.055</ele>
        <time>2022-08-22T13:04:42Z</time>
      </trkpt>
      <trkpt lat="27.761083" lon="-17.980811">
        <ele>1095.210</ele>
        <time>2022-08-22T13:12:19Z</time>
      </trkpt>
      <trkpt lat="27.760969" lon="-17.980961">
        <ele>1094.909</ele>
        <time>2022-08-22T13:13:08Z</time>
      </trkpt>
      <trkpt lat="27.761019" lon="-17.980863">
        <ele>1095.194</ele>
        <time>2022-08-22T13:13:44Z</time>
      </trkpt>
      <trkpt lat="27.761051" lon="-17.980949">
        <ele>1095.114</ele>
        <time>2022-08-22T13:15:14Z</time>
      </trkpt>
      <trkpt lat="27.761033" lon="-17.980861">
        <ele>1095.354</ele>
        <time>2022-08-22T13:15:48Z</time>
      </trkpt>
      <trkpt lat="27.761241" lon="-17.981086">
        <ele>1095.697</ele>
        <time>2022-08-22T13:17:43Z</time>
      </trkpt>
      <trkpt lat="27.761151" lon="-17.980785">
        <ele>1106.032</ele>
        <time>2022-08-22T13:18:43Z</time>
      </trkpt>
      <trkpt lat="27.761248" lon="-17.980729">
        <ele>1109.580</ele>
        <time>2022-08-22T13:19:05Z</time>
      </trkpt>
      <trkpt lat="27.760962" lon="-17.980541">
        <ele>1120.997</ele>
        <time>2022-08-22T13:20:11Z</time>
      </trkpt>
      <trkpt lat="27.761278" lon="-17.980506">
        <ele>1133.892</ele>
        <time>2022-08-22T13:22:16Z</time>
      </trkpt>
      <trkpt lat="27.761545" lon="-17.980796">
        <ele>1141.224</ele>
        <time>2022-08-22T13:23:14Z</time>
      </trkpt>
      <trkpt lat="27.761775" lon="-17.980885">
        <ele>1150.181</ele>
        <time>2022-08-22T13:24:06Z</time>
      </trkpt>
      <trkpt lat="27.761921" lon="-17.981118">
        <ele>1159.061</ele>
        <time>2022-08-22T13:25:09Z</time>
      </trkpt>
      <trkpt lat="27.761944" lon="-17.981353">
        <ele>1163.917</ele>
        <time>2022-08-22T13:25:41Z</time>
      </trkpt>
      <trkpt lat="27.762115" lon="-17.981115">
        <ele>1171.309</ele>
        <time>2022-08-22T13:26:31Z</time>
      </trkpt>
      <trkpt lat="27.762176" lon="-17.981194">
        <ele>1174.469</ele>
        <time>2022-08-22T13:26:47Z</time>
      </trkpt>
      <trkpt lat="27.762327" lon="-17.981173">
        <ele>1178.359</ele>
        <time>2022-08-22T13:27:06Z</time>
      </trkpt>
      <trkpt lat="27.762483" lon="-17.980929">
        <ele>1187.689</ele>
        <time>2022-08-22T13:31:04Z</time>
      </trkpt>
      <trkpt lat="27.762555" lon="-17.981026">
        <ele>1190.362</ele>
        <time>2022-08-22T13:41:29Z</time>
      </trkpt>
      <trkpt lat="27.762649" lon="-17.980872">
        <ele>1191.657</ele>
        <time>2022-08-22T13:44:50Z</time>
      </trkpt>
      <trkpt lat="27.762620" lon="-17.980939">
        <ele>1193.225</ele>
        <time>2022-08-22T13:58:17Z</time>
      </trkpt>
      <trkpt lat="27.763035" lon="-17.980986">
        <ele>1193.492</ele>
        <time>2022-08-22T14:00:11Z</time>
      </trkpt>
      <trkpt lat="27.762728" lon="-17.980929">
        <ele>1192.967</ele>
        <time>2022-08-22T14:01:42Z</time>
      </trkpt>
      <trkpt lat="27.763021" lon="-17.980831">
        <ele>1191.549</ele>
        <time>2022-08-22T14:02:36Z</time>
      </trkpt>
      <trkpt lat="27.763042" lon="-17.980939">
        <ele>1190.998</ele>
        <time>2022-08-22T14:02:43Z</time>
      </trkpt>
      <trkpt lat="27.762588" lon="-17.980949">
        <ele>1192.915</ele>
        <time>2022-08-22T14:04:13Z</time>
      </trkpt>
      <trkpt lat="27.763031" lon="-17.981001">
        <ele>1193.426</ele>
        <time>2022-08-22T14:10:25Z</time>
      </trkpt>
      <trkpt lat="27.762617" lon="-17.980918">
        <ele>1193.409</ele>
        <time>2022-08-22T14:14:06Z</time>
      </trkpt>
      <trkpt lat="27.762199" lon="-17.981220">
        <ele>1183.620</ele>
        <time>2022-08-22T14:15:28Z</time>
      </trkpt>
      <trkpt lat="27.762118" lon="-17.981093">
        <ele>1181.970</ele>
        <time>2022-08-22T14:16:58Z</time>
      </trkpt>
      <trkpt lat="27.761961" lon="-17.981326">
        <ele>1173.250</ele>
        <time>2022-08-22T14:19:40Z</time>
      </trkpt>
      <trkpt lat="27.761900" lon="-17.981038">
        <ele>1165.833</ele>
        <time>2022-08-22T14:20:28Z</time>
      </trkpt>
      <trkpt lat="27.761476" lon="-17.980655">
        <ele>1144.878</ele>
        <time>2022-08-22T14:22:54Z</time>
      </trkpt>
      <trkpt lat="27.761371" lon="-17.980593">
        <ele>1142.016</ele>
        <time>2022-08-22T14:23:09Z</time>
      </trkpt>
      <trkpt lat="27.761383" lon="-17.980689">
        <ele>1140.983</ele>
        <time>2022-08-22T14:23:30Z</time>
      </trkpt>
      <trkpt lat="27.761226" lon="-17.980555">
        <ele>1139.128</ele>
        <time>2022-08-22T14:24:23Z</time>
      </trkpt>
      <trkpt lat="27.760993" lon="-17.980576">
        <ele>1134.190</ele>
        <time>2022-08-22T14:24:56Z</time>
      </trkpt>
      <trkpt lat="27.761172" lon="-17.980857">
        <ele>1115.145</ele>
        <time>2022-08-22T14:26:12Z</time>
      </trkpt>
      <trkpt lat="27.761210" lon="-17.981189">
        <ele>1105.047</ele>
        <time>2022-08-22T14:27:01Z</time>
      </trkpt>
      <trkpt lat="27.761102" lon="-17.980970">
        <ele>1103.711</ele>
        <time>2022-08-22T14:27:06Z</time>
      </trkpt>
      <trkpt lat="27.760693" lon="-17.981030">
        <ele>1098.709</ele>
        <time>2022-08-22T14:27:32Z</time>
      </trkpt>
      <trkpt lat="27.760982" lon="-17.980891">
        <ele>1098.415</ele>
        <time>2022-08-22T14:27:46Z</time>
      </trkpt>
      <trkpt lat="27.760005" lon="-17.981584">
        <ele>1072.865</ele>
        <time>2022-08-22T14:53:44Z</time>
      </trkpt>
      <trkpt lat="27.759932" lon="-17.981751">
        <ele>1071.685</ele>
        <time>2022-08-22T14:53:59Z</time>
      </trkpt>
      <trkpt lat="27.759786" lon="-17.981753">
        <ele>1070.368</ele>
        <time>2022-08-22T14:54:17Z</time>
      </trkpt>
      <trkpt lat="27.759700" lon="-17.981889">
        <ele>1068.333</ele>
        <time>2022-08-22T14:54:34Z</time>
      </trkpt>
      <trkpt lat="27.759338" lon="-17.982086">
        <ele>1059.441</ele>
        <time>2022-08-22T14:55:13Z</time>
      </trkpt>
      <trkpt lat="27.758842" lon="-17.982338">
        <ele>1049.958</ele>
        <time>2022-08-22T14:56:21Z</time>
      </trkpt>
      <trkpt lat="27.758577" lon="-17.982206">
        <ele>1045.513</ele>
        <time>2022-08-22T14:57:12Z</time>
      </trkpt>
      <trkpt lat="27.758441" lon="-17.982255">
        <ele>1041.135</ele>
        <time>2022-08-22T14:57:33Z</time>
      </trkpt>
      <trkpt lat="27.758589" lon="-17.982474">
        <ele>1034.944</ele>
        <time>2022-08-22T14:58:00Z</time>
      </trkpt>
      <trkpt lat="27.758194" lon="-17.982255">
        <ele>1028.505</ele>
        <time>2022-08-22T14:59:08Z</time>
      </trkpt>
      <trkpt lat="27.758061" lon="-17.982447">
        <ele>1028.015</ele>
        <time>2022-08-22T14:59:21Z</time>
      </trkpt>
      <trkpt lat="27.757699" lon="-17.982414">
        <ele>1029.909</ele>
        <time>2022-08-22T15:00:03Z</time>
      </trkpt>
      <trkpt lat="27.757298" lon="-17.982709">
        <ele>1019.985</ele>
        <time>2022-08-22T15:01:03Z</time>
      </trkpt>
      <trkpt lat="27.756943" lon="-17.983267">
        <ele>1002.135</ele>
        <time>2022-08-22T15:02:32Z</time>
      </trkpt>
      <trkpt lat="27.756889" lon="-17.983582">
        <ele>996.515</ele>
        <time>2022-08-22T15:03:16Z</time>
      </trkpt>
      <trkpt lat="27.756885" lon="-17.983757">
        <ele>991.998</ele>
        <time>2022-08-22T15:03:38Z</time>
      </trkpt>
      <trkpt lat="27.756955" lon="-17.983757">
        <ele>987.943</ele>
        <time>2022-08-22T15:03:53Z</time>
      </trkpt>
      <trkpt lat="27.756986" lon="-17.983933">
        <ele>983.341</ele>
        <time>2022-08-22T15:04:17Z</time>
      </trkpt>
      <trkpt lat="27.757170" lon="-17.984161">
        <ele>978.638</ele>
        <time>2022-08-22T15:05:04Z</time>
      </trkpt>
      <trkpt lat="27.756989" lon="-17.984413">
        <ele>974.653</ele>
        <time>2022-08-22T15:05:34Z</time>
      </trkpt>
      <trkpt lat="27.757053" lon="-17.984493">
        <ele>972.455</ele>
        <time>2022-08-22T15:09:50Z</time>
      </trkpt>
      <trkpt lat="27.756981" lon="-17.984855">
        <ele>969.722</ele>
        <time>2022-08-22T15:10:31Z</time>
      </trkpt>
      <trkpt lat="27.755987" lon="-17.986038">
        <ele>937.062</ele>
        <time>2022-08-22T15:13:19Z</time>
      </trkpt>
      <trkpt lat="27.755975" lon="-17.986373">
        <ele>928.308</ele>
        <time>2022-08-22T15:13:56Z</time>
      </trkpt>
      <trkpt lat="27.755729" lon="-17.986801">
        <ele>913.209</ele>
        <time>2022-08-22T15:16:11Z</time>
      </trkpt>
      <trkpt lat="27.755570" lon="-17.986706">
        <ele>905.923</ele>
        <time>2022-08-22T15:17:51Z</time>
      </trkpt>
      <trkpt lat="27.755478" lon="-17.986783">
        <ele>901.723</ele>
        <time>2022-08-22T15:18:17Z</time>
      </trkpt>
      <trkpt lat="27.755578" lon="-17.986846">
        <ele>898.613</ele>
        <time>2022-08-22T15:18:57Z</time>
      </trkpt>
      <trkpt lat="27.755537" lon="-17.986982">
        <ele>887.146</ele>
        <time>2022-08-22T15:19:48Z</time>
      </trkpt>
      <trkpt lat="27.755339" lon="-17.987050">
        <ele>875.541</ele>
        <time>2022-08-22T15:20:45Z</time>
      </trkpt>
      <trkpt lat="27.755254" lon="-17.986759">
        <ele>869.569</ele>
        <time>2022-08-22T15:21:31Z</time>
      </trkpt>
      <trkpt lat="27.755048" lon="-17.987031">
        <ele>857.236</ele>
        <time>2022-08-22T15:22:17Z</time>
      </trkpt>
      <trkpt lat="27.755044" lon="-17.987193">
        <ele>854.581</ele>
        <time>2022-08-22T15:22:31Z</time>
      </trkpt>
      <trkpt lat="27.754982" lon="-17.987171">
        <ele>853.333</ele>
        <time>2022-08-22T15:22:39Z</time>
      </trkpt>
      <trkpt lat="27.755076" lon="-17.987115">
        <ele>850.684</ele>
        <time>2022-08-22T15:23:01Z</time>
      </trkpt>
      <trkpt lat="27.754820" lon="-17.987334">
        <ele>841.207</ele>
        <time>2022-08-22T15:23:48Z</time>
      </trkpt>
      <trkpt lat="27.754354" lon="-17.987062">
        <ele>834.717</ele>
        <time>2022-08-22T15:27:34Z</time>
      </trkpt>
      <trkpt lat="27.754316" lon="-17.987870">
        <ele>823.309</ele>
        <time>2022-08-22T15:29:22Z</time>
      </trkpt>
      <trkpt lat="27.754062" lon="-17.988000">
        <ele>821.049</ele>
        <time>2022-08-22T15:30:00Z</time>
      </trkpt>
      <trkpt lat="27.754190" lon="-17.988082">
        <ele>817.489</ele>
        <time>2022-08-22T15:35:53Z</time>
      </trkpt>
      <trkpt lat="27.754029" lon="-17.988205">
        <ele>811.859</ele>
        <time>2022-08-22T15:36:28Z</time>
      </trkpt>
      <trkpt lat="27.754238" lon="-17.988177">
        <ele>805.342</ele>
        <time>2022-08-22T15:36:55Z</time>
      </trkpt>
      <trkpt lat="27.754217" lon="-17.988288">
        <ele>798.797</ele>
        <time>2022-08-22T15:38:02Z</time>
      </trkpt>
      <trkpt lat="27.754061" lon="-17.988423">
        <ele>791.035</ele>
        <time>2022-08-22T15:38:24Z</time>
      </trkpt>
      <trkpt lat="27.753849" lon="-17.989013">
        <ele>775.062</ele>
        <time>2022-08-22T15:40:44Z</time>
      </trkpt>
      <trkpt lat="27.753571" lon="-17.989377">
        <ele>767.477</ele>
        <time>2022-08-22T15:42:30Z</time>
      </trkpt>
      <trkpt lat="27.753797" lon="-17.989382">
        <ele>760.129</ele>
        <time>2022-08-22T15:42:49Z</time>
      </trkpt>
      <trkpt lat="27.753521" lon="-17.989694">
        <ele>750.195</ele>
        <time>2022-08-22T15:43:39Z</time>
      </trkpt>
      <trkpt lat="27.753376" lon="-17.989730">
        <ele>746.049</ele>
        <time>2022-08-22T15:43:53Z</time>
      </trkpt>
      <trkpt lat="27.753472" lon="-17.989868">
        <ele>743.423</ele>
        <time>2022-08-22T15:44:46Z</time>
      </trkpt>
      <trkpt lat="27.753567" lon="-17.989852">
        <ele>736.409</ele>
        <time>2022-08-22T15:44:59Z</time>
      </trkpt>
      <trkpt lat="27.753501" lon="-17.989930">
        <ele>734.870</ele>
        <time>2022-08-22T15:45:20Z</time>
      </trkpt>
      <trkpt lat="27.753257" lon="-17.989901">
        <ele>727.820</ele>
        <time>2022-08-22T15:46:01Z</time>
      </trkpt>
      <trkpt lat="27.753196" lon="-17.989986">
        <ele>720.430</ele>
        <time>2022-08-22T15:46:22Z</time>
      </trkpt>
      <trkpt lat="27.753317" lon="-17.990061">
        <ele>717.933</ele>
        <time>2022-08-22T15:46:39Z</time>
      </trkpt>
      <trkpt lat="27.753244" lon="-17.990158">
        <ele>707.598</ele>
        <time>2022-08-22T15:47:19Z</time>
      </trkpt>
      <trkpt lat="27.753488" lon="-17.990221">
        <ele>703.256</ele>
        <time>2022-08-22T15:47:48Z</time>
      </trkpt>
      <trkpt lat="27.753751" lon="-17.990176">
        <ele>698.743</ele>
        <time>2022-08-22T15:48:37Z</time>
      </trkpt>
      <trkpt lat="27.753595" lon="-17.990347">
        <ele>691.688</ele>
        <time>2022-08-22T15:49:28Z</time>
      </trkpt>
      <trkpt lat="27.753782" lon="-17.990401">
        <ele>683.370</ele>
        <time>2022-08-22T15:50:20Z</time>
      </trkpt>
      <trkpt lat="27.753625" lon="-17.990630">
        <ele>674.268</ele>
        <time>2022-08-22T15:50:59Z</time>
      </trkpt>
      <trkpt lat="27.754158" lon="-17.990533">
        <ele>649.042</ele>
        <time>2022-08-22T15:53:14Z</time>
      </trkpt>
      <trkpt lat="27.754107" lon="-17.990625">
        <ele>648.426</ele>
        <time>2022-08-22T15:53:35Z</time>
      </trkpt>
      <trkpt lat="27.753596" lon="-17.991296">
        <ele>636.009</ele>
        <time>2022-08-22T15:55:42Z</time>
      </trkpt>
      <trkpt lat="27.753355" lon="-17.991213">
        <ele>629.727</ele>
        <time>2022-08-22T15:56:03Z</time>
      </trkpt>
      <trkpt lat="27.753349" lon="-17.991358">
        <ele>624.817</ele>
        <time>2022-08-22T16:52:14Z</time>
      </trkpt>
      <trkpt lat="27.753178" lon="-17.991251">
        <ele>626.857</ele>
        <time>2022-08-22T16:53:42Z</time>
      </trkpt>
      <trkpt lat="27.752921" lon="-17.991560">
        <ele>628.380</ele>
        <time>2022-08-22T16:54:27Z</time>
      </trkpt>
      <trkpt lat="27.752686" lon="-17.991511">
        <ele>628.495</ele>
        <time>2022-08-22T16:55:11Z</time>
      </trkpt>
      <trkpt lat="27.752322" lon="-17.991841">
        <ele>622.233</ele>
        <time>2022-08-22T16:55:50Z</time>
      </trkpt>
      <trkpt lat="27.752092" lon="-17.991926">
        <ele>619.660</ele>
        <time>2022-08-22T16:56:15Z</time>
      </trkpt>
      <trkpt lat="27.752029" lon="-17.992288">
        <ele>618.335</ele>
        <time>2022-08-22T16:56:51Z</time>
      </trkpt>
      <trkpt lat="27.751725" lon="-17.992654">
        <ele>617.097</ele>
        <time>2022-08-22T16:57:36Z</time>
      </trkpt>
      <trkpt lat="27.751458" lon="-17.992795">
        <ele>614.111</ele>
        <time>2022-08-22T16:58:05Z</time>
      </trkpt>
      <trkpt lat="27.751594" lon="-17.993310">
        <ele>609.221</ele>
        <time>2022-08-22T16:58:47Z</time>
      </trkpt>
      <trkpt lat="27.751506" lon="-17.993491">
        <ele>601.703</ele>
        <time>2022-08-22T16:59:33Z</time>
      </trkpt>
      <trkpt lat="27.751746" lon="-17.993405">
        <ele>595.009</ele>
        <time>2022-08-22T17:00:17Z</time>
      </trkpt>
      <trkpt lat="27.751744" lon="-17.993574">
        <ele>588.242</ele>
        <time>2022-08-22T17:00:52Z</time>
      </trkpt>
      <trkpt lat="27.751879" lon="-17.993540">
        <ele>584.312</ele>
        <time>2022-08-22T17:01:12Z</time>
      </trkpt>
      <trkpt lat="27.751834" lon="-17.993636">
        <ele>582.212</ele>
        <time>2022-08-22T17:01:30Z</time>
      </trkpt>
      <trkpt lat="27.752090" lon="-17.993564">
        <ele>567.185</ele>
        <time>2022-08-22T17:02:38Z</time>
      </trkpt>
      <trkpt lat="27.752337" lon="-17.993979">
        <ele>546.650</ele>
        <time>2022-08-22T17:04:26Z</time>
      </trkpt>
      <trkpt lat="27.752360" lon="-17.993799">
        <ele>546.248</ele>
        <time>2022-08-22T17:04:31Z</time>
      </trkpt>
      <trkpt lat="27.752478" lon="-17.994408">
        <ele>533.575</ele>
        <time>2022-08-22T17:05:45Z</time>
      </trkpt>
      <trkpt lat="27.752570" lon="-17.994311">
        <ele>533.130</ele>
        <time>2022-08-22T17:05:49Z</time>
      </trkpt>
      <trkpt lat="27.752923" lon="-17.994379">
        <ele>523.672</ele>
        <time>2022-08-22T17:06:52Z</time>
      </trkpt>
      <trkpt lat="27.753151" lon="-17.994677">
        <ele>515.058</ele>
        <time>2022-08-22T17:16:48Z</time>
      </trkpt>
      <trkpt lat="27.753375" lon="-17.995417">
        <ele>497.052</ele>
        <time>2022-08-22T17:18:03Z</time>
      </trkpt>
      <trkpt lat="27.753355" lon="-17.996151">
        <ele>481.517</ele>
        <time>2022-08-22T17:19:04Z</time>
      </trkpt>
      <trkpt lat="27.753459" lon="-17.996162">
        <ele>478.909</ele>
        <time>2022-08-22T17:19:11Z</time>
      </trkpt>
      <trkpt lat="27.753333" lon="-17.996344">
        <ele>475.546</ele>
        <time>2022-08-22T17:19:29Z</time>
      </trkpt>
      <trkpt lat="27.753513" lon="-17.996304">
        <ele>471.446</ele>
        <time>2022-08-22T17:19:44Z</time>
      </trkpt>
      <trkpt lat="27.753370" lon="-17.996592">
        <ele>465.736</ele>
        <time>2022-08-22T17:20:14Z</time>
      </trkpt>
      <trkpt lat="27.753594" lon="-17.996714">
        <ele>461.089</ele>
        <time>2022-08-22T17:20:35Z</time>
      </trkpt>
      <trkpt lat="27.753650" lon="-17.997177">
        <ele>450.434</ele>
        <time>2022-08-22T17:21:11Z</time>
      </trkpt>
      <trkpt lat="27.754092" lon="-17.997981">
        <ele>436.882</ele>
        <time>2022-08-22T17:22:22Z</time>
      </trkpt>
      <trkpt lat="27.754220" lon="-17.998573">
        <ele>427.749</ele>
        <time>2022-08-22T17:23:07Z</time>
      </trkpt>
      <trkpt lat="27.754607" lon="-17.999308">
        <ele>412.564</ele>
        <time>2022-08-22T17:24:12Z</time>
      </trkpt>
      <trkpt lat="27.754648" lon="-17.999746">
        <ele>404.056</ele>
        <time>2022-08-22T17:24:54Z</time>
      </trkpt>
      <trkpt lat="27.755056" lon="-18.001069">
        <ele>379.876</ele>
        <time>2022-08-22T17:26:37Z</time>
      </trkpt>
      <trkpt lat="27.755265" lon="-18.001311">
        <ele>374.990</ele>
        <time>2022-08-22T17:27:04Z</time>
      </trkpt>
      <trkpt lat="27.754840" lon="-18.002275">
        <ele>365.919</ele>
        <time>2022-08-22T17:28:44Z</time>
      </trkpt>
    </trkseg>
  </trk></gpx>