<?xml version="1.0" encoding="UTF-8"?>
<gpx creator="Wikiloc - https://www.wikiloc.com" version="1.1" xmlns="http://www.topografix.com/GPX/1/1" xmlns:xsi="http://www.w3.org/2001/XMLSchema-instance" xsi:schemaLocation="http://www.topografix.com/GPX/1/1 http://www.topografix.com/GPX/1/1/gpx.xsd">
  <metadata>
    <name>Wikiloc - Balcón de La Asomada</name>
    <link href="https://www.wikiloc.com/hiking-trails/balcon-de-la-asomada-16686920">
      <text>Balcón de La Asomada - Wikiloc on Wikiloc</text>
    </link>
    <time>2016-05-28T13:16:25Z</time>
  </metadata>
  <trk>
    <name>Balcón de La Asomada - Wikiloc</name>
    <cmt></cmt>
    <desc></desc>
    <trkseg>
      <trkpt lat="28.498545" lon="-13.879152">
        <ele>67.036</ele>
        <time>2016-05-28T10:25:36Z</time>
      </trkpt>
      <trkpt lat="28.498545" lon="-13.882506">
        <ele>79.017</ele>
        <time>2016-05-28T10:29:01Z</time>
      </trkpt>
      <trkpt lat="28.498455" lon="-13.883169">
        <ele>83.018</ele>
        <time>2016-05-28T10:29:43Z</time>
      </trkpt>
      <trkpt lat="28.498677" lon="-13.883510">
        <ele>86.008</ele>
        <time>2016-05-28T10:30:13Z</time>
      </trkpt>
      <trkpt lat="28.499010" lon="-13.883685">
        <ele>87.024</ele>
        <time>2016-05-28T10:30:56Z</time>
      </trkpt>
      <trkpt lat="28.499094" lon="-13.884010">
        <ele>86.049</ele>
        <time>2016-05-28T10:31:21Z</time>
      </trkpt>
      <trkpt lat="28.499473" lon="-13.884064">
        <ele>85.069</ele>
        <time>2016-05-28T10:31:47Z</time>
      </trkpt>
      <trkpt lat="28.499602" lon="-13.884220">
        <ele>86.051</ele>
        <time>2016-05-28T10:32:00Z</time>
      </trkpt>
      <trkpt lat="28.499736" lon="-13.885299">
        <ele>86.089</ele>
        <time>2016-05-28T10:33:08Z</time>
      </trkpt>
      <trkpt lat="28.500476" lon="-13.885780">
        <ele>88.042</ele>
        <time>2016-05-28T10:34:04Z</time>
      </trkpt>
      <trkpt lat="28.501268" lon="-13.885816">
        <ele>88.025</ele>
        <time>2016-05-28T10:34:58Z</time>
      </trkpt>
      <trkpt lat="28.502253" lon="-13.885738">
        <ele>86.063</ele>
        <time>2016-05-28T10:36:05Z</time>
      </trkpt>
      <trkpt lat="28.502892" lon="-13.885570">
        <ele>86.056</ele>
        <time>2016-05-28T10:37:05Z</time>
      </trkpt>
      <trkpt lat="28.503084" lon="-13.885304">
        <ele>85.059</ele>
        <time>2016-05-28T10:38:03Z</time>
      </trkpt>
      <trkpt lat="28.503370" lon="-13.885268">
        <ele>87.014</ele>
        <time>2016-05-28T10:38:25Z</time>
      </trkpt>
      <trkpt lat="28.503446" lon="-13.886128">
        <ele>84.008</ele>
        <time>2016-05-28T10:39:58Z</time>
      </trkpt>
      <trkpt lat="28.503084" lon="-13.887504">
        <ele>90.016</ele>
        <time>2016-05-28T10:41:40Z</time>
      </trkpt>
      <trkpt lat="28.502213" lon="-13.889074">
        <ele>93.021</ele>
        <time>2016-05-28T10:43:36Z</time>
      </trkpt>
      <trkpt lat="28.501549" lon="-13.891920">
        <ele>104.011</ele>
        <time>2016-05-28T10:47:04Z</time>
      </trkpt>
      <trkpt lat="28.501357" lon="-13.892163">
        <ele>106.043</ele>
        <time>2016-05-28T10:47:26Z</time>
      </trkpt>
      <trkpt lat="28.501003" lon="-13.892263">
        <ele>107.081</ele>
        <time>2016-05-28T10:47:55Z</time>
      </trkpt>
      <trkpt lat="28.501141" lon="-13.892875">
        <ele>113.024</ele>
        <time>2016-05-28T10:48:44Z</time>
      </trkpt>
      <trkpt lat="28.499625" lon="-13.894100">
        <ele>120.027</ele>
        <time>2016-05-28T10:51:04Z</time>
      </trkpt>
      <trkpt lat="28.499110" lon="-13.894352">
        <ele>123.075</ele>
        <time>2016-05-28T10:51:47Z</time>
      </trkpt>
      <trkpt lat="28.498726" lon="-13.894776">
        <ele>127.032</ele>
        <time>2016-05-28T10:52:41Z</time>
      </trkpt>
      <trkpt lat="28.499254" lon="-13.895046">
        <ele>136.092</ele>
        <time>2016-05-28T10:53:31Z</time>
      </trkpt>
      <trkpt lat="28.500012" lon="-13.895175">
        <ele>145.011</ele>
        <time>2016-05-28T10:54:36Z</time>
      </trkpt>
      <trkpt lat="28.500158" lon="-13.895041">
        <ele>145.008</ele>
        <time>2016-05-28T10:54:50Z</time>
      </trkpt>
      <trkpt lat="28.500568" lon="-13.895050">
        <ele>147.024</ele>
        <time>2016-05-28T10:55:53Z</time>
      </trkpt>
      <trkpt lat="28.501694" lon="-13.895213">
        <ele>165.039</ele>
        <time>2016-05-28T10:57:36Z</time>
      </trkpt>
      <trkpt lat="28.502282" lon="-13.895137">
        <ele>174.059</ele>
        <time>2016-05-28T11:04:56Z</time>
      </trkpt>
      <trkpt lat="28.502456" lon="-13.895230">
        <ele>179.011</ele>
        <time>2016-05-28T11:06:18Z</time>
      </trkpt>
      <trkpt lat="28.502290" lon="-13.895115">
        <ele>176.049</ele>
        <time>2016-05-28T11:06:43Z</time>
      </trkpt>
      <trkpt lat="28.502386" lon="-13.895148">
        <ele>179.082</ele>
        <time>2016-05-28T11:07:20Z</time>
      </trkpt>
      <trkpt lat="28.502207" lon="-13.895207">
        <ele>176.065</ele>
        <time>2016-05-28T11:08:27Z</time>
      </trkpt>
      <trkpt lat="28.503047" lon="-13.895271">
        <ele>197.023</ele>
        <time>2016-05-28T11:11:14Z</time>
      </trkpt>
      <trkpt lat="28.503499" lon="-13.895620">
        <ele>214.035</ele>
        <time>2016-05-28T11:12:27Z</time>
      </trkpt>
      <trkpt lat="28.503521" lon="-13.895902">
        <ele>227.086</ele>
        <time>2016-05-28T11:13:17Z</time>
      </trkpt>
      <trkpt lat="28.503454" lon="-13.895753">
        <ele>222.014</ele>
        <time>2016-05-28T11:15:51Z</time>
      </trkpt>
      <trkpt lat="28.504824" lon="-13.897182">
        <ele>223.008</ele>
        <time>2016-05-28T11:35:20Z</time>
      </trkpt>
      <trkpt lat="28.504715" lon="-13.897071">
        <ele>221.044</ele>
        <time>2016-05-28T11:35:57Z</time>
      </trkpt>
      <trkpt lat="28.504797" lon="-13.897058">
        <ele>220.049</ele>
        <time>2016-05-28T11:36:50Z</time>
      </trkpt>
      <trkpt lat="28.504731" lon="-13.897161">
        <ele>222.039</ele>
        <time>2016-05-28T11:39:36Z</time>
      </trkpt>
      <trkpt lat="28.504802" lon="-13.897091">
        <ele>224.011</ele>
        <time>2016-05-28T11:39:52Z</time>
      </trkpt>
      <trkpt lat="28.505260" lon="-13.897402">
        <ele>208.029</ele>
        <time>2016-05-28T11:52:57Z</time>
      </trkpt>
      <trkpt lat="28.506464" lon="-13.897443">
        <ele>225.032</ele>
        <time>2016-05-28T11:58:44Z</time>
      </trkpt>
      <trkpt lat="28.507536" lon="-13.898184">
        <ele>222.065</ele>
        <time>2016-05-28T12:00:19Z</time>
      </trkpt>
      <trkpt lat="28.507831" lon="-13.898196">
        <ele>221.083</ele>
        <time>2016-05-28T12:00:40Z</time>
      </trkpt>
      <trkpt lat="28.509357" lon="-13.897730">
        <ele>223.094</ele>
        <time>2016-05-28T12:02:58Z</time>
      </trkpt>
      <trkpt lat="28.509705" lon="-13.897862">
        <ele>222.057</ele>
        <time>2016-05-28T12:03:28Z</time>
      </trkpt>
      <trkpt lat="28.510538" lon="-13.897709">
        <ele>221.022</ele>
        <time>2016-05-28T12:04:51Z</time>
      </trkpt>
      <trkpt lat="28.511299" lon="-13.897237">
        <ele>221.008</ele>
        <time>2016-05-28T12:05:55Z</time>
      </trkpt>
      <trkpt lat="28.511859" lon="-13.897348">
        <ele>220.090</ele>
        <time>2016-05-28T12:06:33Z</time>
      </trkpt>
      <trkpt lat="28.512231" lon="-13.897245">
        <ele>220.045</ele>
        <time>2016-05-28T12:07:02Z</time>
      </trkpt>
      <trkpt lat="28.512543" lon="-13.897782">
        <ele>218.085</ele>
        <time>2016-05-28T12:07:51Z</time>
      </trkpt>
      <trkpt lat="28.512569" lon="-13.896925">
        <ele>216.067</ele>
        <time>2016-05-28T12:09:16Z</time>
      </trkpt>
      <trkpt lat="28.512861" lon="-13.896485">
        <ele>217.085</ele>
        <time>2016-05-28T12:09:49Z</time>
      </trkpt>
      <trkpt lat="28.513062" lon="-13.895853">
        <ele>217.058</ele>
        <time>2016-05-28T12:10:30Z</time>
      </trkpt>
      <trkpt lat="28.513480" lon="-13.895388">
        <ele>217.091</ele>
        <time>2016-05-28T12:11:12Z</time>
      </trkpt>
      <trkpt lat="28.513584" lon="-13.894853">
        <ele>219.029</ele>
        <time>2016-05-28T12:11:47Z</time>
      </trkpt>
      <trkpt lat="28.513815" lon="-13.894654">
        <ele>219.089</ele>
        <time>2016-05-28T12:12:09Z</time>
      </trkpt>
      <trkpt lat="28.514079" lon="-13.894060">
        <ele>219.006</ele>
        <time>2016-05-28T12:12:51Z</time>
      </trkpt>
      <trkpt lat="28.514616" lon="-13.893408">
        <ele>221.026</ele>
        <time>2016-05-28T12:13:47Z</time>
      </trkpt>
      <trkpt lat="28.515392" lon="-13.892772">
        <ele>222.008</ele>
        <time>2016-05-28T12:14:53Z</time>
      </trkpt>
      <trkpt lat="28.517060" lon="-13.890269">
        <ele>226.039</ele>
        <time>2016-05-28T12:18:07Z</time>
      </trkpt>
      <trkpt lat="28.517287" lon="-13.890068">
        <ele>225.084</ele>
        <time>2016-05-28T12:18:27Z</time>
      </trkpt>
      <trkpt lat="28.517752" lon="-13.890012">
        <ele>225.034</ele>
        <time>2016-05-28T12:19:01Z</time>
      </trkpt>
      <trkpt lat="28.519098" lon="-13.888606">
        <ele>219.086</ele>
        <time>2016-05-28T12:21:13Z</time>
      </trkpt>
      <trkpt lat="28.519388" lon="-13.888161">
        <ele>219.044</ele>
        <time>2016-05-28T12:21:48Z</time>
      </trkpt>
      <trkpt lat="28.520109" lon="-13.887846">
        <ele>218.037</ele>
        <time>2016-05-28T12:22:40Z</time>
      </trkpt>
      <trkpt lat="28.520748" lon="-13.887181">
        <ele>215.060</ele>
        <time>2016-05-28T12:23:40Z</time>
      </trkpt>
      <trkpt lat="28.521326" lon="-13.887084">
        <ele>210.038</ele>
        <time>2016-05-28T12:24:21Z</time>
      </trkpt>
      <trkpt lat="28.522247" lon="-13.886285">
        <ele>205.035</ele>
        <time>2016-05-28T12:25:41Z</time>
      </trkpt>
      <trkpt lat="28.521764" lon="-13.885318">
        <ele>200.086</ele>
        <time>2016-05-28T12:26:49Z</time>
      </trkpt>
      <trkpt lat="28.521506" lon="-13.884104">
        <ele>188.014</ele>
        <time>2016-05-28T12:28:08Z</time>
      </trkpt>
      <trkpt lat="28.520183" lon="-13.880651">
        <ele>152.008</ele>
        <time>2016-05-28T12:34:56Z</time>
      </trkpt>
      <trkpt lat="28.519958" lon="-13.880263">
        <ele>149.054</ele>
        <time>2016-05-28T12:35:24Z</time>
      </trkpt>
      <trkpt lat="28.519055" lon="-13.879486">
        <ele>142.049</ele>
        <time>2016-05-28T12:36:56Z</time>
      </trkpt>
      <trkpt lat="28.519041" lon="-13.879710">
        <ele>141.099</ele>
        <time>2016-05-28T12:39:25Z</time>
      </trkpt>
      <trkpt lat="28.518592" lon="-13.880447">
        <ele>139.071</ele>
        <time>2016-05-28T12:40:21Z</time>
      </trkpt>
      <trkpt lat="28.516591" lon="-13.882671">
        <ele>126.099</ele>
        <time>2016-05-28T12:43:34Z</time>
      </trkpt>
      <trkpt lat="28.512495" lon="-13.885070">
        <ele>100.052</ele>
        <time>2016-05-28T12:48:50Z</time>
      </trkpt>
      <trkpt lat="28.511417" lon="-13.885142">
        <ele>94.085</ele>
        <time>2016-05-28T12:50:06Z</time>
      </trkpt>
      <trkpt lat="28.510954" lon="-13.885011">
        <ele>93.073</ele>
        <time>2016-05-28T12:50:40Z</time>
      </trkpt>
      <trkpt lat="28.510716" lon="-13.884559">
        <ele>95.061</ele>
        <time>2016-05-28T12:52:00Z</time>
      </trkpt>
      <trkpt lat="28.509742" lon="-13.884019">
        <ele>91.021</ele>
        <time>2016-05-28T12:53:21Z</time>
      </trkpt>
      <trkpt lat="28.508990" lon="-13.883933">
        <ele>90.013</ele>
        <time>2016-05-28T12:54:16Z</time>
      </trkpt>
      <trkpt lat="28.508427" lon="-13.883726">
        <ele>88.008</ele>
        <time>2016-05-28T12:55:17Z</time>
      </trkpt>
      <trkpt lat="28.507475" lon="-13.883845">
        <ele>84.057</ele>
        <time>2016-05-28T12:56:43Z</time>
      </trkpt>
      <trkpt lat="28.506723" lon="-13.883739">
        <ele>82.072</ele>
        <time>2016-05-28T12:57:45Z</time>
      </trkpt>
      <trkpt lat="28.506159" lon="-13.884302">
        <ele>78.062</ele>
        <time>2016-05-28T12:58:46Z</time>
      </trkpt>
      <trkpt lat="28.505865" lon="-13.884035">
        <ele>77.054</ele>
        <time>2016-05-28T12:59:41Z</time>
      </trkpt>
      <trkpt lat="28.506117" lon="-13.883744">
        <ele>80.042</ele>
        <time>2016-05-28T13:00:21Z</time>
      </trkpt>
      <trkpt lat="28.506370" lon="-13.882150">
        <ele>80.085</ele>
        <time>2016-05-28T13:02:19Z</time>
      </trkpt>
      <trkpt lat="28.506083" lon="-13.880387">
        <ele>79.018</ele>
        <time>2016-05-28T13:04:36Z</time>
      </trkpt>
      <trkpt lat="28.505936" lon="-13.880250">
        <ele>79.056</ele>
        <time>2016-05-28T13:04:52Z</time>
      </trkpt>
      <trkpt lat="28.505649" lon="-13.880243">
        <ele>77.014</ele>
        <time>2016-05-28T13:05:14Z</time>
      </trkpt>
      <trkpt lat="28.504875" lon="-13.880708">
        <ele>70.054</ele>
        <time>2016-05-28T13:06:15Z</time>
      </trkpt>
      <trkpt lat="28.504315" lon="-13.880678">
        <ele>69.009</ele>
        <time>2016-05-28T13:07:04Z</time>
      </trkpt>
      <trkpt lat="28.503867" lon="-13.879830">
        <ele>67.008</ele>
        <time>2016-05-28T13:08:08Z</time>
      </trkpt>
      <trkpt lat="28.503118" lon="-13.878820">
        <ele>66.012</ele>
        <time>2016-05-28T13:09:33Z</time>
      </trkpt>
      <trkpt lat="28.502621" lon="-13.878817">
        <ele>66.057</ele>
        <time>2016-05-28T13:10:13Z</time>
      </trkpt>
      <trkpt lat="28.502365" lon="-13.878979">
        <ele>66.077</ele>
        <time>2016-05-28T13:10:35Z</time>
      </trkpt>
      <trkpt lat="28.501211" lon="-13.878910">
        <ele>65.059</ele>
        <time>2016-05-28T13:12:01Z</time>
      </trkpt>
      <trkpt lat="28.501042" lon="-13.878807">
        <ele>64.087</ele>
        <time>2016-05-28T13:12:18Z</time>
      </trkpt>
      <trkpt lat="28.500687" lon="-13.878982">
        <ele>65.020</ele>
        <time>2016-05-28T13:12:59Z</time>
      </trkpt>
      <trkpt lat="28.499340" lon="-13.878974">
        <ele>65.043</ele>
        <time>2016-05-28T13:15:03Z</time>
      </trkpt>
      <trkpt lat="28.499089" lon="-13.879104">
        <ele>64.031</ele>
        <time>2016-05-28T13:15:33Z</time>
      </trkpt>
      <trkpt lat="28.498791" lon="-13.879044">
        <ele>64.047</ele>
        <time>2016-05-28T13:16:25Z</time>
      </trkpt>
    </trkseg>
  </trk></gpx>