<?xml version="1.0" encoding="UTF-8"?>
<gpx version="1.1" creator="Aventuras en Cada Paso" xmlns="http://www.topografix.com/GPX/1/1">
  <metadata>
    <name>Barranco de Güigüi – Playa Virgen</name>
    <desc>Una de las rutas más salvajes de Gran Canaria. Desciende al Barranco de Güigüi hasta una playa virgen inaccesible por carretera. Llevar mucha agua.</desc>
    <author><name>Aventuras en Cada Paso</name></author>
    <time>2026-07-08T08:12:58.163Z</time>
    <keywords>Gran Canaria, Senderismo, Difícil, senderismo Canarias</keywords>
  </metadata>
  <wpt lat="27.8792" lon="-15.7228">
    <name>Barranco de Güigüi – Playa Virgen</name>
    <desc>Una de las rutas más salvajes de Gran Canaria. Desciende al Barranco de Güigüi hasta una playa virgen inaccesible por carretera. Llevar mucha agua. | Isla: Gran Canaria | Tipo: Senderismo | Dificultad: Difícil | Distancia: 16km | Duración: Día completo</desc>
    <type>Senderismo</type>
    <extensions>
      <isla>Gran Canaria</isla>
      <dificultad>Difícil</dificultad>
      <distancia>16</distancia>
      <duracion>Día completo</duracion>
    </extensions>
  </wpt>
</gpx>