<?xml version="1.0" encoding="UTF-8"?>
<gpx creator="Wikiloc - https://www.wikiloc.com" version="1.1" xmlns="http://www.topografix.com/GPX/1/1" xmlns:xsi="http://www.w3.org/2001/XMLSchema-instance" xsi:schemaLocation="http://www.topografix.com/GPX/1/1 http://www.topografix.com/GPX/1/1/gpx.xsd">
  <metadata>
    <name>Wikiloc - PUNTALLANA: Barranco del Agua.</name>
    <link href="https://www.wikiloc.com/hiking-trails/puntallana-barranco-del-agua-39611621">
      <text>PUNTALLANA: Barranco del Agua. - Wikiloc on Wikiloc</text>
    </link>
    <time>2019-08-02T13:49:21Z</time>
  </metadata>
  <trk>
    <name>PUNTALLANA: Barranco del Agua. - Wikiloc</name>
    <cmt></cmt>
    <desc></desc>
    <trkseg>
      <trkpt lat="28.724351" lon="-17.751052">
        <ele>348.248</ele>
        <time>2019-08-02T08:46:42Z</time>
      </trkpt>
      <trkpt lat="28.724623" lon="-17.751270">
        <ele>351.961</ele>
        <time>2019-08-02T08:48:09Z</time>
      </trkpt>
      <trkpt lat="28.724685" lon="-17.751486">
        <ele>353.717</ele>
        <time>2019-08-02T08:48:55Z</time>
      </trkpt>
      <trkpt lat="28.724587" lon="-17.752270">
        <ele>353.308</ele>
        <time>2019-08-02T08:50:48Z</time>
      </trkpt>
      <trkpt lat="28.724862" lon="-17.752620">
        <ele>358.517</ele>
        <time>2019-08-02T08:51:38Z</time>
      </trkpt>
      <trkpt lat="28.725067" lon="-17.752720">
        <ele>358.853</ele>
        <time>2019-08-02T08:52:13Z</time>
      </trkpt>
      <trkpt lat="28.725127" lon="-17.752973">
        <ele>360.990</ele>
        <time>2019-08-02T08:52:50Z</time>
      </trkpt>
      <trkpt lat="28.724799" lon="-17.753780">
        <ele>368.475</ele>
        <time>2019-08-02T08:54:06Z</time>
      </trkpt>
      <trkpt lat="28.724865" lon="-17.753956">
        <ele>370.645</ele>
        <time>2019-08-02T08:54:26Z</time>
      </trkpt>
      <trkpt lat="28.724787" lon="-17.754375">
        <ele>374.020</ele>
        <time>2019-08-02T08:55:11Z</time>
      </trkpt>
      <trkpt lat="28.724519" lon="-17.754730">
        <ele>380.716</ele>
        <time>2019-08-02T08:56:07Z</time>
      </trkpt>
      <trkpt lat="28.724450" lon="-17.755003">
        <ele>386.755</ele>
        <time>2019-08-02T08:56:47Z</time>
      </trkpt>
      <trkpt lat="28.724752" lon="-17.755773">
        <ele>397.444</ele>
        <time>2019-08-02T08:58:25Z</time>
      </trkpt>
      <trkpt lat="28.724592" lon="-17.756364">
        <ele>401.205</ele>
        <time>2019-08-02T08:59:27Z</time>
      </trkpt>
      <trkpt lat="28.724963" lon="-17.757162">
        <ele>405.415</ele>
        <time>2019-08-02T09:03:09Z</time>
      </trkpt>
      <trkpt lat="28.725114" lon="-17.757875">
        <ele>410.508</ele>
        <time>2019-08-02T09:04:37Z</time>
      </trkpt>
      <trkpt lat="28.725095" lon="-17.758625">
        <ele>415.727</ele>
        <time>2019-08-02T09:05:49Z</time>
      </trkpt>
      <trkpt lat="28.724911" lon="-17.759232">
        <ele>419.283</ele>
        <time>2019-08-02T09:07:01Z</time>
      </trkpt>
      <trkpt lat="28.724703" lon="-17.759484">
        <ele>421.690</ele>
        <time>2019-08-02T09:07:40Z</time>
      </trkpt>
      <trkpt lat="28.724819" lon="-17.760262">
        <ele>426.995</ele>
        <time>2019-08-02T09:10:01Z</time>
      </trkpt>
      <trkpt lat="28.725424" lon="-17.760593">
        <ele>437.075</ele>
        <time>2019-08-02T09:13:03Z</time>
      </trkpt>
      <trkpt lat="28.725374" lon="-17.760721">
        <ele>436.440</ele>
        <time>2019-08-02T09:14:19Z</time>
      </trkpt>
      <trkpt lat="28.725243" lon="-17.760753">
        <ele>443.736</ele>
        <time>2019-08-02T09:15:17Z</time>
      </trkpt>
      <trkpt lat="28.725299" lon="-17.760857">
        <ele>447.155</ele>
        <time>2019-08-02T09:16:43Z</time>
      </trkpt>
      <trkpt lat="28.725763" lon="-17.760975">
        <ele>450.576</ele>
        <time>2019-08-02T09:17:40Z</time>
      </trkpt>
      <trkpt lat="28.726226" lon="-17.760751">
        <ele>446.790</ele>
        <time>2019-08-02T09:18:57Z</time>
      </trkpt>
      <trkpt lat="28.726334" lon="-17.760782">
        <ele>449.919</ele>
        <time>2019-08-02T09:19:13Z</time>
      </trkpt>
      <trkpt lat="28.726546" lon="-17.761336">
        <ele>453.908</ele>
        <time>2019-08-02T09:20:35Z</time>
      </trkpt>
      <trkpt lat="28.726458" lon="-17.761669">
        <ele>457.060</ele>
        <time>2019-08-02T09:21:19Z</time>
      </trkpt>
      <trkpt lat="28.726646" lon="-17.762071">
        <ele>461.966</ele>
        <time>2019-08-02T09:22:52Z</time>
      </trkpt>
      <trkpt lat="28.726927" lon="-17.763364">
        <ele>478.933</ele>
        <time>2019-08-02T09:28:20Z</time>
      </trkpt>
      <trkpt lat="28.727037" lon="-17.763548">
        <ele>481.168</ele>
        <time>2019-08-02T09:29:00Z</time>
      </trkpt>
      <trkpt lat="28.727185" lon="-17.763464">
        <ele>484.798</ele>
        <time>2019-08-02T09:29:32Z</time>
      </trkpt>
      <trkpt lat="28.727129" lon="-17.763674">
        <ele>488.153</ele>
        <time>2019-08-02T09:31:03Z</time>
      </trkpt>
      <trkpt lat="28.726953" lon="-17.763665">
        <ele>488.329</ele>
        <time>2019-08-02T09:31:43Z</time>
      </trkpt>
      <trkpt lat="28.727327" lon="-17.763780">
        <ele>492.618</ele>
        <time>2019-08-02T09:34:02Z</time>
      </trkpt>
      <trkpt lat="28.727343" lon="-17.763955">
        <ele>496.063</ele>
        <time>2019-08-02T09:34:57Z</time>
      </trkpt>
      <trkpt lat="28.727278" lon="-17.763849">
        <ele>500.044</ele>
        <time>2019-08-02T09:35:40Z</time>
      </trkpt>
      <trkpt lat="28.727235" lon="-17.763962">
        <ele>502.718</ele>
        <time>2019-08-02T09:35:59Z</time>
      </trkpt>
      <trkpt lat="28.727410" lon="-17.764351">
        <ele>506.208</ele>
        <time>2019-08-02T09:37:11Z</time>
      </trkpt>
      <trkpt lat="28.727313" lon="-17.765447">
        <ele>515.229</ele>
        <time>2019-08-02T09:39:25Z</time>
      </trkpt>
      <trkpt lat="28.727696" lon="-17.766266">
        <ele>525.795</ele>
        <time>2019-08-02T09:41:32Z</time>
      </trkpt>
      <trkpt lat="28.727643" lon="-17.766100">
        <ele>531.162</ele>
        <time>2019-08-02T09:43:28Z</time>
      </trkpt>
      <trkpt lat="28.728047" lon="-17.765783">
        <ele>548.817</ele>
        <time>2019-08-02T09:47:55Z</time>
      </trkpt>
      <trkpt lat="28.728339" lon="-17.764926">
        <ele>576.797</ele>
        <time>2019-08-02T09:51:07Z</time>
      </trkpt>
      <trkpt lat="28.728722" lon="-17.764824">
        <ele>582.362</ele>
        <time>2019-08-02T09:52:15Z</time>
      </trkpt>
      <trkpt lat="28.729546" lon="-17.763452">
        <ele>593.368</ele>
        <time>2019-08-02T09:56:38Z</time>
      </trkpt>
      <trkpt lat="28.729837" lon="-17.763191">
        <ele>591.367</ele>
        <time>2019-08-02T09:57:35Z</time>
      </trkpt>
      <trkpt lat="28.730094" lon="-17.763194">
        <ele>590.223</ele>
        <time>2019-08-02T09:58:24Z</time>
      </trkpt>
      <trkpt lat="28.730791" lon="-17.764275">
        <ele>585.983</ele>
        <time>2019-08-02T10:01:08Z</time>
      </trkpt>
      <trkpt lat="28.730980" lon="-17.764362">
        <ele>583.611</ele>
        <time>2019-08-02T10:01:34Z</time>
      </trkpt>
      <trkpt lat="28.731096" lon="-17.764004">
        <ele>584.208</ele>
        <time>2019-08-02T10:02:18Z</time>
      </trkpt>
      <trkpt lat="28.731008" lon="-17.763534">
        <ele>588.295</ele>
        <time>2019-08-02T10:04:18Z</time>
      </trkpt>
      <trkpt lat="28.731215" lon="-17.762644">
        <ele>591.841</ele>
        <time>2019-08-02T10:05:59Z</time>
      </trkpt>
      <trkpt lat="28.731092" lon="-17.762080">
        <ele>593.818</ele>
        <time>2019-08-02T10:07:01Z</time>
      </trkpt>
      <trkpt lat="28.731495" lon="-17.762229">
        <ele>602.393</ele>
        <time>2019-08-02T10:08:31Z</time>
      </trkpt>
      <trkpt lat="28.731538" lon="-17.762348">
        <ele>604.923</ele>
        <time>2019-08-02T10:08:48Z</time>
      </trkpt>
      <trkpt lat="28.731835" lon="-17.762505">
        <ele>614.668</ele>
        <time>2019-08-02T10:09:46Z</time>
      </trkpt>
      <trkpt lat="28.732404" lon="-17.762627">
        <ele>617.144</ele>
        <time>2019-08-02T10:11:20Z</time>
      </trkpt>
      <trkpt lat="28.733220" lon="-17.762617">
        <ele>619.773</ele>
        <time>2019-08-02T10:13:01Z</time>
      </trkpt>
      <trkpt lat="28.733863" lon="-17.762757">
        <ele>623.699</ele>
        <time>2019-08-02T10:14:13Z</time>
      </trkpt>
      <trkpt lat="28.734274" lon="-17.762592">
        <ele>628.607</ele>
        <time>2019-08-02T10:15:09Z</time>
      </trkpt>
      <trkpt lat="28.734542" lon="-17.762625">
        <ele>634.927</ele>
        <time>2019-08-02T10:15:54Z</time>
      </trkpt>
      <trkpt lat="28.734793" lon="-17.762411">
        <ele>641.108</ele>
        <time>2019-08-02T10:16:42Z</time>
      </trkpt>
      <trkpt lat="28.735036" lon="-17.762507">
        <ele>644.432</ele>
        <time>2019-08-02T10:17:38Z</time>
      </trkpt>
      <trkpt lat="28.735105" lon="-17.762645">
        <ele>661.998</ele>
        <time>2019-08-02T10:32:50Z</time>
      </trkpt>
      <trkpt lat="28.734978" lon="-17.763811">
        <ele>697.885</ele>
        <time>2019-08-02T10:39:18Z</time>
      </trkpt>
      <trkpt lat="28.734744" lon="-17.764083">
        <ele>710.720</ele>
        <time>2019-08-02T10:40:59Z</time>
      </trkpt>
      <trkpt lat="28.734972" lon="-17.764448">
        <ele>723.850</ele>
        <time>2019-08-02T10:42:37Z</time>
      </trkpt>
      <trkpt lat="28.735124" lon="-17.764490">
        <ele>729.275</ele>
        <time>2019-08-02T10:43:18Z</time>
      </trkpt>
      <trkpt lat="28.734813" lon="-17.765228">
        <ele>749.361</ele>
        <time>2019-08-02T10:46:12Z</time>
      </trkpt>
      <trkpt lat="28.734996" lon="-17.766019">
        <ele>759.880</ele>
        <time>2019-08-02T10:48:34Z</time>
      </trkpt>
      <trkpt lat="28.734963" lon="-17.766407">
        <ele>765.791</ele>
        <time>2019-08-02T10:49:27Z</time>
      </trkpt>
      <trkpt lat="28.735306" lon="-17.767683">
        <ele>792.081</ele>
        <time>2019-08-02T10:52:55Z</time>
      </trkpt>
      <trkpt lat="28.735799" lon="-17.768130">
        <ele>798.319</ele>
        <time>2019-08-02T10:54:27Z</time>
      </trkpt>
      <trkpt lat="28.736047" lon="-17.768515">
        <ele>802.208</ele>
        <time>2019-08-02T10:56:29Z</time>
      </trkpt>
      <trkpt lat="28.736132" lon="-17.769676">
        <ele>823.252</ele>
        <time>2019-08-02T10:59:22Z</time>
      </trkpt>
      <trkpt lat="28.735585" lon="-17.770738">
        <ele>840.958</ele>
        <time>2019-08-02T11:03:26Z</time>
      </trkpt>
      <trkpt lat="28.735621" lon="-17.770863">
        <ele>846.025</ele>
        <time>2019-08-02T11:07:47Z</time>
      </trkpt>
      <trkpt lat="28.734967" lon="-17.771558">
        <ele>854.450</ele>
        <time>2019-08-02T11:09:33Z</time>
      </trkpt>
      <trkpt lat="28.735105" lon="-17.771910">
        <ele>859.750</ele>
        <time>2019-08-02T11:10:31Z</time>
      </trkpt>
      <trkpt lat="28.734953" lon="-17.772207">
        <ele>860.745</ele>
        <time>2019-08-02T11:10:48Z</time>
      </trkpt>
      <trkpt lat="28.735043" lon="-17.772809">
        <ele>865.071</ele>
        <time>2019-08-02T11:11:41Z</time>
      </trkpt>
      <trkpt lat="28.734936" lon="-17.773192">
        <ele>867.550</ele>
        <time>2019-08-02T11:12:45Z</time>
      </trkpt>
      <trkpt lat="28.734997" lon="-17.773323">
        <ele>869.474</ele>
        <time>2019-08-02T11:14:46Z</time>
      </trkpt>
      <trkpt lat="28.735330" lon="-17.772232">
        <ele>880.756</ele>
        <time>2019-08-02T11:17:00Z</time>
      </trkpt>
      <trkpt lat="28.735461" lon="-17.772189">
        <ele>883.321</ele>
        <time>2019-08-02T11:17:22Z</time>
      </trkpt>
      <trkpt lat="28.735556" lon="-17.772312">
        <ele>885.408</ele>
        <time>2019-08-02T11:17:43Z</time>
      </trkpt>
      <trkpt lat="28.735405" lon="-17.772556">
        <ele>889.050</ele>
        <time>2019-08-02T11:18:17Z</time>
      </trkpt>
      <trkpt lat="28.735360" lon="-17.773432">
        <ele>898.126</ele>
        <time>2019-08-02T11:19:55Z</time>
      </trkpt>
      <trkpt lat="28.735187" lon="-17.773661">
        <ele>901.713</ele>
        <time>2019-08-02T11:20:32Z</time>
      </trkpt>
      <trkpt lat="28.734900" lon="-17.773794">
        <ele>904.238</ele>
        <time>2019-08-02T11:20:58Z</time>
      </trkpt>
      <trkpt lat="28.734551" lon="-17.773614">
        <ele>909.058</ele>
        <time>2019-08-02T11:21:56Z</time>
      </trkpt>
      <trkpt lat="28.734225" lon="-17.774138">
        <ele>914.813</ele>
        <time>2019-08-02T11:23:13Z</time>
      </trkpt>
      <trkpt lat="28.733635" lon="-17.774248">
        <ele>922.939</ele>
        <time>2019-08-02T11:25:06Z</time>
      </trkpt>
      <trkpt lat="28.734224" lon="-17.775236">
        <ele>936.458</ele>
        <time>2019-08-02T11:31:29Z</time>
      </trkpt>
      <trkpt lat="28.734298" lon="-17.775872">
        <ele>942.579</ele>
        <time>2019-08-02T11:32:37Z</time>
      </trkpt>
      <trkpt lat="28.734162" lon="-17.776038">
        <ele>943.605</ele>
        <time>2019-08-02T11:33:26Z</time>
      </trkpt>
      <trkpt lat="28.733463" lon="-17.776102">
        <ele>949.225</ele>
        <time>2019-08-02T11:34:46Z</time>
      </trkpt>
      <trkpt lat="28.733288" lon="-17.776334">
        <ele>951.008</ele>
        <time>2019-08-02T11:35:17Z</time>
      </trkpt>
      <trkpt lat="28.732983" lon="-17.776348">
        <ele>954.410</ele>
        <time>2019-08-02T11:35:53Z</time>
      </trkpt>
      <trkpt lat="28.732950" lon="-17.776991">
        <ele>954.666</ele>
        <time>2019-08-02T11:37:12Z</time>
      </trkpt>
      <trkpt lat="28.732767" lon="-17.777130">
        <ele>954.783</ele>
        <time>2019-08-02T11:37:34Z</time>
      </trkpt>
      <trkpt lat="28.732474" lon="-17.777119">
        <ele>954.828</ele>
        <time>2019-08-02T11:38:01Z</time>
      </trkpt>
      <trkpt lat="28.732126" lon="-17.777896">
        <ele>955.858</ele>
        <time>2019-08-02T11:39:29Z</time>
      </trkpt>
      <trkpt lat="28.732381" lon="-17.778383">
        <ele>955.823</ele>
        <time>2019-08-02T11:40:18Z</time>
      </trkpt>
      <trkpt lat="28.732584" lon="-17.778494">
        <ele>955.799</ele>
        <time>2019-08-02T11:40:51Z</time>
      </trkpt>
      <trkpt lat="28.732822" lon="-17.779187">
        <ele>955.788</ele>
        <time>2019-08-02T11:41:50Z</time>
      </trkpt>
      <trkpt lat="28.733136" lon="-17.779305">
        <ele>955.667</ele>
        <time>2019-08-02T11:42:28Z</time>
      </trkpt>
      <trkpt lat="28.733411" lon="-17.779610">
        <ele>955.381</ele>
        <time>2019-08-02T11:43:35Z</time>
      </trkpt>
      <trkpt lat="28.734062" lon="-17.779913">
        <ele>952.319</ele>
        <time>2019-08-02T11:45:56Z</time>
      </trkpt>
      <trkpt lat="28.734371" lon="-17.780699">
        <ele>952.308</ele>
        <time>2019-08-02T11:47:08Z</time>
      </trkpt>
      <trkpt lat="28.734066" lon="-17.780583">
        <ele>954.889</ele>
        <time>2019-08-02T11:48:12Z</time>
      </trkpt>
      <trkpt lat="28.733336" lon="-17.780900">
        <ele>951.755</ele>
        <time>2019-08-02T11:49:57Z</time>
      </trkpt>
      <trkpt lat="28.732768" lon="-17.780933">
        <ele>952.282</ele>
        <time>2019-08-02T11:50:43Z</time>
      </trkpt>
      <trkpt lat="28.732577" lon="-17.781012">
        <ele>952.327</ele>
        <time>2019-08-02T11:51:07Z</time>
      </trkpt>
      <trkpt lat="28.732514" lon="-17.781229">
        <ele>955.857</ele>
        <time>2019-08-02T11:52:37Z</time>
      </trkpt>
      <trkpt lat="28.732425" lon="-17.781255">
        <ele>956.132</ele>
        <time>2019-08-02T11:53:31Z</time>
      </trkpt>
      <trkpt lat="28.732404" lon="-17.781027">
        <ele>951.238</ele>
        <time>2019-08-02T11:55:06Z</time>
      </trkpt>
      <trkpt lat="28.732092" lon="-17.780770">
        <ele>936.587</ele>
        <time>2019-08-02T11:57:07Z</time>
      </trkpt>
      <trkpt lat="28.732018" lon="-17.780527">
        <ele>929.333</ele>
        <time>2019-08-02T11:58:33Z</time>
      </trkpt>
      <trkpt lat="28.731835" lon="-17.780407">
        <ele>926.423</ele>
        <time>2019-08-02T11:59:01Z</time>
      </trkpt>
      <trkpt lat="28.731568" lon="-17.779935">
        <ele>915.815</ele>
        <time>2019-08-02T12:00:10Z</time>
      </trkpt>
      <trkpt lat="28.730990" lon="-17.779340">
        <ele>885.408</ele>
        <time>2019-08-02T12:02:52Z</time>
      </trkpt>
      <trkpt lat="28.730643" lon="-17.779132">
        <ele>874.636</ele>
        <time>2019-08-02T12:03:52Z</time>
      </trkpt>
      <trkpt lat="28.730593" lon="-17.778742">
        <ele>859.672</ele>
        <time>2019-08-02T12:05:15Z</time>
      </trkpt>
      <trkpt lat="28.730117" lon="-17.778265">
        <ele>845.819</ele>
        <time>2019-08-02T12:07:13Z</time>
      </trkpt>
      <trkpt lat="28.729988" lon="-17.777851">
        <ele>838.984</ele>
        <time>2019-08-02T12:08:02Z</time>
      </trkpt>
      <trkpt lat="28.729840" lon="-17.777734">
        <ele>832.144</ele>
        <time>2019-08-02T12:08:35Z</time>
      </trkpt>
      <trkpt lat="28.729733" lon="-17.776655">
        <ele>820.359</ele>
        <time>2019-08-02T12:10:55Z</time>
      </trkpt>
      <trkpt lat="28.729055" lon="-17.774902">
        <ele>783.745</ele>
        <time>2019-08-02T12:14:51Z</time>
      </trkpt>
      <trkpt lat="28.728529" lon="-17.774004">
        <ele>771.034</ele>
        <time>2019-08-02T12:21:23Z</time>
      </trkpt>
      <trkpt lat="28.728257" lon="-17.773839">
        <ele>769.179</ele>
        <time>2019-08-02T12:22:23Z</time>
      </trkpt>
      <trkpt lat="28.728202" lon="-17.773139">
        <ele>758.405</ele>
        <time>2019-08-02T12:24:12Z</time>
      </trkpt>
      <trkpt lat="28.727786" lon="-17.772387">
        <ele>738.725</ele>
        <time>2019-08-02T12:27:56Z</time>
      </trkpt>
      <trkpt lat="28.727796" lon="-17.772093">
        <ele>726.108</ele>
        <time>2019-08-02T12:29:17Z</time>
      </trkpt>
      <trkpt lat="28.727663" lon="-17.771833">
        <ele>713.440</ele>
        <time>2019-08-02T12:31:27Z</time>
      </trkpt>
      <trkpt lat="28.727672" lon="-17.770702">
        <ele>665.226</ele>
        <time>2019-08-02T12:37:35Z</time>
      </trkpt>
      <trkpt lat="28.727453" lon="-17.770063">
        <ele>646.553</ele>
        <time>2019-08-02T12:39:31Z</time>
      </trkpt>
      <trkpt lat="28.726917" lon="-17.769285">
        <ele>659.688</ele>
        <time>2019-08-02T12:43:09Z</time>
      </trkpt>
      <trkpt lat="28.726745" lon="-17.768479">
        <ele>669.678</ele>
        <time>2019-08-02T12:44:48Z</time>
      </trkpt>
      <trkpt lat="28.726192" lon="-17.767449">
        <ele>664.573</ele>
        <time>2019-08-02T12:47:09Z</time>
      </trkpt>
      <trkpt lat="28.725998" lon="-17.766595">
        <ele>661.789</ele>
        <time>2019-08-02T12:49:24Z</time>
      </trkpt>
      <trkpt lat="28.725186" lon="-17.765713">
        <ele>652.618</ele>
        <time>2019-08-02T12:51:29Z</time>
      </trkpt>
      <trkpt lat="28.724831" lon="-17.764489">
        <ele>634.553</ele>
        <time>2019-08-02T12:54:10Z</time>
      </trkpt>
      <trkpt lat="28.724326" lon="-17.763773">
        <ele>626.304</ele>
        <time>2019-08-02T12:56:31Z</time>
      </trkpt>
      <trkpt lat="28.724159" lon="-17.762785">
        <ele>610.614</ele>
        <time>2019-08-02T12:58:32Z</time>
      </trkpt>
      <trkpt lat="28.723983" lon="-17.762456">
        <ele>605.108</ele>
        <time>2019-08-02T12:59:52Z</time>
      </trkpt>
      <trkpt lat="28.724349" lon="-17.762829">
        <ele>608.228</ele>
        <time>2019-08-02T13:01:32Z</time>
      </trkpt>
      <trkpt lat="28.725045" lon="-17.762886">
        <ele>612.514</ele>
        <time>2019-08-02T13:02:27Z</time>
      </trkpt>
      <trkpt lat="28.725526" lon="-17.763072">
        <ele>612.641</ele>
        <time>2019-08-02T13:03:29Z</time>
      </trkpt>
      <trkpt lat="28.725603" lon="-17.763754">
        <ele>615.656</ele>
        <time>2019-08-02T13:04:30Z</time>
      </trkpt>
      <trkpt lat="28.725992" lon="-17.763890">
        <ele>608.636</ele>
        <time>2019-08-02T13:05:40Z</time>
      </trkpt>
      <trkpt lat="28.726348" lon="-17.764162">
        <ele>598.961</ele>
        <time>2019-08-02T13:06:30Z</time>
      </trkpt>
      <trkpt lat="28.726410" lon="-17.764755">
        <ele>591.787</ele>
        <time>2019-08-02T13:07:15Z</time>
      </trkpt>
      <trkpt lat="28.726718" lon="-17.765263">
        <ele>584.216</ele>
        <time>2019-08-02T13:08:04Z</time>
      </trkpt>
      <trkpt lat="28.726666" lon="-17.765471">
        <ele>580.366</ele>
        <time>2019-08-02T13:08:26Z</time>
      </trkpt>
      <trkpt lat="28.726809" lon="-17.765974">
        <ele>572.129</ele>
        <time>2019-08-02T13:09:11Z</time>
      </trkpt>
      <trkpt lat="28.727340" lon="-17.766356">
        <ele>563.321</ele>
        <time>2019-08-02T13:10:16Z</time>
      </trkpt>
      <trkpt lat="28.727574" lon="-17.766289">
        <ele>561.108</ele>
        <time>2019-08-02T13:10:30Z</time>
      </trkpt>
      <trkpt lat="28.727653" lon="-17.766108">
        <ele>559.349</ele>
        <time>2019-08-02T13:10:42Z</time>
      </trkpt>
      <trkpt lat="28.727402" lon="-17.765908">
        <ele>554.585</ele>
        <time>2019-08-02T13:11:09Z</time>
      </trkpt>
      <trkpt lat="28.727248" lon="-17.765404">
        <ele>547.072</ele>
        <time>2019-08-02T13:12:00Z</time>
      </trkpt>
      <trkpt lat="28.727375" lon="-17.764505">
        <ele>537.217</ele>
        <time>2019-08-02T13:15:18Z</time>
      </trkpt>
      <trkpt lat="28.727222" lon="-17.764081">
        <ele>532.487</ele>
        <time>2019-08-02T13:16:11Z</time>
      </trkpt>
      <trkpt lat="28.727260" lon="-17.763846">
        <ele>524.642</ele>
        <time>2019-08-02T13:16:55Z</time>
      </trkpt>
      <trkpt lat="28.727120" lon="-17.763563">
        <ele>518.368</ele>
        <time>2019-08-02T13:17:52Z</time>
      </trkpt>
      <trkpt lat="28.726784" lon="-17.763353">
        <ele>507.897</ele>
        <time>2019-08-02T13:19:02Z</time>
      </trkpt>
      <trkpt lat="28.726828" lon="-17.762953">
        <ele>504.439</ele>
        <time>2019-08-02T13:19:37Z</time>
      </trkpt>
      <trkpt lat="28.726677" lon="-17.762611">
        <ele>502.801</ele>
        <time>2019-08-02T13:20:09Z</time>
      </trkpt>
      <trkpt lat="28.726641" lon="-17.762159">
        <ele>495.621</ele>
        <time>2019-08-02T13:21:37Z</time>
      </trkpt>
      <trkpt lat="28.726458" lon="-17.761889">
        <ele>489.208</ele>
        <time>2019-08-02T13:22:41Z</time>
      </trkpt>
      <trkpt lat="28.726514" lon="-17.761572">
        <ele>488.096</ele>
        <time>2019-08-02T13:25:17Z</time>
      </trkpt>
      <trkpt lat="28.726358" lon="-17.760930">
        <ele>482.142</ele>
        <time>2019-08-02T13:26:31Z</time>
      </trkpt>
      <trkpt lat="28.725919" lon="-17.761004">
        <ele>484.469</ele>
        <time>2019-08-02T13:27:31Z</time>
      </trkpt>
      <trkpt lat="28.725744" lon="-17.760910">
        <ele>484.254</ele>
        <time>2019-08-02T13:27:50Z</time>
      </trkpt>
      <trkpt lat="28.725335" lon="-17.760916">
        <ele>481.264</ele>
        <time>2019-08-02T13:28:27Z</time>
      </trkpt>
      <trkpt lat="28.725239" lon="-17.760770">
        <ele>477.789</ele>
        <time>2019-08-02T13:28:54Z</time>
      </trkpt>
      <trkpt lat="28.725374" lon="-17.760704">
        <ele>471.025</ele>
        <time>2019-08-02T13:31:39Z</time>
      </trkpt>
      <trkpt lat="28.725376" lon="-17.760598">
        <ele>469.314</ele>
        <time>2019-08-02T13:32:01Z</time>
      </trkpt>
      <trkpt lat="28.724870" lon="-17.760326">
        <ele>457.968</ele>
        <time>2019-08-02T13:33:36Z</time>
      </trkpt>
      <trkpt lat="28.724679" lon="-17.759674">
        <ele>451.242</ele>
        <time>2019-08-02T13:36:27Z</time>
      </trkpt>
      <trkpt lat="28.724961" lon="-17.759203">
        <ele>446.126</ele>
        <time>2019-08-02T13:37:15Z</time>
      </trkpt>
      <trkpt lat="28.725097" lon="-17.758124">
        <ele>435.708</ele>
        <time>2019-08-02T13:38:37Z</time>
      </trkpt>
      <trkpt lat="28.724895" lon="-17.757140">
        <ele>427.139</ele>
        <time>2019-08-02T13:40:40Z</time>
      </trkpt>
      <trkpt lat="28.724605" lon="-17.756617">
        <ele>421.895</ele>
        <time>2019-08-02T13:41:28Z</time>
      </trkpt>
      <trkpt lat="28.724663" lon="-17.756020">
        <ele>415.492</ele>
        <time>2019-08-02T13:42:16Z</time>
      </trkpt>
      <trkpt lat="28.724533" lon="-17.755167">
        <ele>401.767</ele>
        <time>2019-08-02T13:43:23Z</time>
      </trkpt>
      <trkpt lat="28.724750" lon="-17.754408">
        <ele>387.687</ele>
        <time>2019-08-02T13:44:36Z</time>
      </trkpt>
      <trkpt lat="28.724908" lon="-17.754199">
        <ele>385.172</ele>
        <time>2019-08-02T13:44:57Z</time>
      </trkpt>
      <trkpt lat="28.724866" lon="-17.753787">
        <ele>380.528</ele>
        <time>2019-08-02T13:45:28Z</time>
      </trkpt>
      <trkpt lat="28.725072" lon="-17.753458">
        <ele>376.167</ele>
        <time>2019-08-02T13:45:58Z</time>
      </trkpt>
      <trkpt lat="28.725113" lon="-17.753036">
        <ele>372.438</ele>
        <time>2019-08-02T13:46:28Z</time>
      </trkpt>
      <trkpt lat="28.724592" lon="-17.752251">
        <ele>363.670</ele>
        <time>2019-08-02T13:47:39Z</time>
      </trkpt>
      <trkpt lat="28.724647" lon="-17.751302">
        <ele>361.117</ele>
        <time>2019-08-02T13:48:51Z</time>
      </trkpt>
      <trkpt lat="28.724351" lon="-17.751075">
        <ele>357.308</ele>
        <time>2019-08-02T13:49:21Z</time>
      </trkpt>
    </trkseg>
  </trk></gpx>