<?xml version="1.0" encoding="UTF-8"?>
<gpx creator="Wikiloc - https://www.wikiloc.com" version="1.1" xmlns="http://www.topografix.com/GPX/1/1" xmlns:xsi="http://www.w3.org/2001/XMLSchema-instance" xsi:schemaLocation="http://www.topografix.com/GPX/1/1 http://www.topografix.com/GPX/1/1/gpx.xsd">
  <metadata>
    <name>Wikiloc - Valle Gran Rey-Barranco Argaga-Ermita Guadalupe</name>
    <link href="https://www.wikiloc.com/hiking-trails/valle-gran-rey-barranco-argaga-ermita-guadalupe-93936011">
      <text>Valle Gran Rey-Barranco Argaga-Ermita Guadalupe - Wikiloc on Wikiloc</text>
    </link>
    <time>2022-01-29T17:32:22Z</time>
  </metadata>
  <trk>
    <name>Valle Gran Rey-Barranco Argaga-Ermita Guadalupe - Wikiloc</name>
    <cmt></cmt>
    <desc></desc>
    <trkseg>
      <trkpt lat="28.089031" lon="-17.338987">
        <ele>7.672</ele>
        <time>2022-01-29T11:20:58Z</time>
      </trkpt>
      <trkpt lat="28.088905" lon="-17.338999">
        <ele>7.613</ele>
        <time>2022-01-29T11:21:19Z</time>
      </trkpt>
      <trkpt lat="28.088938" lon="-17.339130">
        <ele>7.614</ele>
        <time>2022-01-29T11:21:40Z</time>
      </trkpt>
      <trkpt lat="28.088655" lon="-17.339003">
        <ele>7.608</ele>
        <time>2022-01-29T11:22:00Z</time>
      </trkpt>
      <trkpt lat="28.088307" lon="-17.339180">
        <ele>7.626</ele>
        <time>2022-01-29T11:22:40Z</time>
      </trkpt>
      <trkpt lat="28.088044" lon="-17.338782">
        <ele>7.670</ele>
        <time>2022-01-29T11:23:04Z</time>
      </trkpt>
      <trkpt lat="28.088009" lon="-17.339090">
        <ele>-30.626</ele>
        <time>2022-01-29T11:23:12Z</time>
      </trkpt>
      <trkpt lat="28.087846" lon="-17.339132">
        <ele>-47.120</ele>
        <time>2022-01-29T11:23:17Z</time>
      </trkpt>
      <trkpt lat="28.087963" lon="-17.339315">
        <ele>-47.163</ele>
        <time>2022-01-29T11:23:18Z</time>
      </trkpt>
      <trkpt lat="28.087873" lon="-17.339382">
        <ele>-47.297</ele>
        <time>2022-01-29T11:23:25Z</time>
      </trkpt>
      <trkpt lat="28.087786" lon="-17.339263">
        <ele>-47.048</ele>
        <time>2022-01-29T11:23:29Z</time>
      </trkpt>
      <trkpt lat="28.087686" lon="-17.339318">
        <ele>-47.638</ele>
        <time>2022-01-29T11:23:41Z</time>
      </trkpt>
      <trkpt lat="28.087546" lon="-17.339175">
        <ele>-48.029</ele>
        <time>2022-01-29T11:23:51Z</time>
      </trkpt>
      <trkpt lat="28.087248" lon="-17.339174">
        <ele>-48.200</ele>
        <time>2022-01-29T11:24:14Z</time>
      </trkpt>
      <trkpt lat="28.087050" lon="-17.339006">
        <ele>-48.120</ele>
        <time>2022-01-29T11:24:30Z</time>
      </trkpt>
      <trkpt lat="28.086798" lon="-17.339040">
        <ele>-47.008</ele>
        <time>2022-01-29T11:24:51Z</time>
      </trkpt>
      <trkpt lat="28.086238" lon="-17.338255">
        <ele>-7.071</ele>
        <time>2022-01-29T11:25:29Z</time>
      </trkpt>
      <trkpt lat="28.085758" lon="-17.337062">
        <ele>11.245</ele>
        <time>2022-01-29T11:27:02Z</time>
      </trkpt>
      <trkpt lat="28.085270" lon="-17.336690">
        <ele>11.041</ele>
        <time>2022-01-29T11:27:46Z</time>
      </trkpt>
      <trkpt lat="28.084616" lon="-17.336711">
        <ele>6.885</ele>
        <time>2022-01-29T11:28:34Z</time>
      </trkpt>
      <trkpt lat="28.084024" lon="-17.336503">
        <ele>12.138</ele>
        <time>2022-01-29T11:29:18Z</time>
      </trkpt>
      <trkpt lat="28.082838" lon="-17.335148">
        <ele>5.822</ele>
        <time>2022-01-29T11:31:27Z</time>
      </trkpt>
      <trkpt lat="28.082368" lon="-17.334145">
        <ele>3.893</ele>
        <time>2022-01-29T11:32:40Z</time>
      </trkpt>
      <trkpt lat="28.082039" lon="-17.333737">
        <ele>5.433</ele>
        <time>2022-01-29T11:33:27Z</time>
      </trkpt>
      <trkpt lat="28.082056" lon="-17.333380">
        <ele>5.472</ele>
        <time>2022-01-29T11:33:50Z</time>
      </trkpt>
      <trkpt lat="28.082406" lon="-17.332952">
        <ele>1.613</ele>
        <time>2022-01-29T11:34:38Z</time>
      </trkpt>
      <trkpt lat="28.082498" lon="-17.332485">
        <ele>-2.714</ele>
        <time>2022-01-29T11:35:10Z</time>
      </trkpt>
      <trkpt lat="28.082768" lon="-17.332241">
        <ele>-8.908</ele>
        <time>2022-01-29T11:35:42Z</time>
      </trkpt>
      <trkpt lat="28.082817" lon="-17.331783">
        <ele>-2.276</ele>
        <time>2022-01-29T11:36:32Z</time>
      </trkpt>
      <trkpt lat="28.082688" lon="-17.331705">
        <ele>28.060</ele>
        <time>2022-01-29T11:36:45Z</time>
      </trkpt>
      <trkpt lat="28.082624" lon="-17.330885">
        <ele>10.846</ele>
        <time>2022-01-29T11:38:33Z</time>
      </trkpt>
      <trkpt lat="28.081573" lon="-17.330223">
        <ele>11.540</ele>
        <time>2022-01-29T11:40:29Z</time>
      </trkpt>
      <trkpt lat="28.081269" lon="-17.329786">
        <ele>10.593</ele>
        <time>2022-01-29T11:41:06Z</time>
      </trkpt>
      <trkpt lat="28.080935" lon="-17.329548">
        <ele>9.467</ele>
        <time>2022-01-29T11:41:34Z</time>
      </trkpt>
      <trkpt lat="28.080715" lon="-17.328893">
        <ele>10.958</ele>
        <time>2022-01-29T11:42:18Z</time>
      </trkpt>
      <trkpt lat="28.080317" lon="-17.328263">
        <ele>12.948</ele>
        <time>2022-01-29T11:43:11Z</time>
      </trkpt>
      <trkpt lat="28.080393" lon="-17.327703">
        <ele>7.792</ele>
        <time>2022-01-29T11:44:08Z</time>
      </trkpt>
      <trkpt lat="28.080213" lon="-17.327595">
        <ele>20.473</ele>
        <time>2022-01-29T11:44:27Z</time>
      </trkpt>
      <trkpt lat="28.080456" lon="-17.327208">
        <ele>16.320</ele>
        <time>2022-01-29T11:44:51Z</time>
      </trkpt>
      <trkpt lat="28.080248" lon="-17.326284">
        <ele>8.308</ele>
        <time>2022-01-29T11:46:08Z</time>
      </trkpt>
      <trkpt lat="28.080421" lon="-17.325911">
        <ele>8.398</ele>
        <time>2022-01-29T11:47:02Z</time>
      </trkpt>
      <trkpt lat="28.080428" lon="-17.325808">
        <ele>9.182</ele>
        <time>2022-01-29T11:47:10Z</time>
      </trkpt>
      <trkpt lat="28.080319" lon="-17.325805">
        <ele>7.938</ele>
        <time>2022-01-29T11:47:16Z</time>
      </trkpt>
      <trkpt lat="28.080345" lon="-17.325310">
        <ele>6.382</ele>
        <time>2022-01-29T11:48:01Z</time>
      </trkpt>
      <trkpt lat="28.080500" lon="-17.324931">
        <ele>-10.835</ele>
        <time>2022-01-29T11:48:22Z</time>
      </trkpt>
      <trkpt lat="28.080278" lon="-17.324266">
        <ele>0.869</ele>
        <time>2022-01-29T11:49:15Z</time>
      </trkpt>
      <trkpt lat="28.080032" lon="-17.324084">
        <ele>12.780</ele>
        <time>2022-01-29T11:49:42Z</time>
      </trkpt>
      <trkpt lat="28.080011" lon="-17.323931">
        <ele>6.380</ele>
        <time>2022-01-29T11:50:30Z</time>
      </trkpt>
      <trkpt lat="28.080485" lon="-17.323283">
        <ele>10.973</ele>
        <time>2022-01-29T11:51:52Z</time>
      </trkpt>
      <trkpt lat="28.080756" lon="-17.323071">
        <ele>20.085</ele>
        <time>2022-01-29T11:52:28Z</time>
      </trkpt>
      <trkpt lat="28.080544" lon="-17.322782">
        <ele>27.613</ele>
        <time>2022-01-29T11:52:54Z</time>
      </trkpt>
      <trkpt lat="28.080604" lon="-17.322715">
        <ele>30.608</ele>
        <time>2022-01-29T11:53:03Z</time>
      </trkpt>
      <trkpt lat="28.080675" lon="-17.322797">
        <ele>30.416</ele>
        <time>2022-01-29T11:53:11Z</time>
      </trkpt>
      <trkpt lat="28.080695" lon="-17.322715">
        <ele>26.680</ele>
        <time>2022-01-29T11:53:20Z</time>
      </trkpt>
      <trkpt lat="28.080311" lon="-17.322575">
        <ele>33.546</ele>
        <time>2022-01-29T11:53:53Z</time>
      </trkpt>
      <trkpt lat="28.080187" lon="-17.322666">
        <ele>37.220</ele>
        <time>2022-01-29T11:54:00Z</time>
      </trkpt>
      <trkpt lat="28.080136" lon="-17.322391">
        <ele>68.083</ele>
        <time>2022-01-29T11:54:44Z</time>
      </trkpt>
      <trkpt lat="28.080231" lon="-17.321913">
        <ele>45.217</ele>
        <time>2022-01-29T11:55:27Z</time>
      </trkpt>
      <trkpt lat="28.080118" lon="-17.321675">
        <ele>37.058</ele>
        <time>2022-01-29T11:55:49Z</time>
      </trkpt>
      <trkpt lat="28.080298" lon="-17.321579">
        <ele>32.688</ele>
        <time>2022-01-29T11:56:12Z</time>
      </trkpt>
      <trkpt lat="28.081116" lon="-17.321638">
        <ele>45.029</ele>
        <time>2022-01-29T11:57:49Z</time>
      </trkpt>
      <trkpt lat="28.081176" lon="-17.321523">
        <ele>49.000</ele>
        <time>2022-01-29T11:57:56Z</time>
      </trkpt>
      <trkpt lat="28.081641" lon="-17.321317">
        <ele>52.620</ele>
        <time>2022-01-29T11:59:03Z</time>
      </trkpt>
      <trkpt lat="28.081730" lon="-17.321087">
        <ele>54.608</ele>
        <time>2022-01-29T11:59:31Z</time>
      </trkpt>
      <trkpt lat="28.081906" lon="-17.320973">
        <ele>55.891</ele>
        <time>2022-01-29T11:59:54Z</time>
      </trkpt>
      <trkpt lat="28.082366" lon="-17.321113">
        <ele>55.145</ele>
        <time>2022-01-29T12:01:12Z</time>
      </trkpt>
      <trkpt lat="28.082310" lon="-17.320824">
        <ele>64.681</ele>
        <time>2022-01-29T12:01:32Z</time>
      </trkpt>
      <trkpt lat="28.082499" lon="-17.321194">
        <ele>81.955</ele>
        <time>2022-01-29T12:01:54Z</time>
      </trkpt>
      <trkpt lat="28.082757" lon="-17.321215">
        <ele>72.378</ele>
        <time>2022-01-29T12:02:31Z</time>
      </trkpt>
      <trkpt lat="28.082805" lon="-17.321337">
        <ele>70.542</ele>
        <time>2022-01-29T12:02:37Z</time>
      </trkpt>
      <trkpt lat="28.082896" lon="-17.321222">
        <ele>69.863</ele>
        <time>2022-01-29T12:03:00Z</time>
      </trkpt>
      <trkpt lat="28.083289" lon="-17.321318">
        <ele>73.073</ele>
        <time>2022-01-29T12:03:39Z</time>
      </trkpt>
      <trkpt lat="28.083839" lon="-17.321162">
        <ele>71.236</ele>
        <time>2022-01-29T12:04:43Z</time>
      </trkpt>
      <trkpt lat="28.083905" lon="-17.320975">
        <ele>76.617</ele>
        <time>2022-01-29T12:05:41Z</time>
      </trkpt>
      <trkpt lat="28.084273" lon="-17.321130">
        <ele>81.518</ele>
        <time>2022-01-29T12:06:27Z</time>
      </trkpt>
      <trkpt lat="28.084288" lon="-17.321020">
        <ele>88.308</ele>
        <time>2022-01-29T12:06:45Z</time>
      </trkpt>
      <trkpt lat="28.084238" lon="-17.321123">
        <ele>90.442</ele>
        <time>2022-01-29T12:06:57Z</time>
      </trkpt>
      <trkpt lat="28.084468" lon="-17.321390">
        <ele>91.346</ele>
        <time>2022-01-29T12:10:37Z</time>
      </trkpt>
      <trkpt lat="28.084760" lon="-17.321343">
        <ele>97.922</ele>
        <time>2022-01-29T12:13:21Z</time>
      </trkpt>
      <trkpt lat="28.084670" lon="-17.321281">
        <ele>99.826</ele>
        <time>2022-01-29T12:13:44Z</time>
      </trkpt>
      <trkpt lat="28.084882" lon="-17.321561">
        <ele>130.129</ele>
        <time>2022-01-29T12:14:31Z</time>
      </trkpt>
      <trkpt lat="28.085154" lon="-17.321433">
        <ele>132.373</ele>
        <time>2022-01-29T12:17:35Z</time>
      </trkpt>
      <trkpt lat="28.084971" lon="-17.321638">
        <ele>143.724</ele>
        <time>2022-01-29T12:18:45Z</time>
      </trkpt>
      <trkpt lat="28.084995" lon="-17.322145">
        <ele>129.534</ele>
        <time>2022-01-29T12:20:44Z</time>
      </trkpt>
      <trkpt lat="28.084913" lon="-17.322107">
        <ele>129.513</ele>
        <time>2022-01-29T12:21:13Z</time>
      </trkpt>
      <trkpt lat="28.085039" lon="-17.322058">
        <ele>133.743</ele>
        <time>2022-01-29T12:22:21Z</time>
      </trkpt>
      <trkpt lat="28.084984" lon="-17.321953">
        <ele>133.807</ele>
        <time>2022-01-29T12:23:41Z</time>
      </trkpt>
      <trkpt lat="28.084890" lon="-17.322274">
        <ele>136.408</ele>
        <time>2022-01-29T12:25:43Z</time>
      </trkpt>
      <trkpt lat="28.085012" lon="-17.322381">
        <ele>128.710</ele>
        <time>2022-01-29T12:26:07Z</time>
      </trkpt>
      <trkpt lat="28.085270" lon="-17.322205">
        <ele>133.674</ele>
        <time>2022-01-29T12:26:37Z</time>
      </trkpt>
      <trkpt lat="28.084904" lon="-17.322378">
        <ele>129.960</ele>
        <time>2022-01-29T12:27:47Z</time>
      </trkpt>
      <trkpt lat="28.084942" lon="-17.322534">
        <ele>127.234</ele>
        <time>2022-01-29T12:28:05Z</time>
      </trkpt>
      <trkpt lat="28.085681" lon="-17.321975">
        <ele>115.827</ele>
        <time>2022-01-29T12:30:24Z</time>
      </trkpt>
      <trkpt lat="28.085631" lon="-17.321783">
        <ele>137.481</ele>
        <time>2022-01-29T12:30:56Z</time>
      </trkpt>
      <trkpt lat="28.085797" lon="-17.321661">
        <ele>120.122</ele>
        <time>2022-01-29T12:32:04Z</time>
      </trkpt>
      <trkpt lat="28.085682" lon="-17.321207">
        <ele>135.552</ele>
        <time>2022-01-29T12:35:49Z</time>
      </trkpt>
      <trkpt lat="28.085730" lon="-17.321032">
        <ele>155.157</ele>
        <time>2022-01-29T12:37:29Z</time>
      </trkpt>
      <trkpt lat="28.085878" lon="-17.320947">
        <ele>159.300</ele>
        <time>2022-01-29T12:38:33Z</time>
      </trkpt>
      <trkpt lat="28.085797" lon="-17.320731">
        <ele>178.420</ele>
        <time>2022-01-29T12:43:28Z</time>
      </trkpt>
      <trkpt lat="28.086022" lon="-17.320802">
        <ele>189.308</ele>
        <time>2022-01-29T12:44:24Z</time>
      </trkpt>
      <trkpt lat="28.086059" lon="-17.320579">
        <ele>202.494</ele>
        <time>2022-01-29T12:44:49Z</time>
      </trkpt>
      <trkpt lat="28.086208" lon="-17.320478">
        <ele>207.018</ele>
        <time>2022-01-29T12:45:15Z</time>
      </trkpt>
      <trkpt lat="28.086478" lon="-17.320546">
        <ele>206.864</ele>
        <time>2022-01-29T12:45:33Z</time>
      </trkpt>
      <trkpt lat="28.086583" lon="-17.320448">
        <ele>208.028</ele>
        <time>2022-01-29T12:45:53Z</time>
      </trkpt>
      <trkpt lat="28.087193" lon="-17.320408">
        <ele>218.031</ele>
        <time>2022-01-29T12:47:30Z</time>
      </trkpt>
      <trkpt lat="28.087503" lon="-17.320083">
        <ele>215.175</ele>
        <time>2022-01-29T12:49:20Z</time>
      </trkpt>
      <trkpt lat="28.087448" lon="-17.319834">
        <ele>210.956</ele>
        <time>2022-01-29T12:50:19Z</time>
      </trkpt>
      <trkpt lat="28.087666" lon="-17.319935">
        <ele>208.646</ele>
        <time>2022-01-29T12:51:06Z</time>
      </trkpt>
      <trkpt lat="28.087446" lon="-17.319838">
        <ele>208.658</ele>
        <time>2022-01-29T12:51:15Z</time>
      </trkpt>
      <trkpt lat="28.087535" lon="-17.320065">
        <ele>206.952</ele>
        <time>2022-01-29T12:52:59Z</time>
      </trkpt>
      <trkpt lat="28.087645" lon="-17.320090">
        <ele>204.217</ele>
        <time>2022-01-29T12:53:49Z</time>
      </trkpt>
      <trkpt lat="28.087765" lon="-17.319852">
        <ele>195.708</ele>
        <time>2022-01-29T12:54:43Z</time>
      </trkpt>
      <trkpt lat="28.087951" lon="-17.319812">
        <ele>192.844</ele>
        <time>2022-01-29T12:55:27Z</time>
      </trkpt>
      <trkpt lat="28.088530" lon="-17.320080">
        <ele>195.918</ele>
        <time>2022-01-29T12:57:24Z</time>
      </trkpt>
      <trkpt lat="28.088712" lon="-17.320296">
        <ele>191.514</ele>
        <time>2022-01-29T12:58:16Z</time>
      </trkpt>
      <trkpt lat="28.088859" lon="-17.320793">
        <ele>201.998</ele>
        <time>2022-01-29T13:00:15Z</time>
      </trkpt>
      <trkpt lat="28.088905" lon="-17.320627">
        <ele>199.911</ele>
        <time>2022-01-29T13:00:46Z</time>
      </trkpt>
      <trkpt lat="28.089017" lon="-17.320647">
        <ele>201.965</ele>
        <time>2022-01-29T13:01:18Z</time>
      </trkpt>
      <trkpt lat="28.089175" lon="-17.320442">
        <ele>201.976</ele>
        <time>2022-01-29T13:02:40Z</time>
      </trkpt>
      <trkpt lat="28.089103" lon="-17.320162">
        <ele>238.636</ele>
        <time>2022-01-29T13:10:35Z</time>
      </trkpt>
      <trkpt lat="28.089227" lon="-17.320176">
        <ele>246.939</ele>
        <time>2022-01-29T13:11:16Z</time>
      </trkpt>
      <trkpt lat="28.089393" lon="-17.320446">
        <ele>254.701</ele>
        <time>2022-01-29T13:12:27Z</time>
      </trkpt>
      <trkpt lat="28.089455" lon="-17.320280">
        <ele>262.221</ele>
        <time>2022-01-29T13:13:04Z</time>
      </trkpt>
      <trkpt lat="28.089318" lon="-17.320030">
        <ele>273.308</ele>
        <time>2022-01-29T13:14:49Z</time>
      </trkpt>
      <trkpt lat="28.089368" lon="-17.319846">
        <ele>273.462</ele>
        <time>2022-01-29T13:15:21Z</time>
      </trkpt>
      <trkpt lat="28.089206" lon="-17.319793">
        <ele>279.726</ele>
        <time>2022-01-29T13:16:04Z</time>
      </trkpt>
      <trkpt lat="28.089318" lon="-17.319434">
        <ele>287.962</ele>
        <time>2022-01-29T13:18:24Z</time>
      </trkpt>
      <trkpt lat="28.089201" lon="-17.319349">
        <ele>291.156</ele>
        <time>2022-01-29T13:18:58Z</time>
      </trkpt>
      <trkpt lat="28.089175" lon="-17.319016">
        <ele>307.599</ele>
        <time>2022-01-29T13:20:41Z</time>
      </trkpt>
      <trkpt lat="28.089540" lon="-17.319625">
        <ele>330.073</ele>
        <time>2022-01-29T13:23:18Z</time>
      </trkpt>
      <trkpt lat="28.089172" lon="-17.320222">
        <ele>335.394</ele>
        <time>2022-01-29T13:23:43Z</time>
      </trkpt>
      <trkpt lat="28.089232" lon="-17.320337">
        <ele>338.814</ele>
        <time>2022-01-29T13:23:53Z</time>
      </trkpt>
      <trkpt lat="28.089658" lon="-17.319697">
        <ele>339.342</ele>
        <time>2022-01-29T13:24:25Z</time>
      </trkpt>
      <trkpt lat="28.089791" lon="-17.319725">
        <ele>320.122</ele>
        <time>2022-01-29T13:28:01Z</time>
      </trkpt>
      <trkpt lat="28.089577" lon="-17.320258">
        <ele>322.814</ele>
        <time>2022-01-29T13:29:13Z</time>
      </trkpt>
      <trkpt lat="28.089816" lon="-17.320340">
        <ele>334.308</ele>
        <time>2022-01-29T13:30:15Z</time>
      </trkpt>
      <trkpt lat="28.089651" lon="-17.320230">
        <ele>330.483</ele>
        <time>2022-01-29T13:30:44Z</time>
      </trkpt>
      <trkpt lat="28.089723" lon="-17.320007">
        <ele>335.917</ele>
        <time>2022-01-29T13:31:50Z</time>
      </trkpt>
      <trkpt lat="28.090159" lon="-17.319815">
        <ele>359.613</ele>
        <time>2022-01-29T13:34:43Z</time>
      </trkpt>
      <trkpt lat="28.090437" lon="-17.319509">
        <ele>358.887</ele>
        <time>2022-01-29T13:35:35Z</time>
      </trkpt>
      <trkpt lat="28.090449" lon="-17.319629">
        <ele>358.740</ele>
        <time>2022-01-29T13:35:40Z</time>
      </trkpt>
      <trkpt lat="28.090772" lon="-17.319442">
        <ele>373.444</ele>
        <time>2022-01-29T13:36:42Z</time>
      </trkpt>
      <trkpt lat="28.091000" lon="-17.319599">
        <ele>368.825</ele>
        <time>2022-01-29T13:38:33Z</time>
      </trkpt>
      <trkpt lat="28.091505" lon="-17.320645">
        <ele>367.815</ele>
        <time>2022-01-29T13:42:50Z</time>
      </trkpt>
      <trkpt lat="28.091947" lon="-17.320436">
        <ele>401.716</ele>
        <time>2022-01-29T13:44:25Z</time>
      </trkpt>
      <trkpt lat="28.092091" lon="-17.320245">
        <ele>394.876</ele>
        <time>2022-01-29T13:45:47Z</time>
      </trkpt>
      <trkpt lat="28.092350" lon="-17.320343">
        <ele>407.813</ele>
        <time>2022-01-29T13:49:33Z</time>
      </trkpt>
      <trkpt lat="28.092765" lon="-17.320055">
        <ele>413.508</ele>
        <time>2022-01-29T13:51:15Z</time>
      </trkpt>
      <trkpt lat="28.092685" lon="-17.320197">
        <ele>415.930</ele>
        <time>2022-01-29T13:53:40Z</time>
      </trkpt>
      <trkpt lat="28.092285" lon="-17.320096">
        <ele>419.354</ele>
        <time>2022-01-29T13:55:44Z</time>
      </trkpt>
      <trkpt lat="28.093285" lon="-17.319883">
        <ele>425.660</ele>
        <time>2022-01-29T13:58:05Z</time>
      </trkpt>
      <trkpt lat="28.093741" lon="-17.319668">
        <ele>437.054</ele>
        <time>2022-01-29T13:59:17Z</time>
      </trkpt>
      <trkpt lat="28.094161" lon="-17.319698">
        <ele>440.727</ele>
        <time>2022-01-29T14:00:45Z</time>
      </trkpt>
      <trkpt lat="28.094304" lon="-17.319603">
        <ele>458.521</ele>
        <time>2022-01-29T14:05:47Z</time>
      </trkpt>
      <trkpt lat="28.094239" lon="-17.319701">
        <ele>458.572</ele>
        <time>2022-01-29T14:06:03Z</time>
      </trkpt>
      <trkpt lat="28.094655" lon="-17.319695">
        <ele>456.882</ele>
        <time>2022-01-29T14:08:42Z</time>
      </trkpt>
      <trkpt lat="28.094423" lon="-17.319274">
        <ele>467.349</ele>
        <time>2022-01-29T14:10:19Z</time>
      </trkpt>
      <trkpt lat="28.094506" lon="-17.319243">
        <ele>475.402</ele>
        <time>2022-01-29T14:10:50Z</time>
      </trkpt>
      <trkpt lat="28.094391" lon="-17.318768">
        <ele>491.522</ele>
        <time>2022-01-29T14:13:59Z</time>
      </trkpt>
      <trkpt lat="28.094163" lon="-17.318484">
        <ele>507.508</ele>
        <time>2022-01-29T14:15:57Z</time>
      </trkpt>
      <trkpt lat="28.094245" lon="-17.318426">
        <ele>508.333</ele>
        <time>2022-01-29T14:16:17Z</time>
      </trkpt>
      <trkpt lat="28.094154" lon="-17.318265">
        <ele>525.137</ele>
        <time>2022-01-29T14:17:29Z</time>
      </trkpt>
      <trkpt lat="28.094267" lon="-17.317818">
        <ele>546.813</ele>
        <time>2022-01-29T14:20:20Z</time>
      </trkpt>
      <trkpt lat="28.094145" lon="-17.317704">
        <ele>551.197</ele>
        <time>2022-01-29T14:20:48Z</time>
      </trkpt>
      <trkpt lat="28.094561" lon="-17.317686">
        <ele>562.860</ele>
        <time>2022-01-29T14:22:09Z</time>
      </trkpt>
      <trkpt lat="28.094369" lon="-17.317385">
        <ele>568.144</ele>
        <time>2022-01-29T14:23:24Z</time>
      </trkpt>
      <trkpt lat="28.094454" lon="-17.317351">
        <ele>576.215</ele>
        <time>2022-01-29T14:24:09Z</time>
      </trkpt>
      <trkpt lat="28.094341" lon="-17.317246">
        <ele>583.275</ele>
        <time>2022-01-29T14:24:43Z</time>
      </trkpt>
      <trkpt lat="28.094454" lon="-17.317201">
        <ele>585.824</ele>
        <time>2022-01-29T14:25:29Z</time>
      </trkpt>
      <trkpt lat="28.094433" lon="-17.317096">
        <ele>590.304</ele>
        <time>2022-01-29T14:25:43Z</time>
      </trkpt>
      <trkpt lat="28.094059" lon="-17.316708">
        <ele>600.814</ele>
        <time>2022-01-29T14:27:22Z</time>
      </trkpt>
      <trkpt lat="28.093616" lon="-17.316954">
        <ele>621.508</ele>
        <time>2022-01-29T14:29:13Z</time>
      </trkpt>
      <trkpt lat="28.093263" lon="-17.316938">
        <ele>631.281</ele>
        <time>2022-01-29T14:30:24Z</time>
      </trkpt>
      <trkpt lat="28.093184" lon="-17.316767">
        <ele>633.525</ele>
        <time>2022-01-29T14:31:33Z</time>
      </trkpt>
      <trkpt lat="28.093415" lon="-17.316578">
        <ele>648.571</ele>
        <time>2022-01-29T14:34:47Z</time>
      </trkpt>
      <trkpt lat="28.093276" lon="-17.316454">
        <ele>655.035</ele>
        <time>2022-01-29T14:35:20Z</time>
      </trkpt>
      <trkpt lat="28.093591" lon="-17.316247">
        <ele>660.278</ele>
        <time>2022-01-29T14:36:39Z</time>
      </trkpt>
      <trkpt lat="28.094067" lon="-17.316115">
        <ele>664.982</ele>
        <time>2022-01-29T14:37:32Z</time>
      </trkpt>
      <trkpt lat="28.095000" lon="-17.316335">
        <ele>681.233</ele>
        <time>2022-01-29T14:39:52Z</time>
      </trkpt>
      <trkpt lat="28.095019" lon="-17.315708">
        <ele>695.563</ele>
        <time>2022-01-29T14:42:19Z</time>
      </trkpt>
      <trkpt lat="28.095967" lon="-17.314469">
        <ele>711.929</ele>
        <time>2022-01-29T14:45:45Z</time>
      </trkpt>
      <trkpt lat="28.096352" lon="-17.314151">
        <ele>716.700</ele>
        <time>2022-01-29T14:47:05Z</time>
      </trkpt>
      <trkpt lat="28.096693" lon="-17.314039">
        <ele>718.320</ele>
        <time>2022-01-29T14:48:03Z</time>
      </trkpt>
      <trkpt lat="28.096854" lon="-17.313833">
        <ele>722.508</ele>
        <time>2022-01-29T14:48:32Z</time>
      </trkpt>
      <trkpt lat="28.097192" lon="-17.313728">
        <ele>732.291</ele>
        <time>2022-01-29T14:49:23Z</time>
      </trkpt>
      <trkpt lat="28.097468" lon="-17.313815">
        <ele>739.365</ele>
        <time>2022-01-29T14:49:56Z</time>
      </trkpt>
      <trkpt lat="28.098075" lon="-17.312800">
        <ele>741.431</ele>
        <time>2022-01-29T14:51:58Z</time>
      </trkpt>
      <trkpt lat="28.099100" lon="-17.312127">
        <ele>747.465</ele>
        <time>2022-01-29T14:53:59Z</time>
      </trkpt>
      <trkpt lat="28.099418" lon="-17.311466">
        <ele>747.328</ele>
        <time>2022-01-29T14:55:03Z</time>
      </trkpt>
      <trkpt lat="28.100006" lon="-17.310656">
        <ele>754.842</ele>
        <time>2022-01-29T14:56:31Z</time>
      </trkpt>
      <trkpt lat="28.100458" lon="-17.310421">
        <ele>758.253</ele>
        <time>2022-01-29T14:57:38Z</time>
      </trkpt>
      <trkpt lat="28.100606" lon="-17.310163">
        <ele>762.463</ele>
        <time>2022-01-29T14:58:47Z</time>
      </trkpt>
      <trkpt lat="28.100894" lon="-17.310064">
        <ele>763.489</ele>
        <time>2022-01-29T14:59:11Z</time>
      </trkpt>
      <trkpt lat="28.101151" lon="-17.310124">
        <ele>765.806</ele>
        <time>2022-01-29T14:59:33Z</time>
      </trkpt>
      <trkpt lat="28.101504" lon="-17.310407">
        <ele>761.526</ele>
        <time>2022-01-29T15:00:51Z</time>
      </trkpt>
      <trkpt lat="28.101424" lon="-17.310468">
        <ele>759.408</ele>
        <time>2022-01-29T15:01:08Z</time>
      </trkpt>
      <trkpt lat="28.101490" lon="-17.310607">
        <ele>760.337</ele>
        <time>2022-01-29T15:01:21Z</time>
      </trkpt>
      <trkpt lat="28.101420" lon="-17.310451">
        <ele>765.471</ele>
        <time>2022-01-29T15:06:36Z</time>
      </trkpt>
      <trkpt lat="28.101527" lon="-17.310484">
        <ele>767.497</ele>
        <time>2022-01-29T15:09:41Z</time>
      </trkpt>
      <trkpt lat="28.101343" lon="-17.310252">
        <ele>767.941</ele>
        <time>2022-01-29T15:14:01Z</time>
      </trkpt>
      <trkpt lat="28.101440" lon="-17.310469">
        <ele>772.064</ele>
        <time>2022-01-29T15:16:53Z</time>
      </trkpt>
      <trkpt lat="28.101450" lon="-17.310240">
        <ele>764.318</ele>
        <time>2022-01-29T15:18:04Z</time>
      </trkpt>
      <trkpt lat="28.102045" lon="-17.309480">
        <ele>749.029</ele>
        <time>2022-01-29T15:20:22Z</time>
      </trkpt>
      <trkpt lat="28.102230" lon="-17.309613">
        <ele>749.339</ele>
        <time>2022-01-29T15:20:27Z</time>
      </trkpt>
      <trkpt lat="28.102580" lon="-17.309427">
        <ele>748.881</ele>
        <time>2022-01-29T15:21:08Z</time>
      </trkpt>
      <trkpt lat="28.102742" lon="-17.309009">
        <ele>745.661</ele>
        <time>2022-01-29T15:21:46Z</time>
      </trkpt>
      <trkpt lat="28.103123" lon="-17.308476">
        <ele>744.417</ele>
        <time>2022-01-29T15:22:43Z</time>
      </trkpt>
      <trkpt lat="28.103434" lon="-17.308273">
        <ele>745.608</ele>
        <time>2022-01-29T15:23:14Z</time>
      </trkpt>
      <trkpt lat="28.103535" lon="-17.307977">
        <ele>746.677</ele>
        <time>2022-01-29T15:23:57Z</time>
      </trkpt>
      <trkpt lat="28.104204" lon="-17.307550">
        <ele>727.991</ele>
        <time>2022-01-29T15:25:47Z</time>
      </trkpt>
      <trkpt lat="28.104793" lon="-17.307524">
        <ele>713.287</ele>
        <time>2022-01-29T15:27:22Z</time>
      </trkpt>
      <trkpt lat="28.104956" lon="-17.307392">
        <ele>707.871</ele>
        <time>2022-01-29T15:27:45Z</time>
      </trkpt>
      <trkpt lat="28.104987" lon="-17.307948">
        <ele>691.224</ele>
        <time>2022-01-29T15:29:19Z</time>
      </trkpt>
      <trkpt lat="28.105091" lon="-17.308011">
        <ele>688.458</ele>
        <time>2022-01-29T15:29:47Z</time>
      </trkpt>
      <trkpt lat="28.105040" lon="-17.308222">
        <ele>680.639</ele>
        <time>2022-01-29T15:30:19Z</time>
      </trkpt>
      <trkpt lat="28.105292" lon="-17.308471">
        <ele>690.379</ele>
        <time>2022-01-29T15:31:55Z</time>
      </trkpt>
      <trkpt lat="28.105556" lon="-17.308277">
        <ele>666.692</ele>
        <time>2022-01-29T15:32:36Z</time>
      </trkpt>
      <trkpt lat="28.105636" lon="-17.308636">
        <ele>670.673</ele>
        <time>2022-01-29T15:33:15Z</time>
      </trkpt>
      <trkpt lat="28.105498" lon="-17.308866">
        <ele>671.620</ele>
        <time>2022-01-29T15:33:57Z</time>
      </trkpt>
      <trkpt lat="28.105026" lon="-17.309068">
        <ele>668.908</ele>
        <time>2022-01-29T15:34:43Z</time>
      </trkpt>
      <trkpt lat="28.104605" lon="-17.309569">
        <ele>664.568</ele>
        <time>2022-01-29T15:35:37Z</time>
      </trkpt>
      <trkpt lat="28.104493" lon="-17.310324">
        <ele>668.432</ele>
        <time>2022-01-29T15:36:36Z</time>
      </trkpt>
      <trkpt lat="28.104654" lon="-17.311236">
        <ele>667.378</ele>
        <time>2022-01-29T15:38:02Z</time>
      </trkpt>
      <trkpt lat="28.104062" lon="-17.312434">
        <ele>672.062</ele>
        <time>2022-01-29T15:40:05Z</time>
      </trkpt>
      <trkpt lat="28.103975" lon="-17.313060">
        <ele>680.855</ele>
        <time>2022-01-29T15:40:58Z</time>
      </trkpt>
      <trkpt lat="28.103650" lon="-17.313105">
        <ele>679.079</ele>
        <time>2022-01-29T15:41:26Z</time>
      </trkpt>
      <trkpt lat="28.103756" lon="-17.313277">
        <ele>703.940</ele>
        <time>2022-01-29T15:41:41Z</time>
      </trkpt>
      <trkpt lat="28.103660" lon="-17.313683">
        <ele>670.310</ele>
        <time>2022-01-29T15:42:12Z</time>
      </trkpt>
      <trkpt lat="28.103723" lon="-17.313776">
        <ele>670.958</ele>
        <time>2022-01-29T15:45:46Z</time>
      </trkpt>
      <trkpt lat="28.103918" lon="-17.313727">
        <ele>680.052</ele>
        <time>2022-01-29T15:46:08Z</time>
      </trkpt>
      <trkpt lat="28.104654" lon="-17.314031">
        <ele>658.517</ele>
        <time>2022-01-29T15:47:52Z</time>
      </trkpt>
      <trkpt lat="28.104761" lon="-17.314248">
        <ele>648.808</ele>
        <time>2022-01-29T15:49:14Z</time>
      </trkpt>
      <trkpt lat="28.105059" lon="-17.314084">
        <ele>634.924</ele>
        <time>2022-01-29T15:49:59Z</time>
      </trkpt>
      <trkpt lat="28.105430" lon="-17.314458">
        <ele>625.098</ele>
        <time>2022-01-29T15:51:28Z</time>
      </trkpt>
      <trkpt lat="28.105495" lon="-17.314660">
        <ele>621.414</ele>
        <time>2022-01-29T15:51:56Z</time>
      </trkpt>
      <trkpt lat="28.105209" lon="-17.314628">
        <ele>608.018</ele>
        <time>2022-01-29T15:52:46Z</time>
      </trkpt>
      <trkpt lat="28.104983" lon="-17.314735">
        <ele>602.291</ele>
        <time>2022-01-29T15:53:25Z</time>
      </trkpt>
      <trkpt lat="28.105210" lon="-17.314788">
        <ele>589.975</ele>
        <time>2022-01-29T15:54:01Z</time>
      </trkpt>
      <trkpt lat="28.105346" lon="-17.315245">
        <ele>579.836</ele>
        <time>2022-01-29T15:54:52Z</time>
      </trkpt>
      <trkpt lat="28.105738" lon="-17.315445">
        <ele>566.216</ele>
        <time>2022-01-29T15:55:54Z</time>
      </trkpt>
      <trkpt lat="28.105755" lon="-17.315725">
        <ele>558.242</ele>
        <time>2022-01-29T15:56:45Z</time>
      </trkpt>
      <trkpt lat="28.105260" lon="-17.315915">
        <ele>544.722</ele>
        <time>2022-01-29T15:58:23Z</time>
      </trkpt>
      <trkpt lat="28.105323" lon="-17.316034">
        <ele>538.214</ele>
        <time>2022-01-29T16:00:09Z</time>
      </trkpt>
      <trkpt lat="28.105124" lon="-17.316193">
        <ele>532.108</ele>
        <time>2022-01-29T16:01:23Z</time>
      </trkpt>
      <trkpt lat="28.105482" lon="-17.316651">
        <ele>505.543</ele>
        <time>2022-01-29T16:04:34Z</time>
      </trkpt>
      <trkpt lat="28.105512" lon="-17.317350">
        <ele>476.987</ele>
        <time>2022-01-29T16:07:25Z</time>
      </trkpt>
      <trkpt lat="28.105262" lon="-17.317281">
        <ele>467.263</ele>
        <time>2022-01-29T16:08:45Z</time>
      </trkpt>
      <trkpt lat="28.105245" lon="-17.317433">
        <ele>456.147</ele>
        <time>2022-01-29T16:09:24Z</time>
      </trkpt>
      <trkpt lat="28.105654" lon="-17.318179">
        <ele>443.840</ele>
        <time>2022-01-29T16:11:21Z</time>
      </trkpt>
      <trkpt lat="28.105963" lon="-17.317756">
        <ele>441.864</ele>
        <time>2022-01-29T16:12:59Z</time>
      </trkpt>
      <trkpt lat="28.106405" lon="-17.317498">
        <ele>433.655</ele>
        <time>2022-01-29T16:14:27Z</time>
      </trkpt>
      <trkpt lat="28.106459" lon="-17.317640">
        <ele>423.245</ele>
        <time>2022-01-29T16:15:58Z</time>
      </trkpt>
      <trkpt lat="28.106683" lon="-17.317202">
        <ele>414.492</ele>
        <time>2022-01-29T16:18:14Z</time>
      </trkpt>
      <trkpt lat="28.106903" lon="-17.317389">
        <ele>401.273</ele>
        <time>2022-01-29T16:19:51Z</time>
      </trkpt>
      <trkpt lat="28.106836" lon="-17.317547">
        <ele>399.320</ele>
        <time>2022-01-29T16:20:36Z</time>
      </trkpt>
      <trkpt lat="28.106918" lon="-17.317626">
        <ele>391.508</ele>
        <time>2022-01-29T16:22:35Z</time>
      </trkpt>
      <trkpt lat="28.107028" lon="-17.317564">
        <ele>385.978</ele>
        <time>2022-01-29T16:23:06Z</time>
      </trkpt>
      <trkpt lat="28.107020" lon="-17.317751">
        <ele>378.982</ele>
        <time>2022-01-29T16:23:52Z</time>
      </trkpt>
      <trkpt lat="28.107132" lon="-17.317850">
        <ele>373.518</ele>
        <time>2022-01-29T16:24:13Z</time>
      </trkpt>
      <trkpt lat="28.107522" lon="-17.317574">
        <ele>359.712</ele>
        <time>2022-01-29T16:25:28Z</time>
      </trkpt>
      <trkpt lat="28.107518" lon="-17.317897">
        <ele>355.315</ele>
        <time>2022-01-29T16:26:16Z</time>
      </trkpt>
      <trkpt lat="28.107767" lon="-17.318305">
        <ele>345.779</ele>
        <time>2022-01-29T16:27:21Z</time>
      </trkpt>
      <trkpt lat="28.107736" lon="-17.318452">
        <ele>340.190</ele>
        <time>2022-01-29T16:27:46Z</time>
      </trkpt>
      <trkpt lat="28.107472" lon="-17.318632">
        <ele>327.570</ele>
        <time>2022-01-29T16:28:55Z</time>
      </trkpt>
      <trkpt lat="28.107373" lon="-17.318843">
        <ele>314.629</ele>
        <time>2022-01-29T16:30:04Z</time>
      </trkpt>
      <trkpt lat="28.107219" lon="-17.318820">
        <ele>313.300</ele>
        <time>2022-01-29T16:30:30Z</time>
      </trkpt>
      <trkpt lat="28.107429" lon="-17.319122">
        <ele>300.720</ele>
        <time>2022-01-29T16:32:04Z</time>
      </trkpt>
      <trkpt lat="28.107686" lon="-17.319197">
        <ele>296.008</ele>
        <time>2022-01-29T16:32:56Z</time>
      </trkpt>
      <trkpt lat="28.107343" lon="-17.319757">
        <ele>263.221</ele>
        <time>2022-01-29T16:35:13Z</time>
      </trkpt>
      <trkpt lat="28.107469" lon="-17.320153">
        <ele>259.935</ele>
        <time>2022-01-29T16:36:31Z</time>
      </trkpt>
      <trkpt lat="28.107835" lon="-17.320458">
        <ele>237.581</ele>
        <time>2022-01-29T16:38:30Z</time>
      </trkpt>
      <trkpt lat="28.107883" lon="-17.320913">
        <ele>223.255</ele>
        <time>2022-01-29T16:39:34Z</time>
      </trkpt>
      <trkpt lat="28.107664" lon="-17.321548">
        <ele>200.538</ele>
        <time>2022-01-29T16:41:33Z</time>
      </trkpt>
      <trkpt lat="28.106559" lon="-17.322832">
        <ele>192.162</ele>
        <time>2022-01-29T16:44:00Z</time>
      </trkpt>
      <trkpt lat="28.106118" lon="-17.322791">
        <ele>188.023</ele>
        <time>2022-01-29T16:44:43Z</time>
      </trkpt>
      <trkpt lat="28.106429" lon="-17.323183">
        <ele>191.973</ele>
        <time>2022-01-29T16:45:38Z</time>
      </trkpt>
      <trkpt lat="28.106491" lon="-17.323417">
        <ele>191.688</ele>
        <time>2022-01-29T16:46:46Z</time>
      </trkpt>
      <trkpt lat="28.106356" lon="-17.323465">
        <ele>189.924</ele>
        <time>2022-01-29T16:46:59Z</time>
      </trkpt>
      <trkpt lat="28.106111" lon="-17.323830">
        <ele>183.326</ele>
        <time>2022-01-29T16:47:33Z</time>
      </trkpt>
      <trkpt lat="28.105879" lon="-17.324419">
        <ele>178.208</ele>
        <time>2022-01-29T16:48:46Z</time>
      </trkpt>
      <trkpt lat="28.105102" lon="-17.324855">
        <ele>168.817</ele>
        <time>2022-01-29T16:50:22Z</time>
      </trkpt>
      <trkpt lat="28.104570" lon="-17.325797">
        <ele>157.131</ele>
        <time>2022-01-29T16:52:03Z</time>
      </trkpt>
      <trkpt lat="28.104119" lon="-17.326268">
        <ele>144.277</ele>
        <time>2022-01-29T16:53:35Z</time>
      </trkpt>
      <trkpt lat="28.103758" lon="-17.326897">
        <ele>128.431</ele>
        <time>2022-01-29T16:55:18Z</time>
      </trkpt>
      <trkpt lat="28.102122" lon="-17.328054">
        <ele>113.934</ele>
        <time>2022-01-29T16:57:51Z</time>
      </trkpt>
      <trkpt lat="28.100783" lon="-17.328795">
        <ele>104.388</ele>
        <time>2022-01-29T16:59:51Z</time>
      </trkpt>
      <trkpt lat="28.100110" lon="-17.328813">
        <ele>100.239</ele>
        <time>2022-01-29T17:00:44Z</time>
      </trkpt>
      <trkpt lat="28.099222" lon="-17.329265">
        <ele>100.919</ele>
        <time>2022-01-29T17:02:01Z</time>
      </trkpt>
      <trkpt lat="28.097596" lon="-17.330387">
        <ele>81.845</ele>
        <time>2022-01-29T17:04:30Z</time>
      </trkpt>
      <trkpt lat="28.097123" lon="-17.330989">
        <ele>74.347</ele>
        <time>2022-01-29T17:05:27Z</time>
      </trkpt>
      <trkpt lat="28.096494" lon="-17.332142">
        <ele>69.511</ele>
        <time>2022-01-29T17:10:14Z</time>
      </trkpt>
      <trkpt lat="28.096348" lon="-17.332775">
        <ele>73.508</ele>
        <time>2022-01-29T17:11:26Z</time>
      </trkpt>
      <trkpt lat="28.095897" lon="-17.333585">
        <ele>63.273</ele>
        <time>2022-01-29T17:12:29Z</time>
      </trkpt>
      <trkpt lat="28.094736" lon="-17.334844">
        <ele>49.387</ele>
        <time>2022-01-29T17:14:26Z</time>
      </trkpt>
      <trkpt lat="28.094190" lon="-17.335277">
        <ele>43.273</ele>
        <time>2022-01-29T17:15:18Z</time>
      </trkpt>
      <trkpt lat="28.093812" lon="-17.335190">
        <ele>48.047</ele>
        <time>2022-01-29T17:15:52Z</time>
      </trkpt>
      <trkpt lat="28.093402" lon="-17.335318">
        <ele>45.430</ele>
        <time>2022-01-29T17:16:32Z</time>
      </trkpt>
      <trkpt lat="28.093167" lon="-17.335273">
        <ele>46.114</ele>
        <time>2022-01-29T17:16:48Z</time>
      </trkpt>
      <trkpt lat="28.093109" lon="-17.335366">
        <ele>46.565</ele>
        <time>2022-01-29T17:16:51Z</time>
      </trkpt>
      <trkpt lat="28.092829" lon="-17.335285">
        <ele>44.945</ele>
        <time>2022-01-29T17:17:13Z</time>
      </trkpt>
      <trkpt lat="28.092005" lon="-17.335423">
        <ele>28.282</ele>
        <time>2022-01-29T17:18:14Z</time>
      </trkpt>
      <trkpt lat="28.091237" lon="-17.335661">
        <ele>27.743</ele>
        <time>2022-01-29T17:19:06Z</time>
      </trkpt>
      <trkpt lat="28.090043" lon="-17.336321">
        <ele>18.117</ele>
        <time>2022-01-29T17:20:31Z</time>
      </trkpt>
      <trkpt lat="28.089244" lon="-17.336297">
        <ele>17.908</ele>
        <time>2022-01-29T17:21:23Z</time>
      </trkpt>
      <trkpt lat="28.088406" lon="-17.336100">
        <ele>13.187</ele>
        <time>2022-01-29T17:22:25Z</time>
      </trkpt>
      <trkpt lat="28.088403" lon="-17.336185">
        <ele>14.281</ele>
        <time>2022-01-29T17:22:33Z</time>
      </trkpt>
      <trkpt lat="28.088231" lon="-17.336181">
        <ele>33.537</ele>
        <time>2022-01-29T17:22:46Z</time>
      </trkpt>
      <trkpt lat="28.087923" lon="-17.336668">
        <ele>15.361</ele>
        <time>2022-01-29T17:23:30Z</time>
      </trkpt>
      <trkpt lat="28.087431" lon="-17.336782">
        <ele>17.274</ele>
        <time>2022-01-29T17:24:20Z</time>
      </trkpt>
      <trkpt lat="28.086342" lon="-17.336291">
        <ele>17.978</ele>
        <time>2022-01-29T17:25:34Z</time>
      </trkpt>
      <trkpt lat="28.085887" lon="-17.337000">
        <ele>16.589</ele>
        <time>2022-01-29T17:26:26Z</time>
      </trkpt>
      <trkpt lat="28.086161" lon="-17.337705">
        <ele>3.289</ele>
        <time>2022-01-29T17:27:14Z</time>
      </trkpt>
      <trkpt lat="28.086074" lon="-17.337816">
        <ele>18.435</ele>
        <time>2022-01-29T17:27:43Z</time>
      </trkpt>
      <trkpt lat="28.086361" lon="-17.338497">
        <ele>11.386</ele>
        <time>2022-01-29T17:28:37Z</time>
      </trkpt>
      <trkpt lat="28.087016" lon="-17.338808">
        <ele>13.714</ele>
        <time>2022-01-29T17:29:28Z</time>
      </trkpt>
      <trkpt lat="28.088256" lon="-17.339140">
        <ele>23.808</ele>
        <time>2022-01-29T17:30:58Z</time>
      </trkpt>
      <trkpt lat="28.088528" lon="-17.339314">
        <ele>15.342</ele>
        <time>2022-01-29T17:31:19Z</time>
      </trkpt>
      <trkpt lat="28.088507" lon="-17.339471">
        <ele>12.536</ele>
        <time>2022-01-29T17:31:26Z</time>
      </trkpt>
      <trkpt lat="28.088622" lon="-17.339159">
        <ele>86.252</ele>
        <time>2022-01-29T17:31:47Z</time>
      </trkpt>
      <trkpt lat="28.089040" lon="-17.339008">
        <ele>6.516</ele>
        <time>2022-01-29T17:32:22Z</time>
      </trkpt>
    </trkseg>
  </trk></gpx>