<?xml version="1.0" encoding="UTF-8"?>
<gpx creator="Wikiloc - https://www.wikiloc.com" version="1.1" xmlns="http://www.topografix.com/GPX/1/1" xmlns:xsi="http://www.w3.org/2001/XMLSchema-instance" xsi:schemaLocation="http://www.topografix.com/GPX/1/1 http://www.topografix.com/GPX/1/1/gpx.xsd">
  <metadata>
    <name>Wikiloc - Circular: Barranco de los Cernícalos - Barranco Arenales - C...</name>
    <link href="https://www.wikiloc.com/hiking-trails/circular-barranco-de-los-cernicalos-barranco-arenales-cuevas-de-cubas-barranco-de-los-cernicalos-31783274">
      <text>Circular: Barranco de los Cernícalos - Barranco Arenales - C... on Wikiloc</text>
    </link>
    <time>2018-12-30T15:05:37Z</time>
  </metadata>
  <trk>
    <name>Circular: Barranco de los Cernícalos - Barranco Arenales - C... - Wikiloc</name>
    <cmt></cmt>
    <desc></desc>
    <trkseg>
      <trkpt lat="27.980362" lon="-15.473284">
        <ele>444.221</ele>
        <time>2018-12-30T09:17:47Z</time>
      </trkpt>
      <trkpt lat="27.980377" lon="-15.473384">
        <ele>444.241</ele>
        <time>2018-12-30T09:18:57Z</time>
      </trkpt>
      <trkpt lat="27.980243" lon="-15.473440">
        <ele>444.205</ele>
        <time>2018-12-30T09:20:01Z</time>
      </trkpt>
      <trkpt lat="27.979679" lon="-15.474146">
        <ele>453.208</ele>
        <time>2018-12-30T09:22:01Z</time>
      </trkpt>
      <trkpt lat="27.979552" lon="-15.474575">
        <ele>453.415</ele>
        <time>2018-12-30T09:22:34Z</time>
      </trkpt>
      <trkpt lat="27.979397" lon="-15.474794">
        <ele>453.043</ele>
        <time>2018-12-30T09:22:57Z</time>
      </trkpt>
      <trkpt lat="27.979276" lon="-15.475327">
        <ele>457.149</ele>
        <time>2018-12-30T09:23:40Z</time>
      </trkpt>
      <trkpt lat="27.978921" lon="-15.476090">
        <ele>459.420</ele>
        <time>2018-12-30T09:24:55Z</time>
      </trkpt>
      <trkpt lat="27.978940" lon="-15.476468">
        <ele>459.515</ele>
        <time>2018-12-30T09:25:31Z</time>
      </trkpt>
      <trkpt lat="27.979188" lon="-15.477211">
        <ele>465.844</ele>
        <time>2018-12-30T09:28:04Z</time>
      </trkpt>
      <trkpt lat="27.979230" lon="-15.477701">
        <ele>469.229</ele>
        <time>2018-12-30T09:29:10Z</time>
      </trkpt>
      <trkpt lat="27.978899" lon="-15.478527">
        <ele>474.436</ele>
        <time>2018-12-30T09:30:52Z</time>
      </trkpt>
      <trkpt lat="27.978294" lon="-15.479228">
        <ele>483.228</ele>
        <time>2018-12-30T09:33:35Z</time>
      </trkpt>
      <trkpt lat="27.978265" lon="-15.479695">
        <ele>487.789</ele>
        <time>2018-12-30T09:34:17Z</time>
      </trkpt>
      <trkpt lat="27.978459" lon="-15.480843">
        <ele>497.917</ele>
        <time>2018-12-30T09:36:02Z</time>
      </trkpt>
      <trkpt lat="27.978389" lon="-15.481171">
        <ele>499.408</ele>
        <time>2018-12-30T09:36:31Z</time>
      </trkpt>
      <trkpt lat="27.978157" lon="-15.481288">
        <ele>503.255</ele>
        <time>2018-12-30T09:37:36Z</time>
      </trkpt>
      <trkpt lat="27.978042" lon="-15.481480">
        <ele>503.743</ele>
        <time>2018-12-30T09:38:20Z</time>
      </trkpt>
      <trkpt lat="27.978141" lon="-15.481454">
        <ele>503.569</ele>
        <time>2018-12-30T09:38:31Z</time>
      </trkpt>
      <trkpt lat="27.977919" lon="-15.481658">
        <ele>509.830</ele>
        <time>2018-12-30T09:41:43Z</time>
      </trkpt>
      <trkpt lat="27.977855" lon="-15.481885">
        <ele>507.975</ele>
        <time>2018-12-30T09:42:08Z</time>
      </trkpt>
      <trkpt lat="27.977985" lon="-15.482684">
        <ele>514.854</ele>
        <time>2018-12-30T09:43:49Z</time>
      </trkpt>
      <trkpt lat="27.978388" lon="-15.483192">
        <ele>517.239</ele>
        <time>2018-12-30T09:44:42Z</time>
      </trkpt>
      <trkpt lat="27.978429" lon="-15.483596">
        <ele>517.946</ele>
        <time>2018-12-30T09:45:14Z</time>
      </trkpt>
      <trkpt lat="27.978490" lon="-15.483447">
        <ele>518.488</ele>
        <time>2018-12-30T09:45:31Z</time>
      </trkpt>
      <trkpt lat="27.978139" lon="-15.484284">
        <ele>524.124</ele>
        <time>2018-12-30T09:46:53Z</time>
      </trkpt>
      <trkpt lat="27.977847" lon="-15.484437">
        <ele>527.626</ele>
        <time>2018-12-30T09:47:41Z</time>
      </trkpt>
      <trkpt lat="27.977348" lon="-15.484390">
        <ele>527.008</ele>
        <time>2018-12-30T09:48:39Z</time>
      </trkpt>
      <trkpt lat="27.976835" lon="-15.484690">
        <ele>536.381</ele>
        <time>2018-12-30T09:49:54Z</time>
      </trkpt>
      <trkpt lat="27.976675" lon="-15.484641">
        <ele>538.789</ele>
        <time>2018-12-30T09:50:19Z</time>
      </trkpt>
      <trkpt lat="27.976287" lon="-15.484959">
        <ele>544.885</ele>
        <time>2018-12-30T09:51:46Z</time>
      </trkpt>
      <trkpt lat="27.975439" lon="-15.486105">
        <ele>554.176</ele>
        <time>2018-12-30T09:55:16Z</time>
      </trkpt>
      <trkpt lat="27.975165" lon="-15.486295">
        <ele>555.181</ele>
        <time>2018-12-30T09:55:49Z</time>
      </trkpt>
      <trkpt lat="27.974930" lon="-15.486612">
        <ele>559.640</ele>
        <time>2018-12-30T09:56:44Z</time>
      </trkpt>
      <trkpt lat="27.974186" lon="-15.486761">
        <ele>564.925</ele>
        <time>2018-12-30T09:58:28Z</time>
      </trkpt>
      <trkpt lat="27.973967" lon="-15.486930">
        <ele>569.932</ele>
        <time>2018-12-30T09:58:55Z</time>
      </trkpt>
      <trkpt lat="27.973666" lon="-15.486980">
        <ele>578.572</ele>
        <time>2018-12-30T09:59:59Z</time>
      </trkpt>
      <trkpt lat="27.973297" lon="-15.486925">
        <ele>591.613</ele>
        <time>2018-12-30T10:02:23Z</time>
      </trkpt>
      <trkpt lat="27.973106" lon="-15.486996">
        <ele>593.314</ele>
        <time>2018-12-30T10:02:52Z</time>
      </trkpt>
      <trkpt lat="27.972892" lon="-15.487175">
        <ele>586.608</ele>
        <time>2018-12-30T10:03:41Z</time>
      </trkpt>
      <trkpt lat="27.972880" lon="-15.487392">
        <ele>588.750</ele>
        <time>2018-12-30T10:04:08Z</time>
      </trkpt>
      <trkpt lat="27.972777" lon="-15.487536">
        <ele>590.288</ele>
        <time>2018-12-30T10:04:25Z</time>
      </trkpt>
      <trkpt lat="27.972270" lon="-15.487626">
        <ele>590.694</ele>
        <time>2018-12-30T10:05:25Z</time>
      </trkpt>
      <trkpt lat="27.972124" lon="-15.487845">
        <ele>593.255</ele>
        <time>2018-12-30T10:06:13Z</time>
      </trkpt>
      <trkpt lat="27.971871" lon="-15.487907">
        <ele>596.740</ele>
        <time>2018-12-30T10:07:03Z</time>
      </trkpt>
      <trkpt lat="27.971496" lon="-15.488263">
        <ele>598.939</ele>
        <time>2018-12-30T10:08:18Z</time>
      </trkpt>
      <trkpt lat="27.971032" lon="-15.488273">
        <ele>597.314</ele>
        <time>2018-12-30T10:09:31Z</time>
      </trkpt>
      <trkpt lat="27.970779" lon="-15.488432">
        <ele>598.451</ele>
        <time>2018-12-30T10:10:13Z</time>
      </trkpt>
      <trkpt lat="27.970525" lon="-15.489281">
        <ele>606.567</ele>
        <time>2018-12-30T10:12:18Z</time>
      </trkpt>
      <trkpt lat="27.970063" lon="-15.489788">
        <ele>611.681</ele>
        <time>2018-12-30T10:14:03Z</time>
      </trkpt>
      <trkpt lat="27.969894" lon="-15.489719">
        <ele>611.519</ele>
        <time>2018-12-30T10:14:10Z</time>
      </trkpt>
      <trkpt lat="27.969830" lon="-15.489857">
        <ele>616.508</ele>
        <time>2018-12-30T10:14:27Z</time>
      </trkpt>
      <trkpt lat="27.969875" lon="-15.490119">
        <ele>621.319</ele>
        <time>2018-12-30T10:14:57Z</time>
      </trkpt>
      <trkpt lat="27.969748" lon="-15.490412">
        <ele>625.577</ele>
        <time>2018-12-30T10:17:24Z</time>
      </trkpt>
      <trkpt lat="27.969106" lon="-15.490594">
        <ele>640.433</ele>
        <time>2018-12-30T10:20:56Z</time>
      </trkpt>
      <trkpt lat="27.968875" lon="-15.491074">
        <ele>644.514</ele>
        <time>2018-12-30T10:22:04Z</time>
      </trkpt>
      <trkpt lat="27.968903" lon="-15.491305">
        <ele>644.029</ele>
        <time>2018-12-30T10:22:29Z</time>
      </trkpt>
      <trkpt lat="27.968701" lon="-15.491697">
        <ele>649.818</ele>
        <time>2018-12-30T10:23:25Z</time>
      </trkpt>
      <trkpt lat="27.968431" lon="-15.491728">
        <ele>652.473</ele>
        <time>2018-12-30T10:25:34Z</time>
      </trkpt>
      <trkpt lat="27.968601" lon="-15.491890">
        <ele>652.090</ele>
        <time>2018-12-30T10:25:39Z</time>
      </trkpt>
      <trkpt lat="27.968269" lon="-15.491892">
        <ele>662.866</ele>
        <time>2018-12-30T10:30:54Z</time>
      </trkpt>
      <trkpt lat="27.968247" lon="-15.491995">
        <ele>661.529</ele>
        <time>2018-12-30T10:31:01Z</time>
      </trkpt>
      <trkpt lat="27.968102" lon="-15.492051">
        <ele>664.421</ele>
        <time>2018-12-30T10:31:29Z</time>
      </trkpt>
      <trkpt lat="27.967837" lon="-15.492366">
        <ele>670.208</ele>
        <time>2018-12-30T10:33:26Z</time>
      </trkpt>
      <trkpt lat="27.968010" lon="-15.492670">
        <ele>670.249</ele>
        <time>2018-12-30T10:33:59Z</time>
      </trkpt>
      <trkpt lat="27.968196" lon="-15.492744">
        <ele>667.517</ele>
        <time>2018-12-30T10:34:05Z</time>
      </trkpt>
      <trkpt lat="27.968191" lon="-15.492663">
        <ele>665.913</ele>
        <time>2018-12-30T10:34:08Z</time>
      </trkpt>
      <trkpt lat="27.968095" lon="-15.492624">
        <ele>664.144</ele>
        <time>2018-12-30T10:34:21Z</time>
      </trkpt>
      <trkpt lat="27.967930" lon="-15.492828">
        <ele>662.379</ele>
        <time>2018-12-30T10:35:05Z</time>
      </trkpt>
      <trkpt lat="27.968148" lon="-15.492813">
        <ele>665.398</ele>
        <time>2018-12-30T10:36:18Z</time>
      </trkpt>
      <trkpt lat="27.968203" lon="-15.493037">
        <ele>666.623</ele>
        <time>2018-12-30T10:36:40Z</time>
      </trkpt>
      <trkpt lat="27.968083" lon="-15.493137">
        <ele>675.490</ele>
        <time>2018-12-30T10:37:27Z</time>
      </trkpt>
      <trkpt lat="27.967968" lon="-15.493577">
        <ele>692.487</ele>
        <time>2018-12-30T10:38:52Z</time>
      </trkpt>
      <trkpt lat="27.967827" lon="-15.493681">
        <ele>688.942</ele>
        <time>2018-12-30T10:39:13Z</time>
      </trkpt>
      <trkpt lat="27.967818" lon="-15.493799">
        <ele>687.026</ele>
        <time>2018-12-30T10:39:24Z</time>
      </trkpt>
      <trkpt lat="27.967510" lon="-15.494062">
        <ele>685.608</ele>
        <time>2018-12-30T10:40:32Z</time>
      </trkpt>
      <trkpt lat="27.967286" lon="-15.493994">
        <ele>688.531</ele>
        <time>2018-12-30T10:44:02Z</time>
      </trkpt>
      <trkpt lat="27.967398" lon="-15.494097">
        <ele>695.859</ele>
        <time>2018-12-30T10:44:42Z</time>
      </trkpt>
      <trkpt lat="27.967123" lon="-15.494168">
        <ele>704.835</ele>
        <time>2018-12-30T10:45:55Z</time>
      </trkpt>
      <trkpt lat="27.966927" lon="-15.494419">
        <ele>709.266</ele>
        <time>2018-12-30T10:46:45Z</time>
      </trkpt>
      <trkpt lat="27.966951" lon="-15.494530">
        <ele>710.751</ele>
        <time>2018-12-30T10:46:57Z</time>
      </trkpt>
      <trkpt lat="27.966790" lon="-15.494799">
        <ele>712.610</ele>
        <time>2018-12-30T10:48:09Z</time>
      </trkpt>
      <trkpt lat="27.966546" lon="-15.494908">
        <ele>716.175</ele>
        <time>2018-12-30T10:49:10Z</time>
      </trkpt>
      <trkpt lat="27.966399" lon="-15.494889">
        <ele>739.362</ele>
        <time>2018-12-30T10:53:41Z</time>
      </trkpt>
      <trkpt lat="27.966406" lon="-15.494791">
        <ele>735.399</ele>
        <time>2018-12-30T10:53:43Z</time>
      </trkpt>
      <trkpt lat="27.966529" lon="-15.495033">
        <ele>715.307</ele>
        <time>2018-12-30T10:54:29Z</time>
      </trkpt>
      <trkpt lat="27.966412" lon="-15.495089">
        <ele>707.327</ele>
        <time>2018-12-30T10:54:40Z</time>
      </trkpt>
      <trkpt lat="27.966372" lon="-15.495304">
        <ele>695.308</ele>
        <time>2018-12-30T10:55:34Z</time>
      </trkpt>
      <trkpt lat="27.966590" lon="-15.495636">
        <ele>667.522</ele>
        <time>2018-12-30T10:56:38Z</time>
      </trkpt>
      <trkpt lat="27.966482" lon="-15.495864">
        <ele>669.120</ele>
        <time>2018-12-30T10:58:25Z</time>
      </trkpt>
      <trkpt lat="27.966570" lon="-15.495872">
        <ele>668.966</ele>
        <time>2018-12-30T10:58:38Z</time>
      </trkpt>
      <trkpt lat="27.966679" lon="-15.496099">
        <ele>664.557</ele>
        <time>2018-12-30T11:01:37Z</time>
      </trkpt>
      <trkpt lat="27.966822" lon="-15.496054">
        <ele>666.112</ele>
        <time>2018-12-30T11:02:28Z</time>
      </trkpt>
      <trkpt lat="27.966773" lon="-15.496147">
        <ele>671.791</ele>
        <time>2018-12-30T11:02:57Z</time>
      </trkpt>
      <trkpt lat="27.966869" lon="-15.496148">
        <ele>679.766</ele>
        <time>2018-12-30T11:03:22Z</time>
      </trkpt>
      <trkpt lat="27.966967" lon="-15.496342">
        <ele>695.733</ele>
        <time>2018-12-30T11:06:08Z</time>
      </trkpt>
      <trkpt lat="27.966789" lon="-15.496313">
        <ele>708.873</ele>
        <time>2018-12-30T11:07:10Z</time>
      </trkpt>
      <trkpt lat="27.966972" lon="-15.496506">
        <ele>712.185</ele>
        <time>2018-12-30T11:08:08Z</time>
      </trkpt>
      <trkpt lat="27.966807" lon="-15.496492">
        <ele>715.213</ele>
        <time>2018-12-30T11:08:58Z</time>
      </trkpt>
      <trkpt lat="27.966692" lon="-15.496998">
        <ele>728.308</ele>
        <time>2018-12-30T11:10:55Z</time>
      </trkpt>
      <trkpt lat="27.966256" lon="-15.496711">
        <ele>727.020</ele>
        <time>2018-12-30T11:13:53Z</time>
      </trkpt>
      <trkpt lat="27.966225" lon="-15.496327">
        <ele>731.678</ele>
        <time>2018-12-30T11:18:58Z</time>
      </trkpt>
      <trkpt lat="27.966210" lon="-15.496431">
        <ele>741.134</ele>
        <time>2018-12-30T11:21:42Z</time>
      </trkpt>
      <trkpt lat="27.965794" lon="-15.496280">
        <ele>736.985</ele>
        <time>2018-12-30T11:23:30Z</time>
      </trkpt>
      <trkpt lat="27.965780" lon="-15.496554">
        <ele>728.810</ele>
        <time>2018-12-30T11:27:51Z</time>
      </trkpt>
      <trkpt lat="27.965581" lon="-15.496651">
        <ele>726.679</ele>
        <time>2018-12-30T11:28:50Z</time>
      </trkpt>
      <trkpt lat="27.965636" lon="-15.496792">
        <ele>726.214</ele>
        <time>2018-12-30T11:29:04Z</time>
      </trkpt>
      <trkpt lat="27.965546" lon="-15.496887">
        <ele>722.141</ele>
        <time>2018-12-30T11:29:39Z</time>
      </trkpt>
      <trkpt lat="27.965631" lon="-15.497166">
        <ele>723.755</ele>
        <time>2018-12-30T11:33:59Z</time>
      </trkpt>
      <trkpt lat="27.965379" lon="-15.497299">
        <ele>732.607</ele>
        <time>2018-12-30T11:36:04Z</time>
      </trkpt>
      <trkpt lat="27.965462" lon="-15.497242">
        <ele>732.717</ele>
        <time>2018-12-30T11:36:41Z</time>
      </trkpt>
      <trkpt lat="27.965534" lon="-15.497304">
        <ele>732.608</ele>
        <time>2018-12-30T11:37:02Z</time>
      </trkpt>
      <trkpt lat="27.965488" lon="-15.497257">
        <ele>731.328</ele>
        <time>2018-12-30T11:40:22Z</time>
      </trkpt>
      <trkpt lat="27.965577" lon="-15.497203">
        <ele>732.036</ele>
        <time>2018-12-30T11:45:05Z</time>
      </trkpt>
      <trkpt lat="27.965427" lon="-15.497140">
        <ele>731.762</ele>
        <time>2018-12-30T11:46:33Z</time>
      </trkpt>
      <trkpt lat="27.964704" lon="-15.497394">
        <ele>752.533</ele>
        <time>2018-12-30T11:50:57Z</time>
      </trkpt>
      <trkpt lat="27.964092" lon="-15.498306">
        <ele>771.768</ele>
        <time>2018-12-30T11:56:40Z</time>
      </trkpt>
      <trkpt lat="27.963944" lon="-15.498172">
        <ele>775.427</ele>
        <time>2018-12-30T11:58:54Z</time>
      </trkpt>
      <trkpt lat="27.963995" lon="-15.497605">
        <ele>788.042</ele>
        <time>2018-12-30T12:01:41Z</time>
      </trkpt>
      <trkpt lat="27.964235" lon="-15.496831">
        <ele>801.189</ele>
        <time>2018-12-30T12:04:19Z</time>
      </trkpt>
      <trkpt lat="27.964403" lon="-15.496576">
        <ele>809.719</ele>
        <time>2018-12-30T12:04:48Z</time>
      </trkpt>
      <trkpt lat="27.964498" lon="-15.496555">
        <ele>814.809</ele>
        <time>2018-12-30T12:09:27Z</time>
      </trkpt>
      <trkpt lat="27.964303" lon="-15.496042">
        <ele>814.519</ele>
        <time>2018-12-30T12:10:48Z</time>
      </trkpt>
      <trkpt lat="27.964572" lon="-15.495636">
        <ele>827.108</ele>
        <time>2018-12-30T12:13:26Z</time>
      </trkpt>
      <trkpt lat="27.964628" lon="-15.495361">
        <ele>829.344</ele>
        <time>2018-12-30T12:16:10Z</time>
      </trkpt>
      <trkpt lat="27.964556" lon="-15.495297">
        <ele>829.312</ele>
        <time>2018-12-30T12:16:31Z</time>
      </trkpt>
      <trkpt lat="27.964652" lon="-15.495322">
        <ele>829.628</ele>
        <time>2018-12-30T12:25:29Z</time>
      </trkpt>
      <trkpt lat="27.964361" lon="-15.494667">
        <ele>841.859</ele>
        <time>2018-12-30T12:26:45Z</time>
      </trkpt>
      <trkpt lat="27.964311" lon="-15.493882">
        <ele>846.644</ele>
        <time>2018-12-30T12:28:07Z</time>
      </trkpt>
      <trkpt lat="27.964021" lon="-15.493366">
        <ele>847.873</ele>
        <time>2018-12-30T12:30:02Z</time>
      </trkpt>
      <trkpt lat="27.963795" lon="-15.493260">
        <ele>848.768</ele>
        <time>2018-12-30T12:30:27Z</time>
      </trkpt>
      <trkpt lat="27.963624" lon="-15.493346">
        <ele>848.465</ele>
        <time>2018-12-30T12:30:44Z</time>
      </trkpt>
      <trkpt lat="27.963180" lon="-15.493927">
        <ele>837.663</ele>
        <time>2018-12-30T12:31:56Z</time>
      </trkpt>
      <trkpt lat="27.962735" lon="-15.494083">
        <ele>831.844</ele>
        <time>2018-12-30T12:32:41Z</time>
      </trkpt>
      <trkpt lat="27.962497" lon="-15.494070">
        <ele>825.718</ele>
        <time>2018-12-30T12:33:05Z</time>
      </trkpt>
      <trkpt lat="27.962983" lon="-15.493187">
        <ele>839.208</ele>
        <time>2018-12-30T12:34:36Z</time>
      </trkpt>
      <trkpt lat="27.963033" lon="-15.492899">
        <ele>832.219</ele>
        <time>2018-12-30T12:35:05Z</time>
      </trkpt>
      <trkpt lat="27.962926" lon="-15.492701">
        <ele>824.137</ele>
        <time>2018-12-30T12:35:20Z</time>
      </trkpt>
      <trkpt lat="27.962393" lon="-15.492589">
        <ele>816.613</ele>
        <time>2018-12-30T12:36:14Z</time>
      </trkpt>
      <trkpt lat="27.962307" lon="-15.492448">
        <ele>819.074</ele>
        <time>2018-12-30T12:36:27Z</time>
      </trkpt>
      <trkpt lat="27.962954" lon="-15.492087">
        <ele>805.849</ele>
        <time>2018-12-30T12:37:37Z</time>
      </trkpt>
      <trkpt lat="27.963189" lon="-15.491689">
        <ele>805.148</ele>
        <time>2018-12-30T12:38:14Z</time>
      </trkpt>
      <trkpt lat="27.963553" lon="-15.491309">
        <ele>808.053</ele>
        <time>2018-12-30T12:39:28Z</time>
      </trkpt>
      <trkpt lat="27.964299" lon="-15.491100">
        <ele>805.650</ele>
        <time>2018-12-30T12:40:45Z</time>
      </trkpt>
      <trkpt lat="27.964829" lon="-15.490310">
        <ele>809.048</ele>
        <time>2018-12-30T12:42:13Z</time>
      </trkpt>
      <trkpt lat="27.965201" lon="-15.490141">
        <ele>806.161</ele>
        <time>2018-12-30T12:44:37Z</time>
      </trkpt>
      <trkpt lat="27.966102" lon="-15.489139">
        <ele>793.117</ele>
        <time>2018-12-30T12:47:11Z</time>
      </trkpt>
      <trkpt lat="27.966309" lon="-15.488492">
        <ele>790.608</ele>
        <time>2018-12-30T12:48:10Z</time>
      </trkpt>
      <trkpt lat="27.966291" lon="-15.487707">
        <ele>778.437</ele>
        <time>2018-12-30T12:50:55Z</time>
      </trkpt>
      <trkpt lat="27.966167" lon="-15.487541">
        <ele>776.725</ele>
        <time>2018-12-30T12:51:19Z</time>
      </trkpt>
      <trkpt lat="27.965480" lon="-15.487127">
        <ele>771.731</ele>
        <time>2018-12-30T12:52:47Z</time>
      </trkpt>
      <trkpt lat="27.965447" lon="-15.486915">
        <ele>771.792</ele>
        <time>2018-12-30T12:53:32Z</time>
      </trkpt>
      <trkpt lat="27.965353" lon="-15.486902">
        <ele>770.197</ele>
        <time>2018-12-30T12:54:56Z</time>
      </trkpt>
      <trkpt lat="27.966075" lon="-15.487136">
        <ele>754.256</ele>
        <time>2018-12-30T12:56:19Z</time>
      </trkpt>
      <trkpt lat="27.966782" lon="-15.487625">
        <ele>748.891</ele>
        <time>2018-12-30T12:58:02Z</time>
      </trkpt>
      <trkpt lat="27.967299" lon="-15.487783">
        <ele>738.668</ele>
        <time>2018-12-30T12:59:17Z</time>
      </trkpt>
      <trkpt lat="27.967461" lon="-15.487950">
        <ele>731.774</ele>
        <time>2018-12-30T12:59:55Z</time>
      </trkpt>
      <trkpt lat="27.967731" lon="-15.487897">
        <ele>725.956</ele>
        <time>2018-12-30T13:01:48Z</time>
      </trkpt>
      <trkpt lat="27.967874" lon="-15.487737">
        <ele>723.021</ele>
        <time>2018-12-30T13:05:36Z</time>
      </trkpt>
      <trkpt lat="27.967890" lon="-15.487183">
        <ele>720.108</ele>
        <time>2018-12-30T13:09:39Z</time>
      </trkpt>
      <trkpt lat="27.967285" lon="-15.486849">
        <ele>716.140</ele>
        <time>2018-12-30T13:11:45Z</time>
      </trkpt>
      <trkpt lat="27.967187" lon="-15.486658">
        <ele>715.478</ele>
        <time>2018-12-30T13:12:16Z</time>
      </trkpt>
      <trkpt lat="27.966978" lon="-15.486517">
        <ele>716.634</ele>
        <time>2018-12-30T13:12:38Z</time>
      </trkpt>
      <trkpt lat="27.966894" lon="-15.486151">
        <ele>716.885</ele>
        <time>2018-12-30T13:13:29Z</time>
      </trkpt>
      <trkpt lat="27.967177" lon="-15.485860">
        <ele>721.240</ele>
        <time>2018-12-30T13:14:09Z</time>
      </trkpt>
      <trkpt lat="27.967526" lon="-15.485848">
        <ele>718.749</ele>
        <time>2018-12-30T13:15:43Z</time>
      </trkpt>
      <trkpt lat="27.967705" lon="-15.485742">
        <ele>720.454</ele>
        <time>2018-12-30T13:16:01Z</time>
      </trkpt>
      <trkpt lat="27.968053" lon="-15.485187">
        <ele>726.761</ele>
        <time>2018-12-30T13:17:12Z</time>
      </trkpt>
      <trkpt lat="27.968550" lon="-15.484858">
        <ele>717.599</ele>
        <time>2018-12-30T13:20:00Z</time>
      </trkpt>
      <trkpt lat="27.968785" lon="-15.483631">
        <ele>713.707</ele>
        <time>2018-12-30T13:26:03Z</time>
      </trkpt>
      <trkpt lat="27.968741" lon="-15.483541">
        <ele>746.827</ele>
        <time>2018-12-30T13:26:24Z</time>
      </trkpt>
      <trkpt lat="27.968850" lon="-15.483836">
        <ele>800.508</ele>
        <time>2018-12-30T13:27:16Z</time>
      </trkpt>
      <trkpt lat="27.969187" lon="-15.484166">
        <ele>789.462</ele>
        <time>2018-12-30T13:28:42Z</time>
      </trkpt>
      <trkpt lat="27.969423" lon="-15.483848">
        <ele>780.040</ele>
        <time>2018-12-30T13:29:38Z</time>
      </trkpt>
      <trkpt lat="27.969429" lon="-15.484025">
        <ele>777.386</ele>
        <time>2018-12-30T13:30:10Z</time>
      </trkpt>
      <trkpt lat="27.969561" lon="-15.483954">
        <ele>777.037</ele>
        <time>2018-12-30T13:31:05Z</time>
      </trkpt>
      <trkpt lat="27.969903" lon="-15.483529">
        <ele>767.872</ele>
        <time>2018-12-30T13:32:03Z</time>
      </trkpt>
      <trkpt lat="27.970062" lon="-15.483544">
        <ele>764.531</ele>
        <time>2018-12-30T13:32:27Z</time>
      </trkpt>
      <trkpt lat="27.970308" lon="-15.483719">
        <ele>753.826</ele>
        <time>2018-12-30T13:33:39Z</time>
      </trkpt>
      <trkpt lat="27.970292" lon="-15.484395">
        <ele>742.063</ele>
        <time>2018-12-30T13:37:46Z</time>
      </trkpt>
      <trkpt lat="27.971009" lon="-15.484549">
        <ele>747.574</ele>
        <time>2018-12-30T13:40:18Z</time>
      </trkpt>
      <trkpt lat="27.971582" lon="-15.484257">
        <ele>751.556</ele>
        <time>2018-12-30T13:42:24Z</time>
      </trkpt>
      <trkpt lat="27.971769" lon="-15.483470">
        <ele>754.221</ele>
        <time>2018-12-30T13:45:50Z</time>
      </trkpt>
      <trkpt lat="27.972050" lon="-15.482816">
        <ele>750.608</ele>
        <time>2018-12-30T13:49:38Z</time>
      </trkpt>
      <trkpt lat="27.972756" lon="-15.482300">
        <ele>745.480</ele>
        <time>2018-12-30T13:51:39Z</time>
      </trkpt>
      <trkpt lat="27.972922" lon="-15.481729">
        <ele>733.128</ele>
        <time>2018-12-30T13:54:07Z</time>
      </trkpt>
      <trkpt lat="27.972867" lon="-15.481629">
        <ele>729.964</ele>
        <time>2018-12-30T13:54:20Z</time>
      </trkpt>
      <trkpt lat="27.973055" lon="-15.481443">
        <ele>724.545</ele>
        <time>2018-12-30T13:55:13Z</time>
      </trkpt>
      <trkpt lat="27.973204" lon="-15.481107">
        <ele>716.580</ele>
        <time>2018-12-30T13:56:23Z</time>
      </trkpt>
      <trkpt lat="27.973474" lon="-15.480892">
        <ele>711.069</ele>
        <time>2018-12-30T13:58:48Z</time>
      </trkpt>
      <trkpt lat="27.973494" lon="-15.480665">
        <ele>707.544</ele>
        <time>2018-12-30T13:59:10Z</time>
      </trkpt>
      <trkpt lat="27.974140" lon="-15.480064">
        <ele>697.071</ele>
        <time>2018-12-30T14:01:33Z</time>
      </trkpt>
      <trkpt lat="27.974230" lon="-15.479799">
        <ele>692.871</ele>
        <time>2018-12-30T14:02:10Z</time>
      </trkpt>
      <trkpt lat="27.974881" lon="-15.479169">
        <ele>677.941</ele>
        <time>2018-12-30T14:04:13Z</time>
      </trkpt>
      <trkpt lat="27.975217" lon="-15.478660">
        <ele>671.515</ele>
        <time>2018-12-30T14:06:11Z</time>
      </trkpt>
      <trkpt lat="27.975647" lon="-15.478345">
        <ele>658.308</ele>
        <time>2018-12-30T14:09:47Z</time>
      </trkpt>
      <trkpt lat="27.975943" lon="-15.477512">
        <ele>627.580</ele>
        <time>2018-12-30T14:15:00Z</time>
      </trkpt>
      <trkpt lat="27.976178" lon="-15.477336">
        <ele>620.018</ele>
        <time>2018-12-30T14:21:22Z</time>
      </trkpt>
      <trkpt lat="27.976160" lon="-15.477110">
        <ele>613.674</ele>
        <time>2018-12-30T14:22:37Z</time>
      </trkpt>
      <trkpt lat="27.976302" lon="-15.477600">
        <ele>613.495</ele>
        <time>2018-12-30T14:26:57Z</time>
      </trkpt>
      <trkpt lat="27.976696" lon="-15.477326">
        <ele>600.950</ele>
        <time>2018-12-30T14:28:49Z</time>
      </trkpt>
      <trkpt lat="27.976801" lon="-15.477578">
        <ele>595.069</ele>
        <time>2018-12-30T14:30:02Z</time>
      </trkpt>
      <trkpt lat="27.976856" lon="-15.477511">
        <ele>593.194</ele>
        <time>2018-12-30T14:35:40Z</time>
      </trkpt>
      <trkpt lat="27.976837" lon="-15.477564">
        <ele>593.871</ele>
        <time>2018-12-30T14:35:49Z</time>
      </trkpt>
      <trkpt lat="27.977182" lon="-15.477509">
        <ele>588.851</ele>
        <time>2018-12-30T14:37:07Z</time>
      </trkpt>
      <trkpt lat="27.977180" lon="-15.477681">
        <ele>587.301</ele>
        <time>2018-12-30T14:37:34Z</time>
      </trkpt>
      <trkpt lat="27.977286" lon="-15.477790">
        <ele>585.211</ele>
        <time>2018-12-30T14:38:15Z</time>
      </trkpt>
      <trkpt lat="27.977399" lon="-15.477432">
        <ele>579.508</ele>
        <time>2018-12-30T14:39:44Z</time>
      </trkpt>
      <trkpt lat="27.977208" lon="-15.477224">
        <ele>576.688</ele>
        <time>2018-12-30T14:40:25Z</time>
      </trkpt>
      <trkpt lat="27.976996" lon="-15.477215">
        <ele>576.586</ele>
        <time>2018-12-30T14:41:04Z</time>
      </trkpt>
      <trkpt lat="27.976970" lon="-15.477114">
        <ele>582.242</ele>
        <time>2018-12-30T14:42:05Z</time>
      </trkpt>
      <trkpt lat="27.977025" lon="-15.476413">
        <ele>574.653</ele>
        <time>2018-12-30T14:43:44Z</time>
      </trkpt>
      <trkpt lat="27.977238" lon="-15.475795">
        <ele>580.378</ele>
        <time>2018-12-30T14:46:09Z</time>
      </trkpt>
      <trkpt lat="27.977676" lon="-15.475421">
        <ele>579.797</ele>
        <time>2018-12-30T14:47:27Z</time>
      </trkpt>
      <trkpt lat="27.977665" lon="-15.475302">
        <ele>575.912</ele>
        <time>2018-12-30T14:48:01Z</time>
      </trkpt>
      <trkpt lat="27.977713" lon="-15.475383">
        <ele>575.969</ele>
        <time>2018-12-30T14:48:14Z</time>
      </trkpt>
      <trkpt lat="27.977771" lon="-15.475074">
        <ele>569.028</ele>
        <time>2018-12-30T14:49:36Z</time>
      </trkpt>
      <trkpt lat="27.978111" lon="-15.474592">
        <ele>561.989</ele>
        <time>2018-12-30T14:50:49Z</time>
      </trkpt>
      <trkpt lat="27.978260" lon="-15.474054">
        <ele>554.317</ele>
        <time>2018-12-30T14:51:48Z</time>
      </trkpt>
      <trkpt lat="27.978142" lon="-15.473389">
        <ele>545.708</ele>
        <time>2018-12-30T14:53:02Z</time>
      </trkpt>
      <trkpt lat="27.978310" lon="-15.473169">
        <ele>544.975</ele>
        <time>2018-12-30T14:54:45Z</time>
      </trkpt>
      <trkpt lat="27.978372" lon="-15.473175">
        <ele>544.533</ele>
        <time>2018-12-30T14:55:28Z</time>
      </trkpt>
      <trkpt lat="27.978417" lon="-15.473399">
        <ele>541.789</ele>
        <time>2018-12-30T14:56:07Z</time>
      </trkpt>
      <trkpt lat="27.978549" lon="-15.473430">
        <ele>535.710</ele>
        <time>2018-12-30T14:57:30Z</time>
      </trkpt>
      <trkpt lat="27.978760" lon="-15.473336">
        <ele>527.845</ele>
        <time>2018-12-30T14:59:48Z</time>
      </trkpt>
      <trkpt lat="27.979689" lon="-15.473468">
        <ele>506.044</ele>
        <time>2018-12-30T15:01:56Z</time>
      </trkpt>
      <trkpt lat="27.980157" lon="-15.473230">
        <ele>503.199</ele>
        <time>2018-12-30T15:03:20Z</time>
      </trkpt>
      <trkpt lat="27.980275" lon="-15.473422">
        <ele>498.816</ele>
        <time>2018-12-30T15:04:54Z</time>
      </trkpt>
      <trkpt lat="27.980202" lon="-15.473407">
        <ele>498.388</ele>
        <time>2018-12-30T15:05:02Z</time>
      </trkpt>
      <trkpt lat="27.980328" lon="-15.473378">
        <ele>499.524</ele>
        <time>2018-12-30T15:05:37Z</time>
      </trkpt>
    </trkseg>
  </trk></gpx>