<?xml version="1.0" encoding="UTF-8"?>
<gpx version="1.1" creator="Aventuras en Cada Paso" xmlns="http://www.topografix.com/GPX/1/1">
  <metadata>
    <name>Barrancos de Puerto – Centro</name>
    <desc>Circular por los barrancos del centro de la isla con 268 m de desnivel. Paisaje variado entre malpaíses, barrancos y llanuras volcánicas poco frecuentadas.</desc>
    <author><name>Aventuras en Cada Paso</name></author>
    <time>2026-07-08T08:12:58.179Z</time>
    <keywords>Fuerteventura, Senderismo, Media, senderismo Canarias</keywords>
  </metadata>
  <wpt lat="28.4167" lon="-14">
    <name>Barrancos de Puerto – Centro</name>
    <desc>Circular por los barrancos del centro de la isla con 268 m de desnivel. Paisaje variado entre malpaíses, barrancos y llanuras volcánicas poco frecuentadas. | Isla: Fuerteventura | Tipo: Senderismo | Dificultad: Media | Distancia: 11km | Duración: 4-8 horas</desc>
    <type>Senderismo</type>
    <extensions>
      <isla>Fuerteventura</isla>
      <dificultad>Media</dificultad>
      <distancia>11</distancia>
      <duracion>4-8 horas</duracion>
    </extensions>
  </wpt>
</gpx>