<?xml version="1.0" encoding="UTF-8"?>
<gpx creator="Wikiloc - https://www.wikiloc.com" version="1.1" xmlns="http://www.topografix.com/GPX/1/1" xmlns:xsi="http://www.w3.org/2001/XMLSchema-instance" xsi:schemaLocation="http://www.topografix.com/GPX/1/1 http://www.topografix.com/GPX/1/1/gpx.xsd">
  <metadata>
    <name>Wikiloc - Circular Imada - Barranco de Guarimiar - Targa - Alajero - I...</name>
    <link href="https://www.wikiloc.com/hiking-trails/circular-imada-barranco-de-guarimiar-targa-alajero-imada-57151844">
      <text>Circular Imada - Barranco de Guarimiar - Targa - Alajero - I... on Wikiloc</text>
    </link>
    <time>2020-09-20T15:30:47Z</time>
  </metadata>
  <trk>
    <name>Circular Imada - Barranco de Guarimiar - Targa - Alajero - I... - Wikiloc</name>
    <cmt></cmt>
    <desc></desc>
    <trkseg>
      <trkpt lat="28.087314" lon="-17.240487">
        <ele>918.646</ele>
        <time>2020-09-20T11:36:13Z</time>
      </trkpt>
      <trkpt lat="28.086114" lon="-17.240831">
        <ele>918.688</ele>
        <time>2020-09-20T11:36:18Z</time>
      </trkpt>
      <trkpt lat="28.085557" lon="-17.241421">
        <ele>918.616</ele>
        <time>2020-09-20T11:36:27Z</time>
      </trkpt>
      <trkpt lat="28.085195" lon="-17.241257">
        <ele>945.408</ele>
        <time>2020-09-20T11:37:23Z</time>
      </trkpt>
      <trkpt lat="28.084607" lon="-17.241318">
        <ele>938.929</ele>
        <time>2020-09-20T11:38:32Z</time>
      </trkpt>
      <trkpt lat="28.084290" lon="-17.241118">
        <ele>936.751</ele>
        <time>2020-09-20T11:39:00Z</time>
      </trkpt>
      <trkpt lat="28.084364" lon="-17.240954">
        <ele>937.125</ele>
        <time>2020-09-20T11:39:20Z</time>
      </trkpt>
      <trkpt lat="28.083988" lon="-17.240957">
        <ele>936.979</ele>
        <time>2020-09-20T11:39:54Z</time>
      </trkpt>
      <trkpt lat="28.083651" lon="-17.240647">
        <ele>937.085</ele>
        <time>2020-09-20T11:40:24Z</time>
      </trkpt>
      <trkpt lat="28.083405" lon="-17.240596">
        <ele>937.072</ele>
        <time>2020-09-20T11:40:43Z</time>
      </trkpt>
      <trkpt lat="28.083219" lon="-17.240679">
        <ele>933.058</ele>
        <time>2020-09-20T11:40:59Z</time>
      </trkpt>
      <trkpt lat="28.082852" lon="-17.241156">
        <ele>887.928</ele>
        <time>2020-09-20T11:41:50Z</time>
      </trkpt>
      <trkpt lat="28.082518" lon="-17.241255">
        <ele>888.116</ele>
        <time>2020-09-20T11:42:18Z</time>
      </trkpt>
      <trkpt lat="28.082761" lon="-17.240535">
        <ele>879.576</ele>
        <time>2020-09-20T11:45:02Z</time>
      </trkpt>
      <trkpt lat="28.082899" lon="-17.239054">
        <ele>840.513</ele>
        <time>2020-09-20T11:48:09Z</time>
      </trkpt>
      <trkpt lat="28.082412" lon="-17.238870">
        <ele>827.408</ele>
        <time>2020-09-20T11:49:01Z</time>
      </trkpt>
      <trkpt lat="28.081935" lon="-17.238504">
        <ele>855.816</ele>
        <time>2020-09-20T11:49:59Z</time>
      </trkpt>
      <trkpt lat="28.081485" lon="-17.237812">
        <ele>879.878</ele>
        <time>2020-09-20T11:51:22Z</time>
      </trkpt>
      <trkpt lat="28.081211" lon="-17.237667">
        <ele>903.812</ele>
        <time>2020-09-20T11:51:54Z</time>
      </trkpt>
      <trkpt lat="28.081118" lon="-17.237211">
        <ele>931.176</ele>
        <time>2020-09-20T11:52:52Z</time>
      </trkpt>
      <trkpt lat="28.080599" lon="-17.236796">
        <ele>935.012</ele>
        <time>2020-09-20T11:53:55Z</time>
      </trkpt>
      <trkpt lat="28.080649" lon="-17.236548">
        <ele>932.119</ele>
        <time>2020-09-20T11:54:19Z</time>
      </trkpt>
      <trkpt lat="28.080546" lon="-17.236511">
        <ele>920.125</ele>
        <time>2020-09-20T11:54:44Z</time>
      </trkpt>
      <trkpt lat="28.080429" lon="-17.236132">
        <ele>935.365</ele>
        <time>2020-09-20T11:56:05Z</time>
      </trkpt>
      <trkpt lat="28.080405" lon="-17.235470">
        <ele>875.327</ele>
        <time>2020-09-20T11:58:22Z</time>
      </trkpt>
      <trkpt lat="28.080228" lon="-17.235444">
        <ele>859.368</ele>
        <time>2020-09-20T11:58:44Z</time>
      </trkpt>
      <trkpt lat="28.080275" lon="-17.235131">
        <ele>835.314</ele>
        <time>2020-09-20T11:59:09Z</time>
      </trkpt>
      <trkpt lat="28.080142" lon="-17.234782">
        <ele>807.308</ele>
        <time>2020-09-20T11:59:43Z</time>
      </trkpt>
      <trkpt lat="28.079866" lon="-17.234604">
        <ele>779.357</ele>
        <time>2020-09-20T12:00:19Z</time>
      </trkpt>
      <trkpt lat="28.079918" lon="-17.233861">
        <ele>729.589</ele>
        <time>2020-09-20T12:01:42Z</time>
      </trkpt>
      <trkpt lat="28.079610" lon="-17.233667">
        <ele>719.473</ele>
        <time>2020-09-20T12:02:20Z</time>
      </trkpt>
      <trkpt lat="28.079351" lon="-17.233075">
        <ele>709.457</ele>
        <time>2020-09-20T12:03:19Z</time>
      </trkpt>
      <trkpt lat="28.079164" lon="-17.232342">
        <ele>701.243</ele>
        <time>2020-09-20T12:04:23Z</time>
      </trkpt>
      <trkpt lat="28.079193" lon="-17.232038">
        <ele>695.470</ele>
        <time>2020-09-20T12:04:53Z</time>
      </trkpt>
      <trkpt lat="28.078623" lon="-17.231992">
        <ele>682.886</ele>
        <time>2020-09-20T12:06:12Z</time>
      </trkpt>
      <trkpt lat="28.078570" lon="-17.231563">
        <ele>677.916</ele>
        <time>2020-09-20T12:06:55Z</time>
      </trkpt>
      <trkpt lat="28.078287" lon="-17.231131">
        <ele>672.637</ele>
        <time>2020-09-20T12:07:40Z</time>
      </trkpt>
      <trkpt lat="28.078123" lon="-17.230163">
        <ele>668.449</ele>
        <time>2020-09-20T12:09:04Z</time>
      </trkpt>
      <trkpt lat="28.077835" lon="-17.229815">
        <ele>658.913</ele>
        <time>2020-09-20T12:11:40Z</time>
      </trkpt>
      <trkpt lat="28.077714" lon="-17.229966">
        <ele>649.108</ele>
        <time>2020-09-20T12:12:21Z</time>
      </trkpt>
      <trkpt lat="28.077577" lon="-17.229620">
        <ele>643.558</ele>
        <time>2020-09-20T12:13:59Z</time>
      </trkpt>
      <trkpt lat="28.077514" lon="-17.229785">
        <ele>632.820</ele>
        <time>2020-09-20T12:16:06Z</time>
      </trkpt>
      <trkpt lat="28.077187" lon="-17.229972">
        <ele>618.994</ele>
        <time>2020-09-20T12:17:25Z</time>
      </trkpt>
      <trkpt lat="28.077011" lon="-17.229904">
        <ele>616.158</ele>
        <time>2020-09-20T12:17:48Z</time>
      </trkpt>
      <trkpt lat="28.076536" lon="-17.230146">
        <ele>606.884</ele>
        <time>2020-09-20T12:19:51Z</time>
      </trkpt>
      <trkpt lat="28.076158" lon="-17.229929">
        <ele>603.541</ele>
        <time>2020-09-20T12:21:26Z</time>
      </trkpt>
      <trkpt lat="28.075678" lon="-17.230154">
        <ele>595.257</ele>
        <time>2020-09-20T12:22:33Z</time>
      </trkpt>
      <trkpt lat="28.075549" lon="-17.230115">
        <ele>593.517</ele>
        <time>2020-09-20T12:22:46Z</time>
      </trkpt>
      <trkpt lat="28.075397" lon="-17.230380">
        <ele>586.067</ele>
        <time>2020-09-20T12:23:52Z</time>
      </trkpt>
      <trkpt lat="28.075113" lon="-17.230320">
        <ele>579.481</ele>
        <time>2020-09-20T12:24:25Z</time>
      </trkpt>
      <trkpt lat="28.074906" lon="-17.230803">
        <ele>569.119</ele>
        <time>2020-09-20T12:25:12Z</time>
      </trkpt>
      <trkpt lat="28.074396" lon="-17.230837">
        <ele>562.308</ele>
        <time>2020-09-20T12:27:16Z</time>
      </trkpt>
      <trkpt lat="28.074426" lon="-17.230541">
        <ele>565.661</ele>
        <time>2020-09-20T12:28:10Z</time>
      </trkpt>
      <trkpt lat="28.074055" lon="-17.229947">
        <ele>560.783</ele>
        <time>2020-09-20T12:29:09Z</time>
      </trkpt>
      <trkpt lat="28.073772" lon="-17.229850">
        <ele>547.967</ele>
        <time>2020-09-20T12:29:50Z</time>
      </trkpt>
      <trkpt lat="28.073493" lon="-17.229406">
        <ele>541.361</ele>
        <time>2020-09-20T12:30:51Z</time>
      </trkpt>
      <trkpt lat="28.073180" lon="-17.229159">
        <ele>535.977</ele>
        <time>2020-09-20T12:31:44Z</time>
      </trkpt>
      <trkpt lat="28.073023" lon="-17.228483">
        <ele>522.474</ele>
        <time>2020-09-20T12:33:29Z</time>
      </trkpt>
      <trkpt lat="28.072505" lon="-17.228543">
        <ele>501.880</ele>
        <time>2020-09-20T12:34:43Z</time>
      </trkpt>
      <trkpt lat="28.072130" lon="-17.228125">
        <ele>484.250</ele>
        <time>2020-09-20T12:35:51Z</time>
      </trkpt>
      <trkpt lat="28.071612" lon="-17.228072">
        <ele>473.494</ele>
        <time>2020-09-20T12:37:04Z</time>
      </trkpt>
      <trkpt lat="28.071572" lon="-17.228172">
        <ele>473.357</ele>
        <time>2020-09-20T12:37:29Z</time>
      </trkpt>
      <trkpt lat="28.071531" lon="-17.228062">
        <ele>445.822</ele>
        <time>2020-09-20T12:37:43Z</time>
      </trkpt>
      <trkpt lat="28.068906" lon="-17.226821">
        <ele>422.208</ele>
        <time>2020-09-20T12:46:33Z</time>
      </trkpt>
      <trkpt lat="28.068207" lon="-17.226319">
        <ele>407.654</ele>
        <time>2020-09-20T12:48:41Z</time>
      </trkpt>
      <trkpt lat="28.068165" lon="-17.226612">
        <ele>386.046</ele>
        <time>2020-09-20T12:49:24Z</time>
      </trkpt>
      <trkpt lat="28.067897" lon="-17.226693">
        <ele>379.820</ele>
        <time>2020-09-20T12:50:11Z</time>
      </trkpt>
      <trkpt lat="28.067640" lon="-17.226301">
        <ele>377.624</ele>
        <time>2020-09-20T12:51:01Z</time>
      </trkpt>
      <trkpt lat="28.066601" lon="-17.225731">
        <ele>374.960</ele>
        <time>2020-09-20T12:54:42Z</time>
      </trkpt>
      <trkpt lat="28.066639" lon="-17.225801">
        <ele>374.897</ele>
        <time>2020-09-20T12:54:50Z</time>
      </trkpt>
      <trkpt lat="28.066689" lon="-17.225707">
        <ele>374.923</ele>
        <time>2020-09-20T12:55:24Z</time>
      </trkpt>
      <trkpt lat="28.066543" lon="-17.225841">
        <ele>374.923</ele>
        <time>2020-09-20T12:55:47Z</time>
      </trkpt>
      <trkpt lat="28.066560" lon="-17.225653">
        <ele>375.118</ele>
        <time>2020-09-20T12:56:24Z</time>
      </trkpt>
      <trkpt lat="28.066557" lon="-17.225762">
        <ele>374.998</ele>
        <time>2020-09-20T12:56:33Z</time>
      </trkpt>
      <trkpt lat="28.066331" lon="-17.225677">
        <ele>376.517</ele>
        <time>2020-09-20T12:57:50Z</time>
      </trkpt>
      <trkpt lat="28.066342" lon="-17.225371">
        <ele>375.808</ele>
        <time>2020-09-20T12:58:33Z</time>
      </trkpt>
      <trkpt lat="28.066154" lon="-17.225482">
        <ele>374.956</ele>
        <time>2020-09-20T13:00:22Z</time>
      </trkpt>
      <trkpt lat="28.066107" lon="-17.225110">
        <ele>378.578</ele>
        <time>2020-09-20T13:09:12Z</time>
      </trkpt>
      <trkpt lat="28.065838" lon="-17.225078">
        <ele>375.742</ele>
        <time>2020-09-20T13:09:16Z</time>
      </trkpt>
      <trkpt lat="28.065870" lon="-17.225225">
        <ele>382.836</ele>
        <time>2020-09-20T13:09:23Z</time>
      </trkpt>
      <trkpt lat="28.065964" lon="-17.225181">
        <ele>383.022</ele>
        <time>2020-09-20T13:09:27Z</time>
      </trkpt>
      <trkpt lat="28.064786" lon="-17.224532">
        <ele>391.059</ele>
        <time>2020-09-20T13:17:45Z</time>
      </trkpt>
      <trkpt lat="28.064421" lon="-17.224518">
        <ele>399.025</ele>
        <time>2020-09-20T13:17:59Z</time>
      </trkpt>
      <trkpt lat="28.064688" lon="-17.224515">
        <ele>403.095</ele>
        <time>2020-09-20T13:18:01Z</time>
      </trkpt>
      <trkpt lat="28.064949" lon="-17.224697">
        <ele>415.086</ele>
        <time>2020-09-20T13:18:07Z</time>
      </trkpt>
      <trkpt lat="28.064674" lon="-17.223814">
        <ele>419.060</ele>
        <time>2020-09-20T13:22:35Z</time>
      </trkpt>
      <trkpt lat="28.064497" lon="-17.223812">
        <ele>426.626</ele>
        <time>2020-09-20T13:22:51Z</time>
      </trkpt>
      <trkpt lat="28.064730" lon="-17.223845">
        <ele>428.708</ele>
        <time>2020-09-20T13:22:59Z</time>
      </trkpt>
      <trkpt lat="28.064763" lon="-17.223388">
        <ele>429.693</ele>
        <time>2020-09-20T13:24:28Z</time>
      </trkpt>
      <trkpt lat="28.064267" lon="-17.223319">
        <ele>430.245</ele>
        <time>2020-09-20T13:24:32Z</time>
      </trkpt>
      <trkpt lat="28.064370" lon="-17.223314">
        <ele>430.629</ele>
        <time>2020-09-20T13:24:41Z</time>
      </trkpt>
      <trkpt lat="28.063597" lon="-17.223030">
        <ele>430.853</ele>
        <time>2020-09-20T13:27:44Z</time>
      </trkpt>
      <trkpt lat="28.061674" lon="-17.226098">
        <ele>447.769</ele>
        <time>2020-09-20T13:51:54Z</time>
      </trkpt>
      <trkpt lat="28.061599" lon="-17.226406">
        <ele>467.746</ele>
        <time>2020-09-20T13:52:15Z</time>
      </trkpt>
      <trkpt lat="28.059250" lon="-17.226648">
        <ele>471.762</ele>
        <time>2020-09-20T14:03:35Z</time>
      </trkpt>
      <trkpt lat="28.059104" lon="-17.227503">
        <ele>523.732</ele>
        <time>2020-09-20T14:05:04Z</time>
      </trkpt>
      <trkpt lat="28.059241" lon="-17.227976">
        <ele>543.795</ele>
        <time>2020-09-20T14:07:16Z</time>
      </trkpt>
      <trkpt lat="28.059460" lon="-17.228093">
        <ele>563.749</ele>
        <time>2020-09-20T14:07:40Z</time>
      </trkpt>
      <trkpt lat="28.059554" lon="-17.228675">
        <ele>571.723</ele>
        <time>2020-09-20T14:09:20Z</time>
      </trkpt>
      <trkpt lat="28.059368" lon="-17.229683">
        <ele>591.708</ele>
        <time>2020-09-20T14:13:18Z</time>
      </trkpt>
      <trkpt lat="28.059436" lon="-17.230785">
        <ele>595.754</ele>
        <time>2020-09-20T14:15:16Z</time>
      </trkpt>
      <trkpt lat="28.058539" lon="-17.231124">
        <ele>599.756</ele>
        <time>2020-09-20T14:17:36Z</time>
      </trkpt>
      <trkpt lat="28.058500" lon="-17.231294">
        <ele>615.770</ele>
        <time>2020-09-20T14:18:23Z</time>
      </trkpt>
      <trkpt lat="28.059083" lon="-17.234198">
        <ele>619.794</ele>
        <time>2020-09-20T14:24:24Z</time>
      </trkpt>
      <trkpt lat="28.060245" lon="-17.235722">
        <ele>683.710</ele>
        <time>2020-09-20T14:27:42Z</time>
      </trkpt>
      <trkpt lat="28.062030" lon="-17.237233">
        <ele>691.777</ele>
        <time>2020-09-20T14:30:38Z</time>
      </trkpt>
      <trkpt lat="28.062181" lon="-17.237082">
        <ele>711.723</ele>
        <time>2020-09-20T14:30:56Z</time>
      </trkpt>
      <trkpt lat="28.063781" lon="-17.237189">
        <ele>735.743</ele>
        <time>2020-09-20T14:33:12Z</time>
      </trkpt>
      <trkpt lat="28.063893" lon="-17.237097">
        <ele>747.716</ele>
        <time>2020-09-20T14:33:25Z</time>
      </trkpt>
      <trkpt lat="28.065282" lon="-17.237546">
        <ele>751.776</ele>
        <time>2020-09-20T14:35:20Z</time>
      </trkpt>
      <trkpt lat="28.065565" lon="-17.237815">
        <ele>767.713</ele>
        <time>2020-09-20T14:36:35Z</time>
      </trkpt>
      <trkpt lat="28.065930" lon="-17.237956">
        <ele>783.708</ele>
        <time>2020-09-20T14:36:47Z</time>
      </trkpt>
      <trkpt lat="28.068930" lon="-17.238899">
        <ele>787.726</ele>
        <time>2020-09-20T14:43:10Z</time>
      </trkpt>
      <trkpt lat="28.070341" lon="-17.238333">
        <ele>807.748</ele>
        <time>2020-09-20T14:46:24Z</time>
      </trkpt>
      <trkpt lat="28.070628" lon="-17.238358">
        <ele>823.732</ele>
        <time>2020-09-20T14:46:30Z</time>
      </trkpt>
      <trkpt lat="28.071588" lon="-17.237762">
        <ele>835.726</ele>
        <time>2020-09-20T14:48:48Z</time>
      </trkpt>
      <trkpt lat="28.071691" lon="-17.237415">
        <ele>844.492</ele>
        <time>2020-09-20T14:48:53Z</time>
      </trkpt>
      <trkpt lat="28.071752" lon="-17.237566">
        <ele>847.319</ele>
        <time>2020-09-20T14:49:16Z</time>
      </trkpt>
      <trkpt lat="28.076787" lon="-17.238987">
        <ele>879.365</ele>
        <time>2020-09-20T15:11:02Z</time>
      </trkpt>
      <trkpt lat="28.077056" lon="-17.238773">
        <ele>903.385</ele>
        <time>2020-09-20T15:11:33Z</time>
      </trkpt>
      <trkpt lat="28.077373" lon="-17.239384">
        <ele>955.328</ele>
        <time>2020-09-20T15:12:53Z</time>
      </trkpt>
      <trkpt lat="28.077476" lon="-17.239978">
        <ele>990.589</ele>
        <time>2020-09-20T15:13:34Z</time>
      </trkpt>
      <trkpt lat="28.077665" lon="-17.240182">
        <ele>990.617</ele>
        <time>2020-09-20T15:14:02Z</time>
      </trkpt>
      <trkpt lat="28.077591" lon="-17.240099">
        <ele>989.608</ele>
        <time>2020-09-20T15:14:28Z</time>
      </trkpt>
      <trkpt lat="28.079208" lon="-17.240172">
        <ele>989.537</ele>
        <time>2020-09-20T15:19:20Z</time>
      </trkpt>
      <trkpt lat="28.078977" lon="-17.239468">
        <ele>990.879</ele>
        <time>2020-09-20T15:19:27Z</time>
      </trkpt>
      <trkpt lat="28.080476" lon="-17.239858">
        <ele>989.183</ele>
        <time>2020-09-20T15:21:34Z</time>
      </trkpt>
      <trkpt lat="28.081119" lon="-17.241198">
        <ele>988.937</ele>
        <time>2020-09-20T15:23:35Z</time>
      </trkpt>
      <trkpt lat="28.081407" lon="-17.241144">
        <ele>988.323</ele>
        <time>2020-09-20T15:23:48Z</time>
      </trkpt>
      <trkpt lat="28.081814" lon="-17.241283">
        <ele>988.150</ele>
        <time>2020-09-20T15:25:06Z</time>
      </trkpt>
      <trkpt lat="28.081921" lon="-17.241901">
        <ele>984.196</ele>
        <time>2020-09-20T15:25:09Z</time>
      </trkpt>
      <trkpt lat="28.082842" lon="-17.241586">
        <ele>976.116</ele>
        <time>2020-09-20T15:26:46Z</time>
      </trkpt>
      <trkpt lat="28.085210" lon="-17.241158">
        <ele>952.179</ele>
        <time>2020-09-20T15:30:13Z</time>
      </trkpt>
      <trkpt lat="28.085452" lon="-17.241489">
        <ele>924.105</ele>
        <time>2020-09-20T15:30:47Z</time>
      </trkpt>
    </trkseg>
  </trk></gpx>