<?xml version="1.0" encoding="UTF-8"?>
<gpx version="1.1" creator="Aventuras en Cada Paso" xmlns="http://www.topografix.com/GPX/1/1">
  <metadata>
    <name>Barranco de Arure – Valle Gran Rey</name>
    <desc>Descenso técnico por el Barranco de Arure con trepadas y saltos entre piedras. El paisaje cambia de palmeras a laurisilva húmeda. Requiere buen calzado.</desc>
    <author><name>Aventuras en Cada Paso</name></author>
    <time>2026-07-08T08:12:58.199Z</time>
    <keywords>La Gomera, Senderismo, Media, senderismo Canarias</keywords>
  </metadata>
  <wpt lat="28.0947" lon="-17.3253">
    <name>Barranco de Arure – Valle Gran Rey</name>
    <desc>Descenso técnico por el Barranco de Arure con trepadas y saltos entre piedras. El paisaje cambia de palmeras a laurisilva húmeda. Requiere buen calzado. | Isla: La Gomera | Tipo: Senderismo | Dificultad: Media | Distancia: 7km | Duración: 2-4 horas</desc>
    <type>Senderismo</type>
    <extensions>
      <isla>La Gomera</isla>
      <dificultad>Media</dificultad>
      <distancia>7</distancia>
      <duracion>2-4 horas</duracion>
    </extensions>
  </wpt>
</gpx>