<?xml version="1.0" encoding="UTF-8"?>
<gpx creator="Wikiloc - https://www.wikiloc.com" version="1.1" xmlns="http://www.topografix.com/GPX/1/1" xmlns:xsi="http://www.w3.org/2001/XMLSchema-instance" xsi:schemaLocation="http://www.topografix.com/GPX/1/1 http://www.topografix.com/GPX/1/1/gpx.xsd">
  <metadata>
    <name>Wikiloc - Isla de la Palma. Etapa 1. Bosque de los Tilos</name>
    <link href="https://www.wikiloc.com/hiking-trails/isla-de-la-palma-etapa-1-bosque-de-los-tilos-12443461">
      <text>Isla de la Palma. Etapa 1. Bosque de los Tilos - Wikiloc on Wikiloc</text>
    </link>
    <time>2016-03-02T17:05:05Z</time>
  </metadata>
  <trk>
    <name>Isla de la Palma. Etapa 1. Bosque de los Tilos - Wikiloc</name>
    <cmt></cmt>
    <desc></desc>
    <trkseg>
      <trkpt lat="28.791638" lon="-17.799513">
        <ele>462.893</ele>
        <time>2016-03-02T15:56:54Z</time>
      </trkpt>
      <trkpt lat="28.791531" lon="-17.799494">
        <ele>466.265</ele>
        <time>2016-03-02T15:58:38Z</time>
      </trkpt>
      <trkpt lat="28.791642" lon="-17.799476">
        <ele>462.821</ele>
        <time>2016-03-02T16:02:36Z</time>
      </trkpt>
      <trkpt lat="28.791559" lon="-17.799526">
        <ele>465.008</ele>
        <time>2016-03-02T16:11:12Z</time>
      </trkpt>
      <trkpt lat="28.791539" lon="-17.799641">
        <ele>464.060</ele>
        <time>2016-03-02T16:11:16Z</time>
      </trkpt>
      <trkpt lat="28.791471" lon="-17.799741">
        <ele>463.291</ele>
        <time>2016-03-02T16:11:23Z</time>
      </trkpt>
      <trkpt lat="28.791377" lon="-17.799769">
        <ele>463.493</ele>
        <time>2016-03-02T16:12:02Z</time>
      </trkpt>
      <trkpt lat="28.791316" lon="-17.799845">
        <ele>463.213</ele>
        <time>2016-03-02T16:12:07Z</time>
      </trkpt>
      <trkpt lat="28.791226" lon="-17.799875">
        <ele>464.572</ele>
        <time>2016-03-02T16:12:12Z</time>
      </trkpt>
      <trkpt lat="28.791191" lon="-17.799979">
        <ele>463.673</ele>
        <time>2016-03-02T16:12:18Z</time>
      </trkpt>
      <trkpt lat="28.791199" lon="-17.800099">
        <ele>462.285</ele>
        <time>2016-03-02T16:12:23Z</time>
      </trkpt>
      <trkpt lat="28.791165" lon="-17.800212">
        <ele>461.520</ele>
        <time>2016-03-02T16:12:31Z</time>
      </trkpt>
      <trkpt lat="28.791109" lon="-17.800308">
        <ele>461.649</ele>
        <time>2016-03-02T16:12:36Z</time>
      </trkpt>
      <trkpt lat="28.791068" lon="-17.800407">
        <ele>463.802</ele>
        <time>2016-03-02T16:12:43Z</time>
      </trkpt>
      <trkpt lat="28.790966" lon="-17.800413">
        <ele>465.122</ele>
        <time>2016-03-02T16:12:48Z</time>
      </trkpt>
      <trkpt lat="28.790881" lon="-17.800478">
        <ele>465.608</ele>
        <time>2016-03-02T16:12:58Z</time>
      </trkpt>
      <trkpt lat="28.790855" lon="-17.800577">
        <ele>465.555</ele>
        <time>2016-03-02T16:13:04Z</time>
      </trkpt>
      <trkpt lat="28.790832" lon="-17.800692">
        <ele>467.546</ele>
        <time>2016-03-02T16:13:12Z</time>
      </trkpt>
      <trkpt lat="28.790840" lon="-17.800813">
        <ele>469.848</ele>
        <time>2016-03-02T16:13:22Z</time>
      </trkpt>
      <trkpt lat="28.790739" lon="-17.800823">
        <ele>475.968</ele>
        <time>2016-03-02T16:13:30Z</time>
      </trkpt>
      <trkpt lat="28.790638" lon="-17.800746">
        <ele>480.037</ele>
        <time>2016-03-02T16:13:33Z</time>
      </trkpt>
      <trkpt lat="28.790548" lon="-17.800718">
        <ele>484.658</ele>
        <time>2016-03-02T16:13:40Z</time>
      </trkpt>
      <trkpt lat="28.790453" lon="-17.800725">
        <ele>494.170</ele>
        <time>2016-03-02T16:13:51Z</time>
      </trkpt>
      <trkpt lat="28.790366" lon="-17.800683">
        <ele>502.985</ele>
        <time>2016-03-02T16:13:58Z</time>
      </trkpt>
      <trkpt lat="28.790288" lon="-17.800608">
        <ele>513.222</ele>
        <time>2016-03-02T16:14:02Z</time>
      </trkpt>
      <trkpt lat="28.790195" lon="-17.800618">
        <ele>517.162</ele>
        <time>2016-03-02T16:14:16Z</time>
      </trkpt>
      <trkpt lat="28.790155" lon="-17.800723">
        <ele>516.008</ele>
        <time>2016-03-02T16:14:34Z</time>
      </trkpt>
      <trkpt lat="28.790096" lon="-17.800803">
        <ele>516.508</ele>
        <time>2016-03-02T16:14:51Z</time>
      </trkpt>
      <trkpt lat="28.790004" lon="-17.800758">
        <ele>521.253</ele>
        <time>2016-03-02T16:14:57Z</time>
      </trkpt>
      <trkpt lat="28.789929" lon="-17.800683">
        <ele>527.594</ele>
        <time>2016-03-02T16:15:04Z</time>
      </trkpt>
      <trkpt lat="28.789768" lon="-17.800607">
        <ele>541.986</ele>
        <time>2016-03-02T16:15:23Z</time>
      </trkpt>
      <trkpt lat="28.789863" lon="-17.800697">
        <ele>531.516</ele>
        <time>2016-03-02T16:16:30Z</time>
      </trkpt>
      <trkpt lat="28.789762" lon="-17.800685">
        <ele>538.885</ele>
        <time>2016-03-02T16:16:35Z</time>
      </trkpt>
      <trkpt lat="28.789641" lon="-17.800922">
        <ele>541.576</ele>
        <time>2016-03-02T16:16:37Z</time>
      </trkpt>
      <trkpt lat="28.789594" lon="-17.801029">
        <ele>545.198</ele>
        <time>2016-03-02T16:16:39Z</time>
      </trkpt>
      <trkpt lat="28.789549" lon="-17.801142">
        <ele>547.763</ele>
        <time>2016-03-02T16:16:42Z</time>
      </trkpt>
      <trkpt lat="28.789514" lon="-17.801245">
        <ele>549.151</ele>
        <time>2016-03-02T16:16:45Z</time>
      </trkpt>
      <trkpt lat="28.789467" lon="-17.801338">
        <ele>551.701</ele>
        <time>2016-03-02T16:16:48Z</time>
      </trkpt>
      <trkpt lat="28.789380" lon="-17.801426">
        <ele>557.411</ele>
        <time>2016-03-02T16:16:51Z</time>
      </trkpt>
      <trkpt lat="28.789325" lon="-17.801510">
        <ele>559.308</ele>
        <time>2016-03-02T16:16:55Z</time>
      </trkpt>
      <trkpt lat="28.789273" lon="-17.801603">
        <ele>559.546</ele>
        <time>2016-03-02T16:16:59Z</time>
      </trkpt>
      <trkpt lat="28.789230" lon="-17.801697">
        <ele>552.987</ele>
        <time>2016-03-02T16:17:04Z</time>
      </trkpt>
      <trkpt lat="28.789197" lon="-17.801804">
        <ele>531.779</ele>
        <time>2016-03-02T16:17:12Z</time>
      </trkpt>
      <trkpt lat="28.789112" lon="-17.801866">
        <ele>542.529</ele>
        <time>2016-03-02T16:17:21Z</time>
      </trkpt>
      <trkpt lat="28.789032" lon="-17.801932">
        <ele>573.988</ele>
        <time>2016-03-02T16:17:27Z</time>
      </trkpt>
      <trkpt lat="28.789041" lon="-17.802038">
        <ele>581.389</ele>
        <time>2016-03-02T16:17:37Z</time>
      </trkpt>
      <trkpt lat="28.789073" lon="-17.802159">
        <ele>587.691</ele>
        <time>2016-03-02T16:18:37Z</time>
      </trkpt>
      <trkpt lat="28.789105" lon="-17.802262">
        <ele>589.996</ele>
        <time>2016-03-02T16:18:40Z</time>
      </trkpt>
      <trkpt lat="28.789118" lon="-17.802383">
        <ele>586.273</ele>
        <time>2016-03-02T16:18:44Z</time>
      </trkpt>
      <trkpt lat="28.789064" lon="-17.802502">
        <ele>599.385</ele>
        <time>2016-03-02T16:18:48Z</time>
      </trkpt>
      <trkpt lat="28.788990" lon="-17.802603">
        <ele>621.713</ele>
        <time>2016-03-02T16:18:52Z</time>
      </trkpt>
      <trkpt lat="28.788942" lon="-17.802693">
        <ele>634.708</ele>
        <time>2016-03-02T16:18:56Z</time>
      </trkpt>
      <trkpt lat="28.788960" lon="-17.802802">
        <ele>634.068</ele>
        <time>2016-03-02T16:19:02Z</time>
      </trkpt>
      <trkpt lat="28.788944" lon="-17.802905">
        <ele>635.419</ele>
        <time>2016-03-02T16:19:11Z</time>
      </trkpt>
      <trkpt lat="28.788978" lon="-17.803005">
        <ele>630.081</ele>
        <time>2016-03-02T16:19:18Z</time>
      </trkpt>
      <trkpt lat="28.789033" lon="-17.803110">
        <ele>622.421</ele>
        <time>2016-03-02T16:19:24Z</time>
      </trkpt>
      <trkpt lat="28.789079" lon="-17.803209">
        <ele>616.070</ele>
        <time>2016-03-02T16:19:30Z</time>
      </trkpt>
      <trkpt lat="28.789086" lon="-17.803318">
        <ele>613.931</ele>
        <time>2016-03-02T16:19:39Z</time>
      </trkpt>
      <trkpt lat="28.789092" lon="-17.803441">
        <ele>607.513</ele>
        <time>2016-03-02T16:19:44Z</time>
      </trkpt>
      <trkpt lat="28.789033" lon="-17.803541">
        <ele>607.228</ele>
        <time>2016-03-02T16:19:49Z</time>
      </trkpt>
      <trkpt lat="28.789034" lon="-17.803657">
        <ele>601.269</ele>
        <time>2016-03-02T16:19:57Z</time>
      </trkpt>
      <trkpt lat="28.789117" lon="-17.803719">
        <ele>591.404</ele>
        <time>2016-03-02T16:20:02Z</time>
      </trkpt>
      <trkpt lat="28.789185" lon="-17.803795">
        <ele>582.924</ele>
        <time>2016-03-02T16:20:12Z</time>
      </trkpt>
      <trkpt lat="28.789179" lon="-17.803915">
        <ele>579.108</ele>
        <time>2016-03-02T16:20:18Z</time>
      </trkpt>
      <trkpt lat="28.789225" lon="-17.804013">
        <ele>573.547</ele>
        <time>2016-03-02T16:20:24Z</time>
      </trkpt>
      <trkpt lat="28.789253" lon="-17.804114">
        <ele>566.958</ele>
        <time>2016-03-02T16:20:39Z</time>
      </trkpt>
      <trkpt lat="28.789235" lon="-17.804216">
        <ele>563.830</ele>
        <time>2016-03-02T16:20:49Z</time>
      </trkpt>
      <trkpt lat="28.789230" lon="-17.804326">
        <ele>554.570</ele>
        <time>2016-03-02T16:20:59Z</time>
      </trkpt>
      <trkpt lat="28.789198" lon="-17.804435">
        <ele>545.969</ele>
        <time>2016-03-02T16:21:10Z</time>
      </trkpt>
      <trkpt lat="28.789184" lon="-17.804538">
        <ele>546.780</ele>
        <time>2016-03-02T16:21:53Z</time>
      </trkpt>
      <trkpt lat="28.789171" lon="-17.804653">
        <ele>548.872</ele>
        <time>2016-03-02T16:21:59Z</time>
      </trkpt>
      <trkpt lat="28.789108" lon="-17.804747">
        <ele>556.067</ele>
        <time>2016-03-02T16:22:20Z</time>
      </trkpt>
      <trkpt lat="28.789065" lon="-17.804854">
        <ele>559.653</ele>
        <time>2016-03-02T16:22:30Z</time>
      </trkpt>
      <trkpt lat="28.789059" lon="-17.804975">
        <ele>559.304</ele>
        <time>2016-03-02T16:22:35Z</time>
      </trkpt>
      <trkpt lat="28.789010" lon="-17.805070">
        <ele>564.314</ele>
        <time>2016-03-02T16:22:40Z</time>
      </trkpt>
      <trkpt lat="28.788933" lon="-17.805133">
        <ele>570.708</ele>
        <time>2016-03-02T16:22:46Z</time>
      </trkpt>
      <trkpt lat="28.788841" lon="-17.805178">
        <ele>572.576</ele>
        <time>2016-03-02T16:22:51Z</time>
      </trkpt>
      <trkpt lat="28.788750" lon="-17.805224">
        <ele>569.417</ele>
        <time>2016-03-02T16:22:59Z</time>
      </trkpt>
      <trkpt lat="28.788705" lon="-17.805325">
        <ele>565.869</ele>
        <time>2016-03-02T16:23:07Z</time>
      </trkpt>
      <trkpt lat="28.788609" lon="-17.805345">
        <ele>563.539</ele>
        <time>2016-03-02T16:23:14Z</time>
      </trkpt>
      <trkpt lat="28.788510" lon="-17.805334">
        <ele>561.858</ele>
        <time>2016-03-02T16:23:22Z</time>
      </trkpt>
      <trkpt lat="28.788433" lon="-17.805400">
        <ele>559.989</ele>
        <time>2016-03-02T16:23:34Z</time>
      </trkpt>
      <trkpt lat="28.788351" lon="-17.805449">
        <ele>558.161</ele>
        <time>2016-03-02T16:23:46Z</time>
      </trkpt>
      <trkpt lat="28.788255" lon="-17.805463">
        <ele>559.596</ele>
        <time>2016-03-02T16:23:57Z</time>
      </trkpt>
      <trkpt lat="28.788170" lon="-17.805405">
        <ele>561.517</ele>
        <time>2016-03-02T16:24:04Z</time>
      </trkpt>
      <trkpt lat="28.788029" lon="-17.805390">
        <ele>564.287</ele>
        <time>2016-03-02T16:26:45Z</time>
      </trkpt>
      <trkpt lat="28.787933" lon="-17.805396">
        <ele>565.915</ele>
        <time>2016-03-02T16:26:51Z</time>
      </trkpt>
      <trkpt lat="28.787854" lon="-17.805319">
        <ele>566.808</ele>
        <time>2016-03-02T16:26:56Z</time>
      </trkpt>
      <trkpt lat="28.787767" lon="-17.805254">
        <ele>568.362</ele>
        <time>2016-03-02T16:27:00Z</time>
      </trkpt>
      <trkpt lat="28.787682" lon="-17.805201">
        <ele>569.913</ele>
        <time>2016-03-02T16:27:04Z</time>
      </trkpt>
      <trkpt lat="28.787599" lon="-17.805111">
        <ele>572.655</ele>
        <time>2016-03-02T16:27:07Z</time>
      </trkpt>
      <trkpt lat="28.787530" lon="-17.805044">
        <ele>575.385</ele>
        <time>2016-03-02T16:27:09Z</time>
      </trkpt>
      <trkpt lat="28.787430" lon="-17.804998">
        <ele>577.424</ele>
        <time>2016-03-02T16:27:12Z</time>
      </trkpt>
      <trkpt lat="28.787339" lon="-17.804985">
        <ele>578.645</ele>
        <time>2016-03-02T16:27:15Z</time>
      </trkpt>
      <trkpt lat="28.787239" lon="-17.805012">
        <ele>577.697</ele>
        <time>2016-03-02T16:27:21Z</time>
      </trkpt>
      <trkpt lat="28.787151" lon="-17.805050">
        <ele>576.652</ele>
        <time>2016-03-02T16:27:26Z</time>
      </trkpt>
      <trkpt lat="28.787065" lon="-17.805085">
        <ele>576.226</ele>
        <time>2016-03-02T16:27:34Z</time>
      </trkpt>
      <trkpt lat="28.787064" lon="-17.805200">
        <ele>574.547</ele>
        <time>2016-03-02T16:27:38Z</time>
      </trkpt>
      <trkpt lat="28.786968" lon="-17.805242">
        <ele>575.711</ele>
        <time>2016-03-02T16:27:45Z</time>
      </trkpt>
      <trkpt lat="28.786841" lon="-17.805212">
        <ele>577.608</ele>
        <time>2016-03-02T16:27:59Z</time>
      </trkpt>
      <trkpt lat="28.786741" lon="-17.805213">
        <ele>578.823</ele>
        <time>2016-03-02T16:29:11Z</time>
      </trkpt>
      <trkpt lat="28.786651" lon="-17.805205">
        <ele>579.924</ele>
        <time>2016-03-02T16:29:15Z</time>
      </trkpt>
      <trkpt lat="28.786547" lon="-17.805174">
        <ele>580.776</ele>
        <time>2016-03-02T16:29:20Z</time>
      </trkpt>
      <trkpt lat="28.786463" lon="-17.805115">
        <ele>580.656</ele>
        <time>2016-03-02T16:29:27Z</time>
      </trkpt>
      <trkpt lat="28.786383" lon="-17.805055">
        <ele>580.275</ele>
        <time>2016-03-02T16:29:32Z</time>
      </trkpt>
      <trkpt lat="28.786276" lon="-17.805054">
        <ele>584.576</ele>
        <time>2016-03-02T16:29:37Z</time>
      </trkpt>
      <trkpt lat="28.786155" lon="-17.805053">
        <ele>589.578</ele>
        <time>2016-03-02T16:29:43Z</time>
      </trkpt>
      <trkpt lat="28.786065" lon="-17.805117">
        <ele>590.663</ele>
        <time>2016-03-02T16:29:46Z</time>
      </trkpt>
      <trkpt lat="28.785971" lon="-17.805103">
        <ele>591.541</ele>
        <time>2016-03-02T16:29:50Z</time>
      </trkpt>
      <trkpt lat="28.785899" lon="-17.805171">
        <ele>591.181</ele>
        <time>2016-03-02T16:30:08Z</time>
      </trkpt>
      <trkpt lat="28.785811" lon="-17.805189">
        <ele>591.809</ele>
        <time>2016-03-02T16:31:32Z</time>
      </trkpt>
      <trkpt lat="28.785717" lon="-17.805168">
        <ele>594.708</ele>
        <time>2016-03-02T16:31:37Z</time>
      </trkpt>
      <trkpt lat="28.785595" lon="-17.805134">
        <ele>599.025</ele>
        <time>2016-03-02T16:31:41Z</time>
      </trkpt>
      <trkpt lat="28.785495" lon="-17.805106">
        <ele>602.216</ele>
        <time>2016-03-02T16:31:45Z</time>
      </trkpt>
      <trkpt lat="28.785381" lon="-17.805087">
        <ele>604.868</ele>
        <time>2016-03-02T16:33:04Z</time>
      </trkpt>
      <trkpt lat="28.785293" lon="-17.805136">
        <ele>604.438</ele>
        <time>2016-03-02T16:33:11Z</time>
      </trkpt>
      <trkpt lat="28.785227" lon="-17.805208">
        <ele>602.937</ele>
        <time>2016-03-02T16:33:29Z</time>
      </trkpt>
      <trkpt lat="28.785147" lon="-17.805275">
        <ele>602.858</ele>
        <time>2016-03-02T16:33:35Z</time>
      </trkpt>
      <trkpt lat="28.785155" lon="-17.805385">
        <ele>599.630</ele>
        <time>2016-03-02T16:33:40Z</time>
      </trkpt>
      <trkpt lat="28.785128" lon="-17.805502">
        <ele>596.765</ele>
        <time>2016-03-02T16:33:45Z</time>
      </trkpt>
      <trkpt lat="28.785095" lon="-17.805598">
        <ele>597.154</ele>
        <time>2016-03-02T16:33:51Z</time>
      </trkpt>
      <trkpt lat="28.785004" lon="-17.805626">
        <ele>598.556</ele>
        <time>2016-03-02T16:33:57Z</time>
      </trkpt>
      <trkpt lat="28.784992" lon="-17.805734">
        <ele>602.511</ele>
        <time>2016-03-02T16:34:03Z</time>
      </trkpt>
      <trkpt lat="28.784890" lon="-17.805764">
        <ele>603.408</ele>
        <time>2016-03-02T16:34:09Z</time>
      </trkpt>
      <trkpt lat="28.784792" lon="-17.805745">
        <ele>603.266</ele>
        <time>2016-03-02T16:34:13Z</time>
      </trkpt>
      <trkpt lat="28.784806" lon="-17.805865">
        <ele>606.097</ele>
        <time>2016-03-02T16:34:26Z</time>
      </trkpt>
      <trkpt lat="28.784715" lon="-17.805797">
        <ele>603.239</ele>
        <time>2016-03-02T16:34:38Z</time>
      </trkpt>
      <trkpt lat="28.784637" lon="-17.805735">
        <ele>604.659</ele>
        <time>2016-03-02T16:34:49Z</time>
      </trkpt>
      <trkpt lat="28.784563" lon="-17.805812">
        <ele>604.998</ele>
        <time>2016-03-02T16:35:15Z</time>
      </trkpt>
      <trkpt lat="28.784518" lon="-17.805908">
        <ele>607.139</ele>
        <time>2016-03-02T16:35:20Z</time>
      </trkpt>
      <trkpt lat="28.784439" lon="-17.805967">
        <ele>608.161</ele>
        <time>2016-03-02T16:35:25Z</time>
      </trkpt>
      <trkpt lat="28.784339" lon="-17.805962">
        <ele>610.466</ele>
        <time>2016-03-02T16:35:29Z</time>
      </trkpt>
      <trkpt lat="28.784244" lon="-17.805956">
        <ele>612.646</ele>
        <time>2016-03-02T16:35:35Z</time>
      </trkpt>
      <trkpt lat="28.784157" lon="-17.805927">
        <ele>614.888</ele>
        <time>2016-03-02T16:35:39Z</time>
      </trkpt>
      <trkpt lat="28.784066" lon="-17.805941">
        <ele>619.116</ele>
        <time>2016-03-02T16:36:10Z</time>
      </trkpt>
      <trkpt lat="28.784034" lon="-17.806043">
        <ele>620.108</ele>
        <time>2016-03-02T16:36:18Z</time>
      </trkpt>
      <trkpt lat="28.784003" lon="-17.806157">
        <ele>621.775</ele>
        <time>2016-03-02T16:36:24Z</time>
      </trkpt>
      <trkpt lat="28.783996" lon="-17.806287">
        <ele>624.166</ele>
        <time>2016-03-02T16:36:29Z</time>
      </trkpt>
      <trkpt lat="28.784011" lon="-17.806389">
        <ele>625.758</ele>
        <time>2016-03-02T16:36:33Z</time>
      </trkpt>
      <trkpt lat="28.783935" lon="-17.806454">
        <ele>629.228</ele>
        <time>2016-03-02T16:37:38Z</time>
      </trkpt>
      <trkpt lat="28.783901" lon="-17.806576">
        <ele>634.477</ele>
        <time>2016-03-02T16:37:44Z</time>
      </trkpt>
      <trkpt lat="28.783838" lon="-17.806660">
        <ele>639.798</ele>
        <time>2016-03-02T16:38:12Z</time>
      </trkpt>
      <trkpt lat="28.783839" lon="-17.806765">
        <ele>640.910</ele>
        <time>2016-03-02T16:38:16Z</time>
      </trkpt>
      <trkpt lat="28.783840" lon="-17.806867">
        <ele>641.835</ele>
        <time>2016-03-02T16:38:21Z</time>
      </trkpt>
      <trkpt lat="28.783750" lon="-17.806824">
        <ele>647.727</ele>
        <time>2016-03-02T16:41:33Z</time>
      </trkpt>
      <trkpt lat="28.783683" lon="-17.806716">
        <ele>648.168</ele>
        <time>2016-03-02T16:42:02Z</time>
      </trkpt>
      <trkpt lat="28.783599" lon="-17.806777">
        <ele>655.314</ele>
        <time>2016-03-02T16:42:46Z</time>
      </trkpt>
      <trkpt lat="28.783499" lon="-17.806760">
        <ele>657.708</ele>
        <time>2016-03-02T16:42:50Z</time>
      </trkpt>
      <trkpt lat="28.783471" lon="-17.806876">
        <ele>664.233</ele>
        <time>2016-03-02T16:43:47Z</time>
      </trkpt>
      <trkpt lat="28.783503" lon="-17.806983">
        <ele>668.244</ele>
        <time>2016-03-02T16:43:50Z</time>
      </trkpt>
      <trkpt lat="28.783527" lon="-17.807099">
        <ele>672.966</ele>
        <time>2016-03-02T16:43:57Z</time>
      </trkpt>
      <trkpt lat="28.783587" lon="-17.807180">
        <ele>677.816</ele>
        <time>2016-03-02T16:44:06Z</time>
      </trkpt>
      <trkpt lat="28.783669" lon="-17.807245">
        <ele>691.155</ele>
        <time>2016-03-02T16:44:12Z</time>
      </trkpt>
      <trkpt lat="28.783726" lon="-17.807324">
        <ele>712.156</ele>
        <time>2016-03-02T16:44:18Z</time>
      </trkpt>
      <trkpt lat="28.783820" lon="-17.807369">
        <ele>725.738</ele>
        <time>2016-03-02T16:44:32Z</time>
      </trkpt>
      <trkpt lat="28.783729" lon="-17.807391">
        <ele>726.223</ele>
        <time>2016-03-02T16:45:26Z</time>
      </trkpt>
      <trkpt lat="28.783615" lon="-17.807375">
        <ele>718.047</ele>
        <time>2016-03-02T16:45:31Z</time>
      </trkpt>
      <trkpt lat="28.783509" lon="-17.807326">
        <ele>703.329</ele>
        <time>2016-03-02T16:45:34Z</time>
      </trkpt>
      <trkpt lat="28.783413" lon="-17.807271">
        <ele>686.821</ele>
        <time>2016-03-02T16:45:39Z</time>
      </trkpt>
      <trkpt lat="28.783336" lon="-17.807194">
        <ele>672.008</ele>
        <time>2016-03-02T16:45:44Z</time>
      </trkpt>
      <trkpt lat="28.783248" lon="-17.807166">
        <ele>670.935</ele>
        <time>2016-03-02T16:45:50Z</time>
      </trkpt>
      <trkpt lat="28.783159" lon="-17.807186">
        <ele>670.016</ele>
        <time>2016-03-02T16:46:51Z</time>
      </trkpt>
      <trkpt lat="28.783219" lon="-17.807286">
        <ele>687.118</ele>
        <time>2016-03-02T16:46:56Z</time>
      </trkpt>
      <trkpt lat="28.783275" lon="-17.807369">
        <ele>708.928</ele>
        <time>2016-03-02T16:47:01Z</time>
      </trkpt>
      <trkpt lat="28.783351" lon="-17.807426">
        <ele>724.587</ele>
        <time>2016-03-02T16:47:06Z</time>
      </trkpt>
      <trkpt lat="28.783400" lon="-17.807564">
        <ele>744.198</ele>
        <time>2016-03-02T16:47:11Z</time>
      </trkpt>
      <trkpt lat="28.783416" lon="-17.807680">
        <ele>743.910</ele>
        <time>2016-03-02T16:47:14Z</time>
      </trkpt>
      <trkpt lat="28.783508" lon="-17.807683">
        <ele>743.385</ele>
        <time>2016-03-02T16:47:20Z</time>
      </trkpt>
      <trkpt lat="28.783605" lon="-17.807686">
        <ele>742.759</ele>
        <time>2016-03-02T16:47:29Z</time>
      </trkpt>
      <trkpt lat="28.783707" lon="-17.807642">
        <ele>743.903</ele>
        <time>2016-03-02T16:47:39Z</time>
      </trkpt>
      <trkpt lat="28.783797" lon="-17.807623">
        <ele>744.623</ele>
        <time>2016-03-02T16:47:45Z</time>
      </trkpt>
      <trkpt lat="28.783885" lon="-17.807665">
        <ele>742.908</ele>
        <time>2016-03-02T16:47:51Z</time>
      </trkpt>
      <trkpt lat="28.783982" lon="-17.807708">
        <ele>739.386</ele>
        <time>2016-03-02T16:47:58Z</time>
      </trkpt>
      <trkpt lat="28.784057" lon="-17.807780">
        <ele>732.687</ele>
        <time>2016-03-02T16:48:03Z</time>
      </trkpt>
      <trkpt lat="28.784149" lon="-17.807788">
        <ele>729.849</ele>
        <time>2016-03-02T16:48:11Z</time>
      </trkpt>
      <trkpt lat="28.784245" lon="-17.807808">
        <ele>724.659</ele>
        <time>2016-03-02T16:48:18Z</time>
      </trkpt>
      <trkpt lat="28.784345" lon="-17.807807">
        <ele>718.118</ele>
        <time>2016-03-02T16:48:27Z</time>
      </trkpt>
      <trkpt lat="28.784422" lon="-17.807888">
        <ele>715.299</ele>
        <time>2016-03-02T16:48:35Z</time>
      </trkpt>
      <trkpt lat="28.784513" lon="-17.807885">
        <ele>709.191</ele>
        <time>2016-03-02T16:48:43Z</time>
      </trkpt>
      <trkpt lat="28.784617" lon="-17.807901">
        <ele>702.486</ele>
        <time>2016-03-02T16:48:51Z</time>
      </trkpt>
      <trkpt lat="28.784714" lon="-17.807902">
        <ele>695.953</ele>
        <time>2016-03-02T16:48:57Z</time>
      </trkpt>
      <trkpt lat="28.784611" lon="-17.807899">
        <ele>702.804</ele>
        <time>2016-03-02T16:49:39Z</time>
      </trkpt>
      <trkpt lat="28.784522" lon="-17.807870">
        <ele>708.214</ele>
        <time>2016-03-02T16:49:43Z</time>
      </trkpt>
      <trkpt lat="28.784419" lon="-17.807857">
        <ele>714.608</ele>
        <time>2016-03-02T16:50:21Z</time>
      </trkpt>
      <trkpt lat="28.784361" lon="-17.807777">
        <ele>716.446</ele>
        <time>2016-03-02T16:50:26Z</time>
      </trkpt>
      <trkpt lat="28.784271" lon="-17.807741">
        <ele>724.117</ele>
        <time>2016-03-02T16:50:32Z</time>
      </trkpt>
      <trkpt lat="28.784280" lon="-17.807850">
        <ele>723.339</ele>
        <time>2016-03-02T16:50:43Z</time>
      </trkpt>
      <trkpt lat="28.784312" lon="-17.807948">
        <ele>723.649</ele>
        <time>2016-03-02T16:50:51Z</time>
      </trkpt>
      <trkpt lat="28.784401" lon="-17.808003">
        <ele>719.498</ele>
        <time>2016-03-02T16:51:07Z</time>
      </trkpt>
      <trkpt lat="28.784491" lon="-17.808000">
        <ele>713.249</ele>
        <time>2016-03-02T16:51:16Z</time>
      </trkpt>
      <trkpt lat="28.784536" lon="-17.808095">
        <ele>711.311</ele>
        <time>2016-03-02T16:51:21Z</time>
      </trkpt>
      <trkpt lat="28.784047" lon="-17.807505">
        <ele>753.076</ele>
        <time>2016-03-02T16:56:25Z</time>
      </trkpt>
      <trkpt lat="28.784085" lon="-17.807772">
        <ele>732.161</ele>
        <time>2016-03-02T16:56:27Z</time>
      </trkpt>
      <trkpt lat="28.783984" lon="-17.807789">
        <ele>735.221</ele>
        <time>2016-03-02T16:56:34Z</time>
      </trkpt>
      <trkpt lat="28.783903" lon="-17.807844">
        <ele>739.013</ele>
        <time>2016-03-02T16:56:43Z</time>
      </trkpt>
      <trkpt lat="28.783826" lon="-17.807935">
        <ele>742.508</ele>
        <time>2016-03-02T16:56:51Z</time>
      </trkpt>
      <trkpt lat="28.783737" lon="-17.807976">
        <ele>745.397</ele>
        <time>2016-03-02T16:56:58Z</time>
      </trkpt>
      <trkpt lat="28.783647" lon="-17.807972">
        <ele>747.058</ele>
        <time>2016-03-02T16:57:07Z</time>
      </trkpt>
      <trkpt lat="28.783546" lon="-17.808019">
        <ele>748.560</ele>
        <time>2016-03-02T16:57:13Z</time>
      </trkpt>
      <trkpt lat="28.783436" lon="-17.808034">
        <ele>746.950</ele>
        <time>2016-03-02T16:57:20Z</time>
      </trkpt>
      <trkpt lat="28.783338" lon="-17.807991">
        <ele>745.169</ele>
        <time>2016-03-02T16:57:25Z</time>
      </trkpt>
      <trkpt lat="28.783251" lon="-17.808021">
        <ele>744.520</ele>
        <time>2016-03-02T16:57:30Z</time>
      </trkpt>
      <trkpt lat="28.783143" lon="-17.808397">
        <ele>743.062</ele>
        <time>2016-03-02T16:57:35Z</time>
      </trkpt>
      <trkpt lat="28.782835" lon="-17.808340">
        <ele>742.267</ele>
        <time>2016-03-02T16:57:37Z</time>
      </trkpt>
      <trkpt lat="28.782221" lon="-17.807994">
        <ele>722.854</ele>
        <time>2016-03-02T16:57:39Z</time>
      </trkpt>
      <trkpt lat="28.782091" lon="-17.807885">
        <ele>723.756</ele>
        <time>2016-03-02T17:00:31Z</time>
      </trkpt>
      <trkpt lat="28.782101" lon="-17.807992">
        <ele>723.511</ele>
        <time>2016-03-02T17:00:43Z</time>
      </trkpt>
      <trkpt lat="28.782171" lon="-17.808068">
        <ele>723.708</ele>
        <time>2016-03-02T17:01:39Z</time>
      </trkpt>
      <trkpt lat="28.782279" lon="-17.808086">
        <ele>727.086</ele>
        <time>2016-03-02T17:01:44Z</time>
      </trkpt>
      <trkpt lat="28.782376" lon="-17.808119">
        <ele>732.467</ele>
        <time>2016-03-02T17:01:48Z</time>
      </trkpt>
      <trkpt lat="28.782460" lon="-17.808165">
        <ele>736.539</ele>
        <time>2016-03-02T17:01:53Z</time>
      </trkpt>
      <trkpt lat="28.782556" lon="-17.808121">
        <ele>739.069</ele>
        <time>2016-03-02T17:02:11Z</time>
      </trkpt>
      <trkpt lat="28.782650" lon="-17.808153">
        <ele>740.598</ele>
        <time>2016-03-02T17:02:27Z</time>
      </trkpt>
      <trkpt lat="28.782737" lon="-17.808103">
        <ele>742.199</ele>
        <time>2016-03-02T17:02:39Z</time>
      </trkpt>
      <trkpt lat="28.782826" lon="-17.808069">
        <ele>743.041</ele>
        <time>2016-03-02T17:02:58Z</time>
      </trkpt>
      <trkpt lat="28.782918" lon="-17.808054">
        <ele>743.076</ele>
        <time>2016-03-02T17:03:04Z</time>
      </trkpt>
      <trkpt lat="28.783020" lon="-17.808057">
        <ele>743.023</ele>
        <time>2016-03-02T17:03:13Z</time>
      </trkpt>
      <trkpt lat="28.783127" lon="-17.808061">
        <ele>743.583</ele>
        <time>2016-03-02T17:03:34Z</time>
      </trkpt>
      <trkpt lat="28.783218" lon="-17.808063">
        <ele>744.211</ele>
        <time>2016-03-02T17:03:42Z</time>
      </trkpt>
      <trkpt lat="28.783311" lon="-17.808074">
        <ele>744.808</ele>
        <time>2016-03-02T17:03:51Z</time>
      </trkpt>
      <trkpt lat="28.783401" lon="-17.808055">
        <ele>746.583</ele>
        <time>2016-03-02T17:05:05Z</time>
      </trkpt>
    </trkseg>
  </trk></gpx>