<?xml version="1.0" encoding="UTF-8"?>
<gpx version="1.1" creator="Aventuras en Cada Paso" xmlns="http://www.topografix.com/GPX/1/1">
  <metadata>
    <name>Barranco del Infierno – Adeje</name>
    <desc>Reserva Natural Especial. Sendero hasta cascada de 80 m con cuevas aborígenes y grabados rupestres. Requiere reserva previa obligatoria.</desc>
    <author><name>Aventuras en Cada Paso</name></author>
    <time>2026-07-08T08:12:58.159Z</time>
    <keywords>Tenerife, Senderismo, Media, senderismo Canarias</keywords>
  </metadata>
  <wpt lat="28.1064" lon="-16.7261">
    <name>Barranco del Infierno – Adeje</name>
    <desc>Reserva Natural Especial. Sendero hasta cascada de 80 m con cuevas aborígenes y grabados rupestres. Requiere reserva previa obligatoria. | Isla: Tenerife | Tipo: Senderismo | Dificultad: Media | Distancia: 8km | Duración: 2-4 horas</desc>
    <type>Senderismo</type>
    <extensions>
      <isla>Tenerife</isla>
      <dificultad>Media</dificultad>
      <distancia>8</distancia>
      <duracion>2-4 horas</duracion>
    </extensions>
  </wpt>
</gpx>