<?xml version="1.0" encoding="UTF-8"?>
<gpx creator="Wikiloc - https://www.wikiloc.com" version="1.1" xmlns="http://www.topografix.com/GPX/1/1" xmlns:xsi="http://www.w3.org/2001/XMLSchema-instance" xsi:schemaLocation="http://www.topografix.com/GPX/1/1 http://www.topografix.com/GPX/1/1/gpx.xsd">
  <metadata>
    <name>Wikiloc - Circular: Las Palmas - San Juan - Barranco Seco - El Fondill...</name>
    <link href="https://www.wikiloc.com/hiking-trails/circular-las-palmas-san-juan-barranco-seco-el-fondillo-area-universitaria-barranco-de-guiniguada-la-31055076">
      <text>Circular: Las Palmas - San Juan - Barranco Seco - El Fondill... on Wikiloc</text>
    </link>
    <time>2018-12-01T12:41:20Z</time>
  </metadata>
  <trk>
    <name>Circular: Las Palmas - San Juan - Barranco Seco - El Fondill... - Wikiloc</name>
    <cmt></cmt>
    <desc></desc>
    <trkseg>
      <trkpt lat="28.099138" lon="-15.422173">
        <ele>32.253</ele>
        <time>2018-12-01T08:14:40Z</time>
      </trkpt>
      <trkpt lat="28.099607" lon="-15.422699">
        <ele>32.204</ele>
        <time>2018-12-01T08:14:43Z</time>
      </trkpt>
      <trkpt lat="28.099678" lon="-15.422490">
        <ele>32.214</ele>
        <time>2018-12-01T08:15:54Z</time>
      </trkpt>
      <trkpt lat="28.099576" lon="-15.422380">
        <ele>32.208</ele>
        <time>2018-12-01T08:16:09Z</time>
      </trkpt>
      <trkpt lat="28.099564" lon="-15.421849">
        <ele>31.318</ele>
        <time>2018-12-01T08:16:45Z</time>
      </trkpt>
      <trkpt lat="28.099673" lon="-15.421267">
        <ele>29.466</ele>
        <time>2018-12-01T08:22:16Z</time>
      </trkpt>
      <trkpt lat="28.099914" lon="-15.420670">
        <ele>24.695</ele>
        <time>2018-12-01T08:22:54Z</time>
      </trkpt>
      <trkpt lat="28.100125" lon="-15.420600">
        <ele>26.720</ele>
        <time>2018-12-01T08:23:32Z</time>
      </trkpt>
      <trkpt lat="28.099833" lon="-15.420597">
        <ele>27.740</ele>
        <time>2018-12-01T08:24:33Z</time>
      </trkpt>
      <trkpt lat="28.099666" lon="-15.420709">
        <ele>26.355</ele>
        <time>2018-12-01T08:24:39Z</time>
      </trkpt>
      <trkpt lat="28.099697" lon="-15.420535">
        <ele>25.432</ele>
        <time>2018-12-01T08:24:41Z</time>
      </trkpt>
      <trkpt lat="28.099471" lon="-15.420446">
        <ele>18.241</ele>
        <time>2018-12-01T08:25:02Z</time>
      </trkpt>
      <trkpt lat="28.099234" lon="-15.420963">
        <ele>17.391</ele>
        <time>2018-12-01T08:26:07Z</time>
      </trkpt>
      <trkpt lat="28.098965" lon="-15.420902">
        <ele>22.781</ele>
        <time>2018-12-01T08:26:40Z</time>
      </trkpt>
      <trkpt lat="28.098861" lon="-15.421074">
        <ele>25.019</ele>
        <time>2018-12-01T08:27:03Z</time>
      </trkpt>
      <trkpt lat="28.098307" lon="-15.420962">
        <ele>23.908</ele>
        <time>2018-12-01T08:28:01Z</time>
      </trkpt>
      <trkpt lat="28.097915" lon="-15.421132">
        <ele>26.992</ele>
        <time>2018-12-01T08:29:15Z</time>
      </trkpt>
      <trkpt lat="28.097639" lon="-15.421474">
        <ele>38.820</ele>
        <time>2018-12-01T08:29:49Z</time>
      </trkpt>
      <trkpt lat="28.097485" lon="-15.421941">
        <ele>47.879</ele>
        <time>2018-12-01T08:30:27Z</time>
      </trkpt>
      <trkpt lat="28.097004" lon="-15.421723">
        <ele>45.574</ele>
        <time>2018-12-01T08:31:10Z</time>
      </trkpt>
      <trkpt lat="28.096797" lon="-15.421503">
        <ele>47.714</ele>
        <time>2018-12-01T08:31:58Z</time>
      </trkpt>
      <trkpt lat="28.096398" lon="-15.421776">
        <ele>54.919</ele>
        <time>2018-12-01T08:32:37Z</time>
      </trkpt>
      <trkpt lat="28.095907" lon="-15.422510">
        <ele>67.716</ele>
        <time>2018-12-01T08:33:44Z</time>
      </trkpt>
      <trkpt lat="28.095246" lon="-15.422637">
        <ele>75.465</ele>
        <time>2018-12-01T08:34:37Z</time>
      </trkpt>
      <trkpt lat="28.095051" lon="-15.423005">
        <ele>77.117</ele>
        <time>2018-12-01T08:35:13Z</time>
      </trkpt>
      <trkpt lat="28.095124" lon="-15.422744">
        <ele>74.887</ele>
        <time>2018-12-01T08:36:00Z</time>
      </trkpt>
      <trkpt lat="28.094817" lon="-15.422616">
        <ele>75.315</ele>
        <time>2018-12-01T08:36:46Z</time>
      </trkpt>
      <trkpt lat="28.094554" lon="-15.422301">
        <ele>86.208</ele>
        <time>2018-12-01T08:38:19Z</time>
      </trkpt>
      <trkpt lat="28.094121" lon="-15.422103">
        <ele>104.824</ele>
        <time>2018-12-01T08:39:36Z</time>
      </trkpt>
      <trkpt lat="28.094050" lon="-15.421965">
        <ele>110.342</ele>
        <time>2018-12-01T08:39:50Z</time>
      </trkpt>
      <trkpt lat="28.093644" lon="-15.421905">
        <ele>130.221</ele>
        <time>2018-12-01T08:40:45Z</time>
      </trkpt>
      <trkpt lat="28.093483" lon="-15.421775">
        <ele>131.646</ele>
        <time>2018-12-01T08:41:19Z</time>
      </trkpt>
      <trkpt lat="28.092884" lon="-15.421825">
        <ele>138.366</ele>
        <time>2018-12-01T08:42:18Z</time>
      </trkpt>
      <trkpt lat="28.092108" lon="-15.422280">
        <ele>147.581</ele>
        <time>2018-12-01T08:43:49Z</time>
      </trkpt>
      <trkpt lat="28.090645" lon="-15.422532">
        <ele>148.378</ele>
        <time>2018-12-01T08:46:55Z</time>
      </trkpt>
      <trkpt lat="28.090243" lon="-15.422937">
        <ele>156.587</ele>
        <time>2018-12-01T08:47:50Z</time>
      </trkpt>
      <trkpt lat="28.089880" lon="-15.422963">
        <ele>162.178</ele>
        <time>2018-12-01T08:48:24Z</time>
      </trkpt>
      <trkpt lat="28.089593" lon="-15.423215">
        <ele>164.533</ele>
        <time>2018-12-01T08:51:46Z</time>
      </trkpt>
      <trkpt lat="28.089175" lon="-15.423189">
        <ele>164.926</ele>
        <time>2018-12-01T08:52:17Z</time>
      </trkpt>
      <trkpt lat="28.088806" lon="-15.423364">
        <ele>167.808</ele>
        <time>2018-12-01T08:52:49Z</time>
      </trkpt>
      <trkpt lat="28.087970" lon="-15.423378">
        <ele>168.620</ele>
        <time>2018-12-01T08:54:32Z</time>
      </trkpt>
      <trkpt lat="28.087489" lon="-15.423686">
        <ele>172.468</ele>
        <time>2018-12-01T08:55:31Z</time>
      </trkpt>
      <trkpt lat="28.087121" lon="-15.423625">
        <ele>179.947</ele>
        <time>2018-12-01T08:56:04Z</time>
      </trkpt>
      <trkpt lat="28.086423" lon="-15.423848">
        <ele>186.042</ele>
        <time>2018-12-01T08:57:04Z</time>
      </trkpt>
      <trkpt lat="28.086165" lon="-15.424141">
        <ele>188.032</ele>
        <time>2018-12-01T08:57:34Z</time>
      </trkpt>
      <trkpt lat="28.085470" lon="-15.424447">
        <ele>188.757</ele>
        <time>2018-12-01T08:58:33Z</time>
      </trkpt>
      <trkpt lat="28.084949" lon="-15.425009">
        <ele>192.734</ele>
        <time>2018-12-01T08:59:30Z</time>
      </trkpt>
      <trkpt lat="28.084238" lon="-15.425349">
        <ele>195.933</ele>
        <time>2018-12-01T09:00:25Z</time>
      </trkpt>
      <trkpt lat="28.083928" lon="-15.425733">
        <ele>193.053</ele>
        <time>2018-12-01T09:01:31Z</time>
      </trkpt>
      <trkpt lat="28.083324" lon="-15.425873">
        <ele>194.904</ele>
        <time>2018-12-01T09:02:23Z</time>
      </trkpt>
      <trkpt lat="28.081805" lon="-15.425617">
        <ele>189.514</ele>
        <time>2018-12-01T09:04:17Z</time>
      </trkpt>
      <trkpt lat="28.081399" lon="-15.425734">
        <ele>190.608</ele>
        <time>2018-12-01T09:04:51Z</time>
      </trkpt>
      <trkpt lat="28.081291" lon="-15.425899">
        <ele>191.098</ele>
        <time>2018-12-01T09:05:09Z</time>
      </trkpt>
      <trkpt lat="28.081430" lon="-15.426570">
        <ele>196.166</ele>
        <time>2018-12-01T09:06:19Z</time>
      </trkpt>
      <trkpt lat="28.080753" lon="-15.426460">
        <ele>194.125</ele>
        <time>2018-12-01T09:08:23Z</time>
      </trkpt>
      <trkpt lat="28.080502" lon="-15.426846">
        <ele>195.950</ele>
        <time>2018-12-01T09:08:57Z</time>
      </trkpt>
      <trkpt lat="28.079895" lon="-15.427073">
        <ele>196.760</ele>
        <time>2018-12-01T09:09:52Z</time>
      </trkpt>
      <trkpt lat="28.079790" lon="-15.427322">
        <ele>196.695</ele>
        <time>2018-12-01T09:10:30Z</time>
      </trkpt>
      <trkpt lat="28.080052" lon="-15.428028">
        <ele>201.552</ele>
        <time>2018-12-01T09:11:20Z</time>
      </trkpt>
      <trkpt lat="28.079987" lon="-15.428411">
        <ele>203.491</ele>
        <time>2018-12-01T09:11:46Z</time>
      </trkpt>
      <trkpt lat="28.079025" lon="-15.428323">
        <ele>201.524</ele>
        <time>2018-12-01T09:13:04Z</time>
      </trkpt>
      <trkpt lat="28.078899" lon="-15.428437">
        <ele>203.504</ele>
        <time>2018-12-01T09:13:17Z</time>
      </trkpt>
      <trkpt lat="28.078826" lon="-15.428986">
        <ele>202.414</ele>
        <time>2018-12-01T09:14:13Z</time>
      </trkpt>
      <trkpt lat="28.078564" lon="-15.428765">
        <ele>206.308</ele>
        <time>2018-12-01T09:15:19Z</time>
      </trkpt>
      <trkpt lat="28.077802" lon="-15.428903">
        <ele>213.685</ele>
        <time>2018-12-01T09:16:44Z</time>
      </trkpt>
      <trkpt lat="28.077647" lon="-15.429127">
        <ele>217.613</ele>
        <time>2018-12-01T09:17:00Z</time>
      </trkpt>
      <trkpt lat="28.077657" lon="-15.429541">
        <ele>219.262</ele>
        <time>2018-12-01T09:17:27Z</time>
      </trkpt>
      <trkpt lat="28.077557" lon="-15.429736">
        <ele>221.067</ele>
        <time>2018-12-01T09:17:42Z</time>
      </trkpt>
      <trkpt lat="28.076684" lon="-15.429726">
        <ele>211.417</ele>
        <time>2018-12-01T09:18:48Z</time>
      </trkpt>
      <trkpt lat="28.076080" lon="-15.430718">
        <ele>214.532</ele>
        <time>2018-12-01T09:20:19Z</time>
      </trkpt>
      <trkpt lat="28.075368" lon="-15.431348">
        <ele>221.769</ele>
        <time>2018-12-01T09:21:24Z</time>
      </trkpt>
      <trkpt lat="28.075121" lon="-15.431922">
        <ele>221.948</ele>
        <time>2018-12-01T09:22:29Z</time>
      </trkpt>
      <trkpt lat="28.074937" lon="-15.432023">
        <ele>220.759</ele>
        <time>2018-12-01T09:22:43Z</time>
      </trkpt>
      <trkpt lat="28.074417" lon="-15.432034">
        <ele>212.603</ele>
        <time>2018-12-01T09:23:25Z</time>
      </trkpt>
      <trkpt lat="28.074137" lon="-15.432275">
        <ele>214.523</ele>
        <time>2018-12-01T09:23:54Z</time>
      </trkpt>
      <trkpt lat="28.073995" lon="-15.432574">
        <ele>215.008</ele>
        <time>2018-12-01T09:24:19Z</time>
      </trkpt>
      <trkpt lat="28.073459" lon="-15.433110">
        <ele>214.698</ele>
        <time>2018-12-01T09:25:23Z</time>
      </trkpt>
      <trkpt lat="28.073373" lon="-15.433796">
        <ele>215.386</ele>
        <time>2018-12-01T09:26:14Z</time>
      </trkpt>
      <trkpt lat="28.072617" lon="-15.434318">
        <ele>216.815</ele>
        <time>2018-12-01T09:27:39Z</time>
      </trkpt>
      <trkpt lat="28.071974" lon="-15.435270">
        <ele>217.230</ele>
        <time>2018-12-01T09:30:03Z</time>
      </trkpt>
      <trkpt lat="28.071885" lon="-15.436105">
        <ele>216.430</ele>
        <time>2018-12-01T09:31:08Z</time>
      </trkpt>
      <trkpt lat="28.071699" lon="-15.436504">
        <ele>217.375</ele>
        <time>2018-12-01T09:31:43Z</time>
      </trkpt>
      <trkpt lat="28.071282" lon="-15.436730">
        <ele>216.132</ele>
        <time>2018-12-01T09:32:19Z</time>
      </trkpt>
      <trkpt lat="28.071162" lon="-15.437594">
        <ele>218.751</ele>
        <time>2018-12-01T09:33:30Z</time>
      </trkpt>
      <trkpt lat="28.071299" lon="-15.438468">
        <ele>215.031</ele>
        <time>2018-12-01T09:34:41Z</time>
      </trkpt>
      <trkpt lat="28.071058" lon="-15.438674">
        <ele>217.161</ele>
        <time>2018-12-01T09:35:25Z</time>
      </trkpt>
      <trkpt lat="28.070488" lon="-15.438892">
        <ele>220.707</ele>
        <time>2018-12-01T09:37:05Z</time>
      </trkpt>
      <trkpt lat="28.070369" lon="-15.439335">
        <ele>221.408</ele>
        <time>2018-12-01T09:37:31Z</time>
      </trkpt>
      <trkpt lat="28.070020" lon="-15.439757">
        <ele>222.566</ele>
        <time>2018-12-01T09:38:14Z</time>
      </trkpt>
      <trkpt lat="28.070390" lon="-15.440548">
        <ele>224.344</ele>
        <time>2018-12-01T09:39:21Z</time>
      </trkpt>
      <trkpt lat="28.070348" lon="-15.440839">
        <ele>222.993</ele>
        <time>2018-12-01T09:39:49Z</time>
      </trkpt>
      <trkpt lat="28.070050" lon="-15.441290">
        <ele>220.438</ele>
        <time>2018-12-01T09:40:33Z</time>
      </trkpt>
      <trkpt lat="28.069821" lon="-15.441385">
        <ele>217.688</ele>
        <time>2018-12-01T09:41:12Z</time>
      </trkpt>
      <trkpt lat="28.069439" lon="-15.442048">
        <ele>220.813</ele>
        <time>2018-12-01T09:42:28Z</time>
      </trkpt>
      <trkpt lat="28.068691" lon="-15.442817">
        <ele>220.430</ele>
        <time>2018-12-01T09:44:14Z</time>
      </trkpt>
      <trkpt lat="28.068055" lon="-15.443720">
        <ele>219.339</ele>
        <time>2018-12-01T09:46:21Z</time>
      </trkpt>
      <trkpt lat="28.067607" lon="-15.444099">
        <ele>216.268</ele>
        <time>2018-12-01T09:47:37Z</time>
      </trkpt>
      <trkpt lat="28.067271" lon="-15.445191">
        <ele>222.342</ele>
        <time>2018-12-01T09:49:21Z</time>
      </trkpt>
      <trkpt lat="28.066550" lon="-15.446148">
        <ele>220.726</ele>
        <time>2018-12-01T09:51:03Z</time>
      </trkpt>
      <trkpt lat="28.066703" lon="-15.446093">
        <ele>217.308</ele>
        <time>2018-12-01T09:51:23Z</time>
      </trkpt>
      <trkpt lat="28.066773" lon="-15.446179">
        <ele>218.419</ele>
        <time>2018-12-01T09:51:33Z</time>
      </trkpt>
      <trkpt lat="28.066908" lon="-15.446491">
        <ele>219.617</ele>
        <time>2018-12-01T09:52:04Z</time>
      </trkpt>
      <trkpt lat="28.066900" lon="-15.446932">
        <ele>209.966</ele>
        <time>2018-12-01T09:52:36Z</time>
      </trkpt>
      <trkpt lat="28.067275" lon="-15.447121">
        <ele>206.331</ele>
        <time>2018-12-01T09:53:06Z</time>
      </trkpt>
      <trkpt lat="28.067402" lon="-15.447081">
        <ele>208.491</ele>
        <time>2018-12-01T09:53:31Z</time>
      </trkpt>
      <trkpt lat="28.067924" lon="-15.447985">
        <ele>222.296</ele>
        <time>2018-12-01T09:55:50Z</time>
      </trkpt>
      <trkpt lat="28.067816" lon="-15.447095">
        <ele>234.173</ele>
        <time>2018-12-01T09:57:06Z</time>
      </trkpt>
      <trkpt lat="28.068038" lon="-15.446815">
        <ele>233.722</ele>
        <time>2018-12-01T09:57:33Z</time>
      </trkpt>
      <trkpt lat="28.068445" lon="-15.446569">
        <ele>229.291</ele>
        <time>2018-12-01T09:58:08Z</time>
      </trkpt>
      <trkpt lat="28.068626" lon="-15.446178">
        <ele>232.781</ele>
        <time>2018-12-01T09:58:48Z</time>
      </trkpt>
      <trkpt lat="28.068636" lon="-15.446519">
        <ele>235.219</ele>
        <time>2018-12-01T09:59:15Z</time>
      </trkpt>
      <trkpt lat="28.068258" lon="-15.447269">
        <ele>248.708</ele>
        <time>2018-12-01T10:02:03Z</time>
      </trkpt>
      <trkpt lat="28.068469" lon="-15.447313">
        <ele>254.912</ele>
        <time>2018-12-01T10:02:27Z</time>
      </trkpt>
      <trkpt lat="28.069277" lon="-15.446921">
        <ele>269.410</ele>
        <time>2018-12-01T10:03:55Z</time>
      </trkpt>
      <trkpt lat="28.068948" lon="-15.447718">
        <ele>290.189</ele>
        <time>2018-12-01T10:05:15Z</time>
      </trkpt>
      <trkpt lat="28.069182" lon="-15.447888">
        <ele>297.784</ele>
        <time>2018-12-01T10:06:11Z</time>
      </trkpt>
      <trkpt lat="28.069283" lon="-15.448199">
        <ele>310.624</ele>
        <time>2018-12-01T10:06:53Z</time>
      </trkpt>
      <trkpt lat="28.069317" lon="-15.448529">
        <ele>317.239</ele>
        <time>2018-12-01T10:07:34Z</time>
      </trkpt>
      <trkpt lat="28.069144" lon="-15.448634">
        <ele>317.576</ele>
        <time>2018-12-01T10:07:37Z</time>
      </trkpt>
      <trkpt lat="28.069317" lon="-15.448556">
        <ele>316.975</ele>
        <time>2018-12-01T10:07:47Z</time>
      </trkpt>
      <trkpt lat="28.069353" lon="-15.448882">
        <ele>330.344</ele>
        <time>2018-12-01T10:08:21Z</time>
      </trkpt>
      <trkpt lat="28.069686" lon="-15.449242">
        <ele>338.105</ele>
        <time>2018-12-01T10:08:57Z</time>
      </trkpt>
      <trkpt lat="28.071213" lon="-15.449761">
        <ele>320.815</ele>
        <time>2018-12-01T10:13:20Z</time>
      </trkpt>
      <trkpt lat="28.071273" lon="-15.449667">
        <ele>322.408</ele>
        <time>2018-12-01T10:13:27Z</time>
      </trkpt>
      <trkpt lat="28.071658" lon="-15.449810">
        <ele>337.087</ele>
        <time>2018-12-01T10:15:00Z</time>
      </trkpt>
      <trkpt lat="28.071635" lon="-15.449957">
        <ele>334.935</ele>
        <time>2018-12-01T10:15:17Z</time>
      </trkpt>
      <trkpt lat="28.071841" lon="-15.450313">
        <ele>333.514</ele>
        <time>2018-12-01T10:15:46Z</time>
      </trkpt>
      <trkpt lat="28.072035" lon="-15.450414">
        <ele>333.749</ele>
        <time>2018-12-01T10:16:16Z</time>
      </trkpt>
      <trkpt lat="28.072061" lon="-15.450924">
        <ele>329.369</ele>
        <time>2018-12-01T10:16:53Z</time>
      </trkpt>
      <trkpt lat="28.071824" lon="-15.450989">
        <ele>329.324</ele>
        <time>2018-12-01T10:17:11Z</time>
      </trkpt>
      <trkpt lat="28.070401" lon="-15.452809">
        <ele>338.951</ele>
        <time>2018-12-01T10:20:55Z</time>
      </trkpt>
      <trkpt lat="28.070119" lon="-15.454074">
        <ele>337.380</ele>
        <time>2018-12-01T10:22:58Z</time>
      </trkpt>
      <trkpt lat="28.070122" lon="-15.454703">
        <ele>336.195</ele>
        <time>2018-12-01T10:23:37Z</time>
      </trkpt>
      <trkpt lat="28.070239" lon="-15.455082">
        <ele>334.749</ele>
        <time>2018-12-01T10:24:02Z</time>
      </trkpt>
      <trkpt lat="28.069561" lon="-15.454783">
        <ele>339.823</ele>
        <time>2018-12-01T10:25:03Z</time>
      </trkpt>
      <trkpt lat="28.069164" lon="-15.455236">
        <ele>342.908</ele>
        <time>2018-12-01T10:25:58Z</time>
      </trkpt>
      <trkpt lat="28.068938" lon="-15.456391">
        <ele>328.382</ele>
        <time>2018-12-01T10:27:42Z</time>
      </trkpt>
      <trkpt lat="28.068679" lon="-15.456607">
        <ele>325.890</ele>
        <time>2018-12-01T10:28:04Z</time>
      </trkpt>
      <trkpt lat="28.068704" lon="-15.456906">
        <ele>322.989</ele>
        <time>2018-12-01T10:31:01Z</time>
      </trkpt>
      <trkpt lat="28.068879" lon="-15.457004">
        <ele>327.844</ele>
        <time>2018-12-01T10:31:31Z</time>
      </trkpt>
      <trkpt lat="28.068885" lon="-15.457183">
        <ele>326.144</ele>
        <time>2018-12-01T10:31:56Z</time>
      </trkpt>
      <trkpt lat="28.068634" lon="-15.457395">
        <ele>322.239</ele>
        <time>2018-12-01T10:32:25Z</time>
      </trkpt>
      <trkpt lat="28.068703" lon="-15.457566">
        <ele>319.796</ele>
        <time>2018-12-01T10:32:56Z</time>
      </trkpt>
      <trkpt lat="28.068526" lon="-15.457581">
        <ele>318.545</ele>
        <time>2018-12-01T10:33:14Z</time>
      </trkpt>
      <trkpt lat="28.068649" lon="-15.457694">
        <ele>316.762</ele>
        <time>2018-12-01T10:33:46Z</time>
      </trkpt>
      <trkpt lat="28.069114" lon="-15.457454">
        <ele>309.983</ele>
        <time>2018-12-01T10:35:17Z</time>
      </trkpt>
      <trkpt lat="28.069624" lon="-15.457552">
        <ele>299.411</ele>
        <time>2018-12-01T10:35:55Z</time>
      </trkpt>
      <trkpt lat="28.069329" lon="-15.457397">
        <ele>304.208</ele>
        <time>2018-12-01T10:38:33Z</time>
      </trkpt>
      <trkpt lat="28.069367" lon="-15.457331">
        <ele>304.699</ele>
        <time>2018-12-01T10:38:47Z</time>
      </trkpt>
      <trkpt lat="28.069754" lon="-15.457403">
        <ele>306.667</ele>
        <time>2018-12-01T10:39:18Z</time>
      </trkpt>
      <trkpt lat="28.070000" lon="-15.457336">
        <ele>307.286</ele>
        <time>2018-12-01T10:39:42Z</time>
      </trkpt>
      <trkpt lat="28.070648" lon="-15.457560">
        <ele>306.131</ele>
        <time>2018-12-01T10:40:57Z</time>
      </trkpt>
      <trkpt lat="28.071270" lon="-15.457964">
        <ele>303.921</ele>
        <time>2018-12-01T10:41:57Z</time>
      </trkpt>
      <trkpt lat="28.071535" lon="-15.457979">
        <ele>302.526</ele>
        <time>2018-12-01T10:42:50Z</time>
      </trkpt>
      <trkpt lat="28.072521" lon="-15.456977">
        <ele>301.913</ele>
        <time>2018-12-01T10:45:56Z</time>
      </trkpt>
      <trkpt lat="28.073048" lon="-15.456997">
        <ele>297.882</ele>
        <time>2018-12-01T10:46:33Z</time>
      </trkpt>
      <trkpt lat="28.073874" lon="-15.456639">
        <ele>298.026</ele>
        <time>2018-12-01T10:47:41Z</time>
      </trkpt>
      <trkpt lat="28.074748" lon="-15.456802">
        <ele>296.947</ele>
        <time>2018-12-01T10:49:09Z</time>
      </trkpt>
      <trkpt lat="28.075765" lon="-15.456420">
        <ele>300.311</ele>
        <time>2018-12-01T10:50:46Z</time>
      </trkpt>
      <trkpt lat="28.075884" lon="-15.456227">
        <ele>299.108</ele>
        <time>2018-12-01T10:51:03Z</time>
      </trkpt>
      <trkpt lat="28.076557" lon="-15.455758">
        <ele>296.675</ele>
        <time>2018-12-01T10:52:11Z</time>
      </trkpt>
      <trkpt lat="28.076986" lon="-15.455145">
        <ele>289.673</ele>
        <time>2018-12-01T10:55:23Z</time>
      </trkpt>
      <trkpt lat="28.077101" lon="-15.455269">
        <ele>287.112</ele>
        <time>2018-12-01T10:55:42Z</time>
      </trkpt>
      <trkpt lat="28.077340" lon="-15.455156">
        <ele>285.167</ele>
        <time>2018-12-01T10:56:16Z</time>
      </trkpt>
      <trkpt lat="28.077669" lon="-15.455188">
        <ele>281.457</ele>
        <time>2018-12-01T10:57:19Z</time>
      </trkpt>
      <trkpt lat="28.077193" lon="-15.455675">
        <ele>270.952</ele>
        <time>2018-12-01T10:58:43Z</time>
      </trkpt>
      <trkpt lat="28.077281" lon="-15.455719">
        <ele>267.919</ele>
        <time>2018-12-01T10:59:07Z</time>
      </trkpt>
      <trkpt lat="28.077072" lon="-15.455963">
        <ele>258.928</ele>
        <time>2018-12-01T10:59:46Z</time>
      </trkpt>
      <trkpt lat="28.077742" lon="-15.455818">
        <ele>236.669</ele>
        <time>2018-12-01T11:01:33Z</time>
      </trkpt>
      <trkpt lat="28.078341" lon="-15.455897">
        <ele>221.704</ele>
        <time>2018-12-01T11:02:53Z</time>
      </trkpt>
      <trkpt lat="28.078237" lon="-15.456235">
        <ele>213.824</ele>
        <time>2018-12-01T11:04:08Z</time>
      </trkpt>
      <trkpt lat="28.078649" lon="-15.456308">
        <ele>204.408</ele>
        <time>2018-12-01T11:05:40Z</time>
      </trkpt>
      <trkpt lat="28.078172" lon="-15.456908">
        <ele>185.289</ele>
        <time>2018-12-01T11:09:18Z</time>
      </trkpt>
      <trkpt lat="28.078874" lon="-15.456512">
        <ele>170.987</ele>
        <time>2018-12-01T11:11:05Z</time>
      </trkpt>
      <trkpt lat="28.078895" lon="-15.456635">
        <ele>166.226</ele>
        <time>2018-12-01T11:11:24Z</time>
      </trkpt>
      <trkpt lat="28.079064" lon="-15.456595">
        <ele>166.511</ele>
        <time>2018-12-01T11:11:40Z</time>
      </trkpt>
      <trkpt lat="28.079156" lon="-15.456386">
        <ele>170.671</ele>
        <time>2018-12-01T11:12:32Z</time>
      </trkpt>
      <trkpt lat="28.079329" lon="-15.456291">
        <ele>169.486</ele>
        <time>2018-12-01T11:13:38Z</time>
      </trkpt>
      <trkpt lat="28.080276" lon="-15.456320">
        <ele>172.973</ele>
        <time>2018-12-01T11:20:58Z</time>
      </trkpt>
      <trkpt lat="28.080516" lon="-15.456553">
        <ele>170.312</ele>
        <time>2018-12-01T11:21:39Z</time>
      </trkpt>
      <trkpt lat="28.081716" lon="-15.456599">
        <ele>152.133</ele>
        <time>2018-12-01T11:23:54Z</time>
      </trkpt>
      <trkpt lat="28.082501" lon="-15.455904">
        <ele>145.723</ele>
        <time>2018-12-01T11:26:06Z</time>
      </trkpt>
      <trkpt lat="28.083639" lon="-15.455309">
        <ele>143.415</ele>
        <time>2018-12-01T11:28:27Z</time>
      </trkpt>
      <trkpt lat="28.083876" lon="-15.454913">
        <ele>143.408</ele>
        <time>2018-12-01T11:29:35Z</time>
      </trkpt>
      <trkpt lat="28.083779" lon="-15.454836">
        <ele>142.096</ele>
        <time>2018-12-01T11:31:15Z</time>
      </trkpt>
      <trkpt lat="28.084069" lon="-15.455072">
        <ele>139.674</ele>
        <time>2018-12-01T11:32:47Z</time>
      </trkpt>
      <trkpt lat="28.084128" lon="-15.454617">
        <ele>140.323</ele>
        <time>2018-12-01T11:33:50Z</time>
      </trkpt>
      <trkpt lat="28.083443" lon="-15.453943">
        <ele>136.918</ele>
        <time>2018-12-01T11:35:15Z</time>
      </trkpt>
      <trkpt lat="28.083202" lon="-15.453560">
        <ele>125.918</ele>
        <time>2018-12-01T11:35:54Z</time>
      </trkpt>
      <trkpt lat="28.083439" lon="-15.452833">
        <ele>123.473</ele>
        <time>2018-12-01T11:37:02Z</time>
      </trkpt>
      <trkpt lat="28.084222" lon="-15.452091">
        <ele>124.160</ele>
        <time>2018-12-01T11:38:57Z</time>
      </trkpt>
      <trkpt lat="28.084750" lon="-15.452135">
        <ele>124.939</ele>
        <time>2018-12-01T11:39:31Z</time>
      </trkpt>
      <trkpt lat="28.085537" lon="-15.452619">
        <ele>129.899</ele>
        <time>2018-12-01T11:40:55Z</time>
      </trkpt>
      <trkpt lat="28.085904" lon="-15.452575">
        <ele>122.707</ele>
        <time>2018-12-01T11:41:23Z</time>
      </trkpt>
      <trkpt lat="28.086173" lon="-15.452383">
        <ele>124.427</ele>
        <time>2018-12-01T11:41:46Z</time>
      </trkpt>
      <trkpt lat="28.086162" lon="-15.452106">
        <ele>122.608</ele>
        <time>2018-12-01T11:42:08Z</time>
      </trkpt>
      <trkpt lat="28.086423" lon="-15.451259">
        <ele>118.332</ele>
        <time>2018-12-01T11:43:08Z</time>
      </trkpt>
      <trkpt lat="28.086352" lon="-15.450823">
        <ele>114.460</ele>
        <time>2018-12-01T11:43:36Z</time>
      </trkpt>
      <trkpt lat="28.086419" lon="-15.450517">
        <ele>111.689</ele>
        <time>2018-12-01T11:43:59Z</time>
      </trkpt>
      <trkpt lat="28.086182" lon="-15.449386">
        <ele>112.234</ele>
        <time>2018-12-01T11:45:22Z</time>
      </trkpt>
      <trkpt lat="28.085765" lon="-15.448651">
        <ele>111.374</ele>
        <time>2018-12-01T11:46:10Z</time>
      </trkpt>
      <trkpt lat="28.085891" lon="-15.447069">
        <ele>105.179</ele>
        <time>2018-12-01T11:49:47Z</time>
      </trkpt>
      <trkpt lat="28.086373" lon="-15.447066">
        <ele>109.946</ele>
        <time>2018-12-01T11:50:13Z</time>
      </trkpt>
      <trkpt lat="28.087244" lon="-15.446794">
        <ele>106.745</ele>
        <time>2018-12-01T11:51:27Z</time>
      </trkpt>
      <trkpt lat="28.087523" lon="-15.446622">
        <ele>102.098</ele>
        <time>2018-12-01T11:51:52Z</time>
      </trkpt>
      <trkpt lat="28.087919" lon="-15.446114">
        <ele>101.915</ele>
        <time>2018-12-01T11:52:33Z</time>
      </trkpt>
      <trkpt lat="28.088212" lon="-15.445049">
        <ele>101.626</ele>
        <time>2018-12-01T11:54:03Z</time>
      </trkpt>
      <trkpt lat="28.088555" lon="-15.444684">
        <ele>97.708</ele>
        <time>2018-12-01T11:54:36Z</time>
      </trkpt>
      <trkpt lat="28.088960" lon="-15.443356">
        <ele>89.282</ele>
        <time>2018-12-01T11:56:07Z</time>
      </trkpt>
      <trkpt lat="28.089157" lon="-15.441514">
        <ele>88.610</ele>
        <time>2018-12-01T11:58:06Z</time>
      </trkpt>
      <trkpt lat="28.089324" lon="-15.440936">
        <ele>91.799</ele>
        <time>2018-12-01T11:58:43Z</time>
      </trkpt>
      <trkpt lat="28.089500" lon="-15.440788">
        <ele>93.654</ele>
        <time>2018-12-01T11:58:59Z</time>
      </trkpt>
      <trkpt lat="28.090641" lon="-15.441097">
        <ele>80.764</ele>
        <time>2018-12-01T12:00:16Z</time>
      </trkpt>
      <trkpt lat="28.090891" lon="-15.441004">
        <ele>78.589</ele>
        <time>2018-12-01T12:00:36Z</time>
      </trkpt>
      <trkpt lat="28.091151" lon="-15.440638">
        <ele>78.456</ele>
        <time>2018-12-01T12:01:05Z</time>
      </trkpt>
      <trkpt lat="28.091213" lon="-15.439808">
        <ele>81.945</ele>
        <time>2018-12-01T12:01:54Z</time>
      </trkpt>
      <trkpt lat="28.091001" lon="-15.439212">
        <ele>80.813</ele>
        <time>2018-12-01T12:02:37Z</time>
      </trkpt>
      <trkpt lat="28.090706" lon="-15.438511">
        <ele>73.043</ele>
        <time>2018-12-01T12:03:28Z</time>
      </trkpt>
      <trkpt lat="28.090033" lon="-15.437804">
        <ele>70.607</ele>
        <time>2018-12-01T12:04:30Z</time>
      </trkpt>
      <trkpt lat="28.089714" lon="-15.437319">
        <ele>70.608</ele>
        <time>2018-12-01T12:05:07Z</time>
      </trkpt>
      <trkpt lat="28.089719" lon="-15.437110">
        <ele>67.344</ele>
        <time>2018-12-01T12:05:20Z</time>
      </trkpt>
      <trkpt lat="28.090461" lon="-15.436480">
        <ele>69.622</ele>
        <time>2018-12-01T12:06:26Z</time>
      </trkpt>
      <trkpt lat="28.091232" lon="-15.436416">
        <ele>72.341</ele>
        <time>2018-12-01T12:07:22Z</time>
      </trkpt>
      <trkpt lat="28.091714" lon="-15.436125">
        <ele>64.276</ele>
        <time>2018-12-01T12:08:01Z</time>
      </trkpt>
      <trkpt lat="28.092239" lon="-15.435201">
        <ele>64.876</ele>
        <time>2018-12-01T12:09:13Z</time>
      </trkpt>
      <trkpt lat="28.092701" lon="-15.434689">
        <ele>63.711</ele>
        <time>2018-12-01T12:09:54Z</time>
      </trkpt>
      <trkpt lat="28.093350" lon="-15.434635">
        <ele>59.418</ele>
        <time>2018-12-01T12:10:42Z</time>
      </trkpt>
      <trkpt lat="28.093900" lon="-15.435000">
        <ele>60.267</ele>
        <time>2018-12-01T12:11:27Z</time>
      </trkpt>
      <trkpt lat="28.094473" lon="-15.435157">
        <ele>62.958</ele>
        <time>2018-12-01T12:12:11Z</time>
      </trkpt>
      <trkpt lat="28.095187" lon="-15.435090">
        <ele>59.152</ele>
        <time>2018-12-01T12:13:00Z</time>
      </trkpt>
      <trkpt lat="28.095524" lon="-15.434924">
        <ele>56.217</ele>
        <time>2018-12-01T12:13:27Z</time>
      </trkpt>
      <trkpt lat="28.095722" lon="-15.434643">
        <ele>55.608</ele>
        <time>2018-12-01T12:13:50Z</time>
      </trkpt>
      <trkpt lat="28.096253" lon="-15.432624">
        <ele>46.548</ele>
        <time>2018-12-01T12:16:05Z</time>
      </trkpt>
      <trkpt lat="28.096840" lon="-15.432190">
        <ele>46.896</ele>
        <time>2018-12-01T12:16:52Z</time>
      </trkpt>
      <trkpt lat="28.097887" lon="-15.431908">
        <ele>47.775</ele>
        <time>2018-12-01T12:18:07Z</time>
      </trkpt>
      <trkpt lat="28.098888" lon="-15.431869">
        <ele>48.290</ele>
        <time>2018-12-01T12:19:18Z</time>
      </trkpt>
      <trkpt lat="28.100008" lon="-15.432024">
        <ele>48.160</ele>
        <time>2018-12-01T12:20:40Z</time>
      </trkpt>
      <trkpt lat="28.100454" lon="-15.431612">
        <ele>45.595</ele>
        <time>2018-12-01T12:21:24Z</time>
      </trkpt>
      <trkpt lat="28.100480" lon="-15.431393">
        <ele>43.752</ele>
        <time>2018-12-01T12:21:37Z</time>
      </trkpt>
      <trkpt lat="28.100287" lon="-15.431044">
        <ele>38.441</ele>
        <time>2018-12-01T12:22:06Z</time>
      </trkpt>
      <trkpt lat="28.099409" lon="-15.429974">
        <ele>38.288</ele>
        <time>2018-12-01T12:23:42Z</time>
      </trkpt>
      <trkpt lat="28.099592" lon="-15.429811">
        <ele>38.324</ele>
        <time>2018-12-01T12:23:59Z</time>
      </trkpt>
      <trkpt lat="28.099210" lon="-15.428768">
        <ele>28.826</ele>
        <time>2018-12-01T12:25:55Z</time>
      </trkpt>
      <trkpt lat="28.099272" lon="-15.428088">
        <ele>19.508</ele>
        <time>2018-12-01T12:26:39Z</time>
      </trkpt>
      <trkpt lat="28.099504" lon="-15.427648">
        <ele>21.321</ele>
        <time>2018-12-01T12:27:10Z</time>
      </trkpt>
      <trkpt lat="28.100066" lon="-15.427358">
        <ele>21.489</ele>
        <time>2018-12-01T12:27:53Z</time>
      </trkpt>
      <trkpt lat="28.100610" lon="-15.427325">
        <ele>21.748</ele>
        <time>2018-12-01T12:28:31Z</time>
      </trkpt>
      <trkpt lat="28.100824" lon="-15.427481">
        <ele>24.033</ele>
        <time>2018-12-01T12:28:50Z</time>
      </trkpt>
      <trkpt lat="28.101513" lon="-15.427520">
        <ele>24.883</ele>
        <time>2018-12-01T12:29:43Z</time>
      </trkpt>
      <trkpt lat="28.101667" lon="-15.427632">
        <ele>25.118</ele>
        <time>2018-12-01T12:30:06Z</time>
      </trkpt>
      <trkpt lat="28.102182" lon="-15.427214">
        <ele>29.395</ele>
        <time>2018-12-01T12:31:05Z</time>
      </trkpt>
      <trkpt lat="28.102303" lon="-15.426864">
        <ele>26.984</ele>
        <time>2018-12-01T12:31:35Z</time>
      </trkpt>
      <trkpt lat="28.102078" lon="-15.426218">
        <ele>22.152</ele>
        <time>2018-12-01T12:32:22Z</time>
      </trkpt>
      <trkpt lat="28.101465" lon="-15.425224">
        <ele>22.253</ele>
        <time>2018-12-01T12:33:46Z</time>
      </trkpt>
      <trkpt lat="28.100898" lon="-15.424913">
        <ele>17.908</ele>
        <time>2018-12-01T12:34:34Z</time>
      </trkpt>
      <trkpt lat="28.099713" lon="-15.424627">
        <ele>17.008</ele>
        <time>2018-12-01T12:36:01Z</time>
      </trkpt>
      <trkpt lat="28.099600" lon="-15.424522">
        <ele>15.668</ele>
        <time>2018-12-01T12:36:23Z</time>
      </trkpt>
      <trkpt lat="28.099612" lon="-15.424297">
        <ele>16.636</ele>
        <time>2018-12-01T12:37:17Z</time>
      </trkpt>
      <trkpt lat="28.099910" lon="-15.424274">
        <ele>16.315</ele>
        <time>2018-12-01T12:37:46Z</time>
      </trkpt>
      <trkpt lat="28.100012" lon="-15.424081">
        <ele>15.780</ele>
        <time>2018-12-01T12:38:04Z</time>
      </trkpt>
      <trkpt lat="28.099711" lon="-15.423428">
        <ele>19.320</ele>
        <time>2018-12-01T12:39:01Z</time>
      </trkpt>
      <trkpt lat="28.099647" lon="-15.422505">
        <ele>27.235</ele>
        <time>2018-12-01T12:41:20Z</time>
      </trkpt>
    </trkseg>
  </trk></gpx>