<?xml version="1.0" encoding="UTF-8"?>
<gpx version="1.1" creator="Aventuras en Cada Paso" xmlns="http://www.topografix.com/GPX/1/1">
  <metadata>
    <name>Barranco de Las Angustias</name>
    <desc>Descenso por el cauce del Barranco de Las Angustias, salida de la Caldera de Taburiente. Cruzar el río varias veces sobre piedras. Tramo final muy exigente.</desc>
    <author><name>Aventuras en Cada Paso</name></author>
    <time>2026-07-08T08:12:58.187Z</time>
    <keywords>La Palma, Senderismo, Difícil, senderismo Canarias</keywords>
  </metadata>
  <wpt lat="28.6886" lon="-17.9283">
    <name>Barranco de Las Angustias</name>
    <desc>Descenso por el cauce del Barranco de Las Angustias, salida de la Caldera de Taburiente. Cruzar el río varias veces sobre piedras. Tramo final muy exigente. | Isla: La Palma | Tipo: Senderismo | Dificultad: Difícil | Distancia: 12km | Duración: 4-8 horas</desc>
    <type>Senderismo</type>
    <extensions>
      <isla>La Palma</isla>
      <dificultad>Difícil</dificultad>
      <distancia>12</distancia>
      <duracion>4-8 horas</duracion>
    </extensions>
  </wpt>
</gpx>