<?xml version="1.0" encoding="UTF-8"?><gpx creator="Wikiloc - https://www.wikiloc.com" version="1.1" xmlns="http://www.topografix.com/GPX/1/1" xmlns:xsi="http://www.w3.org/2001/XMLSchema-instance" xsi:schemaLocation="http://www.topografix.com/GPX/1/1 http://www.topografix.com/GPX/1/1/gpx.xsd"><metadata><name>Wikiloc - Guayadeque - Cueva Bermeja: Circular por Cueva Labrada</name><author><name>ibien</name><link href="https://www.wikiloc.com/wikiloc/user.do?id=933225"><text>ibien on Wikiloc</text></link></author><link href="https://www.wikiloc.com/hiking-trails/guayadeque-cueva-bermeja-circular-por-cueva-labrada-97174974"><text>Guayadeque - Cueva Bermeja: Circular por Cueva Labrada on Wikiloc</text></link><time>2022-03-08T13:52:50Z</time></metadata><trk><name>Guayadeque - Cueva Bermeja: Circular por Cueva Labrada - Wik...</name><cmt></cmt><desc></desc><trkseg><trkpt lat="27.933134" lon="-15.482170"><ele>563.532</ele><time>2022-03-08T08:44:11Z</time></trkpt><trkpt lat="27.933284" lon="-15.482296"><ele>565.392</ele><time>2022-03-08T08:44:31Z</time></trkpt><trkpt lat="27.933464" lon="-15.482325"><ele>565.011</ele><time>2022-03-08T08:44:50Z</time></trkpt><trkpt lat="27.933566" lon="-15.482156"><ele>566.908</ele><time>2022-03-08T08:45:31Z</time></trkpt><trkpt lat="27.933741" lon="-15.482078"><ele>567.772</ele><time>2022-03-08T08:45:53Z</time></trkpt><trkpt lat="27.933857" lon="-15.482247"><ele>564.350</ele><time>2022-03-08T08:46:43Z</time></trkpt><trkpt lat="27.934006" lon="-15.482373"><ele>564.774</ele><time>2022-03-08T08:46:59Z</time></trkpt><trkpt lat="27.934177" lon="-15.482457"><ele>568.960</ele><time>2022-03-08T08:47:16Z</time></trkpt><trkpt lat="27.934294" lon="-15.482614"><ele>573.497</ele><time>2022-03-08T08:47:36Z</time></trkpt><trkpt lat="27.934404" lon="-15.482775"><ele>572.632</ele><time>2022-03-08T08:47:59Z</time></trkpt><trkpt lat="27.934576" lon="-15.482865"><ele>574.510</ele><time>2022-03-08T08:48:17Z</time></trkpt><trkpt lat="27.934756" lon="-15.482860"><ele>571.427</ele><time>2022-03-08T08:48:45Z</time></trkpt><trkpt lat="27.934810" lon="-15.483059"><ele>569.935</ele><time>2022-03-08T08:49:25Z</time></trkpt><trkpt lat="27.934910" lon="-15.483232"><ele>576.286</ele><time>2022-03-08T08:49:44Z</time></trkpt><trkpt lat="27.935066" lon="-15.483348"><ele>580.714</ele><time>2022-03-08T08:50:02Z</time></trkpt><trkpt lat="27.935138" lon="-15.483538"><ele>579.408</ele><time>2022-03-08T08:50:21Z</time></trkpt><trkpt lat="27.935216" lon="-15.483724"><ele>580.912</ele><time>2022-03-08T08:50:40Z</time></trkpt><trkpt lat="27.935268" lon="-15.483925"><ele>582.920</ele><time>2022-03-08T08:51:43Z</time></trkpt><trkpt lat="27.935274" lon="-15.484132"><ele>584.274</ele><time>2022-03-08T08:52:02Z</time></trkpt><trkpt lat="27.935279" lon="-15.484344"><ele>587.830</ele><time>2022-03-08T08:52:20Z</time></trkpt><trkpt lat="27.935383" lon="-15.484520"><ele>585.427</ele><time>2022-03-08T08:52:43Z</time></trkpt><trkpt lat="27.935484" lon="-15.484694"><ele>591.472</ele><time>2022-03-08T08:53:02Z</time></trkpt><trkpt lat="27.935526" lon="-15.484894"><ele>590.290</ele><time>2022-03-08T08:53:24Z</time></trkpt><trkpt lat="27.935612" lon="-15.485074"><ele>587.257</ele><time>2022-03-08T08:53:43Z</time></trkpt><trkpt lat="27.935683" lon="-15.485265"><ele>592.843</ele><time>2022-03-08T08:53:59Z</time></trkpt><trkpt lat="27.935740" lon="-15.485466"><ele>594.664</ele><time>2022-03-08T08:54:19Z</time></trkpt><trkpt lat="27.935883" lon="-15.485602"><ele>599.810</ele><time>2022-03-08T08:54:37Z</time></trkpt><trkpt lat="27.936044" lon="-15.485712"><ele>602.108</ele><time>2022-03-08T08:54:58Z</time></trkpt><trkpt lat="27.936152" lon="-15.485884"><ele>601.813</ele><time>2022-03-08T08:55:18Z</time></trkpt><trkpt lat="27.936256" lon="-15.486061"><ele>605.661</ele><time>2022-03-08T08:55:38Z</time></trkpt><trkpt lat="27.936327" lon="-15.486249"><ele>605.795</ele><time>2022-03-08T08:55:58Z</time></trkpt><trkpt lat="27.936388" lon="-15.486444"><ele>610.371</ele><time>2022-03-08T08:56:13Z</time></trkpt><trkpt lat="27.936449" lon="-15.486649"><ele>612.918</ele><time>2022-03-08T08:56:35Z</time></trkpt><trkpt lat="27.936546" lon="-15.486821"><ele>616.423</ele><time>2022-03-08T08:56:54Z</time></trkpt><trkpt lat="27.936562" lon="-15.487029"><ele>619.631</ele><time>2022-03-08T08:57:27Z</time></trkpt><trkpt lat="27.936561" lon="-15.487238"><ele>625.598</ele><time>2022-03-08T08:57:51Z</time></trkpt><trkpt lat="27.936545" lon="-15.487442"><ele>627.012</ele><time>2022-03-08T08:58:10Z</time></trkpt><trkpt lat="27.936641" lon="-15.487622"><ele>629.132</ele><time>2022-03-08T08:58:32Z</time></trkpt><trkpt lat="27.936766" lon="-15.487771"><ele>626.905</ele><time>2022-03-08T08:58:52Z</time></trkpt><trkpt lat="27.936873" lon="-15.487944"><ele>628.008</ele><time>2022-03-08T08:59:13Z</time></trkpt><trkpt lat="27.936898" lon="-15.488155"><ele>631.360</ele><time>2022-03-08T08:59:50Z</time></trkpt><trkpt lat="27.937035" lon="-15.488294"><ele>627.438</ele><time>2022-03-08T09:00:15Z</time></trkpt><trkpt lat="27.937151" lon="-15.488449"><ele>632.882</ele><time>2022-03-08T09:01:04Z</time></trkpt><trkpt lat="27.937117" lon="-15.488653"><ele>640.728</ele><time>2022-03-08T09:01:26Z</time></trkpt><trkpt lat="27.937055" lon="-15.488855"><ele>645.025</ele><time>2022-03-08T09:02:14Z</time></trkpt><trkpt lat="27.937087" lon="-15.489060"><ele>646.630</ele><time>2022-03-08T09:02:35Z</time></trkpt><trkpt lat="27.937061" lon="-15.489262"><ele>646.028</ele><time>2022-03-08T09:03:05Z</time></trkpt><trkpt lat="27.937018" lon="-15.489466"><ele>643.835</ele><time>2022-03-08T09:03:20Z</time></trkpt><trkpt lat="27.936964" lon="-15.489676"><ele>647.078</ele><time>2022-03-08T09:03:37Z</time></trkpt><trkpt lat="27.936930" lon="-15.489886"><ele>648.733</ele><time>2022-03-08T09:03:57Z</time></trkpt><trkpt lat="27.936875" lon="-15.490095"><ele>650.226</ele><time>2022-03-08T09:04:15Z</time></trkpt><trkpt lat="27.936807" lon="-15.490291"><ele>654.308</ele><time>2022-03-08T09:04:32Z</time></trkpt><trkpt lat="27.936720" lon="-15.490472"><ele>653.626</ele><time>2022-03-08T09:04:46Z</time></trkpt><trkpt lat="27.936640" lon="-15.490665"><ele>655.544</ele><time>2022-03-08T09:05:04Z</time></trkpt><trkpt lat="27.936552" lon="-15.490854"><ele>657.378</ele><time>2022-03-08T09:05:21Z</time></trkpt><trkpt lat="27.936537" lon="-15.491064"><ele>660.264</ele><time>2022-03-08T09:05:40Z</time></trkpt><trkpt lat="27.936475" lon="-15.491262"><ele>664.681</ele><time>2022-03-08T09:07:10Z</time></trkpt><trkpt lat="27.936460" lon="-15.491465"><ele>665.536</ele><time>2022-03-08T09:07:32Z</time></trkpt><trkpt lat="27.936516" lon="-15.491663"><ele>666.484</ele><time>2022-03-08T09:07:49Z</time></trkpt><trkpt lat="27.936538" lon="-15.491866"><ele>665.831</ele><time>2022-03-08T09:08:10Z</time></trkpt><trkpt lat="27.936576" lon="-15.492071"><ele>667.771</ele><time>2022-03-08T09:08:29Z</time></trkpt><trkpt lat="27.936585" lon="-15.492285"><ele>670.441</ele><time>2022-03-08T09:08:54Z</time></trkpt><trkpt lat="27.936437" lon="-15.492413"><ele>668.515</ele><time>2022-03-08T09:09:14Z</time></trkpt><trkpt lat="27.936266" lon="-15.492497"><ele>669.108</ele><time>2022-03-08T09:09:29Z</time></trkpt><trkpt lat="27.936158" lon="-15.492665"><ele>675.236</ele><time>2022-03-08T09:09:51Z</time></trkpt><trkpt lat="27.936213" lon="-15.492861"><ele>674.454</ele><time>2022-03-08T09:10:15Z</time></trkpt><trkpt lat="27.936352" lon="-15.493001"><ele>676.828</ele><time>2022-03-08T09:10:33Z</time></trkpt><trkpt lat="27.936410" lon="-15.493198"><ele>680.064</ele><time>2022-03-08T09:10:54Z</time></trkpt><trkpt lat="27.936486" lon="-15.493391"><ele>682.571</ele><time>2022-03-08T09:11:26Z</time></trkpt><trkpt lat="27.936579" lon="-15.493579"><ele>685.866</ele><time>2022-03-08T09:11:52Z</time></trkpt><trkpt lat="27.936623" lon="-15.493781"><ele>688.534</ele><time>2022-03-08T09:12:13Z</time></trkpt><trkpt lat="27.936573" lon="-15.493979"><ele>688.521</ele><time>2022-03-08T09:12:33Z</time></trkpt><trkpt lat="27.936593" lon="-15.494192"><ele>691.311</ele><time>2022-03-08T09:12:58Z</time></trkpt><trkpt lat="27.936570" lon="-15.494395"><ele>690.621</ele><time>2022-03-08T09:13:21Z</time></trkpt><trkpt lat="27.936573" lon="-15.494605"><ele>692.503</ele><time>2022-03-08T09:13:46Z</time></trkpt><trkpt lat="27.936561" lon="-15.494817"><ele>698.108</ele><time>2022-03-08T09:14:06Z</time></trkpt><trkpt lat="27.936556" lon="-15.495022"><ele>697.310</ele><time>2022-03-08T09:14:25Z</time></trkpt><trkpt lat="27.936538" lon="-15.495226"><ele>698.328</ele><time>2022-03-08T09:14:47Z</time></trkpt><trkpt lat="27.936523" lon="-15.495438"><ele>703.892</ele><time>2022-03-08T09:15:07Z</time></trkpt><trkpt lat="27.936518" lon="-15.495643"><ele>703.458</ele><time>2022-03-08T09:15:30Z</time></trkpt><trkpt lat="27.936522" lon="-15.495856"><ele>708.015</ele><time>2022-03-08T09:15:49Z</time></trkpt><trkpt lat="27.936509" lon="-15.496067"><ele>706.730</ele><time>2022-03-08T09:16:08Z</time></trkpt><trkpt lat="27.936481" lon="-15.496270"><ele>709.238</ele><time>2022-03-08T09:16:35Z</time></trkpt><trkpt lat="27.936433" lon="-15.496473"><ele>708.485</ele><time>2022-03-08T09:16:59Z</time></trkpt><trkpt lat="27.936430" lon="-15.496685"><ele>712.111</ele><time>2022-03-08T09:17:20Z</time></trkpt><trkpt lat="27.936404" lon="-15.496889"><ele>712.721</ele><time>2022-03-08T09:17:40Z</time></trkpt><trkpt lat="27.936430" lon="-15.497092"><ele>717.703</ele><time>2022-03-08T09:21:08Z</time></trkpt><trkpt lat="27.936442" lon="-15.497297"><ele>721.708</ele><time>2022-03-08T09:21:26Z</time></trkpt><trkpt lat="27.936468" lon="-15.497510"><ele>724.580</ele><time>2022-03-08T09:21:43Z</time></trkpt><trkpt lat="27.936486" lon="-15.497717"><ele>725.028</ele><time>2022-03-08T09:22:06Z</time></trkpt><trkpt lat="27.936421" lon="-15.497913"><ele>727.862</ele><time>2022-03-08T09:22:33Z</time></trkpt><trkpt lat="27.936320" lon="-15.498096"><ele>726.118</ele><time>2022-03-08T09:22:50Z</time></trkpt><trkpt lat="27.936161" lon="-15.497994"><ele>725.375</ele><time>2022-03-08T09:24:49Z</time></trkpt><trkpt lat="27.936127" lon="-15.497783"><ele>728.860</ele><time>2022-03-08T09:25:22Z</time></trkpt><trkpt lat="27.936086" lon="-15.497583"><ele>731.038</ele><time>2022-03-08T09:25:40Z</time></trkpt><trkpt lat="27.936043" lon="-15.497382"><ele>734.055</ele><time>2022-03-08T09:26:02Z</time></trkpt><trkpt lat="27.935945" lon="-15.497209"><ele>735.664</ele><time>2022-03-08T09:26:21Z</time></trkpt><trkpt lat="27.935863" lon="-15.497023"><ele>738.006</ele><time>2022-03-08T09:26:40Z</time></trkpt><trkpt lat="27.935744" lon="-15.496867"><ele>742.116</ele><time>2022-03-08T09:26:58Z</time></trkpt><trkpt lat="27.935714" lon="-15.496651"><ele>745.108</ele><time>2022-03-08T09:27:13Z</time></trkpt><trkpt lat="27.935674" lon="-15.496447"><ele>741.845</ele><time>2022-03-08T09:28:54Z</time></trkpt><trkpt lat="27.935613" lon="-15.496253"><ele>741.923</ele><time>2022-03-08T09:29:13Z</time></trkpt><trkpt lat="27.935580" lon="-15.496052"><ele>749.777</ele><time>2022-03-08T09:29:34Z</time></trkpt><trkpt lat="27.935406" lon="-15.495993"><ele>754.983</ele><time>2022-03-08T09:31:12Z</time></trkpt><trkpt lat="27.935248" lon="-15.496091"><ele>763.030</ele><time>2022-03-08T09:36:51Z</time></trkpt><trkpt lat="27.935069" lon="-15.496133"><ele>769.555</ele><time>2022-03-08T09:38:25Z</time></trkpt><trkpt lat="27.934889" lon="-15.496112"><ele>778.253</ele><time>2022-03-08T09:39:13Z</time></trkpt><trkpt lat="27.934723" lon="-15.496024"><ele>792.860</ele><time>2022-03-08T09:42:25Z</time></trkpt><trkpt lat="27.934567" lon="-15.495922"><ele>799.714</ele><time>2022-03-08T09:44:11Z</time></trkpt><trkpt lat="27.934461" lon="-15.496088"><ele>827.154</ele><time>2022-03-08T09:47:52Z</time></trkpt><trkpt lat="27.934481" lon="-15.496297"><ele>841.709</ele><time>2022-03-08T09:52:13Z</time></trkpt><trkpt lat="27.934437" lon="-15.496499"><ele>855.008</ele><time>2022-03-08T09:53:48Z</time></trkpt><trkpt lat="27.934259" lon="-15.496528"><ele>868.830</ele><time>2022-03-08T09:55:25Z</time></trkpt><trkpt lat="27.934095" lon="-15.496437"><ele>879.468</ele><time>2022-03-08T09:58:13Z</time></trkpt><trkpt lat="27.933921" lon="-15.496491"><ele>889.952</ele><time>2022-03-08T09:59:10Z</time></trkpt><trkpt lat="27.933780" lon="-15.496619"><ele>907.368</ele><time>2022-03-08T10:01:13Z</time></trkpt><trkpt lat="27.933654" lon="-15.496771"><ele>913.895</ele><time>2022-03-08T10:01:53Z</time></trkpt><trkpt lat="27.933480" lon="-15.496837"><ele>934.030</ele><time>2022-03-08T10:04:06Z</time></trkpt><trkpt lat="27.933318" lon="-15.496948"><ele>949.678</ele><time>2022-03-08T10:08:26Z</time></trkpt><trkpt lat="27.933171" lon="-15.497072"><ele>958.045</ele><time>2022-03-08T10:09:30Z</time></trkpt><trkpt lat="27.933177" lon="-15.496860"><ele>967.972</ele><time>2022-03-08T10:10:50Z</time></trkpt><trkpt lat="27.933061" lon="-15.496699"><ele>969.313</ele><time>2022-03-08T10:13:24Z</time></trkpt><trkpt lat="27.932975" lon="-15.496882"><ele>981.714</ele><time>2022-03-08T10:15:25Z</time></trkpt><trkpt lat="27.932828" lon="-15.497019"><ele>989.608</ele><time>2022-03-08T10:20:45Z</time></trkpt><trkpt lat="27.932814" lon="-15.497226"><ele>993.916</ele><time>2022-03-08T10:21:08Z</time></trkpt><trkpt lat="27.932881" lon="-15.497421"><ele>996.014</ele><time>2022-03-08T10:22:57Z</time></trkpt><trkpt lat="27.932987" lon="-15.497590"><ele>1002.578</ele><time>2022-03-08T10:23:29Z</time></trkpt><trkpt lat="27.933118" lon="-15.497735"><ele>1014.764</ele><time>2022-03-08T10:24:14Z</time></trkpt><trkpt lat="27.933079" lon="-15.497941"><ele>1016.691</ele><time>2022-03-08T10:24:55Z</time></trkpt><trkpt lat="27.933053" lon="-15.498142"><ele>1022.056</ele><time>2022-03-08T10:25:42Z</time></trkpt><trkpt lat="27.932881" lon="-15.498072"><ele>1045.234</ele><time>2022-03-08T10:30:05Z</time></trkpt><trkpt lat="27.932894" lon="-15.497865"><ele>1051.461</ele><time>2022-03-08T10:33:32Z</time></trkpt><trkpt lat="27.932772" lon="-15.497710"><ele>1048.961</ele><time>2022-03-08T10:34:32Z</time></trkpt><trkpt lat="27.932601" lon="-15.497644"><ele>1049.021</ele><time>2022-03-08T10:35:04Z</time></trkpt><trkpt lat="27.932439" lon="-15.497555"><ele>1048.313</ele><time>2022-03-08T10:35:39Z</time></trkpt><trkpt lat="27.932382" lon="-15.497360"><ele>1047.708</ele><time>2022-03-08T10:36:13Z</time></trkpt><trkpt lat="27.932374" lon="-15.497155"><ele>1045.625</ele><time>2022-03-08T10:37:35Z</time></trkpt><trkpt lat="27.932373" lon="-15.496947"><ele>1047.593</ele><time>2022-03-08T10:38:53Z</time></trkpt><trkpt lat="27.932377" lon="-15.496739"><ele>1047.197</ele><time>2022-03-08T10:39:30Z</time></trkpt><trkpt lat="27.932422" lon="-15.496539"><ele>1045.113</ele><time>2022-03-08T10:39:59Z</time></trkpt><trkpt lat="27.932316" lon="-15.496370"><ele>1041.250</ele><time>2022-03-08T10:40:33Z</time></trkpt><trkpt lat="27.932206" lon="-15.496200"><ele>1041.975</ele><time>2022-03-08T10:40:55Z</time></trkpt><trkpt lat="27.932074" lon="-15.496061"><ele>1058.273</ele><time>2022-03-08T10:45:20Z</time></trkpt><trkpt lat="27.932043" lon="-15.495859"><ele>1056.310</ele><time>2022-03-08T10:45:56Z</time></trkpt><trkpt lat="27.932050" lon="-15.495650"><ele>1065.283</ele><time>2022-03-08T10:46:29Z</time></trkpt><trkpt lat="27.932107" lon="-15.495452"><ele>1066.325</ele><time>2022-03-08T10:49:22Z</time></trkpt><trkpt lat="27.932271" lon="-15.495541"><ele>1059.217</ele><time>2022-03-08T10:51:36Z</time></trkpt><trkpt lat="27.932161" lon="-15.495378"><ele>1061.408</ele><time>2022-03-08T10:58:54Z</time></trkpt><trkpt lat="27.932016" lon="-15.495503"><ele>1073.767</ele><time>2022-03-08T11:02:31Z</time></trkpt><trkpt lat="27.931844" lon="-15.495424"><ele>1082.355</ele><time>2022-03-08T11:06:43Z</time></trkpt><trkpt lat="27.931726" lon="-15.495266"><ele>1095.599</ele><time>2022-03-08T11:35:24Z</time></trkpt><trkpt lat="27.931559" lon="-15.495177"><ele>1101.335</ele><time>2022-03-08T11:36:35Z</time></trkpt><trkpt lat="27.931383" lon="-15.495131"><ele>1106.182</ele><time>2022-03-08T11:37:03Z</time></trkpt><trkpt lat="27.931229" lon="-15.495008"><ele>1111.097</ele><time>2022-03-08T11:37:29Z</time></trkpt><trkpt lat="27.931061" lon="-15.494934"><ele>1116.435</ele><time>2022-03-08T11:37:54Z</time></trkpt><trkpt lat="27.930960" lon="-15.494763"><ele>1121.212</ele><time>2022-03-08T11:38:19Z</time></trkpt><trkpt lat="27.930886" lon="-15.494573"><ele>1121.543</ele><time>2022-03-08T11:38:42Z</time></trkpt><trkpt lat="27.930855" lon="-15.494371"><ele>1120.464</ele><time>2022-03-08T11:40:48Z</time></trkpt><trkpt lat="27.930840" lon="-15.494160"><ele>1118.710</ele><time>2022-03-08T11:41:09Z</time></trkpt><trkpt lat="27.930825" lon="-15.493954"><ele>1116.408</ele><time>2022-03-08T11:42:23Z</time></trkpt><trkpt lat="27.930794" lon="-15.493752"><ele>1116.123</ele><time>2022-03-08T11:42:51Z</time></trkpt><trkpt lat="27.930729" lon="-15.493555"><ele>1112.261</ele><time>2022-03-08T11:43:16Z</time></trkpt><trkpt lat="27.930673" lon="-15.493359"><ele>1110.155</ele><time>2022-03-08T11:43:44Z</time></trkpt><trkpt lat="27.930670" lon="-15.493155"><ele>1103.941</ele><time>2022-03-08T11:45:09Z</time></trkpt><trkpt lat="27.930665" lon="-15.492951"><ele>1101.588</ele><time>2022-03-08T11:45:52Z</time></trkpt><trkpt lat="27.930597" lon="-15.492753"><ele>1097.933</ele><time>2022-03-08T11:46:24Z</time></trkpt><trkpt lat="27.930560" lon="-15.492549"><ele>1095.651</ele><time>2022-03-08T11:46:58Z</time></trkpt><trkpt lat="27.930542" lon="-15.492346"><ele>1092.698</ele><time>2022-03-08T11:47:28Z</time></trkpt><trkpt lat="27.930600" lon="-15.492151"><ele>1089.697</ele><time>2022-03-08T11:49:27Z</time></trkpt><trkpt lat="27.930624" lon="-15.491948"><ele>1086.323</ele><time>2022-03-08T11:49:56Z</time></trkpt><trkpt lat="27.930541" lon="-15.491759"><ele>1082.125</ele><time>2022-03-08T11:50:28Z</time></trkpt><trkpt lat="27.930491" lon="-15.491558"><ele>1079.908</ele><time>2022-03-08T11:50:48Z</time></trkpt><trkpt lat="27.930435" lon="-15.491362"><ele>1076.188</ele><time>2022-03-08T11:51:07Z</time></trkpt><trkpt lat="27.930392" lon="-15.491157"><ele>1072.136</ele><time>2022-03-08T11:51:29Z</time></trkpt><trkpt lat="27.930431" lon="-15.490951"><ele>1069.390</ele><time>2022-03-08T11:51:54Z</time></trkpt><trkpt lat="27.930433" lon="-15.490745"><ele>1065.066</ele><time>2022-03-08T11:52:18Z</time></trkpt><trkpt lat="27.930396" lon="-15.490543"><ele>1060.853</ele><time>2022-03-08T11:52:47Z</time></trkpt><trkpt lat="27.930378" lon="-15.490334"><ele>1059.318</ele><time>2022-03-08T11:53:12Z</time></trkpt><trkpt lat="27.930315" lon="-15.490142"><ele>1056.946</ele><time>2022-03-08T11:54:32Z</time></trkpt><trkpt lat="27.930194" lon="-15.489989"><ele>1054.753</ele><time>2022-03-08T11:56:11Z</time></trkpt><trkpt lat="27.930255" lon="-15.489791"><ele>1047.313</ele><time>2022-03-08T11:58:47Z</time></trkpt><trkpt lat="27.930249" lon="-15.489578"><ele>1042.843</ele><time>2022-03-08T12:04:31Z</time></trkpt><trkpt lat="27.930189" lon="-15.489381"><ele>1039.907</ele><time>2022-03-08T12:07:05Z</time></trkpt><trkpt lat="27.930121" lon="-15.489189"><ele>1037.508</ele><time>2022-03-08T12:07:26Z</time></trkpt><trkpt lat="27.930048" lon="-15.489002"><ele>1034.610</ele><time>2022-03-08T12:07:49Z</time></trkpt><trkpt lat="27.929972" lon="-15.488814"><ele>1032.368</ele><time>2022-03-08T12:10:06Z</time></trkpt><trkpt lat="27.929916" lon="-15.488614"><ele>1026.812</ele><time>2022-03-08T12:10:30Z</time></trkpt><trkpt lat="27.929881" lon="-15.488412"><ele>1022.748</ele><time>2022-03-08T12:11:42Z</time></trkpt><trkpt lat="27.929867" lon="-15.488206"><ele>1017.765</ele><time>2022-03-08T12:12:03Z</time></trkpt><trkpt lat="27.929807" lon="-15.488008"><ele>1015.310</ele><time>2022-03-08T12:12:22Z</time></trkpt><trkpt lat="27.929877" lon="-15.487815"><ele>1008.428</ele><time>2022-03-08T12:13:02Z</time></trkpt><trkpt lat="27.929948" lon="-15.487625"><ele>1004.315</ele><time>2022-03-08T12:13:37Z</time></trkpt><trkpt lat="27.929968" lon="-15.487422"><ele>1002.727</ele><time>2022-03-08T12:14:03Z</time></trkpt><trkpt lat="27.930008" lon="-15.487223"><ele>997.268</ele><time>2022-03-08T12:14:34Z</time></trkpt><trkpt lat="27.930050" lon="-15.487019"><ele>993.314</ele><time>2022-03-08T12:14:59Z</time></trkpt><trkpt lat="27.930207" lon="-15.486916"><ele>989.508</ele><time>2022-03-08T12:16:40Z</time></trkpt><trkpt lat="27.930364" lon="-15.486799"><ele>987.891</ele><time>2022-03-08T12:17:02Z</time></trkpt><trkpt lat="27.930479" lon="-15.486641"><ele>985.879</ele><time>2022-03-08T12:17:38Z</time></trkpt><trkpt lat="27.930425" lon="-15.486435"><ele>985.453</ele><time>2022-03-08T12:18:07Z</time></trkpt><trkpt lat="27.930327" lon="-15.486263"><ele>985.759</ele><time>2022-03-08T12:19:18Z</time></trkpt><trkpt lat="27.930145" lon="-15.486273"><ele>983.936</ele><time>2022-03-08T12:24:57Z</time></trkpt><trkpt lat="27.929976" lon="-15.486368"><ele>983.341</ele><time>2022-03-08T12:25:47Z</time></trkpt><trkpt lat="27.929802" lon="-15.486449"><ele>983.629</ele><time>2022-03-08T12:26:05Z</time></trkpt><trkpt lat="27.929634" lon="-15.486532"><ele>981.016</ele><time>2022-03-08T12:26:27Z</time></trkpt><trkpt lat="27.929562" lon="-15.486337"><ele>977.097</ele><time>2022-03-08T12:26:53Z</time></trkpt><trkpt lat="27.929451" lon="-15.486167"><ele>972.123</ele><time>2022-03-08T12:27:20Z</time></trkpt><trkpt lat="27.929317" lon="-15.486020"><ele>967.825</ele><time>2022-03-08T12:27:43Z</time></trkpt><trkpt lat="27.929172" lon="-15.485886"><ele>964.408</ele><time>2022-03-08T12:28:03Z</time></trkpt><trkpt lat="27.929116" lon="-15.485686"><ele>960.538</ele><time>2022-03-08T12:28:39Z</time></trkpt><trkpt lat="27.929010" lon="-15.485513"><ele>957.046</ele><time>2022-03-08T12:31:58Z</time></trkpt><trkpt lat="27.928948" lon="-15.485318"><ele>952.470</ele><time>2022-03-08T12:32:21Z</time></trkpt><trkpt lat="27.928914" lon="-15.485118"><ele>948.676</ele><time>2022-03-08T12:32:47Z</time></trkpt><trkpt lat="27.928887" lon="-15.484916"><ele>944.493</ele><time>2022-03-08T12:33:09Z</time></trkpt><trkpt lat="27.928907" lon="-15.484706"><ele>938.788</ele><time>2022-03-08T12:33:33Z</time></trkpt><trkpt lat="27.928828" lon="-15.484523"><ele>936.686</ele><time>2022-03-08T12:33:56Z</time></trkpt><trkpt lat="27.928839" lon="-15.484318"><ele>933.843</ele><time>2022-03-08T12:34:21Z</time></trkpt><trkpt lat="27.928833" lon="-15.484112"><ele>930.465</ele><time>2022-03-08T12:34:43Z</time></trkpt><trkpt lat="27.928860" lon="-15.483905"><ele>924.068</ele><time>2022-03-08T12:35:49Z</time></trkpt><trkpt lat="27.928777" lon="-15.483716"><ele>922.614</ele><time>2022-03-08T12:36:10Z</time></trkpt><trkpt lat="27.928841" lon="-15.483522"><ele>915.808</ele><time>2022-03-08T12:36:38Z</time></trkpt><trkpt lat="27.928786" lon="-15.483318"><ele>911.635</ele><time>2022-03-08T12:38:48Z</time></trkpt><trkpt lat="27.928704" lon="-15.483135"><ele>908.433</ele><time>2022-03-08T12:39:12Z</time></trkpt><trkpt lat="27.928653" lon="-15.482936"><ele>904.557</ele><time>2022-03-08T12:39:49Z</time></trkpt><trkpt lat="27.928674" lon="-15.482726"><ele>898.763</ele><time>2022-03-08T12:40:17Z</time></trkpt><trkpt lat="27.928724" lon="-15.482524"><ele>893.370</ele><time>2022-03-08T12:40:41Z</time></trkpt><trkpt lat="27.928798" lon="-15.482327"><ele>888.425</ele><time>2022-03-08T12:41:09Z</time></trkpt><trkpt lat="27.928733" lon="-15.482131"><ele>884.043</ele><time>2022-03-08T12:41:35Z</time></trkpt><trkpt lat="27.928776" lon="-15.481929"><ele>878.530</ele><time>2022-03-08T12:42:04Z</time></trkpt><trkpt lat="27.928772" lon="-15.481718"><ele>874.542</ele><time>2022-03-08T12:42:29Z</time></trkpt><trkpt lat="27.928772" lon="-15.481512"><ele>871.022</ele><time>2022-03-08T12:43:00Z</time></trkpt><trkpt lat="27.928841" lon="-15.481317"><ele>867.714</ele><time>2022-03-08T12:43:26Z</time></trkpt><trkpt lat="27.928856" lon="-15.481110"><ele>863.208</ele><time>2022-03-08T12:44:05Z</time></trkpt><trkpt lat="27.928977" lon="-15.480952"><ele>859.643</ele><time>2022-03-08T12:44:45Z</time></trkpt><trkpt lat="27.929117" lon="-15.480819"><ele>855.841</ele><time>2022-03-08T12:45:19Z</time></trkpt><trkpt lat="27.929206" lon="-15.480637"><ele>852.695</ele><time>2022-03-08T12:45:50Z</time></trkpt><trkpt lat="27.929270" lon="-15.480445"><ele>850.971</ele><time>2022-03-08T12:46:12Z</time></trkpt><trkpt lat="27.929271" lon="-15.480240"><ele>849.068</ele><time>2022-03-08T12:46:33Z</time></trkpt><trkpt lat="27.929327" lon="-15.480041"><ele>845.523</ele><time>2022-03-08T12:46:56Z</time></trkpt><trkpt lat="27.929462" lon="-15.479893"><ele>841.481</ele><time>2022-03-08T12:47:17Z</time></trkpt><trkpt lat="27.929555" lon="-15.479712"><ele>840.558</ele><time>2022-03-08T12:47:40Z</time></trkpt><trkpt lat="27.929560" lon="-15.479500"><ele>838.919</ele><time>2022-03-08T12:48:03Z</time></trkpt><trkpt lat="27.929572" lon="-15.479283"><ele>834.509</ele><time>2022-03-08T12:48:25Z</time></trkpt><trkpt lat="27.929555" lon="-15.479077"><ele>832.919</ele><time>2022-03-08T12:48:52Z</time></trkpt><trkpt lat="27.929583" lon="-15.478870"><ele>825.008</ele><time>2022-03-08T12:49:33Z</time></trkpt><trkpt lat="27.929610" lon="-15.478669"><ele>818.440</ele><time>2022-03-08T12:50:13Z</time></trkpt><trkpt lat="27.929607" lon="-15.478461"><ele>812.848</ele><time>2022-03-08T12:50:55Z</time></trkpt><trkpt lat="27.929655" lon="-15.478264"><ele>806.722</ele><time>2022-03-08T12:51:33Z</time></trkpt><trkpt lat="27.929702" lon="-15.478065"><ele>798.758</ele><time>2022-03-08T12:52:17Z</time></trkpt><trkpt lat="27.929790" lon="-15.477879"><ele>792.555</ele><time>2022-03-08T12:53:00Z</time></trkpt><trkpt lat="27.929884" lon="-15.477700"><ele>787.570</ele><time>2022-03-08T12:57:07Z</time></trkpt><trkpt lat="27.929913" lon="-15.477493"><ele>789.368</ele><time>2022-03-08T12:57:24Z</time></trkpt><trkpt lat="27.929924" lon="-15.477282"><ele>789.455</ele><time>2022-03-08T12:57:43Z</time></trkpt><trkpt lat="27.929937" lon="-15.477491"><ele>790.976</ele><time>2022-03-08T13:03:30Z</time></trkpt><trkpt lat="27.929908" lon="-15.477699"><ele>791.890</ele><time>2022-03-08T13:04:01Z</time></trkpt><trkpt lat="27.929964" lon="-15.477893"><ele>774.819</ele><time>2022-03-08T13:05:51Z</time></trkpt><trkpt lat="27.929996" lon="-15.478094"><ele>762.608</ele><time>2022-03-08T13:07:41Z</time></trkpt><trkpt lat="27.930118" lon="-15.477937"><ele>751.246</ele><time>2022-03-08T13:09:39Z</time></trkpt><trkpt lat="27.930194" lon="-15.477749"><ele>746.114</ele><time>2022-03-08T13:10:10Z</time></trkpt><trkpt lat="27.930239" lon="-15.477950"><ele>740.968</ele><time>2022-03-08T13:11:11Z</time></trkpt><trkpt lat="27.930280" lon="-15.478149"><ele>740.444</ele><time>2022-03-08T13:11:30Z</time></trkpt><trkpt lat="27.930147" lon="-15.478297"><ele>741.021</ele><time>2022-03-08T13:13:40Z</time></trkpt><trkpt lat="27.930059" lon="-15.478484"><ele>742.466</ele><time>2022-03-08T13:14:16Z</time></trkpt><trkpt lat="27.930071" lon="-15.478694"><ele>743.954</ele><time>2022-03-08T13:14:45Z</time></trkpt><trkpt lat="27.930112" lon="-15.478895"><ele>745.051</ele><time>2022-03-08T13:15:09Z</time></trkpt><trkpt lat="27.930198" lon="-15.479078"><ele>737.768</ele><time>2022-03-08T13:15:41Z</time></trkpt><trkpt lat="27.930347" lon="-15.479194"><ele>734.442</ele><time>2022-03-08T13:16:11Z</time></trkpt><trkpt lat="27.930382" lon="-15.479398"><ele>730.126</ele><time>2022-03-08T13:16:36Z</time></trkpt><trkpt lat="27.930461" lon="-15.479585"><ele>728.408</ele><time>2022-03-08T13:16:54Z</time></trkpt><trkpt lat="27.930583" lon="-15.479742"><ele>728.565</ele><time>2022-03-08T13:17:13Z</time></trkpt><trkpt lat="27.930582" lon="-15.479946"><ele>725.523</ele><time>2022-03-08T13:17:31Z</time></trkpt><trkpt lat="27.930623" lon="-15.480147"><ele>729.137</ele><time>2022-03-08T13:17:49Z</time></trkpt><trkpt lat="27.930485" lon="-15.480286"><ele>728.043</ele><time>2022-03-08T13:19:05Z</time></trkpt><trkpt lat="27.930664" lon="-15.480341"><ele>717.470</ele><time>2022-03-08T13:20:44Z</time></trkpt><trkpt lat="27.930797" lon="-15.480204"><ele>706.195</ele><time>2022-03-08T13:21:48Z</time></trkpt><trkpt lat="27.930922" lon="-15.480352"><ele>682.883</ele><time>2022-03-08T13:24:29Z</time></trkpt><trkpt lat="27.930817" lon="-15.480525"><ele>682.330</ele><time>2022-03-08T13:25:39Z</time></trkpt><trkpt lat="27.930637" lon="-15.480575"><ele>687.441</ele><time>2022-03-08T13:25:57Z</time></trkpt><trkpt lat="27.930818" lon="-15.480616"><ele>678.181</ele><time>2022-03-08T13:26:34Z</time></trkpt><trkpt lat="27.930970" lon="-15.480499"><ele>668.409</ele><time>2022-03-08T13:27:00Z</time></trkpt><trkpt lat="27.931101" lon="-15.480356"><ele>660.808</ele><time>2022-03-08T13:27:44Z</time></trkpt><trkpt lat="27.931147" lon="-15.480554"><ele>656.253</ele><time>2022-03-08T13:28:55Z</time></trkpt><trkpt lat="27.930982" lon="-15.480645"><ele>655.821</ele><time>2022-03-08T13:29:24Z</time></trkpt><trkpt lat="27.930874" lon="-15.480820"><ele>632.125</ele><time>2022-03-08T13:30:39Z</time></trkpt><trkpt lat="27.931001" lon="-15.480965"><ele>628.531</ele><time>2022-03-08T13:31:28Z</time></trkpt><trkpt lat="27.931091" lon="-15.481144"><ele>618.648</ele><time>2022-03-08T13:32:27Z</time></trkpt><trkpt lat="27.931139" lon="-15.481341"><ele>606.873</ele><time>2022-03-08T13:33:50Z</time></trkpt><trkpt lat="27.931291" lon="-15.481454"><ele>608.621</ele><time>2022-03-08T13:34:20Z</time></trkpt><trkpt lat="27.931466" lon="-15.481398"><ele>594.118</ele><time>2022-03-08T13:35:37Z</time></trkpt><trkpt lat="27.931652" lon="-15.481400"><ele>594.272</ele><time>2022-03-08T13:36:11Z</time></trkpt><trkpt lat="27.931824" lon="-15.481336"><ele>595.413</ele><time>2022-03-08T13:36:47Z</time></trkpt><trkpt lat="27.932001" lon="-15.481285"><ele>594.014</ele><time>2022-03-08T13:37:32Z</time></trkpt><trkpt lat="27.932109" lon="-15.481114"><ele>585.708</ele><time>2022-03-08T13:38:09Z</time></trkpt><trkpt lat="27.932202" lon="-15.480938"><ele>584.866</ele><time>2022-03-08T13:39:04Z</time></trkpt><trkpt lat="27.932367" lon="-15.481023"><ele>583.744</ele><time>2022-03-08T13:47:34Z</time></trkpt><trkpt lat="27.932486" lon="-15.481178"><ele>581.538</ele><time>2022-03-08T13:47:52Z</time></trkpt><trkpt lat="27.932467" lon="-15.481386"><ele>579.854</ele><time>2022-03-08T13:48:22Z</time></trkpt><trkpt lat="27.932494" lon="-15.481588"><ele>583.511</ele><time>2022-03-08T13:48:37Z</time></trkpt><trkpt lat="27.932503" lon="-15.481793"><ele>581.626</ele><time>2022-03-08T13:49:13Z</time></trkpt><trkpt lat="27.932588" lon="-15.481978"><ele>580.744</ele><time>2022-03-08T13:49:46Z</time></trkpt><trkpt lat="27.932668" lon="-15.482173"><ele>581.981</ele><time>2022-03-08T13:50:08Z</time></trkpt><trkpt lat="27.932852" lon="-15.482153"><ele>587.918</ele><time>2022-03-08T13:50:28Z</time></trkpt><trkpt lat="27.933030" lon="-15.482203"><ele>587.798</ele><time>2022-03-08T13:50:49Z</time></trkpt><trkpt lat="27.933195" lon="-15.482292"><ele>576.617</ele><time>2022-03-08T13:51:15Z</time></trkpt><trkpt lat="27.933326" lon="-15.482432"><ele>574.908</ele><time>2022-03-08T13:52:08Z</time></trkpt><trkpt lat="27.933301" lon="-15.482222"><ele>571.670</ele><time>2022-03-08T13:52:36Z</time></trkpt><trkpt lat="27.933149" lon="-15.482092"><ele>571.368</ele><time>2022-03-08T13:52:50Z</time></trkpt></trkseg></trk></gpx>