<?xml version="1.0" encoding="UTF-8"?>
<gpx creator="Wikiloc - https://www.wikiloc.com" version="1.1" xmlns="http://www.topografix.com/GPX/1/1" xmlns:xsi="http://www.w3.org/2001/XMLSchema-instance" xsi:schemaLocation="http://www.topografix.com/GPX/1/1 http://www.topografix.com/GPX/1/1/gpx.xsd">
  <metadata>
    <name>Wikiloc - SL-FV 27: Vega del Río Palmas - Presa de Las Peñitas - Wikil...</name>
    <link href="https://www.wikiloc.com/hiking-trails/vega-de-rio-de-palmas-presa-de-las-penitas-18280563">
      <text>SL-FV 27: Vega del Río Palmas - Presa de Las Peñitas - Wikil... on Wikiloc</text>
    </link>
    <time>2017-06-18T16:03:00Z</time>
  </metadata>
  <trk>
    <name>SL-FV 27: Vega del Río Palmas - Presa de Las Peñitas - Wikil... - Wikiloc</name>
    <cmt></cmt>
    <desc></desc>
    <trkseg>
      <trkpt lat="28.393955" lon="-14.072541">
        <ele>277.791</ele>
        <time>2017-06-18T13:06:19Z</time>
      </trkpt>
      <trkpt lat="28.394680" lon="-14.073402">
        <ele>275.081</ele>
        <time>2017-06-18T13:07:45Z</time>
      </trkpt>
      <trkpt lat="28.394797" lon="-14.073913">
        <ele>280.319</ele>
        <time>2017-06-18T13:08:20Z</time>
      </trkpt>
      <trkpt lat="28.394587" lon="-14.074610">
        <ele>273.808</ele>
        <time>2017-06-18T13:09:13Z</time>
      </trkpt>
      <trkpt lat="28.394475" lon="-14.076208">
        <ele>267.730</ele>
        <time>2017-06-18T13:11:08Z</time>
      </trkpt>
      <trkpt lat="28.394262" lon="-14.076835">
        <ele>270.917</ele>
        <time>2017-06-18T13:11:55Z</time>
      </trkpt>
      <trkpt lat="28.394044" lon="-14.077036">
        <ele>271.071</ele>
        <time>2017-06-18T13:12:24Z</time>
      </trkpt>
      <trkpt lat="28.394026" lon="-14.077249">
        <ele>270.747</ele>
        <time>2017-06-18T13:12:57Z</time>
      </trkpt>
      <trkpt lat="28.394429" lon="-14.081803">
        <ele>265.979</ele>
        <time>2017-06-18T13:23:45Z</time>
      </trkpt>
      <trkpt lat="28.394308" lon="-14.082216">
        <ele>268.064</ele>
        <time>2017-06-18T13:24:38Z</time>
      </trkpt>
      <trkpt lat="28.393972" lon="-14.082562">
        <ele>268.145</ele>
        <time>2017-06-18T13:25:16Z</time>
      </trkpt>
      <trkpt lat="28.393872" lon="-14.083096">
        <ele>267.952</ele>
        <time>2017-06-18T13:26:01Z</time>
      </trkpt>
      <trkpt lat="28.393684" lon="-14.083181">
        <ele>266.288</ele>
        <time>2017-06-18T13:26:38Z</time>
      </trkpt>
      <trkpt lat="28.393511" lon="-14.082933">
        <ele>265.024</ele>
        <time>2017-06-18T13:27:07Z</time>
      </trkpt>
      <trkpt lat="28.393161" lon="-14.082946">
        <ele>260.026</ele>
        <time>2017-06-18T13:27:33Z</time>
      </trkpt>
      <trkpt lat="28.393227" lon="-14.083026">
        <ele>260.908</ele>
        <time>2017-06-18T13:27:58Z</time>
      </trkpt>
      <trkpt lat="28.393410" lon="-14.082997">
        <ele>263.329</ele>
        <time>2017-06-18T13:28:14Z</time>
      </trkpt>
      <trkpt lat="28.393800" lon="-14.083318">
        <ele>267.196</ele>
        <time>2017-06-18T13:28:49Z</time>
      </trkpt>
      <trkpt lat="28.393946" lon="-14.084404">
        <ele>257.410</ele>
        <time>2017-06-18T13:30:03Z</time>
      </trkpt>
      <trkpt lat="28.393754" lon="-14.085359">
        <ele>257.126</ele>
        <time>2017-06-18T13:31:17Z</time>
      </trkpt>
      <trkpt lat="28.394013" lon="-14.086701">
        <ele>255.638</ele>
        <time>2017-06-18T13:33:01Z</time>
      </trkpt>
      <trkpt lat="28.393554" lon="-14.088242">
        <ele>244.733</ele>
        <time>2017-06-18T13:36:35Z</time>
      </trkpt>
      <trkpt lat="28.393621" lon="-14.088654">
        <ele>236.514</ele>
        <time>2017-06-18T13:37:32Z</time>
      </trkpt>
      <trkpt lat="28.393763" lon="-14.088815">
        <ele>232.861</ele>
        <time>2017-06-18T13:38:03Z</time>
      </trkpt>
      <trkpt lat="28.393822" lon="-14.089667">
        <ele>242.644</ele>
        <time>2017-06-18T13:40:20Z</time>
      </trkpt>
      <trkpt lat="28.393677" lon="-14.090076">
        <ele>243.105</ele>
        <time>2017-06-18T13:41:38Z</time>
      </trkpt>
      <trkpt lat="28.393512" lon="-14.090184">
        <ele>238.915</ele>
        <time>2017-06-18T13:42:12Z</time>
      </trkpt>
      <trkpt lat="28.392156" lon="-14.090651">
        <ele>234.608</ele>
        <time>2017-06-18T13:44:32Z</time>
      </trkpt>
      <trkpt lat="28.391738" lon="-14.090885">
        <ele>234.635</ele>
        <time>2017-06-18T13:45:47Z</time>
      </trkpt>
      <trkpt lat="28.391532" lon="-14.091489">
        <ele>228.132</ele>
        <time>2017-06-18T13:46:41Z</time>
      </trkpt>
      <trkpt lat="28.391594" lon="-14.091900">
        <ele>227.076</ele>
        <time>2017-06-18T13:47:10Z</time>
      </trkpt>
      <trkpt lat="28.391489" lon="-14.092532">
        <ele>225.272</ele>
        <time>2017-06-18T13:48:02Z</time>
      </trkpt>
      <trkpt lat="28.391304" lon="-14.093022">
        <ele>224.274</ele>
        <time>2017-06-18T13:48:47Z</time>
      </trkpt>
      <trkpt lat="28.391337" lon="-14.093860">
        <ele>221.459</ele>
        <time>2017-06-18T13:49:53Z</time>
      </trkpt>
      <trkpt lat="28.390934" lon="-14.094152">
        <ele>223.870</ele>
        <time>2017-06-18T13:50:33Z</time>
      </trkpt>
      <trkpt lat="28.390402" lon="-14.094901">
        <ele>224.857</ele>
        <time>2017-06-18T13:51:55Z</time>
      </trkpt>
      <trkpt lat="28.390041" lon="-14.095233">
        <ele>221.377</ele>
        <time>2017-06-18T13:52:49Z</time>
      </trkpt>
      <trkpt lat="28.389845" lon="-14.095829">
        <ele>226.761</ele>
        <time>2017-06-18T13:53:35Z</time>
      </trkpt>
      <trkpt lat="28.389147" lon="-14.096838">
        <ele>218.327</ele>
        <time>2017-06-18T13:55:30Z</time>
      </trkpt>
      <trkpt lat="28.389041" lon="-14.097256">
        <ele>220.708</ele>
        <time>2017-06-18T13:56:10Z</time>
      </trkpt>
      <trkpt lat="28.389093" lon="-14.097566">
        <ele>222.158</ele>
        <time>2017-06-18T13:57:05Z</time>
      </trkpt>
      <trkpt lat="28.388966" lon="-14.097724">
        <ele>221.045</ele>
        <time>2017-06-18T13:57:25Z</time>
      </trkpt>
      <trkpt lat="28.389067" lon="-14.098244">
        <ele>223.999</ele>
        <time>2017-06-18T13:58:36Z</time>
      </trkpt>
      <trkpt lat="28.388737" lon="-14.099571">
        <ele>222.925</ele>
        <time>2017-06-18T14:00:55Z</time>
      </trkpt>
      <trkpt lat="28.388706" lon="-14.100210">
        <ele>210.567</ele>
        <time>2017-06-18T14:02:48Z</time>
      </trkpt>
      <trkpt lat="28.388811" lon="-14.100505">
        <ele>208.782</ele>
        <time>2017-06-18T14:07:30Z</time>
      </trkpt>
      <trkpt lat="28.388725" lon="-14.100546">
        <ele>204.173</ele>
        <time>2017-06-18T14:07:54Z</time>
      </trkpt>
      <trkpt lat="28.388836" lon="-14.100854">
        <ele>200.350</ele>
        <time>2017-06-18T14:09:24Z</time>
      </trkpt>
      <trkpt lat="28.388817" lon="-14.101292">
        <ele>201.549</ele>
        <time>2017-06-18T14:10:33Z</time>
      </trkpt>
      <trkpt lat="28.388904" lon="-14.101251">
        <ele>203.902</ele>
        <time>2017-06-18T14:10:45Z</time>
      </trkpt>
      <trkpt lat="28.388684" lon="-14.101589">
        <ele>200.722</ele>
        <time>2017-06-18T14:11:38Z</time>
      </trkpt>
      <trkpt lat="28.388645" lon="-14.101902">
        <ele>196.008</ele>
        <time>2017-06-18T14:12:25Z</time>
      </trkpt>
      <trkpt lat="28.388906" lon="-14.102715">
        <ele>190.865</ele>
        <time>2017-06-18T14:15:41Z</time>
      </trkpt>
      <trkpt lat="28.388670" lon="-14.102881">
        <ele>180.652</ele>
        <time>2017-06-18T14:16:34Z</time>
      </trkpt>
      <trkpt lat="28.388836" lon="-14.102980">
        <ele>190.956</ele>
        <time>2017-06-18T14:24:59Z</time>
      </trkpt>
      <trkpt lat="28.388697" lon="-14.103090">
        <ele>183.632</ele>
        <time>2017-06-18T14:25:28Z</time>
      </trkpt>
      <trkpt lat="28.388763" lon="-14.103184">
        <ele>190.554</ele>
        <time>2017-06-18T14:27:03Z</time>
      </trkpt>
      <trkpt lat="28.388592" lon="-14.103254">
        <ele>179.599</ele>
        <time>2017-06-18T14:28:42Z</time>
      </trkpt>
      <trkpt lat="28.388313" lon="-14.103073">
        <ele>179.830</ele>
        <time>2017-06-18T14:28:57Z</time>
      </trkpt>
      <trkpt lat="28.388516" lon="-14.103078">
        <ele>177.727</ele>
        <time>2017-06-18T14:29:42Z</time>
      </trkpt>
      <trkpt lat="28.388697" lon="-14.102020">
        <ele>195.437</ele>
        <time>2017-06-18T14:50:29Z</time>
      </trkpt>
      <trkpt lat="28.388632" lon="-14.101814">
        <ele>197.349</ele>
        <time>2017-06-18T14:50:50Z</time>
      </trkpt>
      <trkpt lat="28.388887" lon="-14.100797">
        <ele>203.113</ele>
        <time>2017-06-18T14:52:54Z</time>
      </trkpt>
      <trkpt lat="28.388891" lon="-14.100695">
        <ele>206.708</ele>
        <time>2017-06-18T14:53:33Z</time>
      </trkpt>
      <trkpt lat="28.388606" lon="-14.100446">
        <ele>201.044</ele>
        <time>2017-06-18T14:54:14Z</time>
      </trkpt>
      <trkpt lat="28.388874" lon="-14.100343">
        <ele>214.911</ele>
        <time>2017-06-18T14:54:55Z</time>
      </trkpt>
      <trkpt lat="28.388701" lon="-14.100299">
        <ele>207.895</ele>
        <time>2017-06-18T14:55:17Z</time>
      </trkpt>
      <trkpt lat="28.388764" lon="-14.100078">
        <ele>216.811</ele>
        <time>2017-06-18T14:56:08Z</time>
      </trkpt>
      <trkpt lat="28.388664" lon="-14.099912">
        <ele>216.793</ele>
        <time>2017-06-18T14:56:38Z</time>
      </trkpt>
      <trkpt lat="28.388903" lon="-14.099337">
        <ele>225.198</ele>
        <time>2017-06-18T14:57:42Z</time>
      </trkpt>
      <trkpt lat="28.388843" lon="-14.099245">
        <ele>224.739</ele>
        <time>2017-06-18T14:57:49Z</time>
      </trkpt>
      <trkpt lat="28.389058" lon="-14.098288">
        <ele>223.876</ele>
        <time>2017-06-18T14:59:31Z</time>
      </trkpt>
      <trkpt lat="28.388958" lon="-14.097764">
        <ele>221.171</ele>
        <time>2017-06-18T15:00:40Z</time>
      </trkpt>
      <trkpt lat="28.389100" lon="-14.097599">
        <ele>222.541</ele>
        <time>2017-06-18T15:00:59Z</time>
      </trkpt>
      <trkpt lat="28.389044" lon="-14.097279">
        <ele>220.715</ele>
        <time>2017-06-18T15:01:34Z</time>
      </trkpt>
      <trkpt lat="28.389139" lon="-14.096864">
        <ele>218.608</ele>
        <time>2017-06-18T15:02:09Z</time>
      </trkpt>
      <trkpt lat="28.389902" lon="-14.095743">
        <ele>226.618</ele>
        <time>2017-06-18T15:04:34Z</time>
      </trkpt>
      <trkpt lat="28.390205" lon="-14.095074">
        <ele>223.085</ele>
        <time>2017-06-18T15:05:33Z</time>
      </trkpt>
      <trkpt lat="28.390895" lon="-14.094173">
        <ele>224.049</ele>
        <time>2017-06-18T15:07:15Z</time>
      </trkpt>
      <trkpt lat="28.390913" lon="-14.093837">
        <ele>220.745</ele>
        <time>2017-06-18T15:08:00Z</time>
      </trkpt>
      <trkpt lat="28.391334" lon="-14.093446">
        <ele>221.797</ele>
        <time>2017-06-18T15:29:45Z</time>
      </trkpt>
      <trkpt lat="28.391553" lon="-14.092749">
        <ele>224.312</ele>
        <time>2017-06-18T15:30:53Z</time>
      </trkpt>
      <trkpt lat="28.391602" lon="-14.091980">
        <ele>227.023</ele>
        <time>2017-06-18T15:31:54Z</time>
      </trkpt>
      <trkpt lat="28.391506" lon="-14.091698">
        <ele>226.520</ele>
        <time>2017-06-18T15:32:12Z</time>
      </trkpt>
      <trkpt lat="28.391719" lon="-14.091227">
        <ele>230.913</ele>
        <time>2017-06-18T15:32:58Z</time>
      </trkpt>
      <trkpt lat="28.392380" lon="-14.090612">
        <ele>234.343</ele>
        <time>2017-06-18T15:34:27Z</time>
      </trkpt>
      <trkpt lat="28.393543" lon="-14.090114">
        <ele>238.807</ele>
        <time>2017-06-18T15:36:28Z</time>
      </trkpt>
      <trkpt lat="28.393844" lon="-14.089609">
        <ele>242.108</ele>
        <time>2017-06-18T15:38:47Z</time>
      </trkpt>
      <trkpt lat="28.393785" lon="-14.088984">
        <ele>232.662</ele>
        <time>2017-06-18T15:39:54Z</time>
      </trkpt>
      <trkpt lat="28.393605" lon="-14.088722">
        <ele>236.419</ele>
        <time>2017-06-18T15:40:37Z</time>
      </trkpt>
      <trkpt lat="28.393614" lon="-14.087872">
        <ele>248.753</ele>
        <time>2017-06-18T15:42:23Z</time>
      </trkpt>
      <trkpt lat="28.394031" lon="-14.086795">
        <ele>256.119</ele>
        <time>2017-06-18T15:44:33Z</time>
      </trkpt>
      <trkpt lat="28.393818" lon="-14.085402">
        <ele>257.031</ele>
        <time>2017-06-18T15:46:28Z</time>
      </trkpt>
      <trkpt lat="28.393931" lon="-14.084548">
        <ele>257.246</ele>
        <time>2017-06-18T15:47:58Z</time>
      </trkpt>
      <trkpt lat="28.393834" lon="-14.083484">
        <ele>265.767</ele>
        <time>2017-06-18T15:49:22Z</time>
      </trkpt>
      <trkpt lat="28.393910" lon="-14.082741">
        <ele>268.814</ele>
        <time>2017-06-18T15:50:20Z</time>
      </trkpt>
      <trkpt lat="28.394372" lon="-14.082013">
        <ele>266.119</ele>
        <time>2017-06-18T15:51:26Z</time>
      </trkpt>
      <trkpt lat="28.394421" lon="-14.081453">
        <ele>268.109</ele>
        <time>2017-06-18T15:52:09Z</time>
      </trkpt>
      <trkpt lat="28.394290" lon="-14.080697">
        <ele>268.919</ele>
        <time>2017-06-18T15:53:03Z</time>
      </trkpt>
      <trkpt lat="28.394358" lon="-14.079404">
        <ele>271.708</ele>
        <time>2017-06-18T15:54:32Z</time>
      </trkpt>
      <trkpt lat="28.394073" lon="-14.077042">
        <ele>271.022</ele>
        <time>2017-06-18T15:57:16Z</time>
      </trkpt>
      <trkpt lat="28.394297" lon="-14.076819">
        <ele>271.049</ele>
        <time>2017-06-18T15:57:46Z</time>
      </trkpt>
      <trkpt lat="28.394429" lon="-14.076415">
        <ele>268.313</ele>
        <time>2017-06-18T15:58:17Z</time>
      </trkpt>
      <trkpt lat="28.394566" lon="-14.074588">
        <ele>273.879</ele>
        <time>2017-06-18T16:00:21Z</time>
      </trkpt>
      <trkpt lat="28.394752" lon="-14.073845">
        <ele>278.971</ele>
        <time>2017-06-18T16:01:14Z</time>
      </trkpt>
      <trkpt lat="28.394527" lon="-14.073250">
        <ele>273.766</ele>
        <time>2017-06-18T16:01:54Z</time>
      </trkpt>
      <trkpt lat="28.393970" lon="-14.072537">
        <ele>277.697</ele>
        <time>2017-06-18T16:03:00Z</time>
      </trkpt>
    </trkseg>
  </trk></gpx>