<?xml version="1.0" encoding="UTF-8"?>
<gpx creator="Wikiloc - https://www.wikiloc.com" version="1.1" xmlns="http://www.topografix.com/GPX/1/1" xmlns:xsi="http://www.w3.org/2001/XMLSchema-instance" xsi:schemaLocation="http://www.topografix.com/GPX/1/1 http://www.topografix.com/GPX/1/1/gpx.xsd">
  <metadata>
    <name>Wikiloc - Fuerteventura: Betancuria - Vega Río Palmas</name>
    <link href="https://www.wikiloc.com/hiking-trails/fuerteventura-betancuria-vega-rio-palmas-16421197">
      <text>Fuerteventura: Betancuria - Vega Río Palmas - Wikiloc on Wikiloc</text>
    </link>
    <time>2016-11-13T15:36:48Z</time>
  </metadata>
  <trk>
    <name>Fuerteventura: Betancuria - Vega Río Palmas - Wikiloc</name>
    <cmt></cmt>
    <desc></desc>
    <trkseg>
      <trkpt lat="28.422892" lon="-14.057793">
        <ele>392.537</ele>
        <time>2016-11-13T10:54:53Z</time>
      </trkpt>
      <trkpt lat="28.422842" lon="-14.057900">
        <ele>392.249</ele>
        <time>2016-11-13T10:55:29Z</time>
      </trkpt>
      <trkpt lat="28.422464" lon="-14.058110">
        <ele>389.913</ele>
        <time>2016-11-13T10:56:05Z</time>
      </trkpt>
      <trkpt lat="28.422291" lon="-14.057927">
        <ele>390.508</ele>
        <time>2016-11-13T10:56:29Z</time>
      </trkpt>
      <trkpt lat="28.422767" lon="-14.057546">
        <ele>393.794</ele>
        <time>2016-11-13T10:57:29Z</time>
      </trkpt>
      <trkpt lat="28.423103" lon="-14.057017">
        <ele>393.819</ele>
        <time>2016-11-13T10:58:17Z</time>
      </trkpt>
      <trkpt lat="28.423549" lon="-14.056666">
        <ele>395.277</ele>
        <time>2016-11-13T10:59:01Z</time>
      </trkpt>
      <trkpt lat="28.423271" lon="-14.056326">
        <ele>399.385</ele>
        <time>2016-11-13T10:59:41Z</time>
      </trkpt>
      <trkpt lat="28.423054" lon="-14.056221">
        <ele>401.254</ele>
        <time>2016-11-13T11:00:09Z</time>
      </trkpt>
      <trkpt lat="28.422728" lon="-14.055880">
        <ele>405.214</ele>
        <time>2016-11-13T11:01:17Z</time>
      </trkpt>
      <trkpt lat="28.422356" lon="-14.055364">
        <ele>411.452</ele>
        <time>2016-11-13T11:02:21Z</time>
      </trkpt>
      <trkpt lat="28.422083" lon="-14.054634">
        <ele>418.880</ele>
        <time>2016-11-13T11:03:45Z</time>
      </trkpt>
      <trkpt lat="28.421896" lon="-14.053753">
        <ele>438.454</ele>
        <time>2016-11-13T11:05:41Z</time>
      </trkpt>
      <trkpt lat="28.421964" lon="-14.052848">
        <ele>463.356</ele>
        <time>2016-11-13T11:08:17Z</time>
      </trkpt>
      <trkpt lat="28.422073" lon="-14.052661">
        <ele>459.711</ele>
        <time>2016-11-13T11:08:45Z</time>
      </trkpt>
      <trkpt lat="28.422057" lon="-14.052008">
        <ele>466.208</ele>
        <time>2016-11-13T11:10:09Z</time>
      </trkpt>
      <trkpt lat="28.421932" lon="-14.051636">
        <ele>475.126</ele>
        <time>2016-11-13T11:11:05Z</time>
      </trkpt>
      <trkpt lat="28.421351" lon="-14.050899">
        <ele>487.111</ele>
        <time>2016-11-13T11:12:57Z</time>
      </trkpt>
      <trkpt lat="28.421159" lon="-14.050496">
        <ele>499.659</ele>
        <time>2016-11-13T11:13:41Z</time>
      </trkpt>
      <trkpt lat="28.421315" lon="-14.050251">
        <ele>497.187</ele>
        <time>2016-11-13T11:14:09Z</time>
      </trkpt>
      <trkpt lat="28.421783" lon="-14.049899">
        <ele>498.066</ele>
        <time>2016-11-13T11:15:29Z</time>
      </trkpt>
      <trkpt lat="28.421925" lon="-14.049401">
        <ele>506.836</ele>
        <time>2016-11-13T11:17:17Z</time>
      </trkpt>
      <trkpt lat="28.421550" lon="-14.048753">
        <ele>519.854</ele>
        <time>2016-11-13T11:18:49Z</time>
      </trkpt>
      <trkpt lat="28.420775" lon="-14.048121">
        <ele>544.212</ele>
        <time>2016-11-13T11:21:01Z</time>
      </trkpt>
      <trkpt lat="28.420534" lon="-14.047824">
        <ele>550.781</ele>
        <time>2016-11-13T11:21:53Z</time>
      </trkpt>
      <trkpt lat="28.420457" lon="-14.047423">
        <ele>553.561</ele>
        <time>2016-11-13T11:22:49Z</time>
      </trkpt>
      <trkpt lat="28.420536" lon="-14.047090">
        <ele>561.217</ele>
        <time>2016-11-13T11:23:41Z</time>
      </trkpt>
      <trkpt lat="28.420656" lon="-14.046952">
        <ele>560.708</ele>
        <time>2016-11-13T11:24:09Z</time>
      </trkpt>
      <trkpt lat="28.421543" lon="-14.046517">
        <ele>563.149</ele>
        <time>2016-11-13T11:25:49Z</time>
      </trkpt>
      <trkpt lat="28.422310" lon="-14.045942">
        <ele>574.524</ele>
        <time>2016-11-13T11:28:25Z</time>
      </trkpt>
      <trkpt lat="28.422490" lon="-14.045182">
        <ele>591.432</ele>
        <time>2016-11-13T11:31:09Z</time>
      </trkpt>
      <trkpt lat="28.422296" lon="-14.045268">
        <ele>590.130</ele>
        <time>2016-11-13T11:32:45Z</time>
      </trkpt>
      <trkpt lat="28.421329" lon="-14.045085">
        <ele>601.919</ele>
        <time>2016-11-13T11:35:45Z</time>
      </trkpt>
      <trkpt lat="28.420207" lon="-14.045120">
        <ele>626.329</ele>
        <time>2016-11-13T11:38:33Z</time>
      </trkpt>
      <trkpt lat="28.419748" lon="-14.045267">
        <ele>630.717</ele>
        <time>2016-11-13T11:39:37Z</time>
      </trkpt>
      <trkpt lat="28.419126" lon="-14.045858">
        <ele>633.425</ele>
        <time>2016-11-13T11:40:57Z</time>
      </trkpt>
      <trkpt lat="28.418442" lon="-14.045713">
        <ele>616.266</ele>
        <time>2016-11-13T12:01:33Z</time>
      </trkpt>
      <trkpt lat="28.417829" lon="-14.045431">
        <ele>600.729</ele>
        <time>2016-11-13T12:03:13Z</time>
      </trkpt>
      <trkpt lat="28.417509" lon="-14.045410">
        <ele>592.121</ele>
        <time>2016-11-13T12:03:45Z</time>
      </trkpt>
      <trkpt lat="28.416387" lon="-14.045098">
        <ele>592.608</ele>
        <time>2016-11-13T12:05:21Z</time>
      </trkpt>
      <trkpt lat="28.415255" lon="-14.045328">
        <ele>577.547</ele>
        <time>2016-11-13T12:08:21Z</time>
      </trkpt>
      <trkpt lat="28.414642" lon="-14.045278">
        <ele>576.822</ele>
        <time>2016-11-13T12:09:57Z</time>
      </trkpt>
      <trkpt lat="28.413852" lon="-14.045097">
        <ele>567.390</ele>
        <time>2016-11-13T12:11:33Z</time>
      </trkpt>
      <trkpt lat="28.413781" lon="-14.045345">
        <ele>568.538</ele>
        <time>2016-11-13T12:13:53Z</time>
      </trkpt>
      <trkpt lat="28.413280" lon="-14.045861">
        <ele>559.197</ele>
        <time>2016-11-13T12:15:33Z</time>
      </trkpt>
      <trkpt lat="28.413137" lon="-14.046188">
        <ele>555.967</ele>
        <time>2016-11-13T12:16:13Z</time>
      </trkpt>
      <trkpt lat="28.413217" lon="-14.047988">
        <ele>520.415</ele>
        <time>2016-11-13T12:20:25Z</time>
      </trkpt>
      <trkpt lat="28.413040" lon="-14.048853">
        <ele>500.113</ele>
        <time>2016-11-13T12:22:41Z</time>
      </trkpt>
      <trkpt lat="28.412764" lon="-14.049030">
        <ele>501.897</ele>
        <time>2016-11-13T12:23:33Z</time>
      </trkpt>
      <trkpt lat="28.412233" lon="-14.048986">
        <ele>498.523</ele>
        <time>2016-11-13T12:24:21Z</time>
      </trkpt>
      <trkpt lat="28.412113" lon="-14.049045">
        <ele>493.325</ele>
        <time>2016-11-13T12:24:33Z</time>
      </trkpt>
      <trkpt lat="28.412792" lon="-14.049999">
        <ele>471.808</ele>
        <time>2016-11-13T12:27:25Z</time>
      </trkpt>
      <trkpt lat="28.412492" lon="-14.049935">
        <ele>475.020</ele>
        <time>2016-11-13T12:28:05Z</time>
      </trkpt>
      <trkpt lat="28.412492" lon="-14.050072">
        <ele>473.395</ele>
        <time>2016-11-13T12:33:37Z</time>
      </trkpt>
      <trkpt lat="28.412408" lon="-14.050017">
        <ele>474.673</ele>
        <time>2016-11-13T12:43:49Z</time>
      </trkpt>
      <trkpt lat="28.412293" lon="-14.050231">
        <ele>476.131</ele>
        <time>2016-11-13T12:44:21Z</time>
      </trkpt>
      <trkpt lat="28.412314" lon="-14.051090">
        <ele>471.570</ele>
        <time>2016-11-13T12:45:53Z</time>
      </trkpt>
      <trkpt lat="28.411783" lon="-14.052403">
        <ele>475.830</ele>
        <time>2016-11-13T12:47:53Z</time>
      </trkpt>
      <trkpt lat="28.411298" lon="-14.053196">
        <ele>476.398</ele>
        <time>2016-11-13T12:49:05Z</time>
      </trkpt>
      <trkpt lat="28.411090" lon="-14.053455">
        <ele>473.966</ele>
        <time>2016-11-13T12:49:29Z</time>
      </trkpt>
      <trkpt lat="28.410328" lon="-14.053984">
        <ele>476.318</ele>
        <time>2016-11-13T12:50:57Z</time>
      </trkpt>
      <trkpt lat="28.410231" lon="-14.054226">
        <ele>475.298</ele>
        <time>2016-11-13T12:51:17Z</time>
      </trkpt>
      <trkpt lat="28.409987" lon="-14.054497">
        <ele>474.117</ele>
        <time>2016-11-13T12:51:45Z</time>
      </trkpt>
      <trkpt lat="28.409722" lon="-14.054609">
        <ele>479.408</ele>
        <time>2016-11-13T12:52:25Z</time>
      </trkpt>
      <trkpt lat="28.409473" lon="-14.055046">
        <ele>477.132</ele>
        <time>2016-11-13T12:53:33Z</time>
      </trkpt>
      <trkpt lat="28.409316" lon="-14.055121">
        <ele>474.197</ele>
        <time>2016-11-13T12:54:05Z</time>
      </trkpt>
      <trkpt lat="28.408356" lon="-14.054812">
        <ele>458.245</ele>
        <time>2016-11-13T12:56:05Z</time>
      </trkpt>
      <trkpt lat="28.407757" lon="-14.054830">
        <ele>450.633</ele>
        <time>2016-11-13T12:57:17Z</time>
      </trkpt>
      <trkpt lat="28.407722" lon="-14.054904">
        <ele>449.662</ele>
        <time>2016-11-13T12:57:53Z</time>
      </trkpt>
      <trkpt lat="28.406894" lon="-14.054983">
        <ele>448.142</ele>
        <time>2016-11-13T12:59:05Z</time>
      </trkpt>
      <trkpt lat="28.406733" lon="-14.055156">
        <ele>443.630</ele>
        <time>2016-11-13T12:59:29Z</time>
      </trkpt>
      <trkpt lat="28.406773" lon="-14.055311">
        <ele>443.448</ele>
        <time>2016-11-13T12:59:53Z</time>
      </trkpt>
      <trkpt lat="28.406682" lon="-14.055358">
        <ele>438.629</ele>
        <time>2016-11-13T13:00:05Z</time>
      </trkpt>
      <trkpt lat="28.406576" lon="-14.055199">
        <ele>438.700</ele>
        <time>2016-11-13T13:00:33Z</time>
      </trkpt>
      <trkpt lat="28.406661" lon="-14.054905">
        <ele>440.120</ele>
        <time>2016-11-13T13:01:21Z</time>
      </trkpt>
      <trkpt lat="28.406540" lon="-14.055075">
        <ele>437.508</ele>
        <time>2016-11-13T13:01:41Z</time>
      </trkpt>
      <trkpt lat="28.406515" lon="-14.055383">
        <ele>434.683</ele>
        <time>2016-11-13T13:02:13Z</time>
      </trkpt>
      <trkpt lat="28.406320" lon="-14.055417">
        <ele>430.478</ele>
        <time>2016-11-13T13:02:49Z</time>
      </trkpt>
      <trkpt lat="28.406210" lon="-14.055253">
        <ele>427.946</ele>
        <time>2016-11-13T13:03:17Z</time>
      </trkpt>
      <trkpt lat="28.405939" lon="-14.055447">
        <ele>417.764</ele>
        <time>2016-11-13T13:04:37Z</time>
      </trkpt>
      <trkpt lat="28.405585" lon="-14.055562">
        <ele>404.133</ele>
        <time>2016-11-13T13:06:01Z</time>
      </trkpt>
      <trkpt lat="28.405195" lon="-14.055481">
        <ele>397.743</ele>
        <time>2016-11-13T13:07:37Z</time>
      </trkpt>
      <trkpt lat="28.404858" lon="-14.055612">
        <ele>390.511</ele>
        <time>2016-11-13T13:08:49Z</time>
      </trkpt>
      <trkpt lat="28.404391" lon="-14.055623">
        <ele>377.839</ele>
        <time>2016-11-13T13:11:37Z</time>
      </trkpt>
      <trkpt lat="28.404368" lon="-14.055484">
        <ele>377.993</ele>
        <time>2016-11-13T13:12:37Z</time>
      </trkpt>
      <trkpt lat="28.404279" lon="-14.055523">
        <ele>375.565</ele>
        <time>2016-11-13T13:12:53Z</time>
      </trkpt>
      <trkpt lat="28.404061" lon="-14.055819">
        <ele>368.621</ele>
        <time>2016-11-13T13:13:29Z</time>
      </trkpt>
      <trkpt lat="28.404014" lon="-14.056032">
        <ele>366.008</ele>
        <time>2016-11-13T13:13:49Z</time>
      </trkpt>
      <trkpt lat="28.404514" lon="-14.057107">
        <ele>356.660</ele>
        <time>2016-11-13T13:16:13Z</time>
      </trkpt>
      <trkpt lat="28.404402" lon="-14.057552">
        <ele>355.945</ele>
        <time>2016-11-13T13:17:01Z</time>
      </trkpt>
      <trkpt lat="28.404507" lon="-14.058090">
        <ele>354.063</ele>
        <time>2016-11-13T13:18:13Z</time>
      </trkpt>
      <trkpt lat="28.405035" lon="-14.058872">
        <ele>338.211</ele>
        <time>2016-11-13T13:19:37Z</time>
      </trkpt>
      <trkpt lat="28.404887" lon="-14.059554">
        <ele>343.230</ele>
        <time>2016-11-13T13:20:37Z</time>
      </trkpt>
      <trkpt lat="28.404460" lon="-14.059875">
        <ele>337.680</ele>
        <time>2016-11-13T13:21:17Z</time>
      </trkpt>
      <trkpt lat="28.403703" lon="-14.059934">
        <ele>336.448</ele>
        <time>2016-11-13T13:22:29Z</time>
      </trkpt>
      <trkpt lat="28.403443" lon="-14.060025">
        <ele>337.596</ele>
        <time>2016-11-13T13:22:53Z</time>
      </trkpt>
      <trkpt lat="28.403189" lon="-14.060204">
        <ele>335.835</ele>
        <time>2016-11-13T13:23:17Z</time>
      </trkpt>
      <trkpt lat="28.403127" lon="-14.060368">
        <ele>332.186</ele>
        <time>2016-11-13T13:23:33Z</time>
      </trkpt>
      <trkpt lat="28.403215" lon="-14.060299">
        <ele>333.014</ele>
        <time>2016-11-13T13:25:33Z</time>
      </trkpt>
      <trkpt lat="28.403285" lon="-14.060434">
        <ele>332.108</ele>
        <time>2016-11-13T13:25:53Z</time>
      </trkpt>
      <trkpt lat="28.403021" lon="-14.060786">
        <ele>326.694</ele>
        <time>2016-11-13T13:28:33Z</time>
      </trkpt>
      <trkpt lat="28.402879" lon="-14.060865">
        <ele>325.259</ele>
        <time>2016-11-13T13:28:49Z</time>
      </trkpt>
      <trkpt lat="28.402914" lon="-14.060928">
        <ele>325.857</ele>
        <time>2016-11-13T13:29:01Z</time>
      </trkpt>
      <trkpt lat="28.402800" lon="-14.061060">
        <ele>324.485</ele>
        <time>2016-11-13T13:29:45Z</time>
      </trkpt>
      <trkpt lat="28.401957" lon="-14.061352">
        <ele>319.814</ele>
        <time>2016-11-13T13:31:33Z</time>
      </trkpt>
      <trkpt lat="28.401808" lon="-14.061486">
        <ele>319.814</ele>
        <time>2016-11-13T13:32:09Z</time>
      </trkpt>
      <trkpt lat="28.401322" lon="-14.062099">
        <ele>314.032</ele>
        <time>2016-11-13T13:33:53Z</time>
      </trkpt>
      <trkpt lat="28.401166" lon="-14.062625">
        <ele>309.570</ele>
        <time>2016-11-13T13:35:01Z</time>
      </trkpt>
      <trkpt lat="28.400818" lon="-14.062973">
        <ele>312.111</ele>
        <time>2016-11-13T13:36:17Z</time>
      </trkpt>
      <trkpt lat="28.400528" lon="-14.063456">
        <ele>312.921</ele>
        <time>2016-11-13T13:37:01Z</time>
      </trkpt>
      <trkpt lat="28.400212" lon="-14.064478">
        <ele>309.803</ele>
        <time>2016-11-13T13:39:01Z</time>
      </trkpt>
      <trkpt lat="28.400017" lon="-14.064825">
        <ele>309.008</ele>
        <time>2016-11-13T13:39:29Z</time>
      </trkpt>
      <trkpt lat="28.399156" lon="-14.065665">
        <ele>300.642</ele>
        <time>2016-11-13T13:41:09Z</time>
      </trkpt>
      <trkpt lat="28.398207" lon="-14.066247">
        <ele>296.977</ele>
        <time>2016-11-13T13:42:45Z</time>
      </trkpt>
      <trkpt lat="28.397959" lon="-14.066572">
        <ele>295.095</ele>
        <time>2016-11-13T13:43:17Z</time>
      </trkpt>
      <trkpt lat="28.397430" lon="-14.067676">
        <ele>296.343</ele>
        <time>2016-11-13T13:44:53Z</time>
      </trkpt>
      <trkpt lat="28.396641" lon="-14.068661">
        <ele>299.392</ele>
        <time>2016-11-13T13:46:41Z</time>
      </trkpt>
      <trkpt lat="28.396033" lon="-14.069124">
        <ele>296.472</ele>
        <time>2016-11-13T13:47:41Z</time>
      </trkpt>
      <trkpt lat="28.394838" lon="-14.069641">
        <ele>289.370</ele>
        <time>2016-11-13T13:49:41Z</time>
      </trkpt>
      <trkpt lat="28.394412" lon="-14.070042">
        <ele>287.218</ele>
        <time>2016-11-13T13:50:29Z</time>
      </trkpt>
      <trkpt lat="28.393979" lon="-14.070635">
        <ele>282.793</ele>
        <time>2016-11-13T13:51:29Z</time>
      </trkpt>
      <trkpt lat="28.393619" lon="-14.071632">
        <ele>287.365</ele>
        <time>2016-11-13T13:53:25Z</time>
      </trkpt>
      <trkpt lat="28.393412" lon="-14.071653">
        <ele>289.321</ele>
        <time>2016-11-13T13:53:57Z</time>
      </trkpt>
      <trkpt lat="28.393280" lon="-14.071787">
        <ele>288.508</ele>
        <time>2016-11-13T13:54:21Z</time>
      </trkpt>
      <trkpt lat="28.393220" lon="-14.071620">
        <ele>291.180</ele>
        <time>2016-11-13T14:13:09Z</time>
      </trkpt>
      <trkpt lat="28.392974" lon="-14.071436">
        <ele>293.465</ele>
        <time>2016-11-13T14:18:13Z</time>
      </trkpt>
      <trkpt lat="28.393232" lon="-14.071856">
        <ele>288.123</ele>
        <time>2016-11-13T14:27:45Z</time>
      </trkpt>
      <trkpt lat="28.393197" lon="-14.071574">
        <ele>291.531</ele>
        <time>2016-11-13T14:30:40Z</time>
      </trkpt>
      <trkpt lat="28.393261" lon="-14.071448">
        <ele>291.920</ele>
        <time>2016-11-13T14:30:48Z</time>
      </trkpt>
      <trkpt lat="28.393163" lon="-14.071161">
        <ele>292.850</ele>
        <time>2016-11-13T14:31:16Z</time>
      </trkpt>
      <trkpt lat="28.393240" lon="-14.070562">
        <ele>291.318</ele>
        <time>2016-11-13T14:32:00Z</time>
      </trkpt>
      <trkpt lat="28.393870" lon="-14.068747">
        <ele>297.226</ele>
        <time>2016-11-13T14:34:52Z</time>
      </trkpt>
      <trkpt lat="28.395604" lon="-14.067416">
        <ele>300.967</ele>
        <time>2016-11-13T14:37:32Z</time>
      </trkpt>
      <trkpt lat="28.397015" lon="-14.067121">
        <ele>299.381</ele>
        <time>2016-11-13T14:39:24Z</time>
      </trkpt>
      <trkpt lat="28.397483" lon="-14.066788">
        <ele>295.319</ele>
        <time>2016-11-13T14:40:08Z</time>
      </trkpt>
      <trkpt lat="28.398288" lon="-14.065740">
        <ele>301.908</ele>
        <time>2016-11-13T14:41:44Z</time>
      </trkpt>
      <trkpt lat="28.398815" lon="-14.064771">
        <ele>308.237</ele>
        <time>2016-11-13T14:42:56Z</time>
      </trkpt>
      <trkpt lat="28.399785" lon="-14.063303">
        <ele>307.132</ele>
        <time>2016-11-13T14:45:16Z</time>
      </trkpt>
      <trkpt lat="28.399826" lon="-14.063019">
        <ele>312.950</ele>
        <time>2016-11-13T14:45:36Z</time>
      </trkpt>
      <trkpt lat="28.399756" lon="-14.062779">
        <ele>314.158</ele>
        <time>2016-11-13T14:45:56Z</time>
      </trkpt>
      <trkpt lat="28.399891" lon="-14.062776">
        <ele>314.687</ele>
        <time>2016-11-13T14:46:24Z</time>
      </trkpt>
      <trkpt lat="28.400558" lon="-14.063271">
        <ele>313.837</ele>
        <time>2016-11-13T14:47:40Z</time>
      </trkpt>
      <trkpt lat="28.400872" lon="-14.062845">
        <ele>310.635</ele>
        <time>2016-11-13T14:48:20Z</time>
      </trkpt>
      <trkpt lat="28.401142" lon="-14.062617">
        <ele>309.643</ele>
        <time>2016-11-13T14:48:48Z</time>
      </trkpt>
      <trkpt lat="28.401751" lon="-14.062578">
        <ele>313.756</ele>
        <time>2016-11-13T14:49:44Z</time>
      </trkpt>
      <trkpt lat="28.402230" lon="-14.062684">
        <ele>320.859</ele>
        <time>2016-11-13T14:50:28Z</time>
      </trkpt>
      <trkpt lat="28.402714" lon="-14.062984">
        <ele>318.914</ele>
        <time>2016-11-13T14:51:20Z</time>
      </trkpt>
      <trkpt lat="28.403391" lon="-14.063825">
        <ele>322.908</ele>
        <time>2016-11-13T14:52:48Z</time>
      </trkpt>
      <trkpt lat="28.403762" lon="-14.064037">
        <ele>324.386</ele>
        <time>2016-11-13T14:53:28Z</time>
      </trkpt>
      <trkpt lat="28.404169" lon="-14.064102">
        <ele>327.851</ele>
        <time>2016-11-13T14:54:08Z</time>
      </trkpt>
      <trkpt lat="28.404591" lon="-14.063978">
        <ele>323.799</ele>
        <time>2016-11-13T14:54:52Z</time>
      </trkpt>
      <trkpt lat="28.405293" lon="-14.063569">
        <ele>323.447</ele>
        <time>2016-11-13T14:56:32Z</time>
      </trkpt>
      <trkpt lat="28.408029" lon="-14.062881">
        <ele>336.886</ele>
        <time>2016-11-13T15:01:04Z</time>
      </trkpt>
      <trkpt lat="28.408823" lon="-14.062820">
        <ele>335.416</ele>
        <time>2016-11-13T15:02:12Z</time>
      </trkpt>
      <trkpt lat="28.409269" lon="-14.062886">
        <ele>329.574</ele>
        <time>2016-11-13T15:02:52Z</time>
      </trkpt>
      <trkpt lat="28.409729" lon="-14.063084">
        <ele>336.842</ele>
        <time>2016-11-13T15:03:44Z</time>
      </trkpt>
      <trkpt lat="28.410278" lon="-14.063027">
        <ele>331.385</ele>
        <time>2016-11-13T15:04:52Z</time>
      </trkpt>
      <trkpt lat="28.411178" lon="-14.062652">
        <ele>347.389</ele>
        <time>2016-11-13T15:06:28Z</time>
      </trkpt>
      <trkpt lat="28.411571" lon="-14.061876">
        <ele>345.917</ele>
        <time>2016-11-13T15:08:16Z</time>
      </trkpt>
      <trkpt lat="28.411705" lon="-14.061262">
        <ele>347.108</ele>
        <time>2016-11-13T15:09:16Z</time>
      </trkpt>
      <trkpt lat="28.412287" lon="-14.060767">
        <ele>350.799</ele>
        <time>2016-11-13T15:10:24Z</time>
      </trkpt>
      <trkpt lat="28.413458" lon="-14.060009">
        <ele>353.174</ele>
        <time>2016-11-13T15:12:24Z</time>
      </trkpt>
      <trkpt lat="28.414709" lon="-14.060257">
        <ele>357.242</ele>
        <time>2016-11-13T15:14:36Z</time>
      </trkpt>
      <trkpt lat="28.414959" lon="-14.060192">
        <ele>357.550</ele>
        <time>2016-11-13T15:15:08Z</time>
      </trkpt>
      <trkpt lat="28.415283" lon="-14.059884">
        <ele>361.139</ele>
        <time>2016-11-13T15:15:52Z</time>
      </trkpt>
      <trkpt lat="28.415566" lon="-14.059882">
        <ele>364.839</ele>
        <time>2016-11-13T15:16:24Z</time>
      </trkpt>
      <trkpt lat="28.416005" lon="-14.059484">
        <ele>362.857</ele>
        <time>2016-11-13T15:17:32Z</time>
      </trkpt>
      <trkpt lat="28.416407" lon="-14.059385">
        <ele>362.485</ele>
        <time>2016-11-13T15:18:16Z</time>
      </trkpt>
      <trkpt lat="28.416922" lon="-14.059665">
        <ele>366.589</ele>
        <time>2016-11-13T15:19:24Z</time>
      </trkpt>
      <trkpt lat="28.417322" lon="-14.059746">
        <ele>367.706</ele>
        <time>2016-11-13T15:20:40Z</time>
      </trkpt>
      <trkpt lat="28.417902" lon="-14.060529">
        <ele>367.526</ele>
        <time>2016-11-13T15:23:56Z</time>
      </trkpt>
      <trkpt lat="28.418285" lon="-14.060729">
        <ele>372.408</ele>
        <time>2016-11-13T15:24:36Z</time>
      </trkpt>
      <trkpt lat="28.418476" lon="-14.060728">
        <ele>371.979</ele>
        <time>2016-11-13T15:24:52Z</time>
      </trkpt>
      <trkpt lat="28.418915" lon="-14.059963">
        <ele>371.324</ele>
        <time>2016-11-13T15:26:08Z</time>
      </trkpt>
      <trkpt lat="28.419326" lon="-14.059576">
        <ele>371.552</ele>
        <time>2016-11-13T15:26:56Z</time>
      </trkpt>
      <trkpt lat="28.419528" lon="-14.059228">
        <ele>373.050</ele>
        <time>2016-11-13T15:27:40Z</time>
      </trkpt>
      <trkpt lat="28.420485" lon="-14.058529">
        <ele>380.259</ele>
        <time>2016-11-13T15:29:28Z</time>
      </trkpt>
      <trkpt lat="28.420861" lon="-14.058426">
        <ele>381.979</ele>
        <time>2016-11-13T15:30:04Z</time>
      </trkpt>
      <trkpt lat="28.420930" lon="-14.058338">
        <ele>382.037</ele>
        <time>2016-11-13T15:31:08Z</time>
      </trkpt>
      <trkpt lat="28.421285" lon="-14.058443">
        <ele>381.165</ele>
        <time>2016-11-13T15:31:56Z</time>
      </trkpt>
      <trkpt lat="28.422220" lon="-14.058053">
        <ele>391.052</ele>
        <time>2016-11-13T15:33:28Z</time>
      </trkpt>
      <trkpt lat="28.422563" lon="-14.058141">
        <ele>389.953</ele>
        <time>2016-11-13T15:33:56Z</time>
      </trkpt>
      <trkpt lat="28.422862" lon="-14.057962">
        <ele>392.008</ele>
        <time>2016-11-13T15:34:24Z</time>
      </trkpt>
      <trkpt lat="28.422923" lon="-14.057805">
        <ele>392.408</ele>
        <time>2016-11-13T15:36:48Z</time>
      </trkpt>
    </trkseg>
  </trk></gpx>