<?xml version="1.0" encoding="UTF-8"?>
<gpx version="1.1" creator="Aventuras en Cada Paso" xmlns="http://www.topografix.com/GPX/1/1">
  <metadata>
    <name>Vuelta en Bici a La Graciosa</name>
    <desc>La forma más popular de explorar La Graciosa. Caminos de arena y tierra entre playas, volcanes y paisajes únicos. Bicicletas de alquiler en Caleta de Sebo.</desc>
    <author><name>Aventuras en Cada Paso</name></author>
    <time>2026-07-08T08:12:58.210Z</time>
    <keywords>La Graciosa, Ciclismo, Media, senderismo Canarias</keywords>
  </metadata>
  <wpt lat="29.2333" lon="-13.5003">
    <name>Vuelta en Bici a La Graciosa</name>
    <desc>La forma más popular de explorar La Graciosa. Caminos de arena y tierra entre playas, volcanes y paisajes únicos. Bicicletas de alquiler en Caleta de Sebo. | Isla: La Graciosa | Tipo: Ciclismo | Dificultad: Media | Distancia: 25km | Duración: 4-8 horas</desc>
    <type>Ciclismo</type>
    <extensions>
      <isla>La Graciosa</isla>
      <dificultad>Media</dificultad>
      <distancia>25</distancia>
      <duracion>4-8 horas</duracion>
    </extensions>
  </wpt>
</gpx>