<?xml version="1.0" encoding="UTF-8"?>
<gpx version="1.1" creator="Aventuras en Cada Paso" xmlns="http://www.topografix.com/GPX/1/1">
  <metadata>
    <name>Observación de Aves – Lobos</name>
    <desc>Lobos alberga pardelas, gaviotas de Audouin y otras aves marinas protegidas. La mejor época es primavera en plena nidificación. Llevar prismáticos.</desc>
    <author><name>Aventuras en Cada Paso</name></author>
    <time>2026-07-08T08:12:58.213Z</time>
    <keywords>Isla de Lobos, Fotografía, Fácil, senderismo Canarias</keywords>
  </metadata>
  <wpt lat="28.7506" lon="-13.8167">
    <name>Observación de Aves – Lobos</name>
    <desc>Lobos alberga pardelas, gaviotas de Audouin y otras aves marinas protegidas. La mejor época es primavera en plena nidificación. Llevar prismáticos. | Isla: Isla de Lobos | Tipo: Fotografía | Dificultad: Fácil | Distancia: 5km | Duración: 2-4 horas</desc>
    <type>Fotografía</type>
    <extensions>
      <isla>Isla de Lobos</isla>
      <dificultad>Fácil</dificultad>
      <distancia>5</distancia>
      <duracion>2-4 horas</duracion>
    </extensions>
  </wpt>
</gpx>