<?xml version="1.0" encoding="UTF-8"?>
<gpx creator="Wikiloc - https://www.wikiloc.com" version="1.1" xmlns="http://www.topografix.com/GPX/1/1" xmlns:xsi="http://www.w3.org/2001/XMLSchema-instance" xsi:schemaLocation="http://www.topografix.com/GPX/1/1 http://www.topografix.com/GPX/1/1/gpx.xsd">
  <metadata>
    <name>Wikiloc - Refugio El Pilar-Pico Birigoyo (La Palma)</name>
    <link href="https://www.wikiloc.com/hiking-trails/refugio-el-pilar-pico-birigoyo-la-palma-31335691">
      <text>Refugio El Pilar-Pico Birigoyo (La Palma) - Wikiloc on Wikiloc</text>
    </link>
    <time>2018-12-13T15:44:49Z</time>
  </metadata>
  <trk>
    <name>Refugio El Pilar-Pico Birigoyo (La Palma) - Wikiloc</name>
    <cmt></cmt>
    <desc></desc>
    <trkseg>
      <trkpt lat="28.613791" lon="-17.836249">
        <ele>1493.174</ele>
        <time>2018-12-13T13:01:57Z</time>
      </trkpt>
      <trkpt lat="28.613723" lon="-17.836252">
        <ele>1493.156</ele>
        <time>2018-12-13T13:02:06Z</time>
      </trkpt>
      <trkpt lat="28.613620" lon="-17.836092">
        <ele>1493.121</ele>
        <time>2018-12-13T13:02:33Z</time>
      </trkpt>
      <trkpt lat="28.613333" lon="-17.835988">
        <ele>1493.108</ele>
        <time>2018-12-13T13:03:00Z</time>
      </trkpt>
      <trkpt lat="28.612835" lon="-17.835912">
        <ele>1496.270</ele>
        <time>2018-12-13T13:04:05Z</time>
      </trkpt>
      <trkpt lat="28.612650" lon="-17.835952">
        <ele>1497.328</ele>
        <time>2018-12-13T13:04:31Z</time>
      </trkpt>
      <trkpt lat="28.612315" lon="-17.836219">
        <ele>1497.710</ele>
        <time>2018-12-13T13:05:20Z</time>
      </trkpt>
      <trkpt lat="28.612162" lon="-17.836510">
        <ele>1502.560</ele>
        <time>2018-12-13T13:06:08Z</time>
      </trkpt>
      <trkpt lat="28.611856" lon="-17.836681">
        <ele>1507.332</ele>
        <time>2018-12-13T13:06:42Z</time>
      </trkpt>
      <trkpt lat="28.611601" lon="-17.836932">
        <ele>1511.723</ele>
        <time>2018-12-13T13:07:13Z</time>
      </trkpt>
      <trkpt lat="28.611214" lon="-17.837057">
        <ele>1517.656</ele>
        <time>2018-12-13T13:07:57Z</time>
      </trkpt>
      <trkpt lat="28.610750" lon="-17.837554">
        <ele>1532.198</ele>
        <time>2018-12-13T13:09:04Z</time>
      </trkpt>
      <trkpt lat="28.610489" lon="-17.837066">
        <ele>1547.298</ele>
        <time>2018-12-13T13:10:25Z</time>
      </trkpt>
      <trkpt lat="28.610368" lon="-17.837702">
        <ele>1556.915</ele>
        <time>2018-12-13T13:11:38Z</time>
      </trkpt>
      <trkpt lat="28.610264" lon="-17.837890">
        <ele>1557.926</ele>
        <time>2018-12-13T13:11:56Z</time>
      </trkpt>
      <trkpt lat="28.610127" lon="-17.839005">
        <ele>1571.108</ele>
        <time>2018-12-13T13:13:29Z</time>
      </trkpt>
      <trkpt lat="28.610065" lon="-17.839226">
        <ele>1576.032</ele>
        <time>2018-12-13T13:13:53Z</time>
      </trkpt>
      <trkpt lat="28.609791" lon="-17.839669">
        <ele>1588.460</ele>
        <time>2018-12-13T13:15:13Z</time>
      </trkpt>
      <trkpt lat="28.609600" lon="-17.840418">
        <ele>1600.782</ele>
        <time>2018-12-13T13:17:16Z</time>
      </trkpt>
      <trkpt lat="28.609044" lon="-17.840976">
        <ele>1603.932</ele>
        <time>2018-12-13T13:18:18Z</time>
      </trkpt>
      <trkpt lat="28.608088" lon="-17.841573">
        <ele>1624.124</ele>
        <time>2018-12-13T13:20:05Z</time>
      </trkpt>
      <trkpt lat="28.607095" lon="-17.843104">
        <ele>1650.965</ele>
        <time>2018-12-13T13:22:37Z</time>
      </trkpt>
      <trkpt lat="28.606254" lon="-17.843387">
        <ele>1665.218</ele>
        <time>2018-12-13T13:24:05Z</time>
      </trkpt>
      <trkpt lat="28.606130" lon="-17.843628">
        <ele>1671.890</ele>
        <time>2018-12-13T13:24:42Z</time>
      </trkpt>
      <trkpt lat="28.606197" lon="-17.843468">
        <ele>1679.046</ele>
        <time>2018-12-13T13:25:43Z</time>
      </trkpt>
      <trkpt lat="28.606151" lon="-17.843476">
        <ele>1679.088</ele>
        <time>2018-12-13T13:26:09Z</time>
      </trkpt>
      <trkpt lat="28.606143" lon="-17.843704">
        <ele>1678.316</ele>
        <time>2018-12-13T13:26:28Z</time>
      </trkpt>
      <trkpt lat="28.606235" lon="-17.843932">
        <ele>1678.708</ele>
        <time>2018-12-13T13:26:47Z</time>
      </trkpt>
      <trkpt lat="28.606550" lon="-17.844452">
        <ele>1676.687</ele>
        <time>2018-12-13T13:27:29Z</time>
      </trkpt>
      <trkpt lat="28.606505" lon="-17.844777">
        <ele>1675.855</ele>
        <time>2018-12-13T13:27:54Z</time>
      </trkpt>
      <trkpt lat="28.606271" lon="-17.845438">
        <ele>1681.427</ele>
        <time>2018-12-13T13:29:13Z</time>
      </trkpt>
      <trkpt lat="28.605863" lon="-17.844878">
        <ele>1707.837</ele>
        <time>2018-12-13T13:33:13Z</time>
      </trkpt>
      <trkpt lat="28.605736" lon="-17.844848">
        <ele>1714.249</ele>
        <time>2018-12-13T13:34:16Z</time>
      </trkpt>
      <trkpt lat="28.605688" lon="-17.844751">
        <ele>1719.650</ele>
        <time>2018-12-13T13:34:53Z</time>
      </trkpt>
      <trkpt lat="28.605448" lon="-17.844741">
        <ele>1730.483</ele>
        <time>2018-12-13T13:36:23Z</time>
      </trkpt>
      <trkpt lat="28.605134" lon="-17.844493">
        <ele>1746.945</ele>
        <time>2018-12-13T13:38:07Z</time>
      </trkpt>
      <trkpt lat="28.604954" lon="-17.844606">
        <ele>1750.891</ele>
        <time>2018-12-13T13:38:34Z</time>
      </trkpt>
      <trkpt lat="28.604562" lon="-17.844689">
        <ele>1758.881</ele>
        <time>2018-12-13T13:39:58Z</time>
      </trkpt>
      <trkpt lat="28.603711" lon="-17.844491">
        <ele>1762.919</ele>
        <time>2018-12-13T13:46:05Z</time>
      </trkpt>
      <trkpt lat="28.603491" lon="-17.844269">
        <ele>1762.008</ele>
        <time>2018-12-13T13:46:58Z</time>
      </trkpt>
      <trkpt lat="28.602925" lon="-17.844181">
        <ele>1774.352</ele>
        <time>2018-12-13T13:51:34Z</time>
      </trkpt>
      <trkpt lat="28.602723" lon="-17.843929">
        <ele>1774.630</ele>
        <time>2018-12-13T13:53:13Z</time>
      </trkpt>
      <trkpt lat="28.602575" lon="-17.843947">
        <ele>1775.012</ele>
        <time>2018-12-13T13:53:57Z</time>
      </trkpt>
      <trkpt lat="28.602578" lon="-17.843807">
        <ele>1774.762</ele>
        <time>2018-12-13T13:54:16Z</time>
      </trkpt>
      <trkpt lat="28.602407" lon="-17.843706">
        <ele>1776.264</ele>
        <time>2018-12-13T13:54:44Z</time>
      </trkpt>
      <trkpt lat="28.602227" lon="-17.843096">
        <ele>1781.725</ele>
        <time>2018-12-13T13:56:11Z</time>
      </trkpt>
      <trkpt lat="28.602222" lon="-17.842641">
        <ele>1788.398</ele>
        <time>2018-12-13T13:57:37Z</time>
      </trkpt>
      <trkpt lat="28.602089" lon="-17.841938">
        <ele>1790.340</ele>
        <time>2018-12-13T13:59:02Z</time>
      </trkpt>
      <trkpt lat="28.602126" lon="-17.841827">
        <ele>1791.351</ele>
        <time>2018-12-13T13:59:18Z</time>
      </trkpt>
      <trkpt lat="28.602263" lon="-17.841847">
        <ele>1794.801</ele>
        <time>2018-12-13T13:59:55Z</time>
      </trkpt>
      <trkpt lat="28.602343" lon="-17.841574">
        <ele>1805.311</ele>
        <time>2018-12-13T14:00:57Z</time>
      </trkpt>
      <trkpt lat="28.602799" lon="-17.840961">
        <ele>1833.408</ele>
        <time>2018-12-13T14:04:31Z</time>
      </trkpt>
      <trkpt lat="28.603097" lon="-17.840811">
        <ele>1836.388</ele>
        <time>2018-12-13T14:07:42Z</time>
      </trkpt>
      <trkpt lat="28.603470" lon="-17.840732">
        <ele>1837.536</ele>
        <time>2018-12-13T14:08:13Z</time>
      </trkpt>
      <trkpt lat="28.604938" lon="-17.840879">
        <ele>1851.468</ele>
        <time>2018-12-13T14:13:30Z</time>
      </trkpt>
      <trkpt lat="28.603549" lon="-17.840708">
        <ele>1847.058</ele>
        <time>2018-12-13T14:30:40Z</time>
      </trkpt>
      <trkpt lat="28.603134" lon="-17.840782">
        <ele>1843.080</ele>
        <time>2018-12-13T14:31:21Z</time>
      </trkpt>
      <trkpt lat="28.602764" lon="-17.840991">
        <ele>1839.191</ele>
        <time>2018-12-13T14:32:06Z</time>
      </trkpt>
      <trkpt lat="28.602481" lon="-17.840847">
        <ele>1831.634</ele>
        <time>2018-12-13T14:33:40Z</time>
      </trkpt>
      <trkpt lat="28.602343" lon="-17.840913">
        <ele>1825.096</ele>
        <time>2018-12-13T14:34:08Z</time>
      </trkpt>
      <trkpt lat="28.602175" lon="-17.840728">
        <ele>1817.595</ele>
        <time>2018-12-13T14:35:00Z</time>
      </trkpt>
      <trkpt lat="28.602039" lon="-17.840709">
        <ele>1814.449</ele>
        <time>2018-12-13T14:35:25Z</time>
      </trkpt>
      <trkpt lat="28.601617" lon="-17.840362">
        <ele>1814.623</ele>
        <time>2018-12-13T14:36:42Z</time>
      </trkpt>
      <trkpt lat="28.601535" lon="-17.840231">
        <ele>1817.008</ele>
        <time>2018-12-13T14:37:04Z</time>
      </trkpt>
      <trkpt lat="28.601097" lon="-17.840053">
        <ele>1827.182</ele>
        <time>2018-12-13T14:38:52Z</time>
      </trkpt>
      <trkpt lat="28.600602" lon="-17.839710">
        <ele>1838.730</ele>
        <time>2018-12-13T14:40:25Z</time>
      </trkpt>
      <trkpt lat="28.600108" lon="-17.839517">
        <ele>1845.852</ele>
        <time>2018-12-13T14:41:33Z</time>
      </trkpt>
      <trkpt lat="28.599660" lon="-17.839502">
        <ele>1851.732</ele>
        <time>2018-12-13T14:42:51Z</time>
      </trkpt>
      <trkpt lat="28.599463" lon="-17.839559">
        <ele>1851.064</ele>
        <time>2018-12-13T14:43:12Z</time>
      </trkpt>
      <trkpt lat="28.599054" lon="-17.839859">
        <ele>1850.255</ele>
        <time>2018-12-13T14:44:06Z</time>
      </trkpt>
      <trkpt lat="28.598804" lon="-17.840238">
        <ele>1847.898</ele>
        <time>2018-12-13T14:44:45Z</time>
      </trkpt>
      <trkpt lat="28.598654" lon="-17.840707">
        <ele>1846.160</ele>
        <time>2018-12-13T14:46:27Z</time>
      </trkpt>
      <trkpt lat="28.598666" lon="-17.840864">
        <ele>1846.097</ele>
        <time>2018-12-13T14:47:03Z</time>
      </trkpt>
      <trkpt lat="28.598513" lon="-17.841133">
        <ele>1841.223</ele>
        <time>2018-12-13T14:48:01Z</time>
      </trkpt>
      <trkpt lat="28.598419" lon="-17.841007">
        <ele>1838.625</ele>
        <time>2018-12-13T14:48:37Z</time>
      </trkpt>
      <trkpt lat="28.598336" lon="-17.841053">
        <ele>1836.708</ele>
        <time>2018-12-13T14:49:29Z</time>
      </trkpt>
      <trkpt lat="28.598299" lon="-17.841011">
        <ele>1835.942</ele>
        <time>2018-12-13T14:49:41Z</time>
      </trkpt>
      <trkpt lat="28.598253" lon="-17.841108">
        <ele>1833.010</ele>
        <time>2018-12-13T14:49:58Z</time>
      </trkpt>
      <trkpt lat="28.598151" lon="-17.840927">
        <ele>1825.182</ele>
        <time>2018-12-13T14:50:30Z</time>
      </trkpt>
      <trkpt lat="28.598099" lon="-17.841021">
        <ele>1821.812</ele>
        <time>2018-12-13T14:50:50Z</time>
      </trkpt>
      <trkpt lat="28.598034" lon="-17.840890">
        <ele>1817.084</ele>
        <time>2018-12-13T14:51:21Z</time>
      </trkpt>
      <trkpt lat="28.597918" lon="-17.840955">
        <ele>1811.425</ele>
        <time>2018-12-13T14:51:52Z</time>
      </trkpt>
      <trkpt lat="28.597833" lon="-17.840706">
        <ele>1805.558</ele>
        <time>2018-12-13T14:52:26Z</time>
      </trkpt>
      <trkpt lat="28.597668" lon="-17.840892">
        <ele>1797.610</ele>
        <time>2018-12-13T14:53:23Z</time>
      </trkpt>
      <trkpt lat="28.597573" lon="-17.840747">
        <ele>1792.634</ele>
        <time>2018-12-13T14:54:13Z</time>
      </trkpt>
      <trkpt lat="28.597438" lon="-17.840868">
        <ele>1784.055</ele>
        <time>2018-12-13T14:55:22Z</time>
      </trkpt>
      <trkpt lat="28.597352" lon="-17.840741">
        <ele>1778.110</ele>
        <time>2018-12-13T14:56:09Z</time>
      </trkpt>
      <trkpt lat="28.597259" lon="-17.840859">
        <ele>1775.208</ele>
        <time>2018-12-13T14:56:53Z</time>
      </trkpt>
      <trkpt lat="28.597180" lon="-17.840797">
        <ele>1769.876</ele>
        <time>2018-12-13T14:57:33Z</time>
      </trkpt>
      <trkpt lat="28.596976" lon="-17.840818">
        <ele>1761.974</ele>
        <time>2018-12-13T14:58:42Z</time>
      </trkpt>
      <trkpt lat="28.596855" lon="-17.841217">
        <ele>1759.556</ele>
        <time>2018-12-13T15:01:02Z</time>
      </trkpt>
      <trkpt lat="28.596810" lon="-17.841971">
        <ele>1751.246</ele>
        <time>2018-12-13T15:02:05Z</time>
      </trkpt>
      <trkpt lat="28.596924" lon="-17.842728">
        <ele>1742.698</ele>
        <time>2018-12-13T15:03:00Z</time>
      </trkpt>
      <trkpt lat="28.597238" lon="-17.843639">
        <ele>1734.789</ele>
        <time>2018-12-13T15:04:16Z</time>
      </trkpt>
      <trkpt lat="28.597470" lon="-17.844044">
        <ele>1732.242</ele>
        <time>2018-12-13T15:04:46Z</time>
      </trkpt>
      <trkpt lat="28.597799" lon="-17.844299">
        <ele>1728.174</ele>
        <time>2018-12-13T15:05:14Z</time>
      </trkpt>
      <trkpt lat="28.598279" lon="-17.844898">
        <ele>1724.133</ele>
        <time>2018-12-13T15:06:24Z</time>
      </trkpt>
      <trkpt lat="28.598730" lon="-17.845194">
        <ele>1719.323</ele>
        <time>2018-12-13T15:07:06Z</time>
      </trkpt>
      <trkpt lat="28.599295" lon="-17.845342">
        <ele>1711.115</ele>
        <time>2018-12-13T15:08:02Z</time>
      </trkpt>
      <trkpt lat="28.599854" lon="-17.845179">
        <ele>1697.908</ele>
        <time>2018-12-13T15:08:49Z</time>
      </trkpt>
      <trkpt lat="28.600520" lon="-17.845114">
        <ele>1688.376</ele>
        <time>2018-12-13T15:09:37Z</time>
      </trkpt>
      <trkpt lat="28.600730" lon="-17.845161">
        <ele>1685.474</ele>
        <time>2018-12-13T15:09:52Z</time>
      </trkpt>
      <trkpt lat="28.601217" lon="-17.845355">
        <ele>1680.226</ele>
        <time>2018-12-13T15:10:34Z</time>
      </trkpt>
      <trkpt lat="28.601448" lon="-17.845640">
        <ele>1679.436</ele>
        <time>2018-12-13T15:10:56Z</time>
      </trkpt>
      <trkpt lat="28.601777" lon="-17.845901">
        <ele>1676.738</ele>
        <time>2018-12-13T15:11:23Z</time>
      </trkpt>
      <trkpt lat="28.602237" lon="-17.845965">
        <ele>1669.899</ele>
        <time>2018-12-13T15:12:04Z</time>
      </trkpt>
      <trkpt lat="28.603194" lon="-17.846445">
        <ele>1654.312</ele>
        <time>2018-12-13T15:13:51Z</time>
      </trkpt>
      <trkpt lat="28.603221" lon="-17.846398">
        <ele>1653.254</ele>
        <time>2018-12-13T15:14:25Z</time>
      </trkpt>
      <trkpt lat="28.605277" lon="-17.846410">
        <ele>1667.582</ele>
        <time>2018-12-13T15:17:52Z</time>
      </trkpt>
      <trkpt lat="28.605654" lon="-17.845860">
        <ele>1680.243</ele>
        <time>2018-12-13T15:19:30Z</time>
      </trkpt>
      <trkpt lat="28.606373" lon="-17.845335">
        <ele>1683.317</ele>
        <time>2018-12-13T15:20:40Z</time>
      </trkpt>
      <trkpt lat="28.606539" lon="-17.844481">
        <ele>1682.208</ele>
        <time>2018-12-13T15:22:47Z</time>
      </trkpt>
      <trkpt lat="28.606513" lon="-17.844258">
        <ele>1679.731</ele>
        <time>2018-12-13T15:23:04Z</time>
      </trkpt>
      <trkpt lat="28.606191" lon="-17.843803">
        <ele>1674.399</ele>
        <time>2018-12-13T15:23:42Z</time>
      </trkpt>
      <trkpt lat="28.606247" lon="-17.843429">
        <ele>1672.451</ele>
        <time>2018-12-13T15:24:13Z</time>
      </trkpt>
      <trkpt lat="28.606546" lon="-17.843267">
        <ele>1669.781</ele>
        <time>2018-12-13T15:24:51Z</time>
      </trkpt>
      <trkpt lat="28.607124" lon="-17.843168">
        <ele>1663.063</ele>
        <time>2018-12-13T15:25:44Z</time>
      </trkpt>
      <trkpt lat="28.607752" lon="-17.842299">
        <ele>1654.774</ele>
        <time>2018-12-13T15:27:15Z</time>
      </trkpt>
      <trkpt lat="28.608048" lon="-17.841691">
        <ele>1646.597</ele>
        <time>2018-12-13T15:28:16Z</time>
      </trkpt>
      <trkpt lat="28.609274" lon="-17.840761">
        <ele>1622.839</ele>
        <time>2018-12-13T15:32:50Z</time>
      </trkpt>
      <trkpt lat="28.609692" lon="-17.840318">
        <ele>1612.092</ele>
        <time>2018-12-13T15:33:37Z</time>
      </trkpt>
      <trkpt lat="28.609773" lon="-17.839976">
        <ele>1605.973</ele>
        <time>2018-12-13T15:34:11Z</time>
      </trkpt>
      <trkpt lat="28.609739" lon="-17.839762">
        <ele>1599.920</ele>
        <time>2018-12-13T15:35:00Z</time>
      </trkpt>
      <trkpt lat="28.610175" lon="-17.838769">
        <ele>1585.908</ele>
        <time>2018-12-13T15:36:49Z</time>
      </trkpt>
      <trkpt lat="28.610225" lon="-17.838082">
        <ele>1576.032</ele>
        <time>2018-12-13T15:37:45Z</time>
      </trkpt>
      <trkpt lat="28.610354" lon="-17.837769">
        <ele>1573.040</ele>
        <time>2018-12-13T15:38:11Z</time>
      </trkpt>
      <trkpt lat="28.610494" lon="-17.836928">
        <ele>1562.582</ele>
        <time>2018-12-13T15:39:13Z</time>
      </trkpt>
      <trkpt lat="28.610626" lon="-17.837364">
        <ele>1548.542</ele>
        <time>2018-12-13T15:39:59Z</time>
      </trkpt>
      <trkpt lat="28.610777" lon="-17.837489">
        <ele>1546.744</ele>
        <time>2018-12-13T15:40:21Z</time>
      </trkpt>
      <trkpt lat="28.610985" lon="-17.837160">
        <ele>1542.265</ele>
        <time>2018-12-13T15:40:57Z</time>
      </trkpt>
      <trkpt lat="28.611177" lon="-17.836988">
        <ele>1541.568</ele>
        <time>2018-12-13T15:41:16Z</time>
      </trkpt>
      <trkpt lat="28.611546" lon="-17.836987">
        <ele>1537.910</ele>
        <time>2018-12-13T15:41:54Z</time>
      </trkpt>
      <trkpt lat="28.611731" lon="-17.836884">
        <ele>1534.244</ele>
        <time>2018-12-13T15:42:14Z</time>
      </trkpt>
      <trkpt lat="28.611993" lon="-17.836534">
        <ele>1524.805</ele>
        <time>2018-12-13T15:42:48Z</time>
      </trkpt>
      <trkpt lat="28.612207" lon="-17.836397">
        <ele>1519.815</ele>
        <time>2018-12-13T15:43:07Z</time>
      </trkpt>
      <trkpt lat="28.612402" lon="-17.835985">
        <ele>1513.908</ele>
        <time>2018-12-13T15:43:43Z</time>
      </trkpt>
      <trkpt lat="28.612811" lon="-17.835842">
        <ele>1504.257</ele>
        <time>2018-12-13T15:44:49Z</time>
      </trkpt>
    </trkseg>
  </trk></gpx>