<?xml version="1.0" encoding="UTF-8"?>
<gpx version="1.1" creator="Aventuras en Cada Paso" xmlns="http://www.topografix.com/GPX/1/1">
  <metadata>
    <name>Buceo – Reserva Marina La Restinga</name>
    <desc>Uno de los mejores spots de buceo de Europa. Aguas con 50 m de visibilidad, tortugas marinas, manta rayas y fondos volcánicos únicos.</desc>
    <author><name>Aventuras en Cada Paso</name></author>
    <time>2026-07-08T08:12:58.202Z</time>
    <keywords>El Hierro, Submarinismo, Fácil, senderismo Canarias</keywords>
  </metadata>
  <wpt lat="27.6411" lon="-17.9867">
    <name>Buceo – Reserva Marina La Restinga</name>
    <desc>Uno de los mejores spots de buceo de Europa. Aguas con 50 m de visibilidad, tortugas marinas, manta rayas y fondos volcánicos únicos. | Isla: El Hierro | Tipo: Submarinismo | Dificultad: Fácil | Distancia: km | Duración: 2-4 horas</desc>
    <type>Submarinismo</type>
    <extensions>
      <isla>El Hierro</isla>
      <dificultad>Fácil</dificultad>
      <distancia></distancia>
      <duracion>2-4 horas</duracion>
    </extensions>
  </wpt>
</gpx>