<?xml version="1.0" encoding="UTF-8"?>
<gpx version="1.1" creator="Aventuras en Cada Paso" xmlns="http://www.topografix.com/GPX/1/1">
  <metadata>
    <name>El Bufadero – Costa Este</name>
    <desc>Ruta costera por la costa este de La Graciosa hasta el Bufadero, formación volcánica donde el mar entra y expulsa agua con fuerza. Vistas a Lanzarote.</desc>
    <author><name>Aventuras en Cada Paso</name></author>
    <time>2026-07-08T08:12:58.210Z</time>
    <keywords>La Graciosa, Senderismo, Fácil, senderismo Canarias</keywords>
  </metadata>
  <wpt lat="29.23" lon="-13.485">
    <name>El Bufadero – Costa Este</name>
    <desc>Ruta costera por la costa este de La Graciosa hasta el Bufadero, formación volcánica donde el mar entra y expulsa agua con fuerza. Vistas a Lanzarote. | Isla: La Graciosa | Tipo: Senderismo | Dificultad: Fácil | Distancia: 4km | Duración: 2-4 horas</desc>
    <type>Senderismo</type>
    <extensions>
      <isla>La Graciosa</isla>
      <dificultad>Fácil</dificultad>
      <distancia>4</distancia>
      <duracion>2-4 horas</duracion>
    </extensions>
  </wpt>
</gpx>