<?xml version="1.0" encoding="UTF-8"?>
<gpx creator="Wikiloc - https://www.wikiloc.com" version="1.1" xmlns="http://www.topografix.com/GPX/1/1" xmlns:xsi="http://www.w3.org/2001/XMLSchema-instance" xsi:schemaLocation="http://www.topografix.com/GPX/1/1 http://www.topografix.com/GPX/1/1/gpx.xsd">
  <metadata>
    <name>Wikiloc - LOS BRECITOS A BARRANCO DE LAS ANGUSTIAS (Caldera de Taburie...</name>
    <link href="https://www.wikiloc.com/hiking-trails/los-brecitos-a-barranco-de-las-angustias-caldera-de-taburiente-la-palma-160583269">
      <text>LOS BRECITOS A BARRANCO DE LAS ANGUSTIAS (Caldera de Taburie... on Wikiloc</text>
    </link>
    <time>2024-02-08T16:31:43Z</time>
  </metadata>
  <trk>
    <name>LOS BRECITOS A BARRANCO DE LAS ANGUSTIAS (Caldera de Taburie... - Wikiloc</name>
    <cmt></cmt>
    <desc></desc>
    <trkseg>
      <trkpt lat="28.711820" lon="-17.900783">
        <ele>1085.768</ele>
        <time>2024-02-08T10:34:15Z</time>
      </trkpt>
      <trkpt lat="28.711687" lon="-17.900807">
        <ele>1081.042</ele>
        <time>2024-02-08T10:34:48Z</time>
      </trkpt>
      <trkpt lat="28.711591" lon="-17.900595">
        <ele>1080.326</ele>
        <time>2024-02-08T10:35:50Z</time>
      </trkpt>
      <trkpt lat="28.711824" lon="-17.900733">
        <ele>1079.409</ele>
        <time>2024-02-08T10:37:25Z</time>
      </trkpt>
      <trkpt lat="28.712187" lon="-17.900641">
        <ele>1070.657</ele>
        <time>2024-02-08T10:38:21Z</time>
      </trkpt>
      <trkpt lat="28.712523" lon="-17.900764">
        <ele>1068.022</ele>
        <time>2024-02-08T10:38:51Z</time>
      </trkpt>
      <trkpt lat="28.712870" lon="-17.901228">
        <ele>1064.926</ele>
        <time>2024-02-08T10:40:15Z</time>
      </trkpt>
      <trkpt lat="28.713254" lon="-17.901099">
        <ele>1058.711</ele>
        <time>2024-02-08T10:40:52Z</time>
      </trkpt>
      <trkpt lat="28.713517" lon="-17.901511">
        <ele>1050.264</ele>
        <time>2024-02-08T10:42:03Z</time>
      </trkpt>
      <trkpt lat="28.713748" lon="-17.901671">
        <ele>1045.059</ele>
        <time>2024-02-08T10:42:21Z</time>
      </trkpt>
      <trkpt lat="28.713901" lon="-17.901561">
        <ele>1043.288</ele>
        <time>2024-02-08T10:42:43Z</time>
      </trkpt>
      <trkpt lat="28.714223" lon="-17.901663">
        <ele>1038.352</ele>
        <time>2024-02-08T10:43:18Z</time>
      </trkpt>
      <trkpt lat="28.714346" lon="-17.901537">
        <ele>1037.425</ele>
        <time>2024-02-08T10:43:37Z</time>
      </trkpt>
      <trkpt lat="28.714725" lon="-17.901451">
        <ele>1041.658</ele>
        <time>2024-02-08T10:44:28Z</time>
      </trkpt>
      <trkpt lat="28.714978" lon="-17.901511">
        <ele>1041.252</ele>
        <time>2024-02-08T10:44:50Z</time>
      </trkpt>
      <trkpt lat="28.715217" lon="-17.901729">
        <ele>1039.617</ele>
        <time>2024-02-08T10:45:45Z</time>
      </trkpt>
      <trkpt lat="28.715275" lon="-17.901601">
        <ele>1039.409</ele>
        <time>2024-02-08T10:50:44Z</time>
      </trkpt>
      <trkpt lat="28.715413" lon="-17.901681">
        <ele>1037.936</ele>
        <time>2024-02-08T10:51:43Z</time>
      </trkpt>
      <trkpt lat="28.715486" lon="-17.901549">
        <ele>1036.591</ele>
        <time>2024-02-08T10:51:54Z</time>
      </trkpt>
      <trkpt lat="28.716127" lon="-17.901444">
        <ele>1034.255</ele>
        <time>2024-02-08T10:52:49Z</time>
      </trkpt>
      <trkpt lat="28.716258" lon="-17.901240">
        <ele>1034.060</ele>
        <time>2024-02-08T10:53:36Z</time>
      </trkpt>
      <trkpt lat="28.716054" lon="-17.901040">
        <ele>1034.813</ele>
        <time>2024-02-08T10:54:09Z</time>
      </trkpt>
      <trkpt lat="28.716128" lon="-17.900603">
        <ele>1039.028</ele>
        <time>2024-02-08T10:55:25Z</time>
      </trkpt>
      <trkpt lat="28.715968" lon="-17.900400">
        <ele>1041.977</ele>
        <time>2024-02-08T10:56:40Z</time>
      </trkpt>
      <trkpt lat="28.716201" lon="-17.899841">
        <ele>1042.511</ele>
        <time>2024-02-08T10:57:20Z</time>
      </trkpt>
      <trkpt lat="28.716072" lon="-17.899694">
        <ele>1044.694</ele>
        <time>2024-02-08T10:57:37Z</time>
      </trkpt>
      <trkpt lat="28.716195" lon="-17.898828">
        <ele>1055.796</ele>
        <time>2024-02-08T10:58:46Z</time>
      </trkpt>
      <trkpt lat="28.716020" lon="-17.898506">
        <ele>1056.431</ele>
        <time>2024-02-08T10:59:13Z</time>
      </trkpt>
      <trkpt lat="28.716072" lon="-17.898159">
        <ele>1054.424</ele>
        <time>2024-02-08T10:59:42Z</time>
      </trkpt>
      <trkpt lat="28.716196" lon="-17.898036">
        <ele>1055.009</ele>
        <time>2024-02-08T10:59:57Z</time>
      </trkpt>
      <trkpt lat="28.716502" lon="-17.898254">
        <ele>1055.620</ele>
        <time>2024-02-08T11:00:35Z</time>
      </trkpt>
      <trkpt lat="28.717013" lon="-17.898401">
        <ele>1056.825</ele>
        <time>2024-02-08T11:01:32Z</time>
      </trkpt>
      <trkpt lat="28.717354" lon="-17.898857">
        <ele>1057.829</ele>
        <time>2024-02-08T11:06:12Z</time>
      </trkpt>
      <trkpt lat="28.717429" lon="-17.898481">
        <ele>1056.284</ele>
        <time>2024-02-08T11:07:36Z</time>
      </trkpt>
      <trkpt lat="28.717434" lon="-17.897978">
        <ele>1055.437</ele>
        <time>2024-02-08T11:08:20Z</time>
      </trkpt>
      <trkpt lat="28.717102" lon="-17.897538">
        <ele>1055.452</ele>
        <time>2024-02-08T11:08:57Z</time>
      </trkpt>
      <trkpt lat="28.716887" lon="-17.896846">
        <ele>1057.121</ele>
        <time>2024-02-08T11:10:10Z</time>
      </trkpt>
      <trkpt lat="28.717157" lon="-17.896373">
        <ele>1058.785</ele>
        <time>2024-02-08T11:11:17Z</time>
      </trkpt>
      <trkpt lat="28.717204" lon="-17.895780">
        <ele>1049.578</ele>
        <time>2024-02-08T11:12:57Z</time>
      </trkpt>
      <trkpt lat="28.717357" lon="-17.895652">
        <ele>1046.121</ele>
        <time>2024-02-08T11:13:13Z</time>
      </trkpt>
      <trkpt lat="28.717811" lon="-17.895578">
        <ele>1041.141</ele>
        <time>2024-02-08T11:13:51Z</time>
      </trkpt>
      <trkpt lat="28.718140" lon="-17.895297">
        <ele>1037.605</ele>
        <time>2024-02-08T11:14:21Z</time>
      </trkpt>
      <trkpt lat="28.718497" lon="-17.895176">
        <ele>1033.609</ele>
        <time>2024-02-08T11:14:51Z</time>
      </trkpt>
      <trkpt lat="28.718660" lon="-17.894891">
        <ele>1031.483</ele>
        <time>2024-02-08T11:15:14Z</time>
      </trkpt>
      <trkpt lat="28.718820" lon="-17.895055">
        <ele>1025.938</ele>
        <time>2024-02-08T11:15:32Z</time>
      </trkpt>
      <trkpt lat="28.719327" lon="-17.895020">
        <ele>1021.462</ele>
        <time>2024-02-08T11:16:13Z</time>
      </trkpt>
      <trkpt lat="28.719379" lon="-17.894756">
        <ele>1020.297</ele>
        <time>2024-02-08T11:16:32Z</time>
      </trkpt>
      <trkpt lat="28.719343" lon="-17.895072">
        <ele>1020.010</ele>
        <time>2024-02-08T11:17:38Z</time>
      </trkpt>
      <trkpt lat="28.719814" lon="-17.895048">
        <ele>1020.525</ele>
        <time>2024-02-08T11:18:13Z</time>
      </trkpt>
      <trkpt lat="28.720149" lon="-17.895187">
        <ele>1021.094</ele>
        <time>2024-02-08T11:19:13Z</time>
      </trkpt>
      <trkpt lat="28.720240" lon="-17.895446">
        <ele>1017.928</ele>
        <time>2024-02-08T11:19:40Z</time>
      </trkpt>
      <trkpt lat="28.720444" lon="-17.895615">
        <ele>1012.821</ele>
        <time>2024-02-08T11:20:04Z</time>
      </trkpt>
      <trkpt lat="28.720429" lon="-17.895967">
        <ele>1011.588</ele>
        <time>2024-02-08T11:20:24Z</time>
      </trkpt>
      <trkpt lat="28.720556" lon="-17.896196">
        <ele>1012.624</ele>
        <time>2024-02-08T11:21:23Z</time>
      </trkpt>
      <trkpt lat="28.720661" lon="-17.895942">
        <ele>1012.726</ele>
        <time>2024-02-08T11:22:25Z</time>
      </trkpt>
      <trkpt lat="28.720522" lon="-17.895565">
        <ele>1010.209</ele>
        <time>2024-02-08T11:22:50Z</time>
      </trkpt>
      <trkpt lat="28.720645" lon="-17.895031">
        <ele>1002.369</ele>
        <time>2024-02-08T11:23:36Z</time>
      </trkpt>
      <trkpt lat="28.720542" lon="-17.894719">
        <ele>995.894</ele>
        <time>2024-02-08T11:24:09Z</time>
      </trkpt>
      <trkpt lat="28.720852" lon="-17.893727">
        <ele>985.018</ele>
        <time>2024-02-08T11:25:37Z</time>
      </trkpt>
      <trkpt lat="28.720707" lon="-17.893417">
        <ele>981.633</ele>
        <time>2024-02-08T11:26:00Z</time>
      </trkpt>
      <trkpt lat="28.720844" lon="-17.893216">
        <ele>979.376</ele>
        <time>2024-02-08T11:26:35Z</time>
      </trkpt>
      <trkpt lat="28.721159" lon="-17.893085">
        <ele>977.661</ele>
        <time>2024-02-08T11:27:03Z</time>
      </trkpt>
      <trkpt lat="28.721337" lon="-17.893192">
        <ele>977.210</ele>
        <time>2024-02-08T11:27:30Z</time>
      </trkpt>
      <trkpt lat="28.721754" lon="-17.893107">
        <ele>970.834</ele>
        <time>2024-02-08T11:28:05Z</time>
      </trkpt>
      <trkpt lat="28.722105" lon="-17.893259">
        <ele>968.197</ele>
        <time>2024-02-08T11:28:40Z</time>
      </trkpt>
      <trkpt lat="28.722347" lon="-17.892958">
        <ele>965.477</ele>
        <time>2024-02-08T11:29:15Z</time>
      </trkpt>
      <trkpt lat="28.722205" lon="-17.892378">
        <ele>967.761</ele>
        <time>2024-02-08T11:30:18Z</time>
      </trkpt>
      <trkpt lat="28.722251" lon="-17.891956">
        <ele>964.527</ele>
        <time>2024-02-08T11:30:47Z</time>
      </trkpt>
      <trkpt lat="28.722088" lon="-17.891721">
        <ele>964.709</ele>
        <time>2024-02-08T11:31:18Z</time>
      </trkpt>
      <trkpt lat="28.721936" lon="-17.890989">
        <ele>962.138</ele>
        <time>2024-02-08T11:32:22Z</time>
      </trkpt>
      <trkpt lat="28.722038" lon="-17.890026">
        <ele>957.653</ele>
        <time>2024-02-08T11:35:30Z</time>
      </trkpt>
      <trkpt lat="28.721217" lon="-17.889484">
        <ele>946.647</ele>
        <time>2024-02-08T11:37:51Z</time>
      </trkpt>
      <trkpt lat="28.721639" lon="-17.889168">
        <ele>937.412</ele>
        <time>2024-02-08T11:40:05Z</time>
      </trkpt>
      <trkpt lat="28.721612" lon="-17.888903">
        <ele>934.725</ele>
        <time>2024-02-08T11:40:26Z</time>
      </trkpt>
      <trkpt lat="28.721505" lon="-17.889024">
        <ele>933.780</ele>
        <time>2024-02-08T11:40:49Z</time>
      </trkpt>
      <trkpt lat="28.721563" lon="-17.888536">
        <ele>923.529</ele>
        <time>2024-02-08T11:41:26Z</time>
      </trkpt>
      <trkpt lat="28.722041" lon="-17.887741">
        <ele>919.333</ele>
        <time>2024-02-08T11:42:48Z</time>
      </trkpt>
      <trkpt lat="28.722617" lon="-17.887756">
        <ele>916.276</ele>
        <time>2024-02-08T11:47:49Z</time>
      </trkpt>
      <trkpt lat="28.722493" lon="-17.887160">
        <ele>910.874</ele>
        <time>2024-02-08T11:49:09Z</time>
      </trkpt>
      <trkpt lat="28.722661" lon="-17.887091">
        <ele>905.956</ele>
        <time>2024-02-08T11:49:48Z</time>
      </trkpt>
      <trkpt lat="28.722565" lon="-17.886611">
        <ele>892.421</ele>
        <time>2024-02-08T11:53:38Z</time>
      </trkpt>
      <trkpt lat="28.722379" lon="-17.886396">
        <ele>887.109</ele>
        <time>2024-02-08T11:54:28Z</time>
      </trkpt>
      <trkpt lat="28.722463" lon="-17.886058">
        <ele>883.148</ele>
        <time>2024-02-08T11:54:56Z</time>
      </trkpt>
      <trkpt lat="28.722339" lon="-17.885325">
        <ele>880.553</ele>
        <time>2024-02-08T11:55:53Z</time>
      </trkpt>
      <trkpt lat="28.722616" lon="-17.885205">
        <ele>882.027</ele>
        <time>2024-02-08T11:56:20Z</time>
      </trkpt>
      <trkpt lat="28.722722" lon="-17.884854">
        <ele>879.072</ele>
        <time>2024-02-08T11:56:55Z</time>
      </trkpt>
      <trkpt lat="28.723007" lon="-17.884631">
        <ele>875.365</ele>
        <time>2024-02-08T11:57:25Z</time>
      </trkpt>
      <trkpt lat="28.723251" lon="-17.884582">
        <ele>871.810</ele>
        <time>2024-02-08T11:57:45Z</time>
      </trkpt>
      <trkpt lat="28.723466" lon="-17.884376">
        <ele>868.169</ele>
        <time>2024-02-08T11:58:22Z</time>
      </trkpt>
      <trkpt lat="28.723624" lon="-17.884463">
        <ele>863.783</ele>
        <time>2024-02-08T11:58:54Z</time>
      </trkpt>
      <trkpt lat="28.723505" lon="-17.884035">
        <ele>860.596</ele>
        <time>2024-02-08T11:59:39Z</time>
      </trkpt>
      <trkpt lat="28.723748" lon="-17.883574">
        <ele>853.539</ele>
        <time>2024-02-08T12:00:23Z</time>
      </trkpt>
      <trkpt lat="28.723578" lon="-17.883455">
        <ele>849.001</ele>
        <time>2024-02-08T12:00:51Z</time>
      </trkpt>
      <trkpt lat="28.723967" lon="-17.882887">
        <ele>844.121</ele>
        <time>2024-02-08T12:02:06Z</time>
      </trkpt>
      <trkpt lat="28.723871" lon="-17.882858">
        <ele>844.009</ele>
        <time>2024-02-08T12:02:26Z</time>
      </trkpt>
      <trkpt lat="28.723625" lon="-17.883100">
        <ele>841.554</ele>
        <time>2024-02-08T12:03:53Z</time>
      </trkpt>
      <trkpt lat="28.723487" lon="-17.882943">
        <ele>842.289</ele>
        <time>2024-02-08T12:04:10Z</time>
      </trkpt>
      <trkpt lat="28.723191" lon="-17.882880">
        <ele>842.923</ele>
        <time>2024-02-08T12:04:38Z</time>
      </trkpt>
      <trkpt lat="28.722653" lon="-17.882340">
        <ele>843.138</ele>
        <time>2024-02-08T12:08:45Z</time>
      </trkpt>
      <trkpt lat="28.722501" lon="-17.882322">
        <ele>839.711</ele>
        <time>2024-02-08T12:09:02Z</time>
      </trkpt>
      <trkpt lat="28.722224" lon="-17.881384">
        <ele>832.196</ele>
        <time>2024-02-08T12:12:24Z</time>
      </trkpt>
      <trkpt lat="28.722281" lon="-17.880955">
        <ele>831.675</ele>
        <time>2024-02-08T12:12:50Z</time>
      </trkpt>
      <trkpt lat="28.722719" lon="-17.880416">
        <ele>827.469</ele>
        <time>2024-02-08T12:13:47Z</time>
      </trkpt>
      <trkpt lat="28.723462" lon="-17.880114">
        <ele>822.162</ele>
        <time>2024-02-08T12:14:47Z</time>
      </trkpt>
      <trkpt lat="28.723706" lon="-17.879741">
        <ele>813.597</ele>
        <time>2024-02-08T12:15:35Z</time>
      </trkpt>
      <trkpt lat="28.723552" lon="-17.879768">
        <ele>811.823</ele>
        <time>2024-02-08T12:16:12Z</time>
      </trkpt>
      <trkpt lat="28.722493" lon="-17.879396">
        <ele>806.125</ele>
        <time>2024-02-08T12:17:41Z</time>
      </trkpt>
      <trkpt lat="28.721854" lon="-17.878729">
        <ele>810.709</ele>
        <time>2024-02-08T12:18:56Z</time>
      </trkpt>
      <trkpt lat="28.721759" lon="-17.878286">
        <ele>805.380</ele>
        <time>2024-02-08T12:19:35Z</time>
      </trkpt>
      <trkpt lat="28.722209" lon="-17.877875">
        <ele>801.835</ele>
        <time>2024-02-08T12:20:28Z</time>
      </trkpt>
      <trkpt lat="28.724869" lon="-17.876573">
        <ele>767.899</ele>
        <time>2024-02-08T12:24:45Z</time>
      </trkpt>
      <trkpt lat="28.724763" lon="-17.876333">
        <ele>763.164</ele>
        <time>2024-02-08T12:25:21Z</time>
      </trkpt>
      <trkpt lat="28.724249" lon="-17.876186">
        <ele>754.457</ele>
        <time>2024-02-08T12:26:08Z</time>
      </trkpt>
      <trkpt lat="28.723900" lon="-17.875753">
        <ele>750.542</ele>
        <time>2024-02-08T12:29:51Z</time>
      </trkpt>
      <trkpt lat="28.723675" lon="-17.875761">
        <ele>750.771</ele>
        <time>2024-02-08T12:30:32Z</time>
      </trkpt>
      <trkpt lat="28.723625" lon="-17.875612">
        <ele>750.075</ele>
        <time>2024-02-08T12:31:12Z</time>
      </trkpt>
      <trkpt lat="28.723529" lon="-17.875717">
        <ele>755.598</ele>
        <time>2024-02-08T12:31:43Z</time>
      </trkpt>
      <trkpt lat="28.723613" lon="-17.875386">
        <ele>759.342</ele>
        <time>2024-02-08T12:32:55Z</time>
      </trkpt>
      <trkpt lat="28.723461" lon="-17.875302">
        <ele>761.222</ele>
        <time>2024-02-08T12:33:11Z</time>
      </trkpt>
      <trkpt lat="28.723185" lon="-17.875401">
        <ele>765.914</ele>
        <time>2024-02-08T12:34:23Z</time>
      </trkpt>
      <trkpt lat="28.722954" lon="-17.875654">
        <ele>774.109</ele>
        <time>2024-02-08T12:35:03Z</time>
      </trkpt>
      <trkpt lat="28.723014" lon="-17.875690">
        <ele>774.775</ele>
        <time>2024-02-08T12:40:21Z</time>
      </trkpt>
      <trkpt lat="28.722825" lon="-17.875415">
        <ele>777.760</ele>
        <time>2024-02-08T12:41:50Z</time>
      </trkpt>
      <trkpt lat="28.722525" lon="-17.875470">
        <ele>782.124</ele>
        <time>2024-02-08T12:42:18Z</time>
      </trkpt>
      <trkpt lat="28.722416" lon="-17.875723">
        <ele>779.439</ele>
        <time>2024-02-08T12:42:45Z</time>
      </trkpt>
      <trkpt lat="28.722162" lon="-17.875615">
        <ele>778.112</ele>
        <time>2024-02-08T12:43:27Z</time>
      </trkpt>
      <trkpt lat="28.720858" lon="-17.875602">
        <ele>781.977</ele>
        <time>2024-02-08T12:46:03Z</time>
      </trkpt>
      <trkpt lat="28.720345" lon="-17.875483">
        <ele>783.976</ele>
        <time>2024-02-08T12:47:09Z</time>
      </trkpt>
      <trkpt lat="28.719951" lon="-17.875709">
        <ele>774.890</ele>
        <time>2024-02-08T12:49:04Z</time>
      </trkpt>
      <trkpt lat="28.719859" lon="-17.875893">
        <ele>773.093</ele>
        <time>2024-02-08T12:49:46Z</time>
      </trkpt>
      <trkpt lat="28.719366" lon="-17.876024">
        <ele>765.348</ele>
        <time>2024-02-08T12:50:21Z</time>
      </trkpt>
      <trkpt lat="28.718655" lon="-17.876517">
        <ele>758.661</ele>
        <time>2024-02-08T12:51:58Z</time>
      </trkpt>
      <trkpt lat="28.718468" lon="-17.876378">
        <ele>762.017</ele>
        <time>2024-02-08T12:52:27Z</time>
      </trkpt>
      <trkpt lat="28.718545" lon="-17.876109">
        <ele>766.109</ele>
        <time>2024-02-08T12:56:41Z</time>
      </trkpt>
      <trkpt lat="28.718550" lon="-17.876239">
        <ele>766.685</ele>
        <time>2024-02-08T12:56:43Z</time>
      </trkpt>
      <trkpt lat="28.718412" lon="-17.876296">
        <ele>780.050</ele>
        <time>2024-02-08T12:57:08Z</time>
      </trkpt>
      <trkpt lat="28.718523" lon="-17.876250">
        <ele>766.844</ele>
        <time>2024-02-08T12:58:26Z</time>
      </trkpt>
      <trkpt lat="28.718379" lon="-17.876528">
        <ele>765.759</ele>
        <time>2024-02-08T13:02:39Z</time>
      </trkpt>
      <trkpt lat="28.718456" lon="-17.876672">
        <ele>762.792</ele>
        <time>2024-02-08T13:02:51Z</time>
      </trkpt>
      <trkpt lat="28.718379" lon="-17.876819">
        <ele>760.737</ele>
        <time>2024-02-08T13:03:10Z</time>
      </trkpt>
      <trkpt lat="28.718133" lon="-17.876796">
        <ele>758.676</ele>
        <time>2024-02-08T13:03:30Z</time>
      </trkpt>
      <trkpt lat="28.717792" lon="-17.877036">
        <ele>750.020</ele>
        <time>2024-02-08T13:04:19Z</time>
      </trkpt>
      <trkpt lat="28.717496" lon="-17.876975">
        <ele>741.863</ele>
        <time>2024-02-08T13:04:44Z</time>
      </trkpt>
      <trkpt lat="28.717356" lon="-17.877290">
        <ele>734.278</ele>
        <time>2024-02-08T13:05:55Z</time>
      </trkpt>
      <trkpt lat="28.717404" lon="-17.877500">
        <ele>727.733</ele>
        <time>2024-02-08T13:06:26Z</time>
      </trkpt>
      <trkpt lat="28.717325" lon="-17.877435">
        <ele>725.126</ele>
        <time>2024-02-08T13:06:40Z</time>
      </trkpt>
      <trkpt lat="28.717333" lon="-17.877667">
        <ele>718.409</ele>
        <time>2024-02-08T13:07:18Z</time>
      </trkpt>
      <trkpt lat="28.717210" lon="-17.877836">
        <ele>713.878</ele>
        <time>2024-02-08T13:07:35Z</time>
      </trkpt>
      <trkpt lat="28.717182" lon="-17.877761">
        <ele>712.663</ele>
        <time>2024-02-08T13:07:53Z</time>
      </trkpt>
      <trkpt lat="28.717034" lon="-17.877882">
        <ele>705.757</ele>
        <time>2024-02-08T13:08:16Z</time>
      </trkpt>
      <trkpt lat="28.716739" lon="-17.877875">
        <ele>691.672</ele>
        <time>2024-02-08T13:09:59Z</time>
      </trkpt>
      <trkpt lat="28.716508" lon="-17.878094">
        <ele>681.225</ele>
        <time>2024-02-08T13:10:29Z</time>
      </trkpt>
      <trkpt lat="28.716267" lon="-17.878029">
        <ele>680.010</ele>
        <time>2024-02-08T13:10:50Z</time>
      </trkpt>
      <trkpt lat="28.716191" lon="-17.878263">
        <ele>678.589</ele>
        <time>2024-02-08T13:11:39Z</time>
      </trkpt>
      <trkpt lat="28.716096" lon="-17.878221">
        <ele>676.363</ele>
        <time>2024-02-08T13:11:54Z</time>
      </trkpt>
      <trkpt lat="28.716025" lon="-17.878362">
        <ele>671.086</ele>
        <time>2024-02-08T13:12:09Z</time>
      </trkpt>
      <trkpt lat="28.715664" lon="-17.878157">
        <ele>664.019</ele>
        <time>2024-02-08T13:12:56Z</time>
      </trkpt>
      <trkpt lat="28.715572" lon="-17.878202">
        <ele>663.609</ele>
        <time>2024-02-08T13:13:54Z</time>
      </trkpt>
      <trkpt lat="28.715581" lon="-17.878086">
        <ele>661.319</ele>
        <time>2024-02-08T13:14:12Z</time>
      </trkpt>
      <trkpt lat="28.715348" lon="-17.878273">
        <ele>652.009</ele>
        <time>2024-02-08T13:14:45Z</time>
      </trkpt>
      <trkpt lat="28.715429" lon="-17.877758">
        <ele>632.792</ele>
        <time>2024-02-08T13:16:18Z</time>
      </trkpt>
      <trkpt lat="28.715562" lon="-17.877697">
        <ele>630.747</ele>
        <time>2024-02-08T13:16:35Z</time>
      </trkpt>
      <trkpt lat="28.715730" lon="-17.877810">
        <ele>626.031</ele>
        <time>2024-02-08T13:16:57Z</time>
      </trkpt>
      <trkpt lat="28.715606" lon="-17.877512">
        <ele>616.246</ele>
        <time>2024-02-08T13:17:30Z</time>
      </trkpt>
      <trkpt lat="28.715768" lon="-17.877449">
        <ele>607.189</ele>
        <time>2024-02-08T13:18:12Z</time>
      </trkpt>
      <trkpt lat="28.715530" lon="-17.877277">
        <ele>602.564</ele>
        <time>2024-02-08T13:18:40Z</time>
      </trkpt>
      <trkpt lat="28.715285" lon="-17.877258">
        <ele>598.933</ele>
        <time>2024-02-08T13:19:44Z</time>
      </trkpt>
      <trkpt lat="28.715447" lon="-17.877119">
        <ele>592.977</ele>
        <time>2024-02-08T13:20:13Z</time>
      </trkpt>
      <trkpt lat="28.715420" lon="-17.877010">
        <ele>590.590</ele>
        <time>2024-02-08T13:20:40Z</time>
      </trkpt>
      <trkpt lat="28.715153" lon="-17.877045">
        <ele>582.677</ele>
        <time>2024-02-08T13:21:05Z</time>
      </trkpt>
      <trkpt lat="28.714906" lon="-17.877313">
        <ele>577.661</ele>
        <time>2024-02-08T13:22:15Z</time>
      </trkpt>
      <trkpt lat="28.714508" lon="-17.877313">
        <ele>568.527</ele>
        <time>2024-02-08T13:22:57Z</time>
      </trkpt>
      <trkpt lat="28.714181" lon="-17.877562">
        <ele>558.709</ele>
        <time>2024-02-08T13:23:38Z</time>
      </trkpt>
      <trkpt lat="28.713954" lon="-17.877511">
        <ele>556.058</ele>
        <time>2024-02-08T13:24:01Z</time>
      </trkpt>
      <trkpt lat="28.713546" lon="-17.877909">
        <ele>550.253</ele>
        <time>2024-02-08T13:24:44Z</time>
      </trkpt>
      <trkpt lat="28.713485" lon="-17.878153">
        <ele>546.697</ele>
        <time>2024-02-08T13:25:05Z</time>
      </trkpt>
      <trkpt lat="28.712865" lon="-17.878204">
        <ele>539.942</ele>
        <time>2024-02-08T13:26:16Z</time>
      </trkpt>
      <trkpt lat="28.712721" lon="-17.878287">
        <ele>539.545</ele>
        <time>2024-02-08T13:26:31Z</time>
      </trkpt>
      <trkpt lat="28.712682" lon="-17.878460">
        <ele>539.070</ele>
        <time>2024-02-08T13:26:50Z</time>
      </trkpt>
      <trkpt lat="28.712457" lon="-17.878369">
        <ele>536.319</ele>
        <time>2024-02-08T13:27:19Z</time>
      </trkpt>
      <trkpt lat="28.712288" lon="-17.878697">
        <ele>529.453</ele>
        <time>2024-02-08T13:27:51Z</time>
      </trkpt>
      <trkpt lat="28.712282" lon="-17.878614">
        <ele>527.556</ele>
        <time>2024-02-08T13:28:17Z</time>
      </trkpt>
      <trkpt lat="28.712121" lon="-17.878730">
        <ele>521.215</ele>
        <time>2024-02-08T13:28:40Z</time>
      </trkpt>
      <trkpt lat="28.711835" lon="-17.878584">
        <ele>519.565</ele>
        <time>2024-02-08T13:29:06Z</time>
      </trkpt>
      <trkpt lat="28.711557" lon="-17.878623">
        <ele>518.111</ele>
        <time>2024-02-08T13:29:35Z</time>
      </trkpt>
      <trkpt lat="28.711033" lon="-17.878467">
        <ele>522.509</ele>
        <time>2024-02-08T13:30:28Z</time>
      </trkpt>
      <trkpt lat="28.710079" lon="-17.878935">
        <ele>516.132</ele>
        <time>2024-02-08T13:32:34Z</time>
      </trkpt>
      <trkpt lat="28.709908" lon="-17.878871">
        <ele>516.847</ele>
        <time>2024-02-08T13:33:04Z</time>
      </trkpt>
      <trkpt lat="28.709945" lon="-17.879632">
        <ele>514.541</ele>
        <time>2024-02-08T13:35:10Z</time>
      </trkpt>
      <trkpt lat="28.709883" lon="-17.879553">
        <ele>511.486</ele>
        <time>2024-02-08T13:35:31Z</time>
      </trkpt>
      <trkpt lat="28.709817" lon="-17.879788">
        <ele>512.249</ele>
        <time>2024-02-08T13:36:39Z</time>
      </trkpt>
      <trkpt lat="28.709604" lon="-17.879799">
        <ele>502.834</ele>
        <time>2024-02-08T13:37:44Z</time>
      </trkpt>
      <trkpt lat="28.709101" lon="-17.879440">
        <ele>495.893</ele>
        <time>2024-02-08T13:39:22Z</time>
      </trkpt>
      <trkpt lat="28.708598" lon="-17.879462">
        <ele>486.457</ele>
        <time>2024-02-08T13:40:13Z</time>
      </trkpt>
      <trkpt lat="28.708639" lon="-17.879364">
        <ele>485.390</ele>
        <time>2024-02-08T13:40:30Z</time>
      </trkpt>
      <trkpt lat="28.708741" lon="-17.879398">
        <ele>481.957</ele>
        <time>2024-02-08T13:42:00Z</time>
      </trkpt>
      <trkpt lat="28.708610" lon="-17.879321">
        <ele>479.100</ele>
        <time>2024-02-08T13:42:20Z</time>
      </trkpt>
      <trkpt lat="28.708854" lon="-17.879303">
        <ele>475.120</ele>
        <time>2024-02-08T13:42:57Z</time>
      </trkpt>
      <trkpt lat="28.709016" lon="-17.879409">
        <ele>476.509</ele>
        <time>2024-02-08T13:43:31Z</time>
      </trkpt>
      <trkpt lat="28.709269" lon="-17.879831">
        <ele>481.136</ele>
        <time>2024-02-08T13:44:24Z</time>
      </trkpt>
      <trkpt lat="28.709423" lon="-17.879764">
        <ele>482.151</ele>
        <time>2024-02-08T13:44:42Z</time>
      </trkpt>
      <trkpt lat="28.709272" lon="-17.879652">
        <ele>481.865</ele>
        <time>2024-02-08T13:45:45Z</time>
      </trkpt>
      <trkpt lat="28.709322" lon="-17.879800">
        <ele>481.890</ele>
        <time>2024-02-08T13:45:57Z</time>
      </trkpt>
      <trkpt lat="28.709789" lon="-17.879600">
        <ele>485.883</ele>
        <time>2024-02-08T13:47:27Z</time>
      </trkpt>
      <trkpt lat="28.709827" lon="-17.879909">
        <ele>487.028</ele>
        <time>2024-02-08T13:48:29Z</time>
      </trkpt>
      <trkpt lat="28.709825" lon="-17.879641">
        <ele>487.737</ele>
        <time>2024-02-08T13:56:28Z</time>
      </trkpt>
      <trkpt lat="28.709809" lon="-17.879763">
        <ele>488.511</ele>
        <time>2024-02-08T13:57:04Z</time>
      </trkpt>
      <trkpt lat="28.709662" lon="-17.879743">
        <ele>488.714</ele>
        <time>2024-02-08T14:08:09Z</time>
      </trkpt>
      <trkpt lat="28.709709" lon="-17.879563">
        <ele>489.969</ele>
        <time>2024-02-08T14:13:42Z</time>
      </trkpt>
      <trkpt lat="28.709426" lon="-17.879701">
        <ele>490.004</ele>
        <time>2024-02-08T14:17:04Z</time>
      </trkpt>
      <trkpt lat="28.708859" lon="-17.879258">
        <ele>483.224</ele>
        <time>2024-02-08T14:21:17Z</time>
      </trkpt>
      <trkpt lat="28.708147" lon="-17.879302">
        <ele>480.109</ele>
        <time>2024-02-08T14:22:44Z</time>
      </trkpt>
      <trkpt lat="28.708199" lon="-17.879460">
        <ele>479.997</ele>
        <time>2024-02-08T14:23:03Z</time>
      </trkpt>
      <trkpt lat="28.707977" lon="-17.879488">
        <ele>479.212</ele>
        <time>2024-02-08T14:23:22Z</time>
      </trkpt>
      <trkpt lat="28.707601" lon="-17.879806">
        <ele>476.676</ele>
        <time>2024-02-08T14:24:03Z</time>
      </trkpt>
      <trkpt lat="28.707595" lon="-17.880201">
        <ele>477.251</ele>
        <time>2024-02-08T14:24:24Z</time>
      </trkpt>
      <trkpt lat="28.708328" lon="-17.879423">
        <ele>480.344</ele>
        <time>2024-02-08T14:26:42Z</time>
      </trkpt>
      <trkpt lat="28.708905" lon="-17.879373">
        <ele>483.599</ele>
        <time>2024-02-08T14:27:39Z</time>
      </trkpt>
      <trkpt lat="28.709477" lon="-17.878797">
        <ele>486.658</ele>
        <time>2024-02-08T14:28:38Z</time>
      </trkpt>
      <trkpt lat="28.709580" lon="-17.878543">
        <ele>488.252</ele>
        <time>2024-02-08T14:29:05Z</time>
      </trkpt>
      <trkpt lat="28.709519" lon="-17.878308">
        <ele>490.545</ele>
        <time>2024-02-08T14:29:18Z</time>
      </trkpt>
      <trkpt lat="28.709795" lon="-17.877901">
        <ele>492.261</ele>
        <time>2024-02-08T14:29:58Z</time>
      </trkpt>
      <trkpt lat="28.709844" lon="-17.877372">
        <ele>495.721</ele>
        <time>2024-02-08T14:30:42Z</time>
      </trkpt>
      <trkpt lat="28.709960" lon="-17.877183">
        <ele>496.813</ele>
        <time>2024-02-08T14:31:01Z</time>
      </trkpt>
      <trkpt lat="28.709800" lon="-17.876784">
        <ele>499.609</ele>
        <time>2024-02-08T14:31:39Z</time>
      </trkpt>
      <trkpt lat="28.709870" lon="-17.877398">
        <ele>497.487</ele>
        <time>2024-02-08T14:34:19Z</time>
      </trkpt>
      <trkpt lat="28.710047" lon="-17.877449">
        <ele>496.762</ele>
        <time>2024-02-08T14:34:44Z</time>
      </trkpt>
      <trkpt lat="28.709690" lon="-17.877838">
        <ele>495.336</ele>
        <time>2024-02-08T14:35:19Z</time>
      </trkpt>
      <trkpt lat="28.709615" lon="-17.878472">
        <ele>492.031</ele>
        <time>2024-02-08T14:36:09Z</time>
      </trkpt>
      <trkpt lat="28.709303" lon="-17.878751">
        <ele>489.654</ele>
        <time>2024-02-08T14:36:40Z</time>
      </trkpt>
      <trkpt lat="28.709238" lon="-17.878987">
        <ele>487.919</ele>
        <time>2024-02-08T14:37:24Z</time>
      </trkpt>
      <trkpt lat="28.709062" lon="-17.879104">
        <ele>487.568</ele>
        <time>2024-02-08T14:37:40Z</time>
      </trkpt>
      <trkpt lat="28.708787" lon="-17.879103">
        <ele>486.062</ele>
        <time>2024-02-08T14:37:58Z</time>
      </trkpt>
      <trkpt lat="28.708533" lon="-17.879298">
        <ele>483.915</ele>
        <time>2024-02-08T14:38:26Z</time>
      </trkpt>
      <trkpt lat="28.707816" lon="-17.879435">
        <ele>481.368</ele>
        <time>2024-02-08T14:39:12Z</time>
      </trkpt>
      <trkpt lat="28.707547" lon="-17.879682">
        <ele>479.742</ele>
        <time>2024-02-08T14:39:41Z</time>
      </trkpt>
      <trkpt lat="28.707550" lon="-17.880106">
        <ele>479.026</ele>
        <time>2024-02-08T14:40:02Z</time>
      </trkpt>
      <trkpt lat="28.707727" lon="-17.880561">
        <ele>481.609</ele>
        <time>2024-02-08T14:44:40Z</time>
      </trkpt>
      <trkpt lat="28.707648" lon="-17.880771">
        <ele>479.767</ele>
        <time>2024-02-08T14:45:04Z</time>
      </trkpt>
      <trkpt lat="28.707409" lon="-17.880749">
        <ele>476.822</ele>
        <time>2024-02-08T14:45:22Z</time>
      </trkpt>
      <trkpt lat="28.707433" lon="-17.880873">
        <ele>476.216</ele>
        <time>2024-02-08T14:45:26Z</time>
      </trkpt>
      <trkpt lat="28.707132" lon="-17.880980">
        <ele>474.251</ele>
        <time>2024-02-08T14:45:45Z</time>
      </trkpt>
      <trkpt lat="28.707114" lon="-17.881364">
        <ele>473.564</ele>
        <time>2024-02-08T14:46:09Z</time>
      </trkpt>
      <trkpt lat="28.707307" lon="-17.881716">
        <ele>471.269</ele>
        <time>2024-02-08T14:46:35Z</time>
      </trkpt>
      <trkpt lat="28.707411" lon="-17.881714">
        <ele>471.258</ele>
        <time>2024-02-08T14:46:48Z</time>
      </trkpt>
      <trkpt lat="28.707051" lon="-17.882066">
        <ele>471.982</ele>
        <time>2024-02-08T14:47:46Z</time>
      </trkpt>
      <trkpt lat="28.707125" lon="-17.882558">
        <ele>470.565</ele>
        <time>2024-02-08T14:48:17Z</time>
      </trkpt>
      <trkpt lat="28.707085" lon="-17.882739">
        <ele>469.436</ele>
        <time>2024-02-08T14:48:35Z</time>
      </trkpt>
      <trkpt lat="28.706933" lon="-17.882829">
        <ele>467.117</ele>
        <time>2024-02-08T14:49:00Z</time>
      </trkpt>
      <trkpt lat="28.707134" lon="-17.883132">
        <ele>463.318</ele>
        <time>2024-02-08T14:49:43Z</time>
      </trkpt>
      <trkpt lat="28.707066" lon="-17.883283">
        <ele>463.209</ele>
        <time>2024-02-08T14:49:57Z</time>
      </trkpt>
      <trkpt lat="28.707370" lon="-17.883984">
        <ele>463.264</ele>
        <time>2024-02-08T14:53:33Z</time>
      </trkpt>
      <trkpt lat="28.707053" lon="-17.883453">
        <ele>462.589</ele>
        <time>2024-02-08T14:54:30Z</time>
      </trkpt>
      <trkpt lat="28.706760" lon="-17.883452">
        <ele>461.283</ele>
        <time>2024-02-08T14:54:52Z</time>
      </trkpt>
      <trkpt lat="28.706851" lon="-17.883463">
        <ele>460.918</ele>
        <time>2024-02-08T14:55:36Z</time>
      </trkpt>
      <trkpt lat="28.706838" lon="-17.883582">
        <ele>460.881</ele>
        <time>2024-02-08T14:56:00Z</time>
      </trkpt>
      <trkpt lat="28.706864" lon="-17.883486">
        <ele>461.096</ele>
        <time>2024-02-08T14:56:24Z</time>
      </trkpt>
      <trkpt lat="28.706742" lon="-17.883518">
        <ele>461.035</ele>
        <time>2024-02-08T14:57:33Z</time>
      </trkpt>
      <trkpt lat="28.706825" lon="-17.883754">
        <ele>461.359</ele>
        <time>2024-02-08T14:57:51Z</time>
      </trkpt>
      <trkpt lat="28.707062" lon="-17.883777">
        <ele>461.682</ele>
        <time>2024-02-08T14:58:22Z</time>
      </trkpt>
      <trkpt lat="28.706505" lon="-17.884864">
        <ele>461.858</ele>
        <time>2024-02-08T14:59:57Z</time>
      </trkpt>
      <trkpt lat="28.706538" lon="-17.885285">
        <ele>460.952</ele>
        <time>2024-02-08T15:00:18Z</time>
      </trkpt>
      <trkpt lat="28.706259" lon="-17.886255">
        <ele>450.317</ele>
        <time>2024-02-08T15:01:32Z</time>
      </trkpt>
      <trkpt lat="28.705876" lon="-17.886726">
        <ele>443.609</ele>
        <time>2024-02-08T15:02:33Z</time>
      </trkpt>
      <trkpt lat="28.705964" lon="-17.886810">
        <ele>443.216</ele>
        <time>2024-02-08T15:03:23Z</time>
      </trkpt>
      <trkpt lat="28.705577" lon="-17.887055">
        <ele>441.481</ele>
        <time>2024-02-08T15:03:51Z</time>
      </trkpt>
      <trkpt lat="28.705269" lon="-17.888264">
        <ele>437.435</ele>
        <time>2024-02-08T15:05:17Z</time>
      </trkpt>
      <trkpt lat="28.705234" lon="-17.890199">
        <ele>432.610</ele>
        <time>2024-02-08T15:07:57Z</time>
      </trkpt>
      <trkpt lat="28.704798" lon="-17.890905">
        <ele>429.773</ele>
        <time>2024-02-08T15:09:09Z</time>
      </trkpt>
      <trkpt lat="28.704746" lon="-17.891265">
        <ele>429.458</ele>
        <time>2024-02-08T15:09:38Z</time>
      </trkpt>
      <trkpt lat="28.704670" lon="-17.891182">
        <ele>430.327</ele>
        <time>2024-02-08T15:11:10Z</time>
      </trkpt>
      <trkpt lat="28.704725" lon="-17.891335">
        <ele>433.891</ele>
        <time>2024-02-08T15:13:17Z</time>
      </trkpt>
      <trkpt lat="28.704415" lon="-17.891480">
        <ele>428.294</ele>
        <time>2024-02-08T15:14:26Z</time>
      </trkpt>
      <trkpt lat="28.704158" lon="-17.891757">
        <ele>426.918</ele>
        <time>2024-02-08T15:14:53Z</time>
      </trkpt>
      <trkpt lat="28.703965" lon="-17.891733">
        <ele>425.398</ele>
        <time>2024-02-08T15:15:08Z</time>
      </trkpt>
      <trkpt lat="28.703587" lon="-17.891984">
        <ele>423.317</ele>
        <time>2024-02-08T15:15:41Z</time>
      </trkpt>
      <trkpt lat="28.703170" lon="-17.892084">
        <ele>421.709</ele>
        <time>2024-02-08T15:16:09Z</time>
      </trkpt>
      <trkpt lat="28.702949" lon="-17.892314">
        <ele>420.772</ele>
        <time>2024-02-08T15:16:36Z</time>
      </trkpt>
      <trkpt lat="28.702656" lon="-17.893084">
        <ele>417.997</ele>
        <time>2024-02-08T15:17:49Z</time>
      </trkpt>
      <trkpt lat="28.702042" lon="-17.893309">
        <ele>413.551</ele>
        <time>2024-02-08T15:19:19Z</time>
      </trkpt>
      <trkpt lat="28.701954" lon="-17.893505">
        <ele>412.556</ele>
        <time>2024-02-08T15:20:11Z</time>
      </trkpt>
      <trkpt lat="28.701884" lon="-17.893386">
        <ele>412.229</ele>
        <time>2024-02-08T15:20:29Z</time>
      </trkpt>
      <trkpt lat="28.701594" lon="-17.893557">
        <ele>410.774</ele>
        <time>2024-02-08T15:20:54Z</time>
      </trkpt>
      <trkpt lat="28.701560" lon="-17.893734">
        <ele>410.473</ele>
        <time>2024-02-08T15:21:02Z</time>
      </trkpt>
      <trkpt lat="28.701739" lon="-17.894099">
        <ele>408.687</ele>
        <time>2024-02-08T15:21:25Z</time>
      </trkpt>
      <trkpt lat="28.701623" lon="-17.894256">
        <ele>407.830</ele>
        <time>2024-02-08T15:21:33Z</time>
      </trkpt>
      <trkpt lat="28.701631" lon="-17.894478">
        <ele>406.637</ele>
        <time>2024-02-08T15:21:55Z</time>
      </trkpt>
      <trkpt lat="28.701997" lon="-17.895318">
        <ele>401.849</ele>
        <time>2024-02-08T15:23:09Z</time>
      </trkpt>
      <trkpt lat="28.701392" lon="-17.895727">
        <ele>398.913</ele>
        <time>2024-02-08T15:24:20Z</time>
      </trkpt>
      <trkpt lat="28.700906" lon="-17.895359">
        <ele>395.809</ele>
        <time>2024-02-08T15:25:09Z</time>
      </trkpt>
      <trkpt lat="28.700340" lon="-17.894635">
        <ele>393.894</ele>
        <time>2024-02-08T15:26:39Z</time>
      </trkpt>
      <trkpt lat="28.700148" lon="-17.894595">
        <ele>392.629</ele>
        <time>2024-02-08T15:26:52Z</time>
      </trkpt>
      <trkpt lat="28.699971" lon="-17.894797">
        <ele>391.623</ele>
        <time>2024-02-08T15:27:10Z</time>
      </trkpt>
      <trkpt lat="28.699665" lon="-17.894799">
        <ele>390.428</ele>
        <time>2024-02-08T15:27:36Z</time>
      </trkpt>
      <trkpt lat="28.699375" lon="-17.895122">
        <ele>388.611</ele>
        <time>2024-02-08T15:28:11Z</time>
      </trkpt>
      <trkpt lat="28.699255" lon="-17.895445">
        <ele>387.076</ele>
        <time>2024-02-08T15:28:36Z</time>
      </trkpt>
      <trkpt lat="28.698993" lon="-17.895575">
        <ele>386.555</ele>
        <time>2024-02-08T15:29:00Z</time>
      </trkpt>
      <trkpt lat="28.698832" lon="-17.895051">
        <ele>383.459</ele>
        <time>2024-02-08T15:29:43Z</time>
      </trkpt>
      <trkpt lat="28.698923" lon="-17.895121">
        <ele>383.422</ele>
        <time>2024-02-08T15:30:05Z</time>
      </trkpt>
      <trkpt lat="28.698504" lon="-17.894376">
        <ele>378.858</ele>
        <time>2024-02-08T15:32:17Z</time>
      </trkpt>
      <trkpt lat="28.698322" lon="-17.894265">
        <ele>378.052</ele>
        <time>2024-02-08T15:32:32Z</time>
      </trkpt>
      <trkpt lat="28.697985" lon="-17.894394">
        <ele>376.417</ele>
        <time>2024-02-08T15:33:05Z</time>
      </trkpt>
      <trkpt lat="28.697842" lon="-17.894319">
        <ele>376.209</ele>
        <time>2024-02-08T15:33:20Z</time>
      </trkpt>
      <trkpt lat="28.697580" lon="-17.894548">
        <ele>373.296</ele>
        <time>2024-02-08T15:34:06Z</time>
      </trkpt>
      <trkpt lat="28.697198" lon="-17.894285">
        <ele>371.751</ele>
        <time>2024-02-08T15:34:36Z</time>
      </trkpt>
      <trkpt lat="28.696908" lon="-17.894678">
        <ele>371.435</ele>
        <time>2024-02-08T15:35:31Z</time>
      </trkpt>
      <trkpt lat="28.697068" lon="-17.895038">
        <ele>368.650</ele>
        <time>2024-02-08T15:36:28Z</time>
      </trkpt>
      <trkpt lat="28.696977" lon="-17.895111">
        <ele>367.223</ele>
        <time>2024-02-08T15:36:45Z</time>
      </trkpt>
      <trkpt lat="28.697108" lon="-17.895263">
        <ele>366.328</ele>
        <time>2024-02-08T15:41:06Z</time>
      </trkpt>
      <trkpt lat="28.697030" lon="-17.895231">
        <ele>365.297</ele>
        <time>2024-02-08T15:41:29Z</time>
      </trkpt>
      <trkpt lat="28.696810" lon="-17.895894">
        <ele>363.011</ele>
        <time>2024-02-08T15:43:19Z</time>
      </trkpt>
      <trkpt lat="28.696904" lon="-17.896215">
        <ele>361.724</ele>
        <time>2024-02-08T15:43:46Z</time>
      </trkpt>
      <trkpt lat="28.696794" lon="-17.896577">
        <ele>361.018</ele>
        <time>2024-02-08T15:44:13Z</time>
      </trkpt>
      <trkpt lat="28.695775" lon="-17.896709">
        <ele>354.698</ele>
        <time>2024-02-08T15:46:18Z</time>
      </trkpt>
      <trkpt lat="28.695149" lon="-17.896655">
        <ele>351.117</ele>
        <time>2024-02-08T15:47:26Z</time>
      </trkpt>
      <trkpt lat="28.694948" lon="-17.896752">
        <ele>350.609</ele>
        <time>2024-02-08T15:48:00Z</time>
      </trkpt>
      <trkpt lat="28.694668" lon="-17.896650">
        <ele>349.182</ele>
        <time>2024-02-08T15:48:24Z</time>
      </trkpt>
      <trkpt lat="28.694196" lon="-17.896873">
        <ele>346.247</ele>
        <time>2024-02-08T15:49:26Z</time>
      </trkpt>
      <trkpt lat="28.694051" lon="-17.897082">
        <ele>344.631</ele>
        <time>2024-02-08T15:50:17Z</time>
      </trkpt>
      <trkpt lat="28.694155" lon="-17.897116">
        <ele>344.576</ele>
        <time>2024-02-08T15:52:28Z</time>
      </trkpt>
      <trkpt lat="28.694210" lon="-17.897003">
        <ele>343.439</ele>
        <time>2024-02-08T15:53:31Z</time>
      </trkpt>
      <trkpt lat="28.693985" lon="-17.898009">
        <ele>338.984</ele>
        <time>2024-02-08T15:55:35Z</time>
      </trkpt>
      <trkpt lat="28.694528" lon="-17.898549">
        <ele>333.323</ele>
        <time>2024-02-08T15:57:04Z</time>
      </trkpt>
      <trkpt lat="28.694327" lon="-17.899322">
        <ele>329.437</ele>
        <time>2024-02-08T15:59:04Z</time>
      </trkpt>
      <trkpt lat="28.694166" lon="-17.899341">
        <ele>328.710</ele>
        <time>2024-02-08T15:59:16Z</time>
      </trkpt>
      <trkpt lat="28.694115" lon="-17.899640">
        <ele>327.713</ele>
        <time>2024-02-08T15:59:39Z</time>
      </trkpt>
      <trkpt lat="28.693938" lon="-17.899909">
        <ele>325.943</ele>
        <time>2024-02-08T16:00:15Z</time>
      </trkpt>
      <trkpt lat="28.693800" lon="-17.899927">
        <ele>324.907</ele>
        <time>2024-02-08T16:00:29Z</time>
      </trkpt>
      <trkpt lat="28.693706" lon="-17.900251">
        <ele>323.309</ele>
        <time>2024-02-08T16:00:54Z</time>
      </trkpt>
      <trkpt lat="28.693343" lon="-17.900220">
        <ele>320.552</ele>
        <time>2024-02-08T16:01:27Z</time>
      </trkpt>
      <trkpt lat="28.692958" lon="-17.900454">
        <ele>319.017</ele>
        <time>2024-02-08T16:02:00Z</time>
      </trkpt>
      <trkpt lat="28.692610" lon="-17.900311">
        <ele>317.681</ele>
        <time>2024-02-08T16:02:32Z</time>
      </trkpt>
      <trkpt lat="28.692307" lon="-17.900521">
        <ele>316.456</ele>
        <time>2024-02-08T16:03:02Z</time>
      </trkpt>
      <trkpt lat="28.691747" lon="-17.900339">
        <ele>314.089</ele>
        <time>2024-02-08T16:03:53Z</time>
      </trkpt>
      <trkpt lat="28.691528" lon="-17.900430">
        <ele>313.184</ele>
        <time>2024-02-08T16:04:10Z</time>
      </trkpt>
      <trkpt lat="28.691199" lon="-17.901207">
        <ele>308.623</ele>
        <time>2024-02-08T16:05:36Z</time>
      </trkpt>
      <trkpt lat="28.691294" lon="-17.901897">
        <ele>304.087</ele>
        <time>2024-02-08T16:06:27Z</time>
      </trkpt>
      <trkpt lat="28.691201" lon="-17.901901">
        <ele>303.980</ele>
        <time>2024-02-08T16:06:38Z</time>
      </trkpt>
      <trkpt lat="28.691404" lon="-17.902362">
        <ele>302.374</ele>
        <time>2024-02-08T16:07:08Z</time>
      </trkpt>
      <trkpt lat="28.691157" lon="-17.902714">
        <ele>300.356</ele>
        <time>2024-02-08T16:07:50Z</time>
      </trkpt>
      <trkpt lat="28.691086" lon="-17.903285">
        <ele>298.821</ele>
        <time>2024-02-08T16:08:33Z</time>
      </trkpt>
      <trkpt lat="28.690833" lon="-17.903668">
        <ele>296.409</ele>
        <time>2024-02-08T16:09:07Z</time>
      </trkpt>
      <trkpt lat="28.690922" lon="-17.904078">
        <ele>295.258</ele>
        <time>2024-02-08T16:09:35Z</time>
      </trkpt>
      <trkpt lat="28.690427" lon="-17.904946">
        <ele>291.583</ele>
        <time>2024-02-08T16:10:56Z</time>
      </trkpt>
      <trkpt lat="28.689802" lon="-17.905207">
        <ele>288.957</ele>
        <time>2024-02-08T16:11:50Z</time>
      </trkpt>
      <trkpt lat="28.689711" lon="-17.905607">
        <ele>287.972</ele>
        <time>2024-02-08T16:12:13Z</time>
      </trkpt>
      <trkpt lat="28.689302" lon="-17.906311">
        <ele>291.125</ele>
        <time>2024-02-08T16:13:50Z</time>
      </trkpt>
      <trkpt lat="28.689020" lon="-17.906233">
        <ele>294.020</ele>
        <time>2024-02-08T16:14:12Z</time>
      </trkpt>
      <trkpt lat="28.689272" lon="-17.906290">
        <ele>293.999</ele>
        <time>2024-02-08T16:14:44Z</time>
      </trkpt>
      <trkpt lat="28.689643" lon="-17.905889">
        <ele>287.663</ele>
        <time>2024-02-08T16:16:10Z</time>
      </trkpt>
      <trkpt lat="28.689567" lon="-17.906590">
        <ele>284.536</ele>
        <time>2024-02-08T16:16:57Z</time>
      </trkpt>
      <trkpt lat="28.689146" lon="-17.906876">
        <ele>281.847</ele>
        <time>2024-02-08T16:17:47Z</time>
      </trkpt>
      <trkpt lat="28.688677" lon="-17.906833">
        <ele>280.129</ele>
        <time>2024-02-08T16:18:19Z</time>
      </trkpt>
      <trkpt lat="28.688260" lon="-17.907456">
        <ele>277.721</ele>
        <time>2024-02-08T16:19:23Z</time>
      </trkpt>
      <trkpt lat="28.687812" lon="-17.907718">
        <ele>275.909</ele>
        <time>2024-02-08T16:20:04Z</time>
      </trkpt>
      <trkpt lat="28.687254" lon="-17.908559">
        <ele>272.935</ele>
        <time>2024-02-08T16:21:59Z</time>
      </trkpt>
      <trkpt lat="28.686011" lon="-17.909057">
        <ele>275.890</ele>
        <time>2024-02-08T16:24:19Z</time>
      </trkpt>
      <trkpt lat="28.685627" lon="-17.909516">
        <ele>273.344</ele>
        <time>2024-02-08T16:25:18Z</time>
      </trkpt>
      <trkpt lat="28.685655" lon="-17.909663">
        <ele>271.919</ele>
        <time>2024-02-08T16:31:43Z</time>
      </trkpt>
    </trkseg>
  </trk></gpx>