<?xml version="1.0" encoding="UTF-8"?>
<gpx version="1.1" creator="Aventuras en Cada Paso" xmlns="http://www.topografix.com/GPX/1/1">
  <metadata>
    <name>Caldera de Los Marteles – Tenteniguada (SL-1)</name>
    <desc>Circular oficial SL-1 por la Caldera de Los Marteles con vistas al Pico de las Nieves. Almendros en flor en enero–febrero, paisaje único.</desc>
    <author><name>Aventuras en Cada Paso</name></author>
    <time>2026-07-08T08:12:58.163Z</time>
    <keywords>Gran Canaria, Senderismo, Media, senderismo Canarias</keywords>
  </metadata>
  <wpt lat="27.9708" lon="-15.4853">
    <name>Caldera de Los Marteles – Tenteniguada (SL-1)</name>
    <desc>Circular oficial SL-1 por la Caldera de Los Marteles con vistas al Pico de las Nieves. Almendros en flor en enero–febrero, paisaje único. | Isla: Gran Canaria | Tipo: Senderismo | Dificultad: Media | Distancia: 11km | Duración: 2-4 horas</desc>
    <type>Senderismo</type>
    <extensions>
      <isla>Gran Canaria</isla>
      <dificultad>Media</dificultad>
      <distancia>11</distancia>
      <duracion>2-4 horas</duracion>
    </extensions>
  </wpt>
</gpx>