<?xml version="1.0" encoding="UTF-8"?>
<gpx creator="Wikiloc - https://www.wikiloc.com" version="1.1" xmlns="http://www.topografix.com/GPX/1/1" xmlns:xsi="http://www.w3.org/2001/XMLSchema-instance" xsi:schemaLocation="http://www.topografix.com/GPX/1/1 http://www.topografix.com/GPX/1/1/gpx.xsd">
  <metadata>
    <name>Wikiloc - 20-10-2018-LA PALMA-CALDERA DE TABURIENTE: Mirador de los Br...</name>
    <link href="https://www.wikiloc.com/hiking-trails/20-10-2018-la-palma-caldera-de-taburiente-mirador-de-los-brecitos-cascada-de-colores-barranco-de-la-30083160">
      <text>20-10-2018-LA PALMA-CALDERA DE TABURIENTE: Mirador de los Br... on Wikiloc</text>
    </link>
    <time>2018-10-20T14:10:19Z</time>
  </metadata>
  <trk>
    <name>20-10-2018-LA PALMA-CALDERA DE TABURIENTE: Mirador de los Br... - Wikiloc</name>
    <cmt></cmt>
    <desc></desc>
    <trkseg>
      <trkpt lat="28.711666" lon="-17.900615">
        <ele>1101.384</ele>
        <time>2018-10-30T17:04:51Z</time>
      </trkpt>
      <trkpt lat="28.711554" lon="-17.900558">
        <ele>1097.007</ele>
        <time>2018-10-30T17:05:11Z</time>
      </trkpt>
      <trkpt lat="28.711887" lon="-17.900710">
        <ele>1088.817</ele>
        <time>2018-10-30T17:05:31Z</time>
      </trkpt>
      <trkpt lat="28.712428" lon="-17.900644">
        <ele>1083.008</ele>
        <time>2018-10-30T17:05:51Z</time>
      </trkpt>
      <trkpt lat="28.712265" lon="-17.900604">
        <ele>1082.111</ele>
        <time>2018-10-30T17:06:11Z</time>
      </trkpt>
      <trkpt lat="28.712916" lon="-17.901156">
        <ele>1078.728</ele>
        <time>2018-10-30T17:06:31Z</time>
      </trkpt>
      <trkpt lat="28.713270" lon="-17.901064">
        <ele>1069.628</ele>
        <time>2018-10-30T17:06:51Z</time>
      </trkpt>
      <trkpt lat="28.713752" lon="-17.901463">
        <ele>1057.596</ele>
        <time>2018-10-30T17:07:11Z</time>
      </trkpt>
      <trkpt lat="28.713901" lon="-17.901406">
        <ele>1055.191</ele>
        <time>2018-10-30T17:07:31Z</time>
      </trkpt>
      <trkpt lat="28.714204" lon="-17.901572">
        <ele>1050.899</ele>
        <time>2018-10-30T17:07:51Z</time>
      </trkpt>
      <trkpt lat="28.714574" lon="-17.901366">
        <ele>1055.654</ele>
        <time>2018-10-30T17:08:11Z</time>
      </trkpt>
      <trkpt lat="28.715174" lon="-17.901806">
        <ele>1052.728</ele>
        <time>2018-10-30T17:08:31Z</time>
      </trkpt>
      <trkpt lat="28.715580" lon="-17.901513">
        <ele>1050.814</ele>
        <time>2018-10-30T17:08:51Z</time>
      </trkpt>
      <trkpt lat="28.716209" lon="-17.901489">
        <ele>1047.954</ele>
        <time>2018-10-30T17:09:11Z</time>
      </trkpt>
      <trkpt lat="28.716273" lon="-17.901398">
        <ele>1048.409</ele>
        <time>2018-10-30T17:09:31Z</time>
      </trkpt>
      <trkpt lat="28.716045" lon="-17.901063">
        <ele>1051.808</ele>
        <time>2018-10-30T17:09:51Z</time>
      </trkpt>
      <trkpt lat="28.716177" lon="-17.900593">
        <ele>1055.124</ele>
        <time>2018-10-30T17:10:11Z</time>
      </trkpt>
      <trkpt lat="28.716047" lon="-17.900355">
        <ele>1058.571</ele>
        <time>2018-10-30T17:10:31Z</time>
      </trkpt>
      <trkpt lat="28.716338" lon="-17.899837">
        <ele>1059.991</ele>
        <time>2018-10-30T17:10:51Z</time>
      </trkpt>
      <trkpt lat="28.716172" lon="-17.899630">
        <ele>1063.859</ele>
        <time>2018-10-30T17:11:11Z</time>
      </trkpt>
      <trkpt lat="28.716284" lon="-17.899103">
        <ele>1071.524</ele>
        <time>2018-10-30T17:11:31Z</time>
      </trkpt>
      <trkpt lat="28.716032" lon="-17.898257">
        <ele>1069.692</ele>
        <time>2018-10-30T17:11:51Z</time>
      </trkpt>
      <trkpt lat="28.716233" lon="-17.898054">
        <ele>1071.077</ele>
        <time>2018-10-30T17:12:11Z</time>
      </trkpt>
      <trkpt lat="28.717025" lon="-17.898540">
        <ele>1072.941</ele>
        <time>2018-10-30T17:12:31Z</time>
      </trkpt>
      <trkpt lat="28.717509" lon="-17.899115">
        <ele>1073.969</ele>
        <time>2018-10-30T17:12:51Z</time>
      </trkpt>
      <trkpt lat="28.717416" lon="-17.899064">
        <ele>1074.404</ele>
        <time>2018-10-30T17:13:11Z</time>
      </trkpt>
      <trkpt lat="28.717457" lon="-17.897960">
        <ele>1071.524</ele>
        <time>2018-10-30T17:13:31Z</time>
      </trkpt>
      <trkpt lat="28.716952" lon="-17.897227">
        <ele>1071.508</ele>
        <time>2018-10-30T17:13:51Z</time>
      </trkpt>
      <trkpt lat="28.716919" lon="-17.896708">
        <ele>1077.229</ele>
        <time>2018-10-30T17:14:11Z</time>
      </trkpt>
      <trkpt lat="28.717174" lon="-17.896330">
        <ele>1073.986</ele>
        <time>2018-10-30T17:14:31Z</time>
      </trkpt>
      <trkpt lat="28.717224" lon="-17.895781">
        <ele>1064.756</ele>
        <time>2018-10-30T17:14:51Z</time>
      </trkpt>
      <trkpt lat="28.718561" lon="-17.895172">
        <ele>1048.994</ele>
        <time>2018-10-30T17:15:11Z</time>
      </trkpt>
      <trkpt lat="28.718688" lon="-17.894888">
        <ele>1045.079</ele>
        <time>2018-10-30T17:15:31Z</time>
      </trkpt>
      <trkpt lat="28.718790" lon="-17.895060">
        <ele>1041.297</ele>
        <time>2018-10-30T17:15:51Z</time>
      </trkpt>
      <trkpt lat="28.720020" lon="-17.895182">
        <ele>1038.862</ele>
        <time>2018-10-30T17:16:11Z</time>
      </trkpt>
      <trkpt lat="28.720265" lon="-17.895950">
        <ele>1031.136</ele>
        <time>2018-10-30T17:16:31Z</time>
      </trkpt>
      <trkpt lat="28.720488" lon="-17.896147">
        <ele>1032.199</ele>
        <time>2018-10-30T17:16:51Z</time>
      </trkpt>
      <trkpt lat="28.720411" lon="-17.896042">
        <ele>1031.607</ele>
        <time>2018-10-30T17:17:11Z</time>
      </trkpt>
      <trkpt lat="28.720589" lon="-17.895979">
        <ele>1027.327</ele>
        <time>2018-10-30T17:17:31Z</time>
      </trkpt>
      <trkpt lat="28.720576" lon="-17.895484">
        <ele>1025.808</ele>
        <time>2018-10-30T17:17:51Z</time>
      </trkpt>
      <trkpt lat="28.720755" lon="-17.895032">
        <ele>1017.232</ele>
        <time>2018-10-30T17:18:11Z</time>
      </trkpt>
      <trkpt lat="28.720602" lon="-17.894751">
        <ele>1012.499</ele>
        <time>2018-10-30T17:18:31Z</time>
      </trkpt>
      <trkpt lat="28.720817" lon="-17.894014">
        <ele>1005.119</ele>
        <time>2018-10-30T17:18:51Z</time>
      </trkpt>
      <trkpt lat="28.720750" lon="-17.893283">
        <ele>998.477</ele>
        <time>2018-10-30T17:19:11Z</time>
      </trkpt>
      <trkpt lat="28.721245" lon="-17.893076">
        <ele>995.192</ele>
        <time>2018-10-30T17:19:31Z</time>
      </trkpt>
      <trkpt lat="28.721336" lon="-17.893232">
        <ele>993.690</ele>
        <time>2018-10-30T17:19:51Z</time>
      </trkpt>
      <trkpt lat="28.721795" lon="-17.893136">
        <ele>986.955</ele>
        <time>2018-10-30T17:20:11Z</time>
      </trkpt>
      <trkpt lat="28.722129" lon="-17.893304">
        <ele>983.579</ele>
        <time>2018-10-30T17:20:31Z</time>
      </trkpt>
      <trkpt lat="28.722330" lon="-17.893164">
        <ele>983.032</ele>
        <time>2018-10-30T17:20:51Z</time>
      </trkpt>
      <trkpt lat="28.722352" lon="-17.892039">
        <ele>980.292</ele>
        <time>2018-10-30T17:21:11Z</time>
      </trkpt>
      <trkpt lat="28.722097" lon="-17.891705">
        <ele>981.611</ele>
        <time>2018-10-30T17:21:31Z</time>
      </trkpt>
      <trkpt lat="28.721940" lon="-17.890999">
        <ele>977.708</ele>
        <time>2018-10-30T17:21:51Z</time>
      </trkpt>
      <trkpt lat="28.722060" lon="-17.890080">
        <ele>969.676</ele>
        <time>2018-10-30T17:22:11Z</time>
      </trkpt>
      <trkpt lat="28.721930" lon="-17.889842">
        <ele>970.573</ele>
        <time>2018-10-30T17:22:31Z</time>
      </trkpt>
      <trkpt lat="28.721190" lon="-17.889488">
        <ele>959.063</ele>
        <time>2018-10-30T17:22:51Z</time>
      </trkpt>
      <trkpt lat="28.721659" lon="-17.889231">
        <ele>951.811</ele>
        <time>2018-10-30T17:23:11Z</time>
      </trkpt>
      <trkpt lat="28.721538" lon="-17.888552">
        <ele>936.976</ele>
        <time>2018-10-30T17:23:31Z</time>
      </trkpt>
      <trkpt lat="28.721650" lon="-17.888215">
        <ele>936.914</ele>
        <time>2018-10-30T17:23:51Z</time>
      </trkpt>
      <trkpt lat="28.721915" lon="-17.888037">
        <ele>934.519</ele>
        <time>2018-10-30T17:24:11Z</time>
      </trkpt>
      <trkpt lat="28.721984" lon="-17.887653">
        <ele>932.673</ele>
        <time>2018-10-30T17:24:31Z</time>
      </trkpt>
      <trkpt lat="28.722497" lon="-17.887738">
        <ele>929.232</ele>
        <time>2018-10-30T17:24:51Z</time>
      </trkpt>
      <trkpt lat="28.722436" lon="-17.887151">
        <ele>920.192</ele>
        <time>2018-10-30T17:25:11Z</time>
      </trkpt>
      <trkpt lat="28.722577" lon="-17.887190">
        <ele>915.711</ele>
        <time>2018-10-30T17:25:31Z</time>
      </trkpt>
      <trkpt lat="28.722609" lon="-17.886995">
        <ele>910.908</ele>
        <time>2018-10-30T17:25:51Z</time>
      </trkpt>
      <trkpt lat="28.722357" lon="-17.885307">
        <ele>897.086</ele>
        <time>2018-10-30T17:26:11Z</time>
      </trkpt>
      <trkpt lat="28.722650" lon="-17.885195">
        <ele>895.183</ele>
        <time>2018-10-30T17:26:31Z</time>
      </trkpt>
      <trkpt lat="28.722765" lon="-17.884810">
        <ele>891.733</ele>
        <time>2018-10-30T17:26:51Z</time>
      </trkpt>
      <trkpt lat="28.723727" lon="-17.884494">
        <ele>876.361</ele>
        <time>2018-10-30T17:27:11Z</time>
      </trkpt>
      <trkpt lat="28.723623" lon="-17.883952">
        <ele>871.596</ele>
        <time>2018-10-30T17:27:31Z</time>
      </trkpt>
      <trkpt lat="28.723825" lon="-17.883619">
        <ele>862.924</ele>
        <time>2018-10-30T17:27:51Z</time>
      </trkpt>
      <trkpt lat="28.723684" lon="-17.883331">
        <ele>857.629</ele>
        <time>2018-10-30T17:28:11Z</time>
      </trkpt>
      <trkpt lat="28.723978" lon="-17.883126">
        <ele>855.723</ele>
        <time>2018-10-30T17:28:31Z</time>
      </trkpt>
      <trkpt lat="28.724009" lon="-17.882911">
        <ele>856.148</ele>
        <time>2018-10-30T17:28:51Z</time>
      </trkpt>
      <trkpt lat="28.723204" lon="-17.882827">
        <ele>855.261</ele>
        <time>2018-10-30T17:29:11Z</time>
      </trkpt>
      <trkpt lat="28.722558" lon="-17.882308">
        <ele>849.917</ele>
        <time>2018-10-30T17:29:31Z</time>
      </trkpt>
      <trkpt lat="28.722190" lon="-17.881354">
        <ele>842.708</ele>
        <time>2018-10-30T17:29:51Z</time>
      </trkpt>
      <trkpt lat="28.722259" lon="-17.880968">
        <ele>841.277</ele>
        <time>2018-10-30T17:30:11Z</time>
      </trkpt>
      <trkpt lat="28.722745" lon="-17.880372">
        <ele>838.824</ele>
        <time>2018-10-30T17:30:31Z</time>
      </trkpt>
      <trkpt lat="28.723488" lon="-17.880173">
        <ele>825.984</ele>
        <time>2018-10-20T09:50:58Z</time>
      </trkpt>
      <trkpt lat="28.723751" lon="-17.879843">
        <ele>813.462</ele>
        <time>2018-10-20T09:52:09Z</time>
      </trkpt>
      <trkpt lat="28.723274" lon="-17.879791">
        <ele>811.947</ele>
        <time>2018-10-20T09:53:15Z</time>
      </trkpt>
      <trkpt lat="28.723020" lon="-17.879571">
        <ele>810.015</ele>
        <time>2018-10-20T09:53:48Z</time>
      </trkpt>
      <trkpt lat="28.722523" lon="-17.879459">
        <ele>809.530</ele>
        <time>2018-10-20T09:54:41Z</time>
      </trkpt>
      <trkpt lat="28.722343" lon="-17.879147">
        <ele>812.484</ele>
        <time>2018-10-20T09:55:22Z</time>
      </trkpt>
      <trkpt lat="28.721909" lon="-17.878809">
        <ele>811.417</ele>
        <time>2018-10-20T09:56:08Z</time>
      </trkpt>
      <trkpt lat="28.721776" lon="-17.878388">
        <ele>805.787</ele>
        <time>2018-10-20T09:56:59Z</time>
      </trkpt>
      <trkpt lat="28.722231" lon="-17.877895">
        <ele>798.915</ele>
        <time>2018-10-20T09:58:21Z</time>
      </trkpt>
      <trkpt lat="28.722787" lon="-17.877737">
        <ele>797.008</ele>
        <time>2018-10-20T09:59:02Z</time>
      </trkpt>
      <trkpt lat="28.724028" lon="-17.876851">
        <ele>784.544</ele>
        <time>2018-10-20T10:01:10Z</time>
      </trkpt>
      <trkpt lat="28.724884" lon="-17.876538">
        <ele>761.971</ele>
        <time>2018-10-20T10:03:12Z</time>
      </trkpt>
      <trkpt lat="28.724487" lon="-17.876294">
        <ele>752.811</ele>
        <time>2018-10-20T10:04:35Z</time>
      </trkpt>
      <trkpt lat="28.724213" lon="-17.876323">
        <ele>749.989</ele>
        <time>2018-10-20T10:05:30Z</time>
      </trkpt>
      <trkpt lat="28.724204" lon="-17.875860">
        <ele>746.614</ele>
        <time>2018-10-20T10:10:02Z</time>
      </trkpt>
      <trkpt lat="28.723977" lon="-17.875851">
        <ele>744.122</ele>
        <time>2018-10-20T10:12:06Z</time>
      </trkpt>
      <trkpt lat="28.723792" lon="-17.875675">
        <ele>744.657</ele>
        <time>2018-10-20T10:12:46Z</time>
      </trkpt>
      <trkpt lat="28.723647" lon="-17.875733">
        <ele>743.291</ele>
        <time>2018-10-20T10:13:04Z</time>
      </trkpt>
      <trkpt lat="28.723663" lon="-17.875615">
        <ele>743.734</ele>
        <time>2018-10-20T10:13:37Z</time>
      </trkpt>
      <trkpt lat="28.723481" lon="-17.875547">
        <ele>751.455</ele>
        <time>2018-10-20T10:14:47Z</time>
      </trkpt>
      <trkpt lat="28.723538" lon="-17.875372">
        <ele>755.210</ele>
        <time>2018-10-20T10:15:15Z</time>
      </trkpt>
      <trkpt lat="28.723176" lon="-17.875469">
        <ele>763.408</ele>
        <time>2018-10-20T10:16:11Z</time>
      </trkpt>
      <trkpt lat="28.722971" lon="-17.875794">
        <ele>769.676</ele>
        <time>2018-10-20T10:17:20Z</time>
      </trkpt>
      <trkpt lat="28.722986" lon="-17.875455">
        <ele>769.183</ele>
        <time>2018-10-20T10:20:37Z</time>
      </trkpt>
      <trkpt lat="28.722922" lon="-17.875897">
        <ele>767.293</ele>
        <time>2018-10-20T10:27:08Z</time>
      </trkpt>
      <trkpt lat="28.723028" lon="-17.876278">
        <ele>767.281</ele>
        <time>2018-10-20T10:27:24Z</time>
      </trkpt>
      <trkpt lat="28.722791" lon="-17.875359">
        <ele>770.116</ele>
        <time>2018-10-20T10:41:30Z</time>
      </trkpt>
      <trkpt lat="28.722441" lon="-17.875643">
        <ele>769.654</ele>
        <time>2018-10-20T10:42:50Z</time>
      </trkpt>
      <trkpt lat="28.721801" lon="-17.875502">
        <ele>765.829</ele>
        <time>2018-10-20T10:43:57Z</time>
      </trkpt>
      <trkpt lat="28.721642" lon="-17.875641">
        <ele>769.133</ele>
        <time>2018-10-20T10:44:22Z</time>
      </trkpt>
      <trkpt lat="28.720897" lon="-17.875693">
        <ele>773.963</ele>
        <time>2018-10-20T10:45:46Z</time>
      </trkpt>
      <trkpt lat="28.720253" lon="-17.875561">
        <ele>779.244</ele>
        <time>2018-10-20T10:58:55Z</time>
      </trkpt>
      <trkpt lat="28.719070" lon="-17.876309">
        <ele>760.018</ele>
        <time>2018-10-20T11:02:43Z</time>
      </trkpt>
      <trkpt lat="28.718701" lon="-17.876688">
        <ele>757.608</ele>
        <time>2018-10-20T11:03:28Z</time>
      </trkpt>
      <trkpt lat="28.718569" lon="-17.876744">
        <ele>759.089</ele>
        <time>2018-10-20T11:03:45Z</time>
      </trkpt>
      <trkpt lat="28.718399" lon="-17.876391">
        <ele>765.826</ele>
        <time>2018-10-20T11:04:49Z</time>
      </trkpt>
      <trkpt lat="28.718277" lon="-17.876541">
        <ele>762.476</ele>
        <time>2018-10-20T11:06:31Z</time>
      </trkpt>
      <trkpt lat="28.718309" lon="-17.876895">
        <ele>759.514</ele>
        <time>2018-10-20T11:06:57Z</time>
      </trkpt>
      <trkpt lat="28.717314" lon="-17.877145">
        <ele>734.549</ele>
        <time>2018-10-20T11:09:23Z</time>
      </trkpt>
      <trkpt lat="28.717403" lon="-17.877406">
        <ele>725.427</ele>
        <time>2018-10-20T11:10:07Z</time>
      </trkpt>
      <trkpt lat="28.717241" lon="-17.877445">
        <ele>718.792</ele>
        <time>2018-10-20T11:10:35Z</time>
      </trkpt>
      <trkpt lat="28.717188" lon="-17.877890">
        <ele>711.576</ele>
        <time>2018-10-20T11:11:09Z</time>
      </trkpt>
      <trkpt lat="28.717191" lon="-17.877772">
        <ele>707.657</ele>
        <time>2018-10-20T11:11:26Z</time>
      </trkpt>
      <trkpt lat="28.716787" lon="-17.877989">
        <ele>693.200</ele>
        <time>2018-10-20T11:12:49Z</time>
      </trkpt>
      <trkpt lat="28.716789" lon="-17.877846">
        <ele>690.820</ele>
        <time>2018-10-20T11:13:05Z</time>
      </trkpt>
      <trkpt lat="28.716320" lon="-17.878217">
        <ele>682.108</ele>
        <time>2018-10-20T11:14:13Z</time>
      </trkpt>
      <trkpt lat="28.716055" lon="-17.878204">
        <ele>674.018</ele>
        <time>2018-10-20T11:15:22Z</time>
      </trkpt>
      <trkpt lat="28.715964" lon="-17.878404">
        <ele>669.255</ele>
        <time>2018-10-20T11:15:47Z</time>
      </trkpt>
      <trkpt lat="28.715526" lon="-17.878274">
        <ele>662.065</ele>
        <time>2018-10-20T11:16:59Z</time>
      </trkpt>
      <trkpt lat="28.715516" lon="-17.878068">
        <ele>658.113</ele>
        <time>2018-10-20T11:17:22Z</time>
      </trkpt>
      <trkpt lat="28.715297" lon="-17.878366">
        <ele>651.988</ele>
        <time>2018-10-20T11:17:57Z</time>
      </trkpt>
      <trkpt lat="28.715355" lon="-17.878222">
        <ele>647.546</ele>
        <time>2018-10-20T11:18:16Z</time>
      </trkpt>
      <trkpt lat="28.715215" lon="-17.878139">
        <ele>641.311</ele>
        <time>2018-10-20T11:18:45Z</time>
      </trkpt>
      <trkpt lat="28.715385" lon="-17.877769">
        <ele>633.675</ele>
        <time>2018-10-20T11:19:31Z</time>
      </trkpt>
      <trkpt lat="28.715672" lon="-17.877789">
        <ele>624.967</ele>
        <time>2018-10-20T11:20:20Z</time>
      </trkpt>
      <trkpt lat="28.715497" lon="-17.877543">
        <ele>616.381</ele>
        <time>2018-10-20T11:21:19Z</time>
      </trkpt>
      <trkpt lat="28.715707" lon="-17.877472">
        <ele>610.019</ele>
        <time>2018-10-20T11:21:56Z</time>
      </trkpt>
      <trkpt lat="28.715548" lon="-17.877535">
        <ele>606.708</ele>
        <time>2018-10-20T11:22:21Z</time>
      </trkpt>
      <trkpt lat="28.715175" lon="-17.877311">
        <ele>600.959</ele>
        <time>2018-10-20T11:23:13Z</time>
      </trkpt>
      <trkpt lat="28.715363" lon="-17.877125">
        <ele>591.866</ele>
        <time>2018-10-20T11:24:03Z</time>
      </trkpt>
      <trkpt lat="28.715004" lon="-17.877140">
        <ele>584.696</ele>
        <time>2018-10-20T11:24:45Z</time>
      </trkpt>
      <trkpt lat="28.714181" lon="-17.877803">
        <ele>563.424</ele>
        <time>2018-10-20T11:27:13Z</time>
      </trkpt>
      <trkpt lat="28.713910" lon="-17.877811">
        <ele>562.079</ele>
        <time>2018-10-20T11:27:50Z</time>
      </trkpt>
      <trkpt lat="28.713494" lon="-17.878117">
        <ele>556.227</ele>
        <time>2018-10-20T11:28:54Z</time>
      </trkpt>
      <trkpt lat="28.712772" lon="-17.878151">
        <ele>550.952</ele>
        <time>2018-10-20T11:30:29Z</time>
      </trkpt>
      <trkpt lat="28.712611" lon="-17.878354">
        <ele>551.496</ele>
        <time>2018-10-20T11:31:12Z</time>
      </trkpt>
      <trkpt lat="28.712400" lon="-17.878434">
        <ele>549.598</ele>
        <time>2018-10-20T11:31:29Z</time>
      </trkpt>
      <trkpt lat="28.712364" lon="-17.878318">
        <ele>547.115</ele>
        <time>2018-10-20T11:31:46Z</time>
      </trkpt>
      <trkpt lat="28.712276" lon="-17.878576">
        <ele>543.226</ele>
        <time>2018-10-20T11:32:26Z</time>
      </trkpt>
      <trkpt lat="28.711833" lon="-17.878531">
        <ele>537.508</ele>
        <time>2018-10-20T11:34:25Z</time>
      </trkpt>
      <trkpt lat="28.711478" lon="-17.878752">
        <ele>541.872</ele>
        <time>2018-10-20T11:35:18Z</time>
      </trkpt>
      <trkpt lat="28.710869" lon="-17.878531">
        <ele>543.779</ele>
        <time>2018-10-20T11:36:21Z</time>
      </trkpt>
      <trkpt lat="28.710491" lon="-17.878855">
        <ele>545.679</ele>
        <time>2018-10-20T11:37:05Z</time>
      </trkpt>
      <trkpt lat="28.710305" lon="-17.879345">
        <ele>558.177</ele>
        <time>2018-10-20T11:39:23Z</time>
      </trkpt>
      <trkpt lat="28.710019" lon="-17.879344">
        <ele>554.392</ele>
        <time>2018-10-20T11:40:00Z</time>
      </trkpt>
      <trkpt lat="28.710004" lon="-17.879499">
        <ele>553.360</ele>
        <time>2018-10-20T11:40:11Z</time>
      </trkpt>
      <trkpt lat="28.709581" lon="-17.879231">
        <ele>536.545</ele>
        <time>2018-10-20T11:42:04Z</time>
      </trkpt>
      <trkpt lat="28.709425" lon="-17.879520">
        <ele>531.799</ele>
        <time>2018-10-20T11:42:53Z</time>
      </trkpt>
      <trkpt lat="28.709217" lon="-17.879567">
        <ele>529.836</ele>
        <time>2018-10-20T11:43:50Z</time>
      </trkpt>
      <trkpt lat="28.709174" lon="-17.879409">
        <ele>530.717</ele>
        <time>2018-10-20T11:44:01Z</time>
      </trkpt>
      <trkpt lat="28.708866" lon="-17.879239">
        <ele>526.918</ele>
        <time>2018-10-20T11:44:40Z</time>
      </trkpt>
      <trkpt lat="28.708571" lon="-17.879438">
        <ele>519.708</ele>
        <time>2018-10-20T11:45:17Z</time>
      </trkpt>
      <trkpt lat="28.708348" lon="-17.879965">
        <ele>516.816</ele>
        <time>2018-10-20T11:45:57Z</time>
      </trkpt>
      <trkpt lat="28.708018" lon="-17.880000">
        <ele>512.063</ele>
        <time>2018-10-20T11:46:38Z</time>
      </trkpt>
      <trkpt lat="28.707649" lon="-17.880462">
        <ele>507.233</ele>
        <time>2018-10-20T11:47:37Z</time>
      </trkpt>
      <trkpt lat="28.707567" lon="-17.880204">
        <ele>504.851</ele>
        <time>2018-10-20T11:48:43Z</time>
      </trkpt>
      <trkpt lat="28.708194" lon="-17.879479">
        <ele>507.216</ele>
        <time>2018-10-20T11:50:04Z</time>
      </trkpt>
      <trkpt lat="28.709200" lon="-17.879165">
        <ele>510.164</ele>
        <time>2018-10-20T11:51:55Z</time>
      </trkpt>
      <trkpt lat="28.709640" lon="-17.878565">
        <ele>512.579</ele>
        <time>2018-10-20T11:53:07Z</time>
      </trkpt>
      <trkpt lat="28.709551" lon="-17.878337">
        <ele>512.593</ele>
        <time>2018-10-20T11:53:58Z</time>
      </trkpt>
      <trkpt lat="28.709850" lon="-17.877077">
        <ele>516.827</ele>
        <time>2018-10-20T11:56:00Z</time>
      </trkpt>
      <trkpt lat="28.709477" lon="-17.876752">
        <ele>514.968</ele>
        <time>2018-10-20T11:57:08Z</time>
      </trkpt>
      <trkpt lat="28.709716" lon="-17.876745">
        <ele>514.414</ele>
        <time>2018-10-20T11:58:07Z</time>
      </trkpt>
      <trkpt lat="28.709834" lon="-17.877346">
        <ele>500.508</ele>
        <time>2018-10-20T12:05:36Z</time>
      </trkpt>
      <trkpt lat="28.709536" lon="-17.878387">
        <ele>489.465</ele>
        <time>2018-10-20T12:07:50Z</time>
      </trkpt>
      <trkpt lat="28.709244" lon="-17.878685">
        <ele>486.562</ele>
        <time>2018-10-20T12:08:30Z</time>
      </trkpt>
      <trkpt lat="28.709257" lon="-17.878888">
        <ele>484.672</ele>
        <time>2018-10-20T12:09:04Z</time>
      </trkpt>
      <trkpt lat="28.708879" lon="-17.879158">
        <ele>479.820</ele>
        <time>2018-10-20T12:09:58Z</time>
      </trkpt>
      <trkpt lat="28.708907" lon="-17.879321">
        <ele>478.315</ele>
        <time>2018-10-20T12:10:37Z</time>
      </trkpt>
      <trkpt lat="28.708180" lon="-17.879443">
        <ele>473.133</ele>
        <time>2018-10-20T12:12:37Z</time>
      </trkpt>
      <trkpt lat="28.707611" lon="-17.880291">
        <ele>471.118</ele>
        <time>2018-10-20T12:14:39Z</time>
      </trkpt>
      <trkpt lat="28.707708" lon="-17.880934">
        <ele>465.822</ele>
        <time>2018-10-20T12:16:24Z</time>
      </trkpt>
      <trkpt lat="28.707530" lon="-17.881166">
        <ele>462.583</ele>
        <time>2018-10-20T12:17:02Z</time>
      </trkpt>
      <trkpt lat="28.707454" lon="-17.881775">
        <ele>458.225</ele>
        <time>2018-10-20T12:18:07Z</time>
      </trkpt>
      <trkpt lat="28.707140" lon="-17.881932">
        <ele>460.617</ele>
        <time>2018-10-20T12:18:58Z</time>
      </trkpt>
      <trkpt lat="28.707067" lon="-17.882138">
        <ele>455.808</ele>
        <time>2018-10-20T12:19:29Z</time>
      </trkpt>
      <trkpt lat="28.707221" lon="-17.882387">
        <ele>455.881</ele>
        <time>2018-10-20T12:19:58Z</time>
      </trkpt>
      <trkpt lat="28.707235" lon="-17.882982">
        <ele>450.568</ele>
        <time>2018-10-20T12:21:05Z</time>
      </trkpt>
      <trkpt lat="28.707149" lon="-17.883435">
        <ele>448.598</ele>
        <time>2018-10-20T12:22:25Z</time>
      </trkpt>
      <trkpt lat="28.707003" lon="-17.883541">
        <ele>447.616</ele>
        <time>2018-10-20T12:23:28Z</time>
      </trkpt>
      <trkpt lat="28.707238" lon="-17.883656">
        <ele>448.581</ele>
        <time>2018-10-20T12:24:00Z</time>
      </trkpt>
      <trkpt lat="28.707421" lon="-17.884090">
        <ele>450.579</ele>
        <time>2018-10-20T12:25:15Z</time>
      </trkpt>
      <trkpt lat="28.707079" lon="-17.883850">
        <ele>446.654</ele>
        <time>2018-10-20T12:27:49Z</time>
      </trkpt>
      <trkpt lat="28.706671" lon="-17.884952">
        <ele>443.798</ele>
        <time>2018-10-20T12:31:38Z</time>
      </trkpt>
      <trkpt lat="28.706579" lon="-17.885730">
        <ele>438.485</ele>
        <time>2018-10-20T12:32:43Z</time>
      </trkpt>
      <trkpt lat="28.706091" lon="-17.886830">
        <ele>424.089</ele>
        <time>2018-10-20T12:34:48Z</time>
      </trkpt>
      <trkpt lat="28.705590" lon="-17.887544">
        <ele>419.717</ele>
        <time>2018-10-20T12:36:10Z</time>
      </trkpt>
      <trkpt lat="28.705213" lon="-17.888522">
        <ele>414.408</ele>
        <time>2018-10-20T12:37:29Z</time>
      </trkpt>
      <trkpt lat="28.705218" lon="-17.890306">
        <ele>407.731</ele>
        <time>2018-10-20T12:40:29Z</time>
      </trkpt>
      <trkpt lat="28.704457" lon="-17.891468">
        <ele>402.438</ele>
        <time>2018-10-20T12:42:33Z</time>
      </trkpt>
      <trkpt lat="28.703654" lon="-17.891730">
        <ele>402.968</ele>
        <time>2018-10-20T12:44:32Z</time>
      </trkpt>
      <trkpt lat="28.702933" lon="-17.892589">
        <ele>391.846</ele>
        <time>2018-10-20T12:47:13Z</time>
      </trkpt>
      <trkpt lat="28.702793" lon="-17.892661">
        <ele>395.731</ele>
        <time>2018-10-20T12:47:52Z</time>
      </trkpt>
      <trkpt lat="28.702762" lon="-17.892560">
        <ele>398.619</ele>
        <time>2018-10-20T12:48:09Z</time>
      </trkpt>
      <trkpt lat="28.702653" lon="-17.892928">
        <ele>399.014</ele>
        <time>2018-10-20T12:49:15Z</time>
      </trkpt>
      <trkpt lat="28.702557" lon="-17.892883">
        <ele>398.698</ele>
        <time>2018-10-20T12:50:20Z</time>
      </trkpt>
      <trkpt lat="28.702034" lon="-17.893369">
        <ele>389.466</ele>
        <time>2018-10-20T12:51:51Z</time>
      </trkpt>
      <trkpt lat="28.701765" lon="-17.893402">
        <ele>385.629</ele>
        <time>2018-10-20T12:52:45Z</time>
      </trkpt>
      <trkpt lat="28.701554" lon="-17.893598">
        <ele>382.221</ele>
        <time>2018-10-20T12:53:27Z</time>
      </trkpt>
      <trkpt lat="28.701539" lon="-17.894007">
        <ele>380.308</ele>
        <time>2018-10-20T12:54:05Z</time>
      </trkpt>
      <trkpt lat="28.701810" lon="-17.894893">
        <ele>382.289</ele>
        <time>2018-10-20T12:55:53Z</time>
      </trkpt>
      <trkpt lat="28.701654" lon="-17.895189">
        <ele>386.126</ele>
        <time>2018-10-20T12:56:33Z</time>
      </trkpt>
      <trkpt lat="28.701308" lon="-17.895465">
        <ele>378.856</ele>
        <time>2018-10-20T12:57:46Z</time>
      </trkpt>
      <trkpt lat="28.700812" lon="-17.894938">
        <ele>371.254</ele>
        <time>2018-10-20T12:59:24Z</time>
      </trkpt>
      <trkpt lat="28.700698" lon="-17.895274">
        <ele>373.199</ele>
        <time>2018-10-20T13:00:32Z</time>
      </trkpt>
      <trkpt lat="28.700166" lon="-17.894936">
        <ele>385.147</ele>
        <time>2018-10-20T13:02:06Z</time>
      </trkpt>
      <trkpt lat="28.699572" lon="-17.895436">
        <ele>388.052</ele>
        <time>2018-10-20T13:03:25Z</time>
      </trkpt>
      <trkpt lat="28.699485" lon="-17.895790">
        <ele>385.156</ele>
        <time>2018-10-20T13:04:24Z</time>
      </trkpt>
      <trkpt lat="28.699089" lon="-17.896018">
        <ele>379.328</ele>
        <time>2018-10-20T13:05:34Z</time>
      </trkpt>
      <trkpt lat="28.698864" lon="-17.895607">
        <ele>380.889</ele>
        <time>2018-10-20T13:07:03Z</time>
      </trkpt>
      <trkpt lat="28.698705" lon="-17.895645">
        <ele>375.517</ele>
        <time>2018-10-20T13:07:38Z</time>
      </trkpt>
      <trkpt lat="28.698741" lon="-17.895048">
        <ele>376.408</ele>
        <time>2018-10-20T13:09:38Z</time>
      </trkpt>
      <trkpt lat="28.698545" lon="-17.894755">
        <ele>377.955</ele>
        <time>2018-10-20T13:10:18Z</time>
      </trkpt>
      <trkpt lat="28.697622" lon="-17.894817">
        <ele>371.672</ele>
        <time>2018-10-20T13:12:23Z</time>
      </trkpt>
      <trkpt lat="28.697076" lon="-17.895139">
        <ele>364.962</ele>
        <time>2018-10-20T13:13:52Z</time>
      </trkpt>
      <trkpt lat="28.697052" lon="-17.895914">
        <ele>355.890</ele>
        <time>2018-10-20T13:16:30Z</time>
      </trkpt>
      <trkpt lat="28.696904" lon="-17.896136">
        <ele>356.355</ele>
        <time>2018-10-20T13:18:05Z</time>
      </trkpt>
      <trkpt lat="28.697021" lon="-17.896503">
        <ele>355.823</ele>
        <time>2018-10-20T13:18:48Z</time>
      </trkpt>
      <trkpt lat="28.696750" lon="-17.896838">
        <ele>355.398</ele>
        <time>2018-10-20T13:19:31Z</time>
      </trkpt>
      <trkpt lat="28.696491" lon="-17.896928">
        <ele>353.442</ele>
        <time>2018-10-20T13:20:15Z</time>
      </trkpt>
      <trkpt lat="28.696320" lon="-17.896769">
        <ele>353.977</ele>
        <time>2018-10-20T13:20:49Z</time>
      </trkpt>
      <trkpt lat="28.695502" lon="-17.896879">
        <ele>363.061</ele>
        <time>2018-10-20T13:22:21Z</time>
      </trkpt>
      <trkpt lat="28.694955" lon="-17.896763">
        <ele>370.727</ele>
        <time>2018-10-20T13:23:47Z</time>
      </trkpt>
      <trkpt lat="28.693872" lon="-17.897027">
        <ele>371.208</ele>
        <time>2018-10-20T13:26:07Z</time>
      </trkpt>
      <trkpt lat="28.693944" lon="-17.897219">
        <ele>370.260</ele>
        <time>2018-10-20T13:27:07Z</time>
      </trkpt>
      <trkpt lat="28.693821" lon="-17.897609">
        <ele>368.887</ele>
        <time>2018-10-20T13:27:51Z</time>
      </trkpt>
      <trkpt lat="28.693975" lon="-17.897510">
        <ele>366.347</ele>
        <time>2018-10-20T13:28:16Z</time>
      </trkpt>
      <trkpt lat="28.693930" lon="-17.897762">
        <ele>356.775</ele>
        <time>2018-10-20T13:30:07Z</time>
      </trkpt>
      <trkpt lat="28.694156" lon="-17.897738">
        <ele>355.310</ele>
        <time>2018-10-20T13:30:52Z</time>
      </trkpt>
      <trkpt lat="28.694160" lon="-17.898082">
        <ele>362.098</ele>
        <time>2018-10-20T13:31:42Z</time>
      </trkpt>
      <trkpt lat="28.694220" lon="-17.897996">
        <ele>363.553</ele>
        <time>2018-10-20T13:32:42Z</time>
      </trkpt>
      <trkpt lat="28.694672" lon="-17.898375">
        <ele>365.477</ele>
        <time>2018-10-20T13:33:45Z</time>
      </trkpt>
      <trkpt lat="28.694629" lon="-17.898791">
        <ele>363.584</ele>
        <time>2018-10-20T13:34:28Z</time>
      </trkpt>
      <trkpt lat="28.694290" lon="-17.899294">
        <ele>363.007</ele>
        <time>2018-10-20T13:35:30Z</time>
      </trkpt>
      <trkpt lat="28.694428" lon="-17.899499">
        <ele>364.417</ele>
        <time>2018-10-20T13:35:43Z</time>
      </trkpt>
      <trkpt lat="28.694282" lon="-17.899814">
        <ele>371.208</ele>
        <time>2018-10-20T13:36:30Z</time>
      </trkpt>
      <trkpt lat="28.694456" lon="-17.899916">
        <ele>371.271</ele>
        <time>2018-10-20T13:36:59Z</time>
      </trkpt>
      <trkpt lat="28.694309" lon="-17.900371">
        <ele>366.848</ele>
        <time>2018-10-20T13:37:51Z</time>
      </trkpt>
      <trkpt lat="28.693695" lon="-17.900651">
        <ele>361.168</ele>
        <time>2018-10-20T13:39:14Z</time>
      </trkpt>
      <trkpt lat="28.693778" lon="-17.900782">
        <ele>361.566</ele>
        <time>2018-10-20T13:39:24Z</time>
      </trkpt>
      <trkpt lat="28.693697" lon="-17.901022">
        <ele>360.661</ele>
        <time>2018-10-20T13:39:36Z</time>
      </trkpt>
      <trkpt lat="28.693372" lon="-17.899988">
        <ele>361.579</ele>
        <time>2018-10-20T13:39:51Z</time>
      </trkpt>
      <trkpt lat="28.693220" lon="-17.900241">
        <ele>363.094</ele>
        <time>2018-10-20T13:40:37Z</time>
      </trkpt>
      <trkpt lat="28.693117" lon="-17.900184">
        <ele>361.578</ele>
        <time>2018-10-20T13:40:54Z</time>
      </trkpt>
      <trkpt lat="28.693174" lon="-17.900089">
        <ele>359.643</ele>
        <time>2018-10-20T13:41:05Z</time>
      </trkpt>
      <trkpt lat="28.691673" lon="-17.900282">
        <ele>352.464</ele>
        <time>2018-10-20T13:43:44Z</time>
      </trkpt>
      <trkpt lat="28.691345" lon="-17.900512">
        <ele>351.410</ele>
        <time>2018-10-20T13:44:18Z</time>
      </trkpt>
      <trkpt lat="28.691323" lon="-17.900921">
        <ele>350.508</ele>
        <time>2018-10-20T13:44:58Z</time>
      </trkpt>
      <trkpt lat="28.691125" lon="-17.901193">
        <ele>350.027</ele>
        <time>2018-10-20T13:45:33Z</time>
      </trkpt>
      <trkpt lat="28.691114" lon="-17.901836">
        <ele>344.784</ele>
        <time>2018-10-20T13:46:50Z</time>
      </trkpt>
      <trkpt lat="28.691362" lon="-17.902389">
        <ele>342.394</ele>
        <time>2018-10-20T13:47:55Z</time>
      </trkpt>
      <trkpt lat="28.691203" lon="-17.902832">
        <ele>341.472</ele>
        <time>2018-10-20T13:49:02Z</time>
      </trkpt>
      <trkpt lat="28.690512" lon="-17.903753">
        <ele>341.827</ele>
        <time>2018-10-20T13:51:17Z</time>
      </trkpt>
      <trkpt lat="28.690355" lon="-17.904306">
        <ele>341.885</ele>
        <time>2018-10-20T13:52:17Z</time>
      </trkpt>
      <trkpt lat="28.689663" lon="-17.904725">
        <ele>343.890</ele>
        <time>2018-10-20T13:53:44Z</time>
      </trkpt>
      <trkpt lat="28.689092" lon="-17.905838">
        <ele>353.964</ele>
        <time>2018-10-20T13:55:41Z</time>
      </trkpt>
      <trkpt lat="28.688730" lon="-17.905851">
        <ele>359.118</ele>
        <time>2018-10-20T13:56:25Z</time>
      </trkpt>
      <trkpt lat="28.688495" lon="-17.906100">
        <ele>363.598</ele>
        <time>2018-10-20T13:57:09Z</time>
      </trkpt>
      <trkpt lat="28.688473" lon="-17.906223">
        <ele>364.417</ele>
        <time>2018-10-20T13:57:48Z</time>
      </trkpt>
      <trkpt lat="28.688829" lon="-17.906381">
        <ele>362.008</ele>
        <time>2018-10-20T13:58:46Z</time>
      </trkpt>
      <trkpt lat="28.688825" lon="-17.906560">
        <ele>361.554</ele>
        <time>2018-10-20T13:59:11Z</time>
      </trkpt>
      <trkpt lat="28.688405" lon="-17.906880">
        <ele>359.661</ele>
        <time>2018-10-20T14:00:33Z</time>
      </trkpt>
      <trkpt lat="28.688190" lon="-17.906760">
        <ele>361.551</ele>
        <time>2018-10-20T14:01:00Z</time>
      </trkpt>
      <trkpt lat="28.687809" lon="-17.907231">
        <ele>362.019</ele>
        <time>2018-10-20T14:01:41Z</time>
      </trkpt>
      <trkpt lat="28.687568" lon="-17.907793">
        <ele>367.384</ele>
        <time>2018-10-20T14:02:58Z</time>
      </trkpt>
      <trkpt lat="28.687160" lon="-17.907729">
        <ele>361.572</ele>
        <time>2018-10-20T14:03:55Z</time>
      </trkpt>
      <trkpt lat="28.686740" lon="-17.908107">
        <ele>363.067</ele>
        <time>2018-10-20T14:04:51Z</time>
      </trkpt>
      <trkpt lat="28.685822" lon="-17.908381">
        <ele>371.641</ele>
        <time>2018-10-20T14:06:20Z</time>
      </trkpt>
      <trkpt lat="28.685463" lon="-17.908632">
        <ele>372.699</ele>
        <time>2018-10-20T14:06:53Z</time>
      </trkpt>
      <trkpt lat="28.685109" lon="-17.909263">
        <ele>372.107</ele>
        <time>2018-10-20T14:07:45Z</time>
      </trkpt>
      <trkpt lat="28.685014" lon="-17.908921">
        <ele>380.327</ele>
        <time>2018-10-20T14:10:19Z</time>
      </trkpt>
    </trkseg>
  </trk></gpx>