<?xml version="1.0" encoding="UTF-8"?>
<gpx version="1.1" creator="Aventuras en Cada Paso" xmlns="http://www.topografix.com/GPX/1/1">
  <metadata>
    <name>Caldera Blanca – Circular desde Tinajo</name>
    <desc>La ruta libre más impresionante de Lanzarote. Coladas de lava hasta el cráter más grande de la isla (1.200 m de diámetro). Sin guía obligatorio.</desc>
    <author><name>Aventuras en Cada Paso</name></author>
    <time>2026-07-08T08:12:58.168Z</time>
    <keywords>Lanzarote, Senderismo, Media, senderismo Canarias</keywords>
  </metadata>
  <wpt lat="29.0077" lon="-13.7588">
    <name>Caldera Blanca – Circular desde Tinajo</name>
    <desc>La ruta libre más impresionante de Lanzarote. Coladas de lava hasta el cráter más grande de la isla (1.200 m de diámetro). Sin guía obligatorio. | Isla: Lanzarote | Tipo: Senderismo | Dificultad: Media | Distancia: 10km | Duración: 4-8 horas</desc>
    <type>Senderismo</type>
    <extensions>
      <isla>Lanzarote</isla>
      <dificultad>Media</dificultad>
      <distancia>10</distancia>
      <duracion>4-8 horas</duracion>
    </extensions>
  </wpt>
</gpx>