<?xml version="1.0" encoding="UTF-8"?>
<gpx version="1.1" creator="Aventuras en Cada Paso" xmlns="http://www.topografix.com/GPX/1/1">
  <metadata>
    <name>Caldera de Bandama – Circular</name>
    <desc>Borde e interior de la Caldera de Bandama, cráter de 200 m de profundidad y 1 km de diámetro. Viñedos históricos en el fondo del cráter.</desc>
    <author><name>Aventuras en Cada Paso</name></author>
    <time>2026-07-08T08:12:58.163Z</time>
    <keywords>Gran Canaria, Senderismo, Fácil, senderismo Canarias</keywords>
  </metadata>
  <wpt lat="28.0181" lon="-15.4458">
    <name>Caldera de Bandama – Circular</name>
    <desc>Borde e interior de la Caldera de Bandama, cráter de 200 m de profundidad y 1 km de diámetro. Viñedos históricos en el fondo del cráter. | Isla: Gran Canaria | Tipo: Senderismo | Dificultad: Fácil | Distancia: 5km | Duración: 2-4 horas</desc>
    <type>Senderismo</type>
    <extensions>
      <isla>Gran Canaria</isla>
      <dificultad>Fácil</dificultad>
      <distancia>5</distancia>
      <duracion>2-4 horas</duracion>
    </extensions>
  </wpt>
</gpx>