<?xml version="1.0" encoding="UTF-8"?>
<gpx creator="Wikiloc - https://www.wikiloc.com" version="1.1" xmlns="http://www.topografix.com/GPX/1/1" xmlns:xsi="http://www.w3.org/2001/XMLSchema-instance" xsi:schemaLocation="http://www.topografix.com/GPX/1/1 http://www.topografix.com/GPX/1/1/gpx.xsd">
  <metadata>
    <name>Wikiloc - SL-FV 2: Lajares - Calderón Hondo</name>
    <link href="https://www.wikiloc.com/hiking-trails/lajares-calderon-hondo-18259348">
      <text>SL-FV 2: Lajares - Calderón Hondo - Wikiloc on Wikiloc</text>
    </link>
    <time>2017-06-17T12:42:48Z</time>
  </metadata>
  <trk>
    <name>SL-FV 2: Lajares - Calderón Hondo - Wikiloc</name>
    <cmt></cmt>
    <desc></desc>
    <trkseg>
      <trkpt lat="28.689188" lon="-13.931493">
        <ele>86.427</ele>
        <time>2017-06-17T10:26:04Z</time>
      </trkpt>
      <trkpt lat="28.690685" lon="-13.930558">
        <ele>92.068</ele>
        <time>2017-06-17T10:30:10Z</time>
      </trkpt>
      <trkpt lat="28.691298" lon="-13.930249">
        <ele>92.314</ele>
        <time>2017-06-17T10:31:02Z</time>
      </trkpt>
      <trkpt lat="28.692337" lon="-13.930002">
        <ele>96.808</ele>
        <time>2017-06-17T10:32:37Z</time>
      </trkpt>
      <trkpt lat="28.693160" lon="-13.929453">
        <ele>98.013</ele>
        <time>2017-06-17T10:34:28Z</time>
      </trkpt>
      <trkpt lat="28.693269" lon="-13.929047">
        <ele>100.470</ele>
        <time>2017-06-17T10:37:39Z</time>
      </trkpt>
      <trkpt lat="28.693319" lon="-13.928165">
        <ele>103.794</ele>
        <time>2017-06-17T10:38:41Z</time>
      </trkpt>
      <trkpt lat="28.693393" lon="-13.928087">
        <ele>103.727</ele>
        <time>2017-06-17T10:38:50Z</time>
      </trkpt>
      <trkpt lat="28.693331" lon="-13.927994">
        <ele>102.561</ele>
        <time>2017-06-17T10:39:08Z</time>
      </trkpt>
      <trkpt lat="28.693381" lon="-13.927208">
        <ele>103.165</ele>
        <time>2017-06-17T10:40:01Z</time>
      </trkpt>
      <trkpt lat="28.693306" lon="-13.925301">
        <ele>108.466</ele>
        <time>2017-06-17T10:42:12Z</time>
      </trkpt>
      <trkpt lat="28.693201" lon="-13.924898">
        <ele>110.070</ele>
        <time>2017-06-17T10:42:41Z</time>
      </trkpt>
      <trkpt lat="28.693452" lon="-13.924058">
        <ele>120.744</ele>
        <time>2017-06-17T10:44:14Z</time>
      </trkpt>
      <trkpt lat="28.693897" lon="-13.923497">
        <ele>127.705</ele>
        <time>2017-06-17T10:45:20Z</time>
      </trkpt>
      <trkpt lat="28.694061" lon="-13.922850">
        <ele>132.615</ele>
        <time>2017-06-17T10:46:06Z</time>
      </trkpt>
      <trkpt lat="28.694268" lon="-13.922512">
        <ele>133.108</ele>
        <time>2017-06-17T10:47:13Z</time>
      </trkpt>
      <trkpt lat="28.695205" lon="-13.921583">
        <ele>141.735</ele>
        <time>2017-06-17T10:49:01Z</time>
      </trkpt>
      <trkpt lat="28.695759" lon="-13.921487">
        <ele>150.322</ele>
        <time>2017-06-17T10:49:50Z</time>
      </trkpt>
      <trkpt lat="28.696006" lon="-13.920775">
        <ele>155.876</ele>
        <time>2017-06-17T10:50:57Z</time>
      </trkpt>
      <trkpt lat="28.696768" lon="-13.919816">
        <ele>172.719</ele>
        <time>2017-06-17T10:53:00Z</time>
      </trkpt>
      <trkpt lat="28.697975" lon="-13.917594">
        <ele>190.083</ele>
        <time>2017-06-17T10:58:00Z</time>
      </trkpt>
      <trkpt lat="28.698140" lon="-13.917476">
        <ele>191.767</ele>
        <time>2017-06-17T10:58:34Z</time>
      </trkpt>
      <trkpt lat="28.698622" lon="-13.917444">
        <ele>194.458</ele>
        <time>2017-06-17T10:59:20Z</time>
      </trkpt>
      <trkpt lat="28.699720" lon="-13.917167">
        <ele>194.282</ele>
        <time>2017-06-17T11:01:07Z</time>
      </trkpt>
      <trkpt lat="28.700282" lon="-13.917555">
        <ele>197.399</ele>
        <time>2017-06-17T11:02:26Z</time>
      </trkpt>
      <trkpt lat="28.700655" lon="-13.917626">
        <ele>194.007</ele>
        <time>2017-06-17T11:02:59Z</time>
      </trkpt>
      <trkpt lat="28.701131" lon="-13.917984">
        <ele>199.627</ele>
        <time>2017-06-17T11:03:50Z</time>
      </trkpt>
      <trkpt lat="28.701658" lon="-13.918610">
        <ele>199.308</ele>
        <time>2017-06-17T11:05:18Z</time>
      </trkpt>
      <trkpt lat="28.701829" lon="-13.918632">
        <ele>197.560</ele>
        <time>2017-06-17T11:05:49Z</time>
      </trkpt>
      <trkpt lat="28.701905" lon="-13.918833">
        <ele>198.457</ele>
        <time>2017-06-17T11:06:11Z</time>
      </trkpt>
      <trkpt lat="28.701906" lon="-13.919044">
        <ele>200.541</ele>
        <time>2017-06-17T11:07:08Z</time>
      </trkpt>
      <trkpt lat="28.701683" lon="-13.919266">
        <ele>207.814</ele>
        <time>2017-06-17T11:08:23Z</time>
      </trkpt>
      <trkpt lat="28.701496" lon="-13.919361">
        <ele>211.798</ele>
        <time>2017-06-17T11:09:34Z</time>
      </trkpt>
      <trkpt lat="28.701294" lon="-13.919340">
        <ele>213.712</ele>
        <time>2017-06-17T11:10:18Z</time>
      </trkpt>
      <trkpt lat="28.701391" lon="-13.919341">
        <ele>213.353</ele>
        <time>2017-06-17T11:13:40Z</time>
      </trkpt>
      <trkpt lat="28.701472" lon="-13.919550">
        <ele>212.127</ele>
        <time>2017-06-17T11:20:13Z</time>
      </trkpt>
      <trkpt lat="28.701576" lon="-13.920079">
        <ele>219.789</ele>
        <time>2017-06-17T11:23:27Z</time>
      </trkpt>
      <trkpt lat="28.701529" lon="-13.920500">
        <ele>221.406</ele>
        <time>2017-06-17T11:26:02Z</time>
      </trkpt>
      <trkpt lat="28.701178" lon="-13.921260">
        <ele>206.726</ele>
        <time>2017-06-17T11:28:47Z</time>
      </trkpt>
      <trkpt lat="28.700696" lon="-13.921646">
        <ele>219.908</ele>
        <time>2017-06-17T11:31:39Z</time>
      </trkpt>
      <trkpt lat="28.700170" lon="-13.921844">
        <ele>240.129</ele>
        <time>2017-06-17T11:33:56Z</time>
      </trkpt>
      <trkpt lat="28.699962" lon="-13.921832">
        <ele>242.196</ele>
        <time>2017-06-17T11:34:49Z</time>
      </trkpt>
      <trkpt lat="28.699358" lon="-13.921555">
        <ele>248.290</ele>
        <time>2017-06-17T11:36:56Z</time>
      </trkpt>
      <trkpt lat="28.699060" lon="-13.921632">
        <ele>256.323</ele>
        <time>2017-06-17T11:37:41Z</time>
      </trkpt>
      <trkpt lat="28.698922" lon="-13.921038">
        <ele>270.937</ele>
        <time>2017-06-17T11:40:04Z</time>
      </trkpt>
      <trkpt lat="28.698581" lon="-13.920682">
        <ele>261.251</ele>
        <time>2017-06-17T11:41:25Z</time>
      </trkpt>
      <trkpt lat="28.698743" lon="-13.919715">
        <ele>257.432</ele>
        <time>2017-06-17T11:45:22Z</time>
      </trkpt>
      <trkpt lat="28.699137" lon="-13.919107">
        <ele>240.026</ele>
        <time>2017-06-17T11:47:31Z</time>
      </trkpt>
      <trkpt lat="28.699512" lon="-13.918788">
        <ele>228.712</ele>
        <time>2017-06-17T11:48:57Z</time>
      </trkpt>
      <trkpt lat="28.700175" lon="-13.918692">
        <ele>225.632</ele>
        <time>2017-06-17T11:51:07Z</time>
      </trkpt>
      <trkpt lat="28.700835" lon="-13.918771">
        <ele>217.305</ele>
        <time>2017-06-17T11:54:26Z</time>
      </trkpt>
      <trkpt lat="28.701348" lon="-13.919364">
        <ele>213.408</ele>
        <time>2017-06-17T11:59:09Z</time>
      </trkpt>
      <trkpt lat="28.701696" lon="-13.919291">
        <ele>207.882</ele>
        <time>2017-06-17T12:01:04Z</time>
      </trkpt>
      <trkpt lat="28.701931" lon="-13.918980">
        <ele>199.329</ele>
        <time>2017-06-17T12:02:02Z</time>
      </trkpt>
      <trkpt lat="28.702312" lon="-13.919031">
        <ele>200.393</ele>
        <time>2017-06-17T12:03:14Z</time>
      </trkpt>
      <trkpt lat="28.702592" lon="-13.918951">
        <ele>199.286</ele>
        <time>2017-06-17T12:03:40Z</time>
      </trkpt>
      <trkpt lat="28.702897" lon="-13.919206">
        <ele>190.440</ele>
        <time>2017-06-17T12:04:28Z</time>
      </trkpt>
      <trkpt lat="28.703176" lon="-13.919148">
        <ele>185.474</ele>
        <time>2017-06-17T12:05:04Z</time>
      </trkpt>
      <trkpt lat="28.703140" lon="-13.919860">
        <ele>188.585</ele>
        <time>2017-06-17T12:06:34Z</time>
      </trkpt>
      <trkpt lat="28.702733" lon="-13.921202">
        <ele>182.189</ele>
        <time>2017-06-17T12:09:15Z</time>
      </trkpt>
      <trkpt lat="28.702294" lon="-13.921918">
        <ele>180.746</ele>
        <time>2017-06-17T12:11:07Z</time>
      </trkpt>
      <trkpt lat="28.701880" lon="-13.922354">
        <ele>180.288</ele>
        <time>2017-06-17T12:14:42Z</time>
      </trkpt>
      <trkpt lat="28.701632" lon="-13.922473">
        <ele>179.516</ele>
        <time>2017-06-17T12:15:13Z</time>
      </trkpt>
      <trkpt lat="28.701284" lon="-13.922807">
        <ele>179.908</ele>
        <time>2017-06-17T12:16:00Z</time>
      </trkpt>
      <trkpt lat="28.700853" lon="-13.923012">
        <ele>179.895</ele>
        <time>2017-06-17T12:16:46Z</time>
      </trkpt>
      <trkpt lat="28.700568" lon="-13.923011">
        <ele>183.922</ele>
        <time>2017-06-17T12:17:10Z</time>
      </trkpt>
      <trkpt lat="28.699623" lon="-13.923250">
        <ele>190.026</ele>
        <time>2017-06-17T12:18:46Z</time>
      </trkpt>
      <trkpt lat="28.699164" lon="-13.923228">
        <ele>196.069</ele>
        <time>2017-06-17T12:19:31Z</time>
      </trkpt>
      <trkpt lat="28.698612" lon="-13.923332">
        <ele>197.063</ele>
        <time>2017-06-17T12:20:14Z</time>
      </trkpt>
      <trkpt lat="28.698255" lon="-13.923269">
        <ele>198.467</ele>
        <time>2017-06-17T12:20:51Z</time>
      </trkpt>
      <trkpt lat="28.697310" lon="-13.923796">
        <ele>187.048</ele>
        <time>2017-06-17T12:22:38Z</time>
      </trkpt>
      <trkpt lat="28.697135" lon="-13.924183">
        <ele>191.772</ele>
        <time>2017-06-17T12:23:13Z</time>
      </trkpt>
      <trkpt lat="28.697045" lon="-13.924722">
        <ele>193.637</ele>
        <time>2017-06-17T12:23:53Z</time>
      </trkpt>
      <trkpt lat="28.697222" lon="-13.925447">
        <ele>183.049</ele>
        <time>2017-06-17T12:24:59Z</time>
      </trkpt>
      <trkpt lat="28.697186" lon="-13.925657">
        <ele>180.413</ele>
        <time>2017-06-17T12:25:16Z</time>
      </trkpt>
      <trkpt lat="28.696808" lon="-13.926265">
        <ele>168.808</ele>
        <time>2017-06-17T12:27:18Z</time>
      </trkpt>
      <trkpt lat="28.695996" lon="-13.926822">
        <ele>160.654</ele>
        <time>2017-06-17T12:29:35Z</time>
      </trkpt>
      <trkpt lat="28.695803" lon="-13.927411">
        <ele>151.481</ele>
        <time>2017-06-17T12:30:27Z</time>
      </trkpt>
      <trkpt lat="28.695307" lon="-13.927915">
        <ele>142.535</ele>
        <time>2017-06-17T12:31:34Z</time>
      </trkpt>
      <trkpt lat="28.695134" lon="-13.928315">
        <ele>137.698</ele>
        <time>2017-06-17T12:32:04Z</time>
      </trkpt>
      <trkpt lat="28.694795" lon="-13.928517">
        <ele>129.942</ele>
        <time>2017-06-17T12:32:52Z</time>
      </trkpt>
      <trkpt lat="28.694412" lon="-13.928549">
        <ele>122.646</ele>
        <time>2017-06-17T12:34:48Z</time>
      </trkpt>
      <trkpt lat="28.694041" lon="-13.929050">
        <ele>109.967</ele>
        <time>2017-06-17T12:35:40Z</time>
      </trkpt>
      <trkpt lat="28.693216" lon="-13.929372">
        <ele>98.471</ele>
        <time>2017-06-17T12:37:01Z</time>
      </trkpt>
      <trkpt lat="28.692399" lon="-13.929920">
        <ele>96.668</ele>
        <time>2017-06-17T12:38:15Z</time>
      </trkpt>
      <trkpt lat="28.691077" lon="-13.930281">
        <ele>92.942</ele>
        <time>2017-06-17T12:39:57Z</time>
      </trkpt>
      <trkpt lat="28.689121" lon="-13.931423">
        <ele>86.126</ele>
        <time>2017-06-17T12:42:48Z</time>
      </trkpt>
    </trkseg>
  </trk></gpx>