<?xml version="1.0" encoding="UTF-8"?>
<gpx version="1.1" creator="Aventuras en Cada Paso" xmlns="http://www.topografix.com/GPX/1/1">
  <metadata>
    <name>La Caldera – Subida al Volcán</name>
    <desc>Ascenso breve al volcán de La Caldera (127 m). Vistas panorámicas a Fuerteventura, Lanzarote y el Canal de La Bocaina. El punto más alto del islote.</desc>
    <author><name>Aventuras en Cada Paso</name></author>
    <time>2026-07-08T08:12:58.210Z</time>
    <keywords>Isla de Lobos, Senderismo, Fácil, senderismo Canarias</keywords>
  </metadata>
  <wpt lat="28.7528" lon="-13.8208">
    <name>La Caldera – Subida al Volcán</name>
    <desc>Ascenso breve al volcán de La Caldera (127 m). Vistas panorámicas a Fuerteventura, Lanzarote y el Canal de La Bocaina. El punto más alto del islote. | Isla: Isla de Lobos | Tipo: Senderismo | Dificultad: Fácil | Distancia: 3km | Duración: Menos de 2h</desc>
    <type>Senderismo</type>
    <extensions>
      <isla>Isla de Lobos</isla>
      <dificultad>Fácil</dificultad>
      <distancia>3</distancia>
      <duracion>Menos de 2h</duracion>
    </extensions>
  </wpt>
</gpx>