<?xml version="1.0" encoding="UTF-8"?>
<gpx creator="Wikiloc - https://www.wikiloc.com" version="1.1" xmlns="http://www.topografix.com/GPX/1/1" xmlns:xsi="http://www.w3.org/2001/XMLSchema-instance" xsi:schemaLocation="http://www.topografix.com/GPX/1/1 http://www.topografix.com/GPX/1/1/gpx.xsd">
  <metadata>
    <name>Wikiloc - CAMINO de JINAMA circular por el Mirador de Jinama, Hoya de ...</name>
    <link href="https://www.wikiloc.com/hiking-trails/camino-de-jinama-circular-por-el-mirador-de-jinama-hoya-de-fireba-senda-las-carboneras-desde-la-igl-102469405">
      <text>CAMINO de JINAMA circular por el Mirador de Jinama, Hoya de ... on Wikiloc</text>
    </link>
    <time>2022-05-11T15:09:08Z</time>
  </metadata>
  <trk>
    <name>CAMINO de JINAMA circular por el Mirador de Jinama, Hoya de ... - Wikiloc</name>
    <cmt></cmt>
    <desc></desc>
    <trkseg>
      <trkpt lat="27.754976" lon="-18.001949">
        <ele>355.014</ele>
        <time>2022-05-11T10:01:00Z</time>
      </trkpt>
      <trkpt lat="27.755092" lon="-18.001538">
        <ele>356.954</ele>
        <time>2022-05-11T10:01:40Z</time>
      </trkpt>
      <trkpt lat="27.755303" lon="-18.001293">
        <ele>357.909</ele>
        <time>2022-05-11T10:02:44Z</time>
      </trkpt>
      <trkpt lat="27.755022" lon="-18.001113">
        <ele>360.309</ele>
        <time>2022-05-11T10:03:32Z</time>
      </trkpt>
      <trkpt lat="27.754617" lon="-17.999716">
        <ele>383.132</ele>
        <time>2022-05-11T10:06:10Z</time>
      </trkpt>
      <trkpt lat="27.754548" lon="-17.999176">
        <ele>393.341</ele>
        <time>2022-05-11T10:07:19Z</time>
      </trkpt>
      <trkpt lat="27.753749" lon="-17.997602">
        <ele>425.283</ele>
        <time>2022-05-11T10:10:35Z</time>
      </trkpt>
      <trkpt lat="27.753459" lon="-17.996512">
        <ele>443.195</ele>
        <time>2022-05-11T10:12:42Z</time>
      </trkpt>
      <trkpt lat="27.753320" lon="-17.996481">
        <ele>447.187</ele>
        <time>2022-05-11T10:13:10Z</time>
      </trkpt>
      <trkpt lat="27.753336" lon="-17.996314">
        <ele>451.160</ele>
        <time>2022-05-11T10:13:31Z</time>
      </trkpt>
      <trkpt lat="27.753421" lon="-17.996307">
        <ele>455.345</ele>
        <time>2022-05-11T10:14:49Z</time>
      </trkpt>
      <trkpt lat="27.753300" lon="-17.996247">
        <ele>456.831</ele>
        <time>2022-05-11T10:15:11Z</time>
      </trkpt>
      <trkpt lat="27.753265" lon="-17.995399">
        <ele>478.266</ele>
        <time>2022-05-11T10:17:58Z</time>
      </trkpt>
      <trkpt lat="27.753083" lon="-17.994707">
        <ele>496.715</ele>
        <time>2022-05-11T10:19:58Z</time>
      </trkpt>
      <trkpt lat="27.752838" lon="-17.994368">
        <ele>506.965</ele>
        <time>2022-05-11T10:20:58Z</time>
      </trkpt>
      <trkpt lat="27.752635" lon="-17.994381">
        <ele>511.811</ele>
        <time>2022-05-11T10:21:39Z</time>
      </trkpt>
      <trkpt lat="27.752407" lon="-17.994137">
        <ele>522.909</ele>
        <time>2022-05-11T10:23:07Z</time>
      </trkpt>
      <trkpt lat="27.752340" lon="-17.994195">
        <ele>526.082</ele>
        <time>2022-05-11T10:23:24Z</time>
      </trkpt>
      <trkpt lat="27.752152" lon="-17.994109">
        <ele>531.791</ele>
        <time>2022-05-11T10:24:06Z</time>
      </trkpt>
      <trkpt lat="27.752184" lon="-17.993713">
        <ele>538.713</ele>
        <time>2022-05-11T10:24:59Z</time>
      </trkpt>
      <trkpt lat="27.751967" lon="-17.993905">
        <ele>548.285</ele>
        <time>2022-05-11T10:26:04Z</time>
      </trkpt>
      <trkpt lat="27.751983" lon="-17.993582">
        <ele>555.837</ele>
        <time>2022-05-11T10:27:16Z</time>
      </trkpt>
      <trkpt lat="27.751772" lon="-17.993714">
        <ele>563.880</ele>
        <time>2022-05-11T10:28:28Z</time>
      </trkpt>
      <trkpt lat="27.751801" lon="-17.993559">
        <ele>569.695</ele>
        <time>2022-05-11T10:28:55Z</time>
      </trkpt>
      <trkpt lat="27.751715" lon="-17.993610">
        <ele>571.671</ele>
        <time>2022-05-11T10:29:22Z</time>
      </trkpt>
      <trkpt lat="27.751700" lon="-17.993398">
        <ele>578.686</ele>
        <time>2022-05-11T10:30:29Z</time>
      </trkpt>
      <trkpt lat="27.751506" lon="-17.993534">
        <ele>586.045</ele>
        <time>2022-05-11T10:31:48Z</time>
      </trkpt>
      <trkpt lat="27.751530" lon="-17.993222">
        <ele>593.947</ele>
        <time>2022-05-11T10:34:12Z</time>
      </trkpt>
      <trkpt lat="27.751385" lon="-17.992834">
        <ele>602.111</ele>
        <time>2022-05-11T10:36:56Z</time>
      </trkpt>
      <trkpt lat="27.751587" lon="-17.992784">
        <ele>604.109</ele>
        <time>2022-05-11T10:37:46Z</time>
      </trkpt>
      <trkpt lat="27.751974" lon="-17.992297">
        <ele>608.135</ele>
        <time>2022-05-11T10:38:56Z</time>
      </trkpt>
      <trkpt lat="27.752042" lon="-17.991920">
        <ele>609.764</ele>
        <time>2022-05-11T10:40:06Z</time>
      </trkpt>
      <trkpt lat="27.752190" lon="-17.991951">
        <ele>611.196</ele>
        <time>2022-05-11T10:40:20Z</time>
      </trkpt>
      <trkpt lat="27.752462" lon="-17.991626">
        <ele>613.998</ele>
        <time>2022-05-11T10:41:02Z</time>
      </trkpt>
      <trkpt lat="27.752856" lon="-17.991474">
        <ele>620.610</ele>
        <time>2022-05-11T10:42:02Z</time>
      </trkpt>
      <trkpt lat="27.753147" lon="-17.991167">
        <ele>620.553</ele>
        <time>2022-05-11T10:42:39Z</time>
      </trkpt>
      <trkpt lat="27.753252" lon="-17.991139">
        <ele>620.258</ele>
        <time>2022-05-11T10:42:53Z</time>
      </trkpt>
      <trkpt lat="27.753318" lon="-17.991290">
        <ele>620.514</ele>
        <time>2022-05-11T10:43:18Z</time>
      </trkpt>
      <trkpt lat="27.753561" lon="-17.991306">
        <ele>624.729</ele>
        <time>2022-05-11T10:44:18Z</time>
      </trkpt>
      <trkpt lat="27.754047" lon="-17.990626">
        <ele>641.828</ele>
        <time>2022-05-11T10:45:44Z</time>
      </trkpt>
      <trkpt lat="27.754102" lon="-17.990527">
        <ele>643.589</ele>
        <time>2022-05-11T10:45:55Z</time>
      </trkpt>
      <trkpt lat="27.753558" lon="-17.990689">
        <ele>661.217</ele>
        <time>2022-05-11T10:47:42Z</time>
      </trkpt>
      <trkpt lat="27.753806" lon="-17.990347">
        <ele>674.309</ele>
        <time>2022-05-11T10:49:19Z</time>
      </trkpt>
      <trkpt lat="27.753534" lon="-17.990404">
        <ele>679.833</ele>
        <time>2022-05-11T10:49:54Z</time>
      </trkpt>
      <trkpt lat="27.753727" lon="-17.990160">
        <ele>688.772</ele>
        <time>2022-05-11T10:50:44Z</time>
      </trkpt>
      <trkpt lat="27.753193" lon="-17.990142">
        <ele>702.674</ele>
        <time>2022-05-11T10:53:43Z</time>
      </trkpt>
      <trkpt lat="27.753304" lon="-17.990057">
        <ele>713.716</ele>
        <time>2022-05-11T10:57:20Z</time>
      </trkpt>
      <trkpt lat="27.753157" lon="-17.990023">
        <ele>713.868</ele>
        <time>2022-05-11T10:57:56Z</time>
      </trkpt>
      <trkpt lat="27.753474" lon="-17.989908">
        <ele>724.931</ele>
        <time>2022-05-11T10:59:01Z</time>
      </trkpt>
      <trkpt lat="27.753542" lon="-17.989831">
        <ele>727.596</ele>
        <time>2022-05-11T10:59:46Z</time>
      </trkpt>
      <trkpt lat="27.753361" lon="-17.989789">
        <ele>735.292</ele>
        <time>2022-05-11T11:00:18Z</time>
      </trkpt>
      <trkpt lat="27.753337" lon="-17.989700">
        <ele>737.927</ele>
        <time>2022-05-11T11:00:41Z</time>
      </trkpt>
      <trkpt lat="27.753514" lon="-17.989642">
        <ele>745.148</ele>
        <time>2022-05-11T11:01:05Z</time>
      </trkpt>
      <trkpt lat="27.753757" lon="-17.989379">
        <ele>752.961</ele>
        <time>2022-05-11T11:01:54Z</time>
      </trkpt>
      <trkpt lat="27.753550" lon="-17.989410">
        <ele>758.117</ele>
        <time>2022-05-11T11:02:41Z</time>
      </trkpt>
      <trkpt lat="27.754186" lon="-17.988260">
        <ele>792.209</ele>
        <time>2022-05-11T11:06:13Z</time>
      </trkpt>
      <trkpt lat="27.754222" lon="-17.988124">
        <ele>798.515</ele>
        <time>2022-05-11T11:07:02Z</time>
      </trkpt>
      <trkpt lat="27.754038" lon="-17.988201">
        <ele>805.664</ele>
        <time>2022-05-11T11:07:37Z</time>
      </trkpt>
      <trkpt lat="27.754158" lon="-17.988043">
        <ele>813.186</ele>
        <time>2022-05-11T11:08:11Z</time>
      </trkpt>
      <trkpt lat="27.754029" lon="-17.988043">
        <ele>817.238</ele>
        <time>2022-05-11T11:08:41Z</time>
      </trkpt>
      <trkpt lat="27.754317" lon="-17.987816">
        <ele>828.080</ele>
        <time>2022-05-11T11:09:39Z</time>
      </trkpt>
      <trkpt lat="27.754384" lon="-17.987428">
        <ele>827.483</ele>
        <time>2022-05-11T11:10:28Z</time>
      </trkpt>
      <trkpt lat="27.754525" lon="-17.987443">
        <ele>829.518</ele>
        <time>2022-05-11T11:10:49Z</time>
      </trkpt>
      <trkpt lat="27.754458" lon="-17.987354">
        <ele>830.024</ele>
        <time>2022-05-11T11:11:03Z</time>
      </trkpt>
      <trkpt lat="27.754545" lon="-17.987352">
        <ele>834.069</ele>
        <time>2022-05-11T11:11:08Z</time>
      </trkpt>
      <trkpt lat="27.754508" lon="-17.987040">
        <ele>838.041</ele>
        <time>2022-05-11T11:11:31Z</time>
      </trkpt>
      <trkpt lat="27.754687" lon="-17.987041">
        <ele>841.481</ele>
        <time>2022-05-11T11:11:54Z</time>
      </trkpt>
      <trkpt lat="27.754809" lon="-17.987187">
        <ele>843.309</ele>
        <time>2022-05-11T11:12:12Z</time>
      </trkpt>
      <trkpt lat="27.754955" lon="-17.987061">
        <ele>845.709</ele>
        <time>2022-05-11T11:12:39Z</time>
      </trkpt>
      <trkpt lat="27.755148" lon="-17.987071">
        <ele>851.535</ele>
        <time>2022-05-11T11:13:09Z</time>
      </trkpt>
      <trkpt lat="27.755039" lon="-17.986904">
        <ele>856.874</ele>
        <time>2022-05-11T11:13:36Z</time>
      </trkpt>
      <trkpt lat="27.755133" lon="-17.986926">
        <ele>859.346</ele>
        <time>2022-05-11T11:13:49Z</time>
      </trkpt>
      <trkpt lat="27.755099" lon="-17.986832">
        <ele>862.518</ele>
        <time>2022-05-11T11:14:11Z</time>
      </trkpt>
      <trkpt lat="27.755348" lon="-17.986886">
        <ele>870.190</ele>
        <time>2022-05-11T11:14:44Z</time>
      </trkpt>
      <trkpt lat="27.755375" lon="-17.987037">
        <ele>874.183</ele>
        <time>2022-05-11T11:15:20Z</time>
      </trkpt>
      <trkpt lat="27.755569" lon="-17.986933">
        <ele>885.798</ele>
        <time>2022-05-11T11:16:29Z</time>
      </trkpt>
      <trkpt lat="27.755591" lon="-17.986791">
        <ele>894.224</ele>
        <time>2022-05-11T11:17:32Z</time>
      </trkpt>
      <trkpt lat="27.755495" lon="-17.986785">
        <ele>898.929</ele>
        <time>2022-05-11T11:18:06Z</time>
      </trkpt>
      <trkpt lat="27.755604" lon="-17.986695">
        <ele>906.773</ele>
        <time>2022-05-11T11:18:42Z</time>
      </trkpt>
      <trkpt lat="27.755722" lon="-17.986782">
        <ele>913.685</ele>
        <time>2022-05-11T11:19:20Z</time>
      </trkpt>
      <trkpt lat="27.755916" lon="-17.986494">
        <ele>925.513</ele>
        <time>2022-05-11T11:22:44Z</time>
      </trkpt>
      <trkpt lat="27.756017" lon="-17.985983">
        <ele>942.609</ele>
        <time>2022-05-11T11:24:34Z</time>
      </trkpt>
      <trkpt lat="27.756988" lon="-17.984816">
        <ele>976.028</ele>
        <time>2022-05-11T11:28:05Z</time>
      </trkpt>
      <trkpt lat="27.756937" lon="-17.984515">
        <ele>982.767</ele>
        <time>2022-05-11T11:28:36Z</time>
      </trkpt>
      <trkpt lat="27.757107" lon="-17.984063">
        <ele>988.979</ele>
        <time>2022-05-11T11:29:42Z</time>
      </trkpt>
      <trkpt lat="27.757025" lon="-17.984013">
        <ele>990.041</ele>
        <time>2022-05-11T11:29:56Z</time>
      </trkpt>
      <trkpt lat="27.757055" lon="-17.983876">
        <ele>992.823</ele>
        <time>2022-05-11T11:30:08Z</time>
      </trkpt>
      <trkpt lat="27.756808" lon="-17.983803">
        <ele>995.846</ele>
        <time>2022-05-11T11:30:53Z</time>
      </trkpt>
      <trkpt lat="27.756885" lon="-17.983297">
        <ele>1010.911</ele>
        <time>2022-05-11T11:32:08Z</time>
      </trkpt>
      <trkpt lat="27.757214" lon="-17.982984">
        <ele>1023.567</ele>
        <time>2022-05-11T11:33:22Z</time>
      </trkpt>
      <trkpt lat="27.757230" lon="-17.982749">
        <ele>1028.012</ele>
        <time>2022-05-11T11:33:47Z</time>
      </trkpt>
      <trkpt lat="27.757566" lon="-17.982401">
        <ele>1035.814</ele>
        <time>2022-05-11T11:34:40Z</time>
      </trkpt>
      <trkpt lat="27.758012" lon="-17.982480">
        <ele>1045.254</ele>
        <time>2022-05-11T11:37:00Z</time>
      </trkpt>
      <trkpt lat="27.758308" lon="-17.982282">
        <ele>1043.709</ele>
        <time>2022-05-11T11:37:43Z</time>
      </trkpt>
      <trkpt lat="27.758574" lon="-17.982430">
        <ele>1045.209</ele>
        <time>2022-05-11T11:39:07Z</time>
      </trkpt>
      <trkpt lat="27.758432" lon="-17.982282">
        <ele>1049.062</ele>
        <time>2022-05-11T11:39:42Z</time>
      </trkpt>
      <trkpt lat="27.758854" lon="-17.982311">
        <ele>1063.231</ele>
        <time>2022-05-11T11:40:50Z</time>
      </trkpt>
      <trkpt lat="27.759056" lon="-17.982120">
        <ele>1067.373</ele>
        <time>2022-05-11T11:41:25Z</time>
      </trkpt>
      <trkpt lat="27.759921" lon="-17.981777">
        <ele>1086.885</ele>
        <time>2022-05-11T11:43:42Z</time>
      </trkpt>
      <trkpt lat="27.760018" lon="-17.981572">
        <ele>1089.067</ele>
        <time>2022-05-11T11:44:02Z</time>
      </trkpt>
      <trkpt lat="27.760197" lon="-17.981477">
        <ele>1091.350</ele>
        <time>2022-05-11T11:44:25Z</time>
      </trkpt>
      <trkpt lat="27.760309" lon="-17.981085">
        <ele>1093.675</ele>
        <time>2022-05-11T11:45:05Z</time>
      </trkpt>
      <trkpt lat="27.760406" lon="-17.981113">
        <ele>1095.651</ele>
        <time>2022-05-11T11:45:20Z</time>
      </trkpt>
      <trkpt lat="27.760641" lon="-17.980925">
        <ele>1104.726</ele>
        <time>2022-05-11T11:46:06Z</time>
      </trkpt>
      <trkpt lat="27.760989" lon="-17.980932">
        <ele>1114.235</ele>
        <time>2022-05-11T11:46:55Z</time>
      </trkpt>
      <trkpt lat="27.761330" lon="-17.981075">
        <ele>1118.186</ele>
        <time>2022-05-11T11:47:43Z</time>
      </trkpt>
      <trkpt lat="27.761198" lon="-17.980830">
        <ele>1128.514</ele>
        <time>2022-05-11T11:48:36Z</time>
      </trkpt>
      <trkpt lat="27.761269" lon="-17.980887">
        <ele>1130.409</ele>
        <time>2022-05-11T11:48:55Z</time>
      </trkpt>
      <trkpt lat="27.761302" lon="-17.980790">
        <ele>1133.564</ele>
        <time>2022-05-11T11:49:04Z</time>
      </trkpt>
      <trkpt lat="27.761058" lon="-17.980647">
        <ele>1141.963</ele>
        <time>2022-05-11T11:49:54Z</time>
      </trkpt>
      <trkpt lat="27.761051" lon="-17.980375">
        <ele>1148.545</ele>
        <time>2022-05-11T11:50:29Z</time>
      </trkpt>
      <trkpt lat="27.761056" lon="-17.980599">
        <ele>1152.287</ele>
        <time>2022-05-11T11:50:44Z</time>
      </trkpt>
      <trkpt lat="27.761241" lon="-17.980602">
        <ele>1155.019</ele>
        <time>2022-05-11T11:51:30Z</time>
      </trkpt>
      <trkpt lat="27.761830" lon="-17.980911">
        <ele>1174.552</ele>
        <time>2022-05-11T11:53:58Z</time>
      </trkpt>
      <trkpt lat="27.761962" lon="-17.981340">
        <ele>1189.127</ele>
        <time>2022-05-11T11:55:05Z</time>
      </trkpt>
      <trkpt lat="27.762108" lon="-17.981130">
        <ele>1195.863</ele>
        <time>2022-05-11T11:56:03Z</time>
      </trkpt>
      <trkpt lat="27.762236" lon="-17.981237">
        <ele>1203.058</ele>
        <time>2022-05-11T11:56:33Z</time>
      </trkpt>
      <trkpt lat="27.762603" lon="-17.980936">
        <ele>1213.515</ele>
        <time>2022-05-11T11:57:31Z</time>
      </trkpt>
      <trkpt lat="27.763046" lon="-17.981021">
        <ele>1220.365</ele>
        <time>2022-05-11T11:58:49Z</time>
      </trkpt>
      <trkpt lat="27.762767" lon="-17.980933">
        <ele>1220.111</ele>
        <time>2022-05-11T12:00:00Z</time>
      </trkpt>
      <trkpt lat="27.763460" lon="-17.980497">
        <ele>1213.309</ele>
        <time>2022-05-11T12:01:10Z</time>
      </trkpt>
      <trkpt lat="27.763448" lon="-17.980156">
        <ele>1211.032</ele>
        <time>2022-05-11T12:01:45Z</time>
      </trkpt>
      <trkpt lat="27.763004" lon="-17.978868">
        <ele>1207.861</ele>
        <time>2022-05-11T12:03:33Z</time>
      </trkpt>
      <trkpt lat="27.763093" lon="-17.978233">
        <ele>1205.813</ele>
        <time>2022-05-11T12:04:18Z</time>
      </trkpt>
      <trkpt lat="27.762965" lon="-17.977304">
        <ele>1203.925</ele>
        <time>2022-05-11T12:05:48Z</time>
      </trkpt>
      <trkpt lat="27.762856" lon="-17.977087">
        <ele>1202.877</ele>
        <time>2022-05-11T12:06:04Z</time>
      </trkpt>
      <trkpt lat="27.762376" lon="-17.976649">
        <ele>1198.320</ele>
        <time>2022-05-11T12:06:51Z</time>
      </trkpt>
      <trkpt lat="27.762056" lon="-17.975574">
        <ele>1191.965</ele>
        <time>2022-05-11T12:08:14Z</time>
      </trkpt>
      <trkpt lat="27.761900" lon="-17.973795">
        <ele>1182.011</ele>
        <time>2022-05-11T12:10:34Z</time>
      </trkpt>
      <trkpt lat="27.761525" lon="-17.973076">
        <ele>1176.646</ele>
        <time>2022-05-11T12:11:43Z</time>
      </trkpt>
      <trkpt lat="27.761373" lon="-17.972948">
        <ele>1175.675</ele>
        <time>2022-05-11T12:12:03Z</time>
      </trkpt>
      <trkpt lat="27.759647" lon="-17.973877">
        <ele>1189.728</ele>
        <time>2022-05-11T12:15:01Z</time>
      </trkpt>
      <trkpt lat="27.759314" lon="-17.974416">
        <ele>1195.720</ele>
        <time>2022-05-11T12:16:20Z</time>
      </trkpt>
      <trkpt lat="27.758574" lon="-17.974785">
        <ele>1207.009</ele>
        <time>2022-05-11T12:17:40Z</time>
      </trkpt>
      <trkpt lat="27.758370" lon="-17.975106">
        <ele>1212.928</ele>
        <time>2022-05-11T12:19:17Z</time>
      </trkpt>
      <trkpt lat="27.757908" lon="-17.975452">
        <ele>1215.357</ele>
        <time>2022-05-11T12:20:01Z</time>
      </trkpt>
      <trkpt lat="27.756940" lon="-17.975552">
        <ele>1222.099</ele>
        <time>2022-05-11T12:21:27Z</time>
      </trkpt>
      <trkpt lat="27.756640" lon="-17.975808">
        <ele>1225.911</ele>
        <time>2022-05-11T12:21:59Z</time>
      </trkpt>
      <trkpt lat="27.755986" lon="-17.975706">
        <ele>1232.063</ele>
        <time>2022-05-11T12:23:01Z</time>
      </trkpt>
      <trkpt lat="27.754504" lon="-17.976617">
        <ele>1245.046</ele>
        <time>2022-05-11T12:25:29Z</time>
      </trkpt>
      <trkpt lat="27.753196" lon="-17.977697">
        <ele>1249.671</ele>
        <time>2022-05-11T12:29:56Z</time>
      </trkpt>
      <trkpt lat="27.752721" lon="-17.977871">
        <ele>1252.767</ele>
        <time>2022-05-11T12:30:35Z</time>
      </trkpt>
      <trkpt lat="27.751806" lon="-17.978527">
        <ele>1257.332</ele>
        <time>2022-05-11T12:32:04Z</time>
      </trkpt>
      <trkpt lat="27.750386" lon="-17.980205">
        <ele>1266.164</ele>
        <time>2022-05-11T12:35:13Z</time>
      </trkpt>
      <trkpt lat="27.749620" lon="-17.980559">
        <ele>1269.206</ele>
        <time>2022-05-11T12:36:20Z</time>
      </trkpt>
      <trkpt lat="27.749110" lon="-17.980920">
        <ele>1278.916</ele>
        <time>2022-05-11T12:37:21Z</time>
      </trkpt>
      <trkpt lat="27.747852" lon="-17.982324">
        <ele>1296.809</ele>
        <time>2022-05-11T12:40:51Z</time>
      </trkpt>
      <trkpt lat="27.747285" lon="-17.982708">
        <ele>1304.947</ele>
        <time>2022-05-11T12:42:26Z</time>
      </trkpt>
      <trkpt lat="27.747036" lon="-17.983310">
        <ele>1314.156</ele>
        <time>2022-05-11T12:43:20Z</time>
      </trkpt>
      <trkpt lat="27.746614" lon="-17.983792">
        <ele>1311.478</ele>
        <time>2022-05-11T12:44:11Z</time>
      </trkpt>
      <trkpt lat="27.746592" lon="-17.983992">
        <ele>1311.070</ele>
        <time>2022-05-11T12:44:46Z</time>
      </trkpt>
      <trkpt lat="27.746402" lon="-17.984210">
        <ele>1309.082</ele>
        <time>2022-05-11T12:45:42Z</time>
      </trkpt>
      <trkpt lat="27.746438" lon="-17.984161">
        <ele>1308.885</ele>
        <time>2022-05-11T12:45:55Z</time>
      </trkpt>
      <trkpt lat="27.745937" lon="-17.985540">
        <ele>1300.770</ele>
        <time>2022-05-11T12:48:20Z</time>
      </trkpt>
      <trkpt lat="27.745706" lon="-17.985921">
        <ele>1299.746</ele>
        <time>2022-05-11T12:48:56Z</time>
      </trkpt>
      <trkpt lat="27.743947" lon="-17.986369">
        <ele>1298.121</ele>
        <time>2022-05-11T12:51:09Z</time>
      </trkpt>
      <trkpt lat="27.743425" lon="-17.986372">
        <ele>1297.686</ele>
        <time>2022-05-11T12:51:43Z</time>
      </trkpt>
      <trkpt lat="27.742450" lon="-17.987141">
        <ele>1300.360</ele>
        <time>2022-05-11T12:53:29Z</time>
      </trkpt>
      <trkpt lat="27.741933" lon="-17.987396">
        <ele>1301.926</ele>
        <time>2022-05-11T12:54:16Z</time>
      </trkpt>
      <trkpt lat="27.741108" lon="-17.987620">
        <ele>1304.809</ele>
        <time>2022-05-11T12:55:20Z</time>
      </trkpt>
      <trkpt lat="27.740294" lon="-17.988118">
        <ele>1302.389</ele>
        <time>2022-05-11T12:56:34Z</time>
      </trkpt>
      <trkpt lat="27.739488" lon="-17.989410">
        <ele>1303.318</ele>
        <time>2022-05-11T12:58:25Z</time>
      </trkpt>
      <trkpt lat="27.739106" lon="-17.990363">
        <ele>1308.110</ele>
        <time>2022-05-11T12:59:36Z</time>
      </trkpt>
      <trkpt lat="27.738965" lon="-17.990947">
        <ele>1308.152</ele>
        <time>2022-05-11T13:00:19Z</time>
      </trkpt>
      <trkpt lat="27.739087" lon="-17.991243">
        <ele>1309.274</ele>
        <time>2022-05-11T13:01:12Z</time>
      </trkpt>
      <trkpt lat="27.738988" lon="-17.991037">
        <ele>1308.277</ele>
        <time>2022-05-11T13:03:08Z</time>
      </trkpt>
      <trkpt lat="27.739071" lon="-17.991012">
        <ele>1309.522</ele>
        <time>2022-05-11T13:08:36Z</time>
      </trkpt>
      <trkpt lat="27.738987" lon="-17.991060">
        <ele>1309.448</ele>
        <time>2022-05-11T13:15:04Z</time>
      </trkpt>
      <trkpt lat="27.739157" lon="-17.991368">
        <ele>1306.233</ele>
        <time>2022-05-11T13:17:11Z</time>
      </trkpt>
      <trkpt lat="27.739121" lon="-17.991883">
        <ele>1298.083</ele>
        <time>2022-05-11T13:17:51Z</time>
      </trkpt>
      <trkpt lat="27.738951" lon="-17.991765">
        <ele>1294.225</ele>
        <time>2022-05-11T13:18:09Z</time>
      </trkpt>
      <trkpt lat="27.738866" lon="-17.991813">
        <ele>1292.517</ele>
        <time>2022-05-11T13:18:18Z</time>
      </trkpt>
      <trkpt lat="27.738686" lon="-17.992507">
        <ele>1288.009</ele>
        <time>2022-05-11T13:19:21Z</time>
      </trkpt>
      <trkpt lat="27.738255" lon="-17.992961">
        <ele>1290.859</ele>
        <time>2022-05-11T13:20:22Z</time>
      </trkpt>
      <trkpt lat="27.738572" lon="-17.993460">
        <ele>1303.798</ele>
        <time>2022-05-11T13:21:42Z</time>
      </trkpt>
      <trkpt lat="27.738767" lon="-17.994410">
        <ele>1327.570</ele>
        <time>2022-05-11T13:24:20Z</time>
      </trkpt>
      <trkpt lat="27.739054" lon="-17.994495">
        <ele>1333.772</ele>
        <time>2022-05-11T13:24:55Z</time>
      </trkpt>
      <trkpt lat="27.739340" lon="-17.995012">
        <ele>1316.954</ele>
        <time>2022-05-11T13:26:50Z</time>
      </trkpt>
      <trkpt lat="27.739629" lon="-17.995014">
        <ele>1303.087</ele>
        <time>2022-05-11T13:28:34Z</time>
      </trkpt>
      <trkpt lat="27.739502" lon="-17.995292">
        <ele>1295.212</ele>
        <time>2022-05-11T13:30:22Z</time>
      </trkpt>
      <trkpt lat="27.739551" lon="-17.995867">
        <ele>1284.318</ele>
        <time>2022-05-11T13:31:31Z</time>
      </trkpt>
      <trkpt lat="27.739375" lon="-17.996059">
        <ele>1280.243</ele>
        <time>2022-05-11T13:32:20Z</time>
      </trkpt>
      <trkpt lat="27.739420" lon="-17.996263">
        <ele>1277.597</ele>
        <time>2022-05-11T13:33:03Z</time>
      </trkpt>
      <trkpt lat="27.739622" lon="-17.996495">
        <ele>1267.023</ele>
        <time>2022-05-11T13:33:46Z</time>
      </trkpt>
      <trkpt lat="27.739550" lon="-17.996908">
        <ele>1254.425</ele>
        <time>2022-05-11T13:35:40Z</time>
      </trkpt>
      <trkpt lat="27.740261" lon="-17.996828">
        <ele>1221.509</ele>
        <time>2022-05-11T13:38:27Z</time>
      </trkpt>
      <trkpt lat="27.740481" lon="-17.996674">
        <ele>1207.520</ele>
        <time>2022-05-11T13:39:47Z</time>
      </trkpt>
      <trkpt lat="27.740551" lon="-17.997027">
        <ele>1193.369</ele>
        <time>2022-05-11T13:40:35Z</time>
      </trkpt>
      <trkpt lat="27.740702" lon="-17.996922">
        <ele>1183.651</ele>
        <time>2022-05-11T13:41:07Z</time>
      </trkpt>
      <trkpt lat="27.740717" lon="-17.997080">
        <ele>1179.953</ele>
        <time>2022-05-11T13:41:27Z</time>
      </trkpt>
      <trkpt lat="27.740806" lon="-17.997024">
        <ele>1176.125</ele>
        <time>2022-05-11T13:41:46Z</time>
      </trkpt>
      <trkpt lat="27.741051" lon="-17.997201">
        <ele>1161.528</ele>
        <time>2022-05-11T13:42:50Z</time>
      </trkpt>
      <trkpt lat="27.741004" lon="-17.997287">
        <ele>1157.563</ele>
        <time>2022-05-11T13:43:04Z</time>
      </trkpt>
      <trkpt lat="27.741331" lon="-17.997391">
        <ele>1148.099</ele>
        <time>2022-05-11T13:43:45Z</time>
      </trkpt>
      <trkpt lat="27.741080" lon="-17.997631">
        <ele>1135.054</ele>
        <time>2022-05-11T13:45:14Z</time>
      </trkpt>
      <trkpt lat="27.741600" lon="-17.997914">
        <ele>1109.215</ele>
        <time>2022-05-11T13:46:55Z</time>
      </trkpt>
      <trkpt lat="27.741208" lon="-17.998105">
        <ele>1090.465</ele>
        <time>2022-05-11T13:48:18Z</time>
      </trkpt>
      <trkpt lat="27.741184" lon="-17.998347">
        <ele>1079.111</ele>
        <time>2022-05-11T13:49:08Z</time>
      </trkpt>
      <trkpt lat="27.742024" lon="-17.998570">
        <ele>1043.509</ele>
        <time>2022-05-11T13:51:39Z</time>
      </trkpt>
      <trkpt lat="27.742294" lon="-17.998993">
        <ele>1020.072</ele>
        <time>2022-05-11T13:53:02Z</time>
      </trkpt>
      <trkpt lat="27.742433" lon="-17.998965">
        <ele>1014.011</ele>
        <time>2022-05-11T13:53:22Z</time>
      </trkpt>
      <trkpt lat="27.742709" lon="-17.999229">
        <ele>994.983</ele>
        <time>2022-05-11T13:54:51Z</time>
      </trkpt>
      <trkpt lat="27.742567" lon="-17.999449">
        <ele>982.855</ele>
        <time>2022-05-11T13:55:29Z</time>
      </trkpt>
      <trkpt lat="27.742585" lon="-17.999703">
        <ele>971.787</ele>
        <time>2022-05-11T13:56:36Z</time>
      </trkpt>
      <trkpt lat="27.743021" lon="-17.999613">
        <ele>951.220</ele>
        <time>2022-05-11T13:59:24Z</time>
      </trkpt>
      <trkpt lat="27.743110" lon="-17.999614">
        <ele>947.685</ele>
        <time>2022-05-11T14:00:03Z</time>
      </trkpt>
      <trkpt lat="27.743125" lon="-17.999714">
        <ele>944.781</ele>
        <time>2022-05-11T14:00:15Z</time>
      </trkpt>
      <trkpt lat="27.743319" lon="-17.999681">
        <ele>939.976</ele>
        <time>2022-05-11T14:00:42Z</time>
      </trkpt>
      <trkpt lat="27.743049" lon="-17.999730">
        <ele>939.236</ele>
        <time>2022-05-11T14:02:12Z</time>
      </trkpt>
      <trkpt lat="27.743074" lon="-17.999834">
        <ele>938.917</ele>
        <time>2022-05-11T14:03:02Z</time>
      </trkpt>
      <trkpt lat="27.742849" lon="-18.000206">
        <ele>931.918</ele>
        <time>2022-05-11T14:04:15Z</time>
      </trkpt>
      <trkpt lat="27.742664" lon="-18.000274">
        <ele>924.009</ele>
        <time>2022-05-11T14:04:49Z</time>
      </trkpt>
      <trkpt lat="27.742583" lon="-18.000735">
        <ele>910.794</ele>
        <time>2022-05-11T14:05:53Z</time>
      </trkpt>
      <trkpt lat="27.742373" lon="-18.001106">
        <ele>893.133</ele>
        <time>2022-05-11T14:08:13Z</time>
      </trkpt>
      <trkpt lat="27.742552" lon="-18.001320">
        <ele>883.665</ele>
        <time>2022-05-11T14:09:29Z</time>
      </trkpt>
      <trkpt lat="27.742797" lon="-18.001392">
        <ele>873.857</ele>
        <time>2022-05-11T14:10:32Z</time>
      </trkpt>
      <trkpt lat="27.742364" lon="-18.001834">
        <ele>854.199</ele>
        <time>2022-05-11T14:11:44Z</time>
      </trkpt>
      <trkpt lat="27.742642" lon="-18.001921">
        <ele>846.542</ele>
        <time>2022-05-11T14:12:51Z</time>
      </trkpt>
      <trkpt lat="27.742696" lon="-18.002200">
        <ele>832.357</ele>
        <time>2022-05-11T14:14:23Z</time>
      </trkpt>
      <trkpt lat="27.742769" lon="-18.002234">
        <ele>828.193</ele>
        <time>2022-05-11T14:14:34Z</time>
      </trkpt>
      <trkpt lat="27.743557" lon="-18.001623">
        <ele>808.658</ele>
        <time>2022-05-11T14:16:17Z</time>
      </trkpt>
      <trkpt lat="27.743978" lon="-18.001148">
        <ele>813.226</ele>
        <time>2022-05-11T14:17:15Z</time>
      </trkpt>
      <trkpt lat="27.745117" lon="-18.000546">
        <ele>803.147</ele>
        <time>2022-05-11T14:19:38Z</time>
      </trkpt>
      <trkpt lat="27.745615" lon="-18.000029">
        <ele>799.711</ele>
        <time>2022-05-11T14:20:45Z</time>
      </trkpt>
      <trkpt lat="27.746163" lon="-17.999738">
        <ele>788.709</ele>
        <time>2022-05-11T14:22:35Z</time>
      </trkpt>
      <trkpt lat="27.746602" lon="-17.999118">
        <ele>783.073</ele>
        <time>2022-05-11T14:24:58Z</time>
      </trkpt>
      <trkpt lat="27.746705" lon="-17.998814">
        <ele>783.542</ele>
        <time>2022-05-11T14:25:54Z</time>
      </trkpt>
      <trkpt lat="27.746004" lon="-17.997805">
        <ele>788.494</ele>
        <time>2022-05-11T14:28:08Z</time>
      </trkpt>
      <trkpt lat="27.746312" lon="-17.997496">
        <ele>772.826</ele>
        <time>2022-05-11T14:31:02Z</time>
      </trkpt>
      <trkpt lat="27.746378" lon="-17.997587">
        <ele>767.928</ele>
        <time>2022-05-11T14:31:22Z</time>
      </trkpt>
      <trkpt lat="27.746544" lon="-17.997505">
        <ele>755.531</ele>
        <time>2022-05-11T14:31:56Z</time>
      </trkpt>
      <trkpt lat="27.746625" lon="-17.997557">
        <ele>752.396</ele>
        <time>2022-05-11T14:32:16Z</time>
      </trkpt>
      <trkpt lat="27.746662" lon="-17.997406">
        <ele>748.532</ele>
        <time>2022-05-11T14:32:36Z</time>
      </trkpt>
      <trkpt lat="27.746637" lon="-17.997576">
        <ele>746.937</ele>
        <time>2022-05-11T14:32:53Z</time>
      </trkpt>
      <trkpt lat="27.746709" lon="-17.997609">
        <ele>746.617</ele>
        <time>2022-05-11T14:33:08Z</time>
      </trkpt>
      <trkpt lat="27.746976" lon="-17.997546">
        <ele>731.987</ele>
        <time>2022-05-11T14:34:21Z</time>
      </trkpt>
      <trkpt lat="27.746954" lon="-17.997320">
        <ele>723.515</ele>
        <time>2022-05-11T14:34:51Z</time>
      </trkpt>
      <trkpt lat="27.747178" lon="-17.997173">
        <ele>709.309</ele>
        <time>2022-05-11T14:36:08Z</time>
      </trkpt>
      <trkpt lat="27.747321" lon="-17.996895">
        <ele>701.052</ele>
        <time>2022-05-11T14:36:41Z</time>
      </trkpt>
      <trkpt lat="27.747776" lon="-17.997047">
        <ele>685.441</ele>
        <time>2022-05-11T14:38:18Z</time>
      </trkpt>
      <trkpt lat="27.748188" lon="-17.997040">
        <ele>673.173</ele>
        <time>2022-05-11T14:38:54Z</time>
      </trkpt>
      <trkpt lat="27.748357" lon="-17.997229">
        <ele>667.655</ele>
        <time>2022-05-11T14:39:26Z</time>
      </trkpt>
      <trkpt lat="27.748703" lon="-17.997388">
        <ele>658.257</ele>
        <time>2022-05-11T14:40:34Z</time>
      </trkpt>
      <trkpt lat="27.749180" lon="-17.997442">
        <ele>647.540</ele>
        <time>2022-05-11T14:41:27Z</time>
      </trkpt>
      <trkpt lat="27.749487" lon="-17.997365">
        <ele>639.995</ele>
        <time>2022-05-11T14:41:59Z</time>
      </trkpt>
      <trkpt lat="27.750122" lon="-17.997869">
        <ele>617.651</ele>
        <time>2022-05-11T14:43:16Z</time>
      </trkpt>
      <trkpt lat="27.750364" lon="-17.997875">
        <ele>611.326</ele>
        <time>2022-05-11T14:43:46Z</time>
      </trkpt>
      <trkpt lat="27.750469" lon="-17.997723">
        <ele>608.299</ele>
        <time>2022-05-11T14:44:26Z</time>
      </trkpt>
      <trkpt lat="27.750676" lon="-17.999062">
        <ele>587.107</ele>
        <time>2022-05-11T14:47:45Z</time>
      </trkpt>
      <trkpt lat="27.750709" lon="-18.000064">
        <ele>573.527</ele>
        <time>2022-05-11T14:49:08Z</time>
      </trkpt>
      <trkpt lat="27.750766" lon="-18.000036">
        <ele>571.309</ele>
        <time>2022-05-11T14:49:11Z</time>
      </trkpt>
      <trkpt lat="27.750857" lon="-17.999517">
        <ele>566.710</ele>
        <time>2022-05-11T14:49:44Z</time>
      </trkpt>
      <trkpt lat="27.751169" lon="-17.999118">
        <ele>562.359</ele>
        <time>2022-05-11T14:50:26Z</time>
      </trkpt>
      <trkpt lat="27.751481" lon="-17.998273">
        <ele>550.271</ele>
        <time>2022-05-11T14:51:40Z</time>
      </trkpt>
      <trkpt lat="27.751911" lon="-17.996481">
        <ele>526.283</ele>
        <time>2022-05-11T14:53:56Z</time>
      </trkpt>
      <trkpt lat="27.752399" lon="-17.995714">
        <ele>511.215</ele>
        <time>2022-05-11T14:55:06Z</time>
      </trkpt>
      <trkpt lat="27.752819" lon="-17.995549">
        <ele>503.578</ele>
        <time>2022-05-11T14:55:54Z</time>
      </trkpt>
      <trkpt lat="27.753167" lon="-17.995026">
        <ele>495.433</ele>
        <time>2022-05-11T14:56:50Z</time>
      </trkpt>
      <trkpt lat="27.753338" lon="-17.995433">
        <ele>484.129</ele>
        <time>2022-05-11T14:57:36Z</time>
      </trkpt>
      <trkpt lat="27.753343" lon="-17.996231">
        <ele>463.374</ele>
        <time>2022-05-11T14:59:32Z</time>
      </trkpt>
      <trkpt lat="27.753437" lon="-17.996232">
        <ele>460.256</ele>
        <time>2022-05-11T14:59:44Z</time>
      </trkpt>
      <trkpt lat="27.753373" lon="-17.996550">
        <ele>451.959</ele>
        <time>2022-05-11T15:00:14Z</time>
      </trkpt>
      <trkpt lat="27.753544" lon="-17.996561">
        <ele>447.114</ele>
        <time>2022-05-11T15:00:38Z</time>
      </trkpt>
      <trkpt lat="27.753704" lon="-17.997382">
        <ele>432.709</ele>
        <time>2022-05-11T15:02:04Z</time>
      </trkpt>
      <trkpt lat="27.754654" lon="-17.999329">
        <ele>393.596</ele>
        <time>2022-05-11T15:05:11Z</time>
      </trkpt>
      <trkpt lat="27.754631" lon="-17.999270">
        <ele>392.845</ele>
        <time>2022-05-11T15:05:21Z</time>
      </trkpt>
      <trkpt lat="27.754722" lon="-18.000012">
        <ele>382.157</ele>
        <time>2022-05-11T15:06:30Z</time>
      </trkpt>
      <trkpt lat="27.755073" lon="-18.001154">
        <ele>362.259</ele>
        <time>2022-05-11T15:07:57Z</time>
      </trkpt>
      <trkpt lat="27.755254" lon="-18.001321">
        <ele>358.221</ele>
        <time>2022-05-11T15:08:31Z</time>
      </trkpt>
      <trkpt lat="27.755097" lon="-18.001559">
        <ele>355.874</ele>
        <time>2022-05-11T15:09:08Z</time>
      </trkpt>
    </trkseg>
  </trk></gpx>