<?xml version="1.0" encoding="UTF-8"?>
<gpx version="1.1" creator="Aventuras en Cada Paso" xmlns="http://www.topografix.com/GPX/1/1">
  <metadata>
    <name>GR 131 – Camino Entre Volcanes</name>
    <desc>Gran travesía norte–sur por el corazón volcánico de Gran Canaria. Barrancos, cumbres y bosques encadenados. Una de las mejores de Canarias.</desc>
    <author><name>Aventuras en Cada Paso</name></author>
    <time>2026-07-08T08:12:58.166Z</time>
    <keywords>Gran Canaria, Senderismo, Difícil, senderismo Canarias</keywords>
  </metadata>
  <wpt lat="28.1248" lon="-15.43">
    <name>GR 131 – Camino Entre Volcanes</name>
    <desc>Gran travesía norte–sur por el corazón volcánico de Gran Canaria. Barrancos, cumbres y bosques encadenados. Una de las mejores de Canarias. | Isla: Gran Canaria | Tipo: Senderismo | Dificultad: Difícil | Distancia: 47km | Duración: Varios días</desc>
    <type>Senderismo</type>
    <extensions>
      <isla>Gran Canaria</isla>
      <dificultad>Difícil</dificultad>
      <distancia>47</distancia>
      <duracion>Varios días</duracion>
    </extensions>
  </wpt>
</gpx>