<?xml version="1.0" encoding="UTF-8"?>
<gpx creator="Wikiloc - https://www.wikiloc.com" version="1.1" xmlns="http://www.topografix.com/GPX/1/1" xmlns:xsi="http://www.w3.org/2001/XMLSchema-instance" xsi:schemaLocation="http://www.topografix.com/GPX/1/1 http://www.topografix.com/GPX/1/1/gpx.xsd">
  <metadata>
    <name>Wikiloc - Valverde/ Camino de la Virgen de Los Reyes</name>
    <link href="https://www.wikiloc.com/outdoor-trails/valverde-camino-de-la-virgen-de-los-reyes-46946194">
      <text>Valverde/ Camino de la Virgen de Los Reyes - Wikiloc on Wikiloc</text>
    </link>
    <time>2019-12-05T13:06:08Z</time>
  </metadata>
  <trk>
    <name>Valverde/ Camino de la Virgen de Los Reyes - Wikiloc</name>
    <cmt></cmt>
    <desc></desc>
    <trkseg>
      <trkpt lat="27.729979" lon="-18.120890">
        <ele>694.863</ele>
        <time>2019-11-29T18:12:32Z</time>
      </trkpt>
      <trkpt lat="27.729948" lon="-18.120549">
        <ele>699.144</ele>
        <time>2019-12-05T13:06:18Z</time>
      </trkpt>
      <trkpt lat="27.730200" lon="-18.120212">
        <ele>706.018</ele>
        <time>2019-12-05T13:06:25Z</time>
      </trkpt>
      <trkpt lat="27.730146" lon="-18.118474">
        <ele>715.408</ele>
        <time>2019-12-05T13:06:25Z</time>
      </trkpt>
      <trkpt lat="27.730478" lon="-18.118238">
        <ele>717.660</ele>
        <time>2019-12-05T13:06:25Z</time>
      </trkpt>
      <trkpt lat="27.731274" lon="-18.118203">
        <ele>718.522</ele>
        <time>2019-12-05T13:06:26Z</time>
      </trkpt>
      <trkpt lat="27.732388" lon="-18.116996">
        <ele>744.815</ele>
        <time>2019-12-05T13:06:26Z</time>
      </trkpt>
      <trkpt lat="27.733243" lon="-18.114973">
        <ele>774.110</ele>
        <time>2019-12-05T13:06:26Z</time>
      </trkpt>
      <trkpt lat="27.733920" lon="-18.114635">
        <ele>785.052</ele>
        <time>2019-12-05T13:06:24Z</time>
      </trkpt>
      <trkpt lat="27.734130" lon="-18.114247">
        <ele>794.147</ele>
        <time>2019-12-05T13:06:26Z</time>
      </trkpt>
      <trkpt lat="27.734580" lon="-18.112505">
        <ele>823.355</ele>
        <time>2019-12-05T13:06:26Z</time>
      </trkpt>
      <trkpt lat="27.735696" lon="-18.110114">
        <ele>866.490</ele>
        <time>2019-12-05T13:06:26Z</time>
      </trkpt>
      <trkpt lat="27.736522" lon="-18.109190">
        <ele>887.789</ele>
        <time>2019-12-05T13:06:25Z</time>
      </trkpt>
      <trkpt lat="27.737380" lon="-18.107692">
        <ele>916.306</ele>
        <time>2019-12-05T13:06:26Z</time>
      </trkpt>
      <trkpt lat="27.738504" lon="-18.107656">
        <ele>929.126</ele>
        <time>2019-12-05T13:06:25Z</time>
      </trkpt>
      <trkpt lat="27.738855" lon="-18.107449">
        <ele>937.208</ele>
        <time>2019-12-05T13:06:26Z</time>
      </trkpt>
      <trkpt lat="27.739083" lon="-18.107084">
        <ele>946.522</ele>
        <time>2019-12-05T13:06:26Z</time>
      </trkpt>
      <trkpt lat="27.739449" lon="-18.106950">
        <ele>951.464</ele>
        <time>2019-12-05T13:06:25Z</time>
      </trkpt>
      <trkpt lat="27.740592" lon="-18.107321">
        <ele>956.677</ele>
        <time>2019-12-05T13:06:26Z</time>
      </trkpt>
      <trkpt lat="27.740108" lon="-18.106296">
        <ele>967.242</ele>
        <time>2019-12-05T13:06:26Z</time>
      </trkpt>
      <trkpt lat="27.739177" lon="-18.105570">
        <ele>982.584</ele>
        <time>2019-12-05T13:06:23Z</time>
      </trkpt>
      <trkpt lat="27.738748" lon="-18.104851">
        <ele>992.439</ele>
        <time>2019-12-05T13:06:25Z</time>
      </trkpt>
      <trkpt lat="27.738049" lon="-18.104612">
        <ele>1002.767</ele>
        <time>2019-12-05T13:06:22Z</time>
      </trkpt>
      <trkpt lat="27.737295" lon="-18.103037">
        <ele>1027.732</ele>
        <time>2019-12-05T13:06:26Z</time>
      </trkpt>
      <trkpt lat="27.736735" lon="-18.100959">
        <ele>1066.671</ele>
        <time>2019-12-05T13:06:26Z</time>
      </trkpt>
      <trkpt lat="27.735733" lon="-18.100219">
        <ele>1080.941</ele>
        <time>2019-12-05T13:06:26Z</time>
      </trkpt>
      <trkpt lat="27.735184" lon="-18.099603">
        <ele>1093.215</ele>
        <time>2019-12-05T13:06:24Z</time>
      </trkpt>
      <trkpt lat="27.734980" lon="-18.098786">
        <ele>1103.408</ele>
        <time>2019-12-05T13:06:23Z</time>
      </trkpt>
      <trkpt lat="27.735117" lon="-18.098359">
        <ele>1113.961</ele>
        <time>2019-12-05T13:06:26Z</time>
      </trkpt>
      <trkpt lat="27.734419" lon="-18.097384">
        <ele>1130.743</ele>
        <time>2019-12-05T13:06:24Z</time>
      </trkpt>
      <trkpt lat="27.734494" lon="-18.096994">
        <ele>1139.436</ele>
        <time>2019-12-05T13:06:22Z</time>
      </trkpt>
      <trkpt lat="27.733537" lon="-18.096178">
        <ele>1146.971</ele>
        <time>2019-12-05T13:06:26Z</time>
      </trkpt>
      <trkpt lat="27.733040" lon="-18.095471">
        <ele>1154.273</ele>
        <time>2019-12-05T13:06:26Z</time>
      </trkpt>
      <trkpt lat="27.732361" lon="-18.095020">
        <ele>1162.628</ele>
        <time>2019-12-05T13:06:25Z</time>
      </trkpt>
      <trkpt lat="27.732229" lon="-18.094593">
        <ele>1166.766</ele>
        <time>2019-12-05T13:06:26Z</time>
      </trkpt>
      <trkpt lat="27.731551" lon="-18.094169">
        <ele>1173.171</ele>
        <time>2019-12-05T13:06:25Z</time>
      </trkpt>
      <trkpt lat="27.730061" lon="-18.092082">
        <ele>1214.492</ele>
        <time>2019-12-05T13:06:26Z</time>
      </trkpt>
      <trkpt lat="27.729256" lon="-18.090007">
        <ele>1224.073</ele>
        <time>2019-12-05T13:06:26Z</time>
      </trkpt>
      <trkpt lat="27.729361" lon="-18.088216">
        <ele>1230.520</ele>
        <time>2019-12-05T13:06:26Z</time>
      </trkpt>
      <trkpt lat="27.729662" lon="-18.086910">
        <ele>1235.408</ele>
        <time>2019-12-05T13:06:26Z</time>
      </trkpt>
      <trkpt lat="27.729177" lon="-18.085679">
        <ele>1243.733</ele>
        <time>2019-12-05T13:06:26Z</time>
      </trkpt>
      <trkpt lat="27.729304" lon="-18.084350">
        <ele>1249.945</ele>
        <time>2019-12-05T13:06:26Z</time>
      </trkpt>
      <trkpt lat="27.728588" lon="-18.082738">
        <ele>1254.978</ele>
        <time>2019-12-05T13:06:26Z</time>
      </trkpt>
      <trkpt lat="27.728329" lon="-18.081409">
        <ele>1260.083</ele>
        <time>2019-12-05T13:06:26Z</time>
      </trkpt>
      <trkpt lat="27.728312" lon="-18.080510">
        <ele>1272.065</ele>
        <time>2019-12-05T13:06:26Z</time>
      </trkpt>
      <trkpt lat="27.727565" lon="-18.079520">
        <ele>1294.950</ele>
        <time>2019-12-05T13:06:26Z</time>
      </trkpt>
      <trkpt lat="27.726999" lon="-18.077383">
        <ele>1313.218</ele>
        <time>2019-12-05T13:06:26Z</time>
      </trkpt>
      <trkpt lat="27.725748" lon="-18.074571">
        <ele>1341.393</ele>
        <time>2019-12-05T13:06:26Z</time>
      </trkpt>
      <trkpt lat="27.725741" lon="-18.073669">
        <ele>1348.275</ele>
        <time>2019-12-05T13:06:26Z</time>
      </trkpt>
      <trkpt lat="27.725872" lon="-18.073255">
        <ele>1350.628</ele>
        <time>2019-12-05T13:06:25Z</time>
      </trkpt>
      <trkpt lat="27.726163" lon="-18.072978">
        <ele>1356.320</ele>
        <time>2019-12-05T13:06:24Z</time>
      </trkpt>
      <trkpt lat="27.725783" lon="-18.071217">
        <ele>1394.308</ele>
        <time>2019-12-05T13:06:26Z</time>
      </trkpt>
      <trkpt lat="27.725759" lon="-18.069401">
        <ele>1413.671</ele>
        <time>2019-12-05T13:06:26Z</time>
      </trkpt>
      <trkpt lat="27.725489" lon="-18.068083">
        <ele>1416.583</ele>
        <time>2019-12-05T13:06:26Z</time>
      </trkpt>
      <trkpt lat="27.725558" lon="-18.066271">
        <ele>1411.966</ele>
        <time>2019-12-05T13:06:26Z</time>
      </trkpt>
      <trkpt lat="27.725867" lon="-18.065542">
        <ele>1407.781</ele>
        <time>2019-12-05T13:06:20Z</time>
      </trkpt>
      <trkpt lat="27.725082" lon="-18.062971">
        <ele>1411.953</ele>
        <time>2019-12-05T13:06:26Z</time>
      </trkpt>
      <trkpt lat="27.724956" lon="-18.061642">
        <ele>1412.388</ele>
        <time>2019-12-05T13:06:26Z</time>
      </trkpt>
      <trkpt lat="27.724432" lon="-18.060424">
        <ele>1413.766</ele>
        <time>2019-12-05T13:06:26Z</time>
      </trkpt>
      <trkpt lat="27.724430" lon="-18.058608">
        <ele>1413.481</ele>
        <time>2019-12-05T13:06:26Z</time>
      </trkpt>
      <trkpt lat="27.724052" lon="-18.056416">
        <ele>1409.734</ele>
        <time>2019-12-05T13:06:24Z</time>
      </trkpt>
      <trkpt lat="27.724320" lon="-18.054650">
        <ele>1416.455</ele>
        <time>2019-12-05T13:06:26Z</time>
      </trkpt>
      <trkpt lat="27.724689" lon="-18.053846">
        <ele>1417.210</ele>
        <time>2019-12-05T13:06:26Z</time>
      </trkpt>
      <trkpt lat="27.724852" lon="-18.052959">
        <ele>1432.708</ele>
        <time>2019-12-05T13:06:26Z</time>
      </trkpt>
      <trkpt lat="27.724850" lon="-18.052057">
        <ele>1445.547</ele>
        <time>2019-12-05T13:06:26Z</time>
      </trkpt>
      <trkpt lat="27.725556" lon="-18.049937">
        <ele>1441.029</ele>
        <time>2019-12-05T13:06:26Z</time>
      </trkpt>
      <trkpt lat="27.725567" lon="-18.049073">
        <ele>1441.312</ele>
        <time>2019-12-05T13:06:24Z</time>
      </trkpt>
      <trkpt lat="27.727455" lon="-18.045777">
        <ele>1463.677</ele>
        <time>2019-12-05T13:06:26Z</time>
      </trkpt>
      <trkpt lat="27.727821" lon="-18.043560">
        <ele>1485.079</ele>
        <time>2019-12-05T13:06:26Z</time>
      </trkpt>
      <trkpt lat="27.728424" lon="-18.041396">
        <ele>1489.354</ele>
        <time>2019-12-05T13:06:26Z</time>
      </trkpt>
      <trkpt lat="27.728565" lon="-18.040971">
        <ele>1492.892</ele>
        <time>2019-12-05T13:06:26Z</time>
      </trkpt>
      <trkpt lat="27.729189" lon="-18.040470">
        <ele>1498.717</ele>
        <time>2019-12-05T13:06:26Z</time>
      </trkpt>
      <trkpt lat="27.728643" lon="-18.040048">
        <ele>1494.787</ele>
        <time>2019-12-05T13:06:23Z</time>
      </trkpt>
      <trkpt lat="27.728569" lon="-18.039602">
        <ele>1486.542</ele>
        <time>2019-12-05T13:06:26Z</time>
      </trkpt>
      <trkpt lat="27.728812" lon="-18.038800">
        <ele>1478.826</ele>
        <time>2019-12-05T13:06:25Z</time>
      </trkpt>
      <trkpt lat="27.728223" lon="-18.038250">
        <ele>1481.508</ele>
        <time>2019-12-05T13:06:25Z</time>
      </trkpt>
      <trkpt lat="27.728027" lon="-18.037858">
        <ele>1484.842</ele>
        <time>2019-12-05T13:06:26Z</time>
      </trkpt>
      <trkpt lat="27.727879" lon="-18.036507">
        <ele>1489.874</ele>
        <time>2019-12-05T13:06:26Z</time>
      </trkpt>
      <trkpt lat="27.728208" lon="-18.034770">
        <ele>1459.667</ele>
        <time>2019-12-05T13:06:26Z</time>
      </trkpt>
      <trkpt lat="27.727965" lon="-18.034537">
        <ele>1449.732</ele>
        <time>2019-12-05T13:06:19Z</time>
      </trkpt>
      <trkpt lat="27.727836" lon="-18.034134">
        <ele>1440.294</ele>
        <time>2019-12-05T13:06:24Z</time>
      </trkpt>
      <trkpt lat="27.727943" lon="-18.033246">
        <ele>1430.099</ele>
        <time>2019-12-05T13:06:26Z</time>
      </trkpt>
      <trkpt lat="27.728613" lon="-18.030721">
        <ele>1403.417</ele>
        <time>2019-12-05T13:06:23Z</time>
      </trkpt>
      <trkpt lat="27.727961" lon="-18.028188">
        <ele>1363.562</ele>
        <time>2019-12-05T13:06:23Z</time>
      </trkpt>
      <trkpt lat="27.727226" lon="-18.026649">
        <ele>1359.938</ele>
        <time>2019-12-05T13:06:26Z</time>
      </trkpt>
      <trkpt lat="27.727012" lon="-18.025319">
        <ele>1361.370</ele>
        <time>2019-12-05T13:06:26Z</time>
      </trkpt>
      <trkpt lat="27.727761" lon="-18.023335">
        <ele>1372.617</ele>
        <time>2019-12-05T13:06:26Z</time>
      </trkpt>
      <trkpt lat="27.728143" lon="-18.021603">
        <ele>1378.708</ele>
        <time>2019-12-05T13:06:25Z</time>
      </trkpt>
      <trkpt lat="27.727977" lon="-18.018676">
        <ele>1362.987</ele>
        <time>2019-12-05T13:06:26Z</time>
      </trkpt>
      <trkpt lat="27.728132" lon="-18.017788">
        <ele>1376.839</ele>
        <time>2019-12-05T13:06:26Z</time>
      </trkpt>
      <trkpt lat="27.728054" lon="-18.017356">
        <ele>1384.852</ele>
        <time>2019-12-05T13:06:25Z</time>
      </trkpt>
      <trkpt lat="27.727374" lon="-18.016239">
        <ele>1386.137</ele>
        <time>2019-12-05T13:06:26Z</time>
      </trkpt>
      <trkpt lat="27.727338" lon="-18.015787">
        <ele>1384.789</ele>
        <time>2019-12-05T13:06:26Z</time>
      </trkpt>
      <trkpt lat="27.727835" lon="-18.013599">
        <ele>1383.454</ele>
        <time>2019-12-05T13:06:26Z</time>
      </trkpt>
      <trkpt lat="27.728246" lon="-18.012824">
        <ele>1380.622</ele>
        <time>2019-12-05T13:06:26Z</time>
      </trkpt>
      <trkpt lat="27.729406" lon="-18.011571">
        <ele>1374.837</ele>
        <time>2019-12-05T13:06:26Z</time>
      </trkpt>
      <trkpt lat="27.729563" lon="-18.011165">
        <ele>1376.529</ele>
        <time>2019-12-05T13:06:25Z</time>
      </trkpt>
      <trkpt lat="27.729616" lon="-18.010260">
        <ele>1378.200</ele>
        <time>2019-12-05T13:06:26Z</time>
      </trkpt>
      <trkpt lat="27.729825" lon="-18.009880">
        <ele>1379.920</ele>
        <time>2019-12-05T13:06:26Z</time>
      </trkpt>
      <trkpt lat="27.730426" lon="-18.009288">
        <ele>1376.108</ele>
        <time>2019-12-05T13:06:26Z</time>
      </trkpt>
      <trkpt lat="27.731901" lon="-18.008608">
        <ele>1359.216</ele>
        <time>2019-12-05T13:06:26Z</time>
      </trkpt>
      <trkpt lat="27.731656" lon="-18.008267">
        <ele>1356.218</ele>
        <time>2019-12-05T13:06:25Z</time>
      </trkpt>
      <trkpt lat="27.732060" lon="-18.007063">
        <ele>1355.081</ele>
        <time>2019-12-05T13:06:25Z</time>
      </trkpt>
      <trkpt lat="27.732013" lon="-18.004842">
        <ele>1358.336</ele>
        <time>2019-12-05T13:06:25Z</time>
      </trkpt>
      <trkpt lat="27.732476" lon="-18.004103">
        <ele>1351.248</ele>
        <time>2019-12-05T13:06:26Z</time>
      </trkpt>
      <trkpt lat="27.732755" lon="-18.003280">
        <ele>1354.883</ele>
        <time>2019-12-05T13:06:25Z</time>
      </trkpt>
      <trkpt lat="27.734123" lon="-18.001734">
        <ele>1347.051</ele>
        <time>2019-12-05T13:06:22Z</time>
      </trkpt>
      <trkpt lat="27.734709" lon="-18.000042">
        <ele>1343.636</ele>
        <time>2019-12-05T13:06:26Z</time>
      </trkpt>
      <trkpt lat="27.734818" lon="-17.998694">
        <ele>1339.229</ele>
        <time>2019-12-05T13:06:26Z</time>
      </trkpt>
      <trkpt lat="27.735136" lon="-17.997884">
        <ele>1338.000</ele>
        <time>2019-12-05T13:06:26Z</time>
      </trkpt>
      <trkpt lat="27.736096" lon="-17.997104">
        <ele>1336.320</ele>
        <time>2019-12-05T13:06:26Z</time>
      </trkpt>
      <trkpt lat="27.736443" lon="-17.997286">
        <ele>1344.008</ele>
        <time>2019-12-05T13:06:25Z</time>
      </trkpt>
      <trkpt lat="27.737147" lon="-17.996860">
        <ele>1356.196</ele>
        <time>2019-12-05T13:06:26Z</time>
      </trkpt>
      <trkpt lat="27.738020" lon="-17.996950">
        <ele>1366.748</ele>
        <time>2019-12-05T13:05:59Z</time>
      </trkpt>
      <trkpt lat="27.737717" lon="-17.996683">
        <ele>1365.181</ele>
        <time>2019-12-05T13:06:25Z</time>
      </trkpt>
      <trkpt lat="27.737813" lon="-17.996294">
        <ele>1362.396</ele>
        <time>2019-12-05T13:06:22Z</time>
      </trkpt>
      <trkpt lat="27.738501" lon="-17.995436">
        <ele>1354.928</ele>
        <time>2019-12-05T13:06:18Z</time>
      </trkpt>
      <trkpt lat="27.738673" lon="-17.994101">
        <ele>1346.343</ele>
        <time>2019-12-05T13:06:26Z</time>
      </trkpt>
      <trkpt lat="27.738034" lon="-17.992037">
        <ele>1312.861</ele>
        <time>2019-12-05T13:06:22Z</time>
      </trkpt>
      <trkpt lat="27.738377" lon="-17.991844">
        <ele>1313.646</ele>
        <time>2019-12-05T13:06:25Z</time>
      </trkpt>
      <trkpt lat="27.738815" lon="-17.991083">
        <ele>1328.813</ele>
        <time>2019-12-05T13:06:26Z</time>
      </trkpt>
      <trkpt lat="27.739399" lon="-17.989403">
        <ele>1324.943</ele>
        <time>2019-12-05T13:06:26Z</time>
      </trkpt>
      <trkpt lat="27.740125" lon="-17.988314">
        <ele>1321.907</ele>
        <time>2019-12-05T13:06:26Z</time>
      </trkpt>
      <trkpt lat="27.740771" lon="-17.987787">
        <ele>1326.308</ele>
        <time>2019-12-05T13:06:26Z</time>
      </trkpt>
      <trkpt lat="27.742641" lon="-17.986980">
        <ele>1321.985</ele>
        <time>2019-12-05T13:06:26Z</time>
      </trkpt>
      <trkpt lat="27.743251" lon="-17.986400">
        <ele>1320.167</ele>
        <time>2019-12-05T13:06:26Z</time>
      </trkpt>
      <trkpt lat="27.744787" lon="-17.985961">
        <ele>1320.020</ele>
        <time>2019-12-05T13:06:26Z</time>
      </trkpt>
      <trkpt lat="27.745438" lon="-17.985542">
        <ele>1319.165</ele>
        <time>2019-12-05T13:06:26Z</time>
      </trkpt>
      <trkpt lat="27.745729" lon="-17.984796">
        <ele>1318.857</ele>
        <time>2019-12-05T13:06:25Z</time>
      </trkpt>
      <trkpt lat="27.746838" lon="-17.983534">
        <ele>1338.052</ele>
        <time>2019-12-05T13:06:26Z</time>
      </trkpt>
      <trkpt lat="27.747300" lon="-17.982797">
        <ele>1331.930</ele>
        <time>2019-12-05T13:06:26Z</time>
      </trkpt>
      <trkpt lat="27.749056" lon="-17.980940">
        <ele>1304.195</ele>
        <time>2019-12-05T13:06:26Z</time>
      </trkpt>
      <trkpt lat="27.750442" lon="-17.980071">
        <ele>1287.051</ele>
        <time>2019-12-05T13:06:25Z</time>
      </trkpt>
      <trkpt lat="27.751836" lon="-17.978454">
        <ele>1280.101</ele>
        <time>2019-12-05T13:06:26Z</time>
      </trkpt>
      <trkpt lat="27.755977" lon="-17.975686">
        <ele>1254.911</ele>
        <time>2019-12-05T13:06:26Z</time>
      </trkpt>
      <trkpt lat="27.756378" lon="-17.975713">
        <ele>1250.308</ele>
        <time>2019-12-05T13:06:26Z</time>
      </trkpt>
      <trkpt lat="27.757926" lon="-17.975361">
        <ele>1235.079</ele>
        <time>2019-12-05T13:06:26Z</time>
      </trkpt>
      <trkpt lat="27.758541" lon="-17.974794">
        <ele>1228.151</ele>
        <time>2019-12-05T13:06:26Z</time>
      </trkpt>
      <trkpt lat="27.759275" lon="-17.974430">
        <ele>1216.134</ele>
        <time>2019-12-05T13:06:26Z</time>
      </trkpt>
      <trkpt lat="27.759813" lon="-17.973778">
        <ele>1207.219</ele>
        <time>2019-12-05T13:06:25Z</time>
      </trkpt>
      <trkpt lat="27.762338" lon="-17.972405">
        <ele>1185.121</ele>
        <time>2019-12-05T13:06:26Z</time>
      </trkpt>
      <trkpt lat="27.762858" lon="-17.971716">
        <ele>1180.066</ele>
        <time>2019-12-05T13:06:26Z</time>
      </trkpt>
      <trkpt lat="27.764165" lon="-17.970880">
        <ele>1153.864</ele>
        <time>2019-12-05T13:06:21Z</time>
      </trkpt>
      <trkpt lat="27.764812" lon="-17.969776">
        <ele>1130.799</ele>
        <time>2019-12-05T13:06:26Z</time>
      </trkpt>
      <trkpt lat="27.765540" lon="-17.969403">
        <ele>1114.644</ele>
        <time>2019-12-05T13:06:26Z</time>
      </trkpt>
      <trkpt lat="27.766467" lon="-17.968538">
        <ele>1102.405</ele>
        <time>2019-12-05T13:06:26Z</time>
      </trkpt>
      <trkpt lat="27.767820" lon="-17.967561">
        <ele>1096.715</ele>
        <time>2019-12-05T13:06:26Z</time>
      </trkpt>
      <trkpt lat="27.768934" lon="-17.966255">
        <ele>1091.508</ele>
        <time>2019-12-05T13:06:26Z</time>
      </trkpt>
      <trkpt lat="27.770890" lon="-17.964660">
        <ele>1086.838</ele>
        <time>2019-12-05T13:06:26Z</time>
      </trkpt>
      <trkpt lat="27.772688" lon="-17.962220">
        <ele>1074.330</ele>
        <time>2019-12-05T13:06:26Z</time>
      </trkpt>
      <trkpt lat="27.773095" lon="-17.961449">
        <ele>1067.893</ele>
        <time>2019-12-05T13:06:26Z</time>
      </trkpt>
      <trkpt lat="27.773711" lon="-17.960867">
        <ele>1063.578</ele>
        <time>2019-12-05T13:06:26Z</time>
      </trkpt>
      <trkpt lat="27.774802" lon="-17.960299">
        <ele>1056.280</ele>
        <time>2019-12-05T13:06:26Z</time>
      </trkpt>
      <trkpt lat="27.775566" lon="-17.960121">
        <ele>1049.835</ele>
        <time>2019-12-05T13:06:25Z</time>
      </trkpt>
      <trkpt lat="27.776830" lon="-17.958355">
        <ele>1040.683</ele>
        <time>2019-12-05T13:06:26Z</time>
      </trkpt>
      <trkpt lat="27.777684" lon="-17.956308">
        <ele>1029.958</ele>
        <time>2019-12-05T13:06:26Z</time>
      </trkpt>
      <trkpt lat="27.778633" lon="-17.954842">
        <ele>1023.327</ele>
        <time>2019-12-05T13:06:26Z</time>
      </trkpt>
      <trkpt lat="27.779990" lon="-17.953176">
        <ele>1021.068</ele>
        <time>2019-12-05T13:06:26Z</time>
      </trkpt>
      <trkpt lat="27.781599" lon="-17.951823">
        <ele>1034.014</ele>
        <time>2019-12-05T13:06:26Z</time>
      </trkpt>
      <trkpt lat="27.781892" lon="-17.950982">
        <ele>1034.008</ele>
        <time>2019-12-05T13:06:26Z</time>
      </trkpt>
      <trkpt lat="27.782569" lon="-17.949854">
        <ele>1029.996</ele>
        <time>2019-12-05T13:06:26Z</time>
      </trkpt>
      <trkpt lat="27.782894" lon="-17.948780">
        <ele>1030.618</ele>
        <time>2019-12-05T13:06:08Z</time>
      </trkpt>
      <trkpt lat="27.782982" lon="-17.947527">
        <ele>1034.331</ele>
        <time>2019-12-05T13:06:08Z</time>
      </trkpt>
      <trkpt lat="27.783981" lon="-17.946273">
        <ele>1034.116</ele>
        <time>2019-12-05T13:06:08Z</time>
      </trkpt>
      <trkpt lat="27.783848" lon="-17.944790">
        <ele>1034.058</ele>
        <time>2019-12-05T13:06:08Z</time>
      </trkpt>
      <trkpt lat="27.784109" lon="-17.943543">
        <ele>1031.993</ele>
        <time>2019-12-05T13:06:08Z</time>
      </trkpt>
      <trkpt lat="27.784705" lon="-17.942470">
        <ele>1039.831</ele>
        <time>2019-12-05T13:06:08Z</time>
      </trkpt>
      <trkpt lat="27.784719" lon="-17.941618">
        <ele>1043.996</ele>
        <time>2019-12-05T13:06:08Z</time>
      </trkpt>
      <trkpt lat="27.784975" lon="-17.941082">
        <ele>1040.041</ele>
        <time>2019-12-05T13:06:07Z</time>
      </trkpt>
      <trkpt lat="27.784898" lon="-17.940233">
        <ele>1026.581</ele>
        <time>2019-12-05T13:06:08Z</time>
      </trkpt>
      <trkpt lat="27.785059" lon="-17.939851">
        <ele>1021.609</ele>
        <time>2019-12-05T13:06:08Z</time>
      </trkpt>
      <trkpt lat="27.785190" lon="-17.938151">
        <ele>1011.108</ele>
        <time>2019-12-05T13:06:08Z</time>
      </trkpt>
      <trkpt lat="27.786419" lon="-17.935557">
        <ele>975.578</ele>
        <time>2019-12-05T13:06:08Z</time>
      </trkpt>
      <trkpt lat="27.788104" lon="-17.933574">
        <ele>924.090</ele>
        <time>2019-12-05T13:06:08Z</time>
      </trkpt>
      <trkpt lat="27.788737" lon="-17.933211">
        <ele>911.043</ele>
        <time>2019-12-05T13:06:08Z</time>
      </trkpt>
      <trkpt lat="27.789427" lon="-17.933266">
        <ele>905.248</ele>
        <time>2019-12-05T13:06:03Z</time>
      </trkpt>
      <trkpt lat="27.789470" lon="-17.932844">
        <ele>906.660</ele>
        <time>2019-12-05T13:06:08Z</time>
      </trkpt>
      <trkpt lat="27.789765" lon="-17.932580">
        <ele>908.155</ele>
        <time>2019-12-05T13:06:08Z</time>
      </trkpt>
      <trkpt lat="27.790023" lon="-17.932008">
        <ele>909.743</ele>
        <time>2019-12-05T13:06:08Z</time>
      </trkpt>
      <trkpt lat="27.791330" lon="-17.930193">
        <ele>886.788</ele>
        <time>2019-12-05T13:06:08Z</time>
      </trkpt>
      <trkpt lat="27.792666" lon="-17.929452">
        <ele>877.586</ele>
        <time>2019-12-05T13:06:08Z</time>
      </trkpt>
      <trkpt lat="27.793001" lon="-17.929616">
        <ele>873.360</ele>
        <time>2019-12-05T13:06:08Z</time>
      </trkpt>
      <trkpt lat="27.793275" lon="-17.929100">
        <ele>874.226</ele>
        <time>2019-12-05T13:06:08Z</time>
      </trkpt>
      <trkpt lat="27.793985" lon="-17.928548">
        <ele>868.508</ele>
        <time>2019-12-05T13:06:08Z</time>
      </trkpt>
      <trkpt lat="27.794114" lon="-17.927974">
        <ele>865.552</ele>
        <time>2019-12-05T13:06:07Z</time>
      </trkpt>
      <trkpt lat="27.794643" lon="-17.927793">
        <ele>859.284</ele>
        <time>2019-12-05T13:06:08Z</time>
      </trkpt>
      <trkpt lat="27.794737" lon="-17.927395">
        <ele>858.377</ele>
        <time>2019-12-05T13:06:08Z</time>
      </trkpt>
      <trkpt lat="27.795123" lon="-17.926926">
        <ele>859.822</ele>
        <time>2019-12-05T13:06:08Z</time>
      </trkpt>
      <trkpt lat="27.796071" lon="-17.926347">
        <ele>857.714</ele>
        <time>2019-12-05T13:06:07Z</time>
      </trkpt>
      <trkpt lat="27.796602" lon="-17.926482">
        <ele>854.299</ele>
        <time>2019-12-05T13:06:07Z</time>
      </trkpt>
      <trkpt lat="27.797117" lon="-17.925893">
        <ele>850.517</ele>
        <time>2019-12-05T13:06:07Z</time>
      </trkpt>
      <trkpt lat="27.797591" lon="-17.926191">
        <ele>846.982</ele>
        <time>2019-12-05T13:06:07Z</time>
      </trkpt>
      <trkpt lat="27.797621" lon="-17.925586">
        <ele>836.427</ele>
        <time>2019-12-05T13:06:07Z</time>
      </trkpt>
      <trkpt lat="27.797481" lon="-17.925898">
        <ele>835.668</ele>
        <time>2019-12-05T13:06:04Z</time>
      </trkpt>
      <trkpt lat="27.797235" lon="-17.925091">
        <ele>812.214</ele>
        <time>2019-12-05T13:06:08Z</time>
      </trkpt>
      <trkpt lat="27.797054" lon="-17.925067">
        <ele>813.708</ele>
        <time>2019-12-05T13:06:07Z</time>
      </trkpt>
      <trkpt lat="27.797502" lon="-17.924239">
        <ele>817.386</ele>
        <time>2019-12-05T13:06:07Z</time>
      </trkpt>
      <trkpt lat="27.797409" lon="-17.923395">
        <ele>811.478</ele>
        <time>2019-12-05T13:06:08Z</time>
      </trkpt>
      <trkpt lat="27.797515" lon="-17.922556">
        <ele>808.011</ele>
        <time>2019-12-05T13:06:08Z</time>
      </trkpt>
      <trkpt lat="27.797788" lon="-17.922330">
        <ele>801.826</ele>
        <time>2019-12-05T13:06:06Z</time>
      </trkpt>
      <trkpt lat="27.797822" lon="-17.922120">
        <ele>797.858</ele>
        <time>2019-12-05T13:06:08Z</time>
      </trkpt>
      <trkpt lat="27.798715" lon="-17.922207">
        <ele>780.113</ele>
        <time>2019-12-05T13:06:08Z</time>
      </trkpt>
      <trkpt lat="27.798467" lon="-17.921882">
        <ele>771.121</ele>
        <time>2019-12-05T13:06:03Z</time>
      </trkpt>
      <trkpt lat="27.798954" lon="-17.921619">
        <ele>760.216</ele>
        <time>2019-12-05T13:06:08Z</time>
      </trkpt>
      <trkpt lat="27.798954" lon="-17.921465">
        <ele>758.536</ele>
        <time>2019-12-05T13:06:03Z</time>
      </trkpt>
      <trkpt lat="27.798654" lon="-17.921263">
        <ele>758.517</ele>
        <time>2019-12-05T13:06:07Z</time>
      </trkpt>
      <trkpt lat="27.798721" lon="-17.920841">
        <ele>756.718</ele>
        <time>2019-12-05T13:06:08Z</time>
      </trkpt>
      <trkpt lat="27.799090" lon="-17.920808">
        <ele>751.108</ele>
        <time>2019-12-05T13:06:08Z</time>
      </trkpt>
      <trkpt lat="27.799706" lon="-17.921278">
        <ele>740.647</ele>
        <time>2019-12-05T13:06:08Z</time>
      </trkpt>
      <trkpt lat="27.800591" lon="-17.921525">
        <ele>725.059</ele>
        <time>2019-12-05T13:06:07Z</time>
      </trkpt>
      <trkpt lat="27.801074" lon="-17.921447">
        <ele>725.792</ele>
        <time>2019-12-05T13:06:05Z</time>
      </trkpt>
      <trkpt lat="27.801317" lon="-17.921135">
        <ele>723.677</ele>
        <time>2019-12-05T13:06:07Z</time>
      </trkpt>
      <trkpt lat="27.801856" lon="-17.921044">
        <ele>716.889</ele>
        <time>2019-12-05T13:06:06Z</time>
      </trkpt>
      <trkpt lat="27.802456" lon="-17.920552">
        <ele>708.194</ele>
        <time>2019-12-05T13:06:07Z</time>
      </trkpt>
      <trkpt lat="27.802906" lon="-17.920892">
        <ele>703.042</ele>
        <time>2019-12-05T13:06:08Z</time>
      </trkpt>
      <trkpt lat="27.803053" lon="-17.920853">
        <ele>698.787</ele>
        <time>2019-12-05T13:06:05Z</time>
      </trkpt>
      <trkpt lat="27.803258" lon="-17.920261">
        <ele>697.269</ele>
        <time>2019-12-05T13:06:08Z</time>
      </trkpt>
      <trkpt lat="27.803636" lon="-17.919804">
        <ele>689.204</ele>
        <time>2019-12-05T13:06:07Z</time>
      </trkpt>
      <trkpt lat="27.803931" lon="-17.918579">
        <ele>668.924</ele>
        <time>2019-12-05T13:06:08Z</time>
      </trkpt>
      <trkpt lat="27.804264" lon="-17.918062">
        <ele>658.908</ele>
        <time>2019-12-05T13:06:08Z</time>
      </trkpt>
      <trkpt lat="27.804617" lon="-17.917907">
        <ele>654.760</ele>
        <time>2019-12-05T13:06:08Z</time>
      </trkpt>
      <trkpt lat="27.804987" lon="-17.917976">
        <ele>653.962</ele>
        <time>2019-12-05T13:06:08Z</time>
      </trkpt>
      <trkpt lat="27.805015" lon="-17.916989">
        <ele>629.355</ele>
        <time>2019-12-05T13:06:08Z</time>
      </trkpt>
      <trkpt lat="27.805563" lon="-17.916525">
        <ele>616.790</ele>
        <time>2019-12-05T13:06:07Z</time>
      </trkpt>
      <trkpt lat="27.805768" lon="-17.915960">
        <ele>607.212</ele>
        <time>2019-12-05T13:06:08Z</time>
      </trkpt>
      <trkpt lat="27.806296" lon="-17.915396">
        <ele>593.837</ele>
        <time>2019-12-05T13:06:06Z</time>
      </trkpt>
      <trkpt lat="27.806287" lon="-17.915182">
        <ele>592.565</ele>
        <time>2019-12-05T13:06:08Z</time>
      </trkpt>
    </trkseg>
  </trk></gpx>