<?xml version="1.0" encoding="UTF-8"?>
<gpx version="1.1" creator="Aventuras en Cada Paso" xmlns="http://www.topografix.com/GPX/1/1">
  <metadata>
    <name>Camino de la Faya – Medianías Este</name>
    <desc>Sendero panorámico por las medianías del este conectando los pinares. Vistas al Atlántico y a los valles. Flora endémica de medianías.</desc>
    <author><name>Aventuras en Cada Paso</name></author>
    <time>2026-07-08T08:12:58.186Z</time>
    <keywords>La Palma, Senderismo, Media, senderismo Canarias</keywords>
  </metadata>
  <wpt lat="28.5614" lon="-17.7972">
    <name>Camino de la Faya – Medianías Este</name>
    <desc>Sendero panorámico por las medianías del este conectando los pinares. Vistas al Atlántico y a los valles. Flora endémica de medianías. | Isla: La Palma | Tipo: Senderismo | Dificultad: Media | Distancia: 14km | Duración: 4-8 horas</desc>
    <type>Senderismo</type>
    <extensions>
      <isla>La Palma</isla>
      <dificultad>Media</dificultad>
      <distancia>14</distancia>
      <duracion>4-8 horas</duracion>
    </extensions>
  </wpt>
</gpx>