<?xml version="1.0" encoding="UTF-8"?>
<gpx creator="Wikiloc - https://www.wikiloc.com" version="1.1" xmlns="http://www.topografix.com/GPX/1/1" xmlns:xsi="http://www.w3.org/2001/XMLSchema-instance" xsi:schemaLocation="http://www.topografix.com/GPX/1/1 http://www.topografix.com/GPX/1/1/gpx.xsd">
  <metadata>
    <name>Wikiloc - El Hierro: Frontera (Tigaday) - Camino del Golfo - Ermita de...</name>
    <link href="https://www.wikiloc.com/hiking-trails/el-hierro-frontera-tigaday-camino-del-golfo-ermita-de-san-salvador-mirador-de-la-llania-senda-de-la-135032264">
      <text>El Hierro: Frontera (Tigaday) - Camino del Golfo - Ermita de... on Wikiloc</text>
    </link>
    <time>2023-05-17T17:39:33Z</time>
  </metadata>
  <trk>
    <name>El Hierro: Frontera (Tigaday) - Camino del Golfo - Ermita de... - Wikiloc</name>
    <cmt></cmt>
    <desc></desc>
    <trkseg>
      <trkpt lat="27.752168" lon="-18.013167">
        <ele>271.064</ele>
        <time>2023-05-17T10:51:42Z</time>
      </trkpt>
      <trkpt lat="27.752023" lon="-18.013507">
        <ele>266.806</ele>
        <time>2023-05-17T10:52:17Z</time>
      </trkpt>
      <trkpt lat="27.752010" lon="-18.014346">
        <ele>267.916</ele>
        <time>2023-05-17T10:53:34Z</time>
      </trkpt>
      <trkpt lat="27.752635" lon="-18.016302">
        <ele>282.709</ele>
        <time>2023-05-17T10:56:25Z</time>
      </trkpt>
      <trkpt lat="27.752786" lon="-18.017098">
        <ele>280.947</ele>
        <time>2023-05-17T10:57:33Z</time>
      </trkpt>
      <trkpt lat="27.751616" lon="-18.017591">
        <ele>292.879</ele>
        <time>2023-05-17T10:59:40Z</time>
      </trkpt>
      <trkpt lat="27.751086" lon="-18.017699">
        <ele>300.491</ele>
        <time>2023-05-17T11:00:36Z</time>
      </trkpt>
      <trkpt lat="27.749592" lon="-18.017390">
        <ele>329.836</ele>
        <time>2023-05-17T11:03:53Z</time>
      </trkpt>
      <trkpt lat="27.748769" lon="-18.017455">
        <ele>346.049</ele>
        <time>2023-05-17T11:05:28Z</time>
      </trkpt>
      <trkpt lat="27.747880" lon="-18.017872">
        <ele>371.668</ele>
        <time>2023-05-17T11:07:25Z</time>
      </trkpt>
      <trkpt lat="27.747073" lon="-18.018522">
        <ele>396.848</ele>
        <time>2023-05-17T11:09:52Z</time>
      </trkpt>
      <trkpt lat="27.747149" lon="-18.017957">
        <ele>396.562</ele>
        <time>2023-05-17T11:10:50Z</time>
      </trkpt>
      <trkpt lat="27.747079" lon="-18.017090">
        <ele>400.370</ele>
        <time>2023-05-17T11:12:13Z</time>
      </trkpt>
      <trkpt lat="27.747343" lon="-18.016302">
        <ele>403.643</ele>
        <time>2023-05-17T11:13:28Z</time>
      </trkpt>
      <trkpt lat="27.747280" lon="-18.015868">
        <ele>404.264</ele>
        <time>2023-05-17T11:15:28Z</time>
      </trkpt>
      <trkpt lat="27.747357" lon="-18.015425">
        <ele>395.910</ele>
        <time>2023-05-17T11:16:19Z</time>
      </trkpt>
      <trkpt lat="27.747048" lon="-18.015157">
        <ele>396.309</ele>
        <time>2023-05-17T11:17:30Z</time>
      </trkpt>
      <trkpt lat="27.746816" lon="-18.015064">
        <ele>403.395</ele>
        <time>2023-05-17T11:17:56Z</time>
      </trkpt>
      <trkpt lat="27.746574" lon="-18.015108">
        <ele>407.947</ele>
        <time>2023-05-17T11:18:27Z</time>
      </trkpt>
      <trkpt lat="27.746356" lon="-18.014575">
        <ele>418.349</ele>
        <time>2023-05-17T11:19:50Z</time>
      </trkpt>
      <trkpt lat="27.746249" lon="-18.014682">
        <ele>425.084</ele>
        <time>2023-05-17T11:20:16Z</time>
      </trkpt>
      <trkpt lat="27.746076" lon="-18.014621">
        <ele>434.557</ele>
        <time>2023-05-17T11:20:59Z</time>
      </trkpt>
      <trkpt lat="27.746065" lon="-18.014520">
        <ele>436.436</ele>
        <time>2023-05-17T11:21:16Z</time>
      </trkpt>
      <trkpt lat="27.745777" lon="-18.014851">
        <ele>448.786</ele>
        <time>2023-05-17T11:23:05Z</time>
      </trkpt>
      <trkpt lat="27.745497" lon="-18.014469">
        <ele>477.960</ele>
        <time>2023-05-17T11:27:19Z</time>
      </trkpt>
      <trkpt lat="27.745356" lon="-18.014617">
        <ele>479.288</ele>
        <time>2023-05-17T11:27:49Z</time>
      </trkpt>
      <trkpt lat="27.745234" lon="-18.014432">
        <ele>490.861</ele>
        <time>2023-05-17T11:28:56Z</time>
      </trkpt>
      <trkpt lat="27.744996" lon="-18.014597">
        <ele>505.221</ele>
        <time>2023-05-17T11:30:25Z</time>
      </trkpt>
      <trkpt lat="27.744893" lon="-18.014009">
        <ele>523.113</ele>
        <time>2023-05-17T11:32:27Z</time>
      </trkpt>
      <trkpt lat="27.744805" lon="-18.014048">
        <ele>527.209</ele>
        <time>2023-05-17T11:32:54Z</time>
      </trkpt>
      <trkpt lat="27.744813" lon="-18.013882">
        <ele>536.077</ele>
        <time>2023-05-17T11:33:22Z</time>
      </trkpt>
      <trkpt lat="27.744554" lon="-18.013519">
        <ele>543.469</ele>
        <time>2023-05-17T11:34:21Z</time>
      </trkpt>
      <trkpt lat="27.744746" lon="-18.012613">
        <ele>561.761</ele>
        <time>2023-05-17T11:36:44Z</time>
      </trkpt>
      <trkpt lat="27.744513" lon="-18.012601">
        <ele>571.976</ele>
        <time>2023-05-17T11:37:33Z</time>
      </trkpt>
      <trkpt lat="27.743947" lon="-18.013256">
        <ele>589.619</ele>
        <time>2023-05-17T11:40:16Z</time>
      </trkpt>
      <trkpt lat="27.744065" lon="-18.012860">
        <ele>594.928</ele>
        <time>2023-05-17T11:41:05Z</time>
      </trkpt>
      <trkpt lat="27.743567" lon="-18.013225">
        <ele>611.538</ele>
        <time>2023-05-17T11:44:58Z</time>
      </trkpt>
      <trkpt lat="27.743327" lon="-18.013256">
        <ele>626.092</ele>
        <time>2023-05-17T11:46:20Z</time>
      </trkpt>
      <trkpt lat="27.743408" lon="-18.012648">
        <ele>640.920</ele>
        <time>2023-05-17T11:47:38Z</time>
      </trkpt>
      <trkpt lat="27.743304" lon="-18.012122">
        <ele>655.621</ele>
        <time>2023-05-17T11:48:46Z</time>
      </trkpt>
      <trkpt lat="27.743119" lon="-18.012063">
        <ele>661.241</ele>
        <time>2023-05-17T11:49:43Z</time>
      </trkpt>
      <trkpt lat="27.743064" lon="-18.011884">
        <ele>668.505</ele>
        <time>2023-05-17T11:50:15Z</time>
      </trkpt>
      <trkpt lat="27.742799" lon="-18.011990">
        <ele>676.709</ele>
        <time>2023-05-17T11:51:23Z</time>
      </trkpt>
      <trkpt lat="27.742846" lon="-18.011900">
        <ele>683.333</ele>
        <time>2023-05-17T11:51:41Z</time>
      </trkpt>
      <trkpt lat="27.742738" lon="-18.011883">
        <ele>687.285</ele>
        <time>2023-05-17T11:52:15Z</time>
      </trkpt>
      <trkpt lat="27.742675" lon="-18.011598">
        <ele>695.697</ele>
        <time>2023-05-17T11:59:58Z</time>
      </trkpt>
      <trkpt lat="27.742637" lon="-18.011803">
        <ele>695.622</ele>
        <time>2023-05-17T12:00:49Z</time>
      </trkpt>
      <trkpt lat="27.741440" lon="-18.011202">
        <ele>749.955</ele>
        <time>2023-05-17T12:05:54Z</time>
      </trkpt>
      <trkpt lat="27.741340" lon="-18.011492">
        <ele>758.864</ele>
        <time>2023-05-17T12:06:41Z</time>
      </trkpt>
      <trkpt lat="27.741129" lon="-18.011693">
        <ele>769.794</ele>
        <time>2023-05-17T12:07:46Z</time>
      </trkpt>
      <trkpt lat="27.741058" lon="-18.011565">
        <ele>777.918</ele>
        <time>2023-05-17T12:08:17Z</time>
      </trkpt>
      <trkpt lat="27.740943" lon="-18.011709">
        <ele>781.016</ele>
        <time>2023-05-17T12:08:51Z</time>
      </trkpt>
      <trkpt lat="27.740795" lon="-18.011259">
        <ele>789.648</ele>
        <time>2023-05-17T12:10:12Z</time>
      </trkpt>
      <trkpt lat="27.740719" lon="-18.011572">
        <ele>802.161</ele>
        <time>2023-05-17T12:11:12Z</time>
      </trkpt>
      <trkpt lat="27.740590" lon="-18.011315">
        <ele>812.017</ele>
        <time>2023-05-17T12:12:16Z</time>
      </trkpt>
      <trkpt lat="27.740521" lon="-18.011479">
        <ele>815.209</ele>
        <time>2023-05-17T12:13:02Z</time>
      </trkpt>
      <trkpt lat="27.740269" lon="-18.011096">
        <ele>826.015</ele>
        <time>2023-05-17T12:14:16Z</time>
      </trkpt>
      <trkpt lat="27.740176" lon="-18.011561">
        <ele>839.687</ele>
        <time>2023-05-17T12:15:34Z</time>
      </trkpt>
      <trkpt lat="27.740011" lon="-18.011669">
        <ele>847.259</ele>
        <time>2023-05-17T12:16:08Z</time>
      </trkpt>
      <trkpt lat="27.740048" lon="-18.011363">
        <ele>854.934</ele>
        <time>2023-05-17T12:17:05Z</time>
      </trkpt>
      <trkpt lat="27.739896" lon="-18.011220">
        <ele>860.497</ele>
        <time>2023-05-17T12:17:31Z</time>
      </trkpt>
      <trkpt lat="27.739631" lon="-18.011341">
        <ele>869.356</ele>
        <time>2023-05-17T12:18:32Z</time>
      </trkpt>
      <trkpt lat="27.739390" lon="-18.011224">
        <ele>874.196</ele>
        <time>2023-05-17T12:25:42Z</time>
      </trkpt>
      <trkpt lat="27.739340" lon="-18.011463">
        <ele>880.690</ele>
        <time>2023-05-17T12:26:20Z</time>
      </trkpt>
      <trkpt lat="27.739242" lon="-18.011235">
        <ele>890.748</ele>
        <time>2023-05-17T12:26:57Z</time>
      </trkpt>
      <trkpt lat="27.739165" lon="-18.011410">
        <ele>891.331</ele>
        <time>2023-05-17T12:27:27Z</time>
      </trkpt>
      <trkpt lat="27.739004" lon="-18.011028">
        <ele>906.561</ele>
        <time>2023-05-17T12:28:46Z</time>
      </trkpt>
      <trkpt lat="27.738783" lon="-18.011298">
        <ele>917.507</ele>
        <time>2023-05-17T12:30:16Z</time>
      </trkpt>
      <trkpt lat="27.738748" lon="-18.011090">
        <ele>923.409</ele>
        <time>2023-05-17T12:30:55Z</time>
      </trkpt>
      <trkpt lat="27.738656" lon="-18.011224">
        <ele>931.364</ele>
        <time>2023-05-17T12:31:37Z</time>
      </trkpt>
      <trkpt lat="27.738617" lon="-18.010923">
        <ele>943.756</ele>
        <time>2023-05-17T12:32:41Z</time>
      </trkpt>
      <trkpt lat="27.738440" lon="-18.010701">
        <ele>950.728</ele>
        <time>2023-05-17T12:33:29Z</time>
      </trkpt>
      <trkpt lat="27.738331" lon="-18.010906">
        <ele>959.663</ele>
        <time>2023-05-17T12:34:17Z</time>
      </trkpt>
      <trkpt lat="27.738306" lon="-18.010765">
        <ele>961.366</ele>
        <time>2023-05-17T12:34:43Z</time>
      </trkpt>
      <trkpt lat="27.738268" lon="-18.011010">
        <ele>970.835</ele>
        <time>2023-05-17T12:35:34Z</time>
      </trkpt>
      <trkpt lat="27.737987" lon="-18.010669">
        <ele>979.915</ele>
        <time>2023-05-17T12:36:47Z</time>
      </trkpt>
      <trkpt lat="27.737989" lon="-18.011290">
        <ele>994.189</ele>
        <time>2023-05-17T12:38:33Z</time>
      </trkpt>
      <trkpt lat="27.737508" lon="-18.011602">
        <ele>1009.277</ele>
        <time>2023-05-17T12:40:09Z</time>
      </trkpt>
      <trkpt lat="27.737715" lon="-18.011035">
        <ele>1022.427</ele>
        <time>2023-05-17T12:41:32Z</time>
      </trkpt>
      <trkpt lat="27.737299" lon="-18.010767">
        <ele>1042.568</ele>
        <time>2023-05-17T12:43:30Z</time>
      </trkpt>
      <trkpt lat="27.737241" lon="-18.010440">
        <ele>1045.414</ele>
        <time>2023-05-17T12:44:09Z</time>
      </trkpt>
      <trkpt lat="27.737148" lon="-18.010667">
        <ele>1052.909</ele>
        <time>2023-05-17T12:44:55Z</time>
      </trkpt>
      <trkpt lat="27.736994" lon="-18.010252">
        <ele>1063.553</ele>
        <time>2023-05-17T12:46:17Z</time>
      </trkpt>
      <trkpt lat="27.736872" lon="-18.010382">
        <ele>1072.655</ele>
        <time>2023-05-17T12:47:22Z</time>
      </trkpt>
      <trkpt lat="27.736784" lon="-18.010946">
        <ele>1083.757</ele>
        <time>2023-05-17T12:48:42Z</time>
      </trkpt>
      <trkpt lat="27.736611" lon="-18.010804">
        <ele>1089.882</ele>
        <time>2023-05-17T12:49:12Z</time>
      </trkpt>
      <trkpt lat="27.736126" lon="-18.011237">
        <ele>1097.975</ele>
        <time>2023-05-17T12:50:43Z</time>
      </trkpt>
      <trkpt lat="27.735902" lon="-18.011218">
        <ele>1108.024</ele>
        <time>2023-05-17T12:51:27Z</time>
      </trkpt>
      <trkpt lat="27.735076" lon="-18.011661">
        <ele>1126.024</ele>
        <time>2023-05-17T12:53:32Z</time>
      </trkpt>
      <trkpt lat="27.734797" lon="-18.011619">
        <ele>1130.368</ele>
        <time>2023-05-17T12:54:14Z</time>
      </trkpt>
      <trkpt lat="27.734935" lon="-18.011340">
        <ele>1139.656</ele>
        <time>2023-05-17T12:54:59Z</time>
      </trkpt>
      <trkpt lat="27.734928" lon="-18.010913">
        <ele>1143.065</ele>
        <time>2023-05-17T12:55:58Z</time>
      </trkpt>
      <trkpt lat="27.734752" lon="-18.011172">
        <ele>1158.068</ele>
        <time>2023-05-17T12:56:54Z</time>
      </trkpt>
      <trkpt lat="27.734559" lon="-18.011169">
        <ele>1158.814</ele>
        <time>2023-05-17T12:57:22Z</time>
      </trkpt>
      <trkpt lat="27.734692" lon="-18.010766">
        <ele>1169.309</ele>
        <time>2023-05-17T12:58:23Z</time>
      </trkpt>
      <trkpt lat="27.734548" lon="-18.010846">
        <ele>1170.087</ele>
        <time>2023-05-17T12:58:55Z</time>
      </trkpt>
      <trkpt lat="27.734589" lon="-18.010470">
        <ele>1184.619</ele>
        <time>2023-05-17T13:00:10Z</time>
      </trkpt>
      <trkpt lat="27.734349" lon="-18.010642">
        <ele>1188.971</ele>
        <time>2023-05-17T13:01:02Z</time>
      </trkpt>
      <trkpt lat="27.734036" lon="-18.010753">
        <ele>1199.746</ele>
        <time>2023-05-17T13:01:59Z</time>
      </trkpt>
      <trkpt lat="27.733950" lon="-18.010707">
        <ele>1200.279</ele>
        <time>2023-05-17T13:02:16Z</time>
      </trkpt>
      <trkpt lat="27.733666" lon="-18.010911">
        <ele>1215.388</ele>
        <time>2023-05-17T13:03:23Z</time>
      </trkpt>
      <trkpt lat="27.733228" lon="-18.011482">
        <ele>1226.088</ele>
        <time>2023-05-17T13:04:46Z</time>
      </trkpt>
      <trkpt lat="27.733099" lon="-18.011421">
        <ele>1227.922</ele>
        <time>2023-05-17T13:05:08Z</time>
      </trkpt>
      <trkpt lat="27.732854" lon="-18.011536">
        <ele>1240.560</ele>
        <time>2023-05-17T13:06:05Z</time>
      </trkpt>
      <trkpt lat="27.732632" lon="-18.010783">
        <ele>1251.343</ele>
        <time>2023-05-17T13:40:31Z</time>
      </trkpt>
      <trkpt lat="27.732662" lon="-18.010418">
        <ele>1263.564</ele>
        <time>2023-05-17T13:41:21Z</time>
      </trkpt>
      <trkpt lat="27.733039" lon="-18.010080">
        <ele>1272.710</ele>
        <time>2023-05-17T13:42:25Z</time>
      </trkpt>
      <trkpt lat="27.733027" lon="-18.009859">
        <ele>1272.909</ele>
        <time>2023-05-17T13:43:00Z</time>
      </trkpt>
      <trkpt lat="27.733453" lon="-18.009517">
        <ele>1278.045</ele>
        <time>2023-05-17T13:43:59Z</time>
      </trkpt>
      <trkpt lat="27.733423" lon="-18.009345">
        <ele>1278.387</ele>
        <time>2023-05-17T13:44:55Z</time>
      </trkpt>
      <trkpt lat="27.733627" lon="-18.009141">
        <ele>1277.179</ele>
        <time>2023-05-17T13:46:20Z</time>
      </trkpt>
      <trkpt lat="27.733866" lon="-18.008558">
        <ele>1283.194</ele>
        <time>2023-05-17T13:48:08Z</time>
      </trkpt>
      <trkpt lat="27.733712" lon="-18.006978">
        <ele>1323.517</ele>
        <time>2023-05-17T13:52:27Z</time>
      </trkpt>
      <trkpt lat="27.733480" lon="-18.006372">
        <ele>1329.326</ele>
        <time>2023-05-17T13:53:33Z</time>
      </trkpt>
      <trkpt lat="27.733574" lon="-18.005671">
        <ele>1335.616</ele>
        <time>2023-05-17T13:54:30Z</time>
      </trkpt>
      <trkpt lat="27.733446" lon="-18.005321">
        <ele>1334.290</ele>
        <time>2023-05-17T13:55:05Z</time>
      </trkpt>
      <trkpt lat="27.733471" lon="-18.004975">
        <ele>1334.988</ele>
        <time>2023-05-17T13:55:32Z</time>
      </trkpt>
      <trkpt lat="27.732930" lon="-18.003912">
        <ele>1350.456</ele>
        <time>2023-05-17T13:57:23Z</time>
      </trkpt>
      <trkpt lat="27.733330" lon="-18.003484">
        <ele>1354.059</ele>
        <time>2023-05-17T13:58:22Z</time>
      </trkpt>
      <trkpt lat="27.734191" lon="-18.001876">
        <ele>1351.214</ele>
        <time>2023-05-17T14:00:49Z</time>
      </trkpt>
      <trkpt lat="27.734822" lon="-17.999883">
        <ele>1351.309</ele>
        <time>2023-05-17T14:03:26Z</time>
      </trkpt>
      <trkpt lat="27.734894" lon="-17.998429">
        <ele>1348.486</ele>
        <time>2023-05-17T14:05:16Z</time>
      </trkpt>
      <trkpt lat="27.735201" lon="-17.997809">
        <ele>1345.778</ele>
        <time>2023-05-17T14:06:11Z</time>
      </trkpt>
      <trkpt lat="27.736080" lon="-17.997139">
        <ele>1343.440</ele>
        <time>2023-05-17T14:07:41Z</time>
      </trkpt>
      <trkpt lat="27.736551" lon="-17.997355">
        <ele>1352.355</ele>
        <time>2023-05-17T14:09:15Z</time>
      </trkpt>
      <trkpt lat="27.736640" lon="-17.997158">
        <ele>1355.228</ele>
        <time>2023-05-17T14:09:44Z</time>
      </trkpt>
      <trkpt lat="27.737182" lon="-17.996822">
        <ele>1365.367</ele>
        <time>2023-05-17T14:10:59Z</time>
      </trkpt>
      <trkpt lat="27.738253" lon="-17.997032">
        <ele>1372.967</ele>
        <time>2023-05-17T14:12:58Z</time>
      </trkpt>
      <trkpt lat="27.737907" lon="-17.996947">
        <ele>1372.011</ele>
        <time>2023-05-17T14:16:59Z</time>
      </trkpt>
      <trkpt lat="27.737695" lon="-17.996633">
        <ele>1372.029</ele>
        <time>2023-05-17T14:17:35Z</time>
      </trkpt>
      <trkpt lat="27.737763" lon="-17.996314">
        <ele>1369.462</ele>
        <time>2023-05-17T14:18:25Z</time>
      </trkpt>
      <trkpt lat="27.738043" lon="-17.996256">
        <ele>1370.583</ele>
        <time>2023-05-17T14:18:58Z</time>
      </trkpt>
      <trkpt lat="27.738252" lon="-17.995512">
        <ele>1367.211</ele>
        <time>2023-05-17T14:20:19Z</time>
      </trkpt>
      <trkpt lat="27.738495" lon="-17.995487">
        <ele>1368.209</ele>
        <time>2023-05-17T14:20:42Z</time>
      </trkpt>
      <trkpt lat="27.738681" lon="-17.994458">
        <ele>1361.747</ele>
        <time>2023-05-17T14:22:11Z</time>
      </trkpt>
      <trkpt lat="27.739057" lon="-17.994502">
        <ele>1365.549</ele>
        <time>2023-05-17T14:22:55Z</time>
      </trkpt>
      <trkpt lat="27.739328" lon="-17.995013">
        <ele>1344.951</ele>
        <time>2023-05-17T14:25:32Z</time>
      </trkpt>
      <trkpt lat="27.739615" lon="-17.995005">
        <ele>1331.846</ele>
        <time>2023-05-17T14:26:46Z</time>
      </trkpt>
      <trkpt lat="27.739461" lon="-17.995321">
        <ele>1323.999</ele>
        <time>2023-05-17T14:27:30Z</time>
      </trkpt>
      <trkpt lat="27.739541" lon="-17.995880">
        <ele>1313.288</ele>
        <time>2023-05-17T14:28:35Z</time>
      </trkpt>
      <trkpt lat="27.739351" lon="-17.996095">
        <ele>1306.518</ele>
        <time>2023-05-17T14:29:29Z</time>
      </trkpt>
      <trkpt lat="27.739587" lon="-17.996494">
        <ele>1299.472</ele>
        <time>2023-05-17T14:30:38Z</time>
      </trkpt>
      <trkpt lat="27.739522" lon="-17.996938">
        <ele>1282.490</ele>
        <time>2023-05-17T14:32:12Z</time>
      </trkpt>
      <trkpt lat="27.739623" lon="-17.996845">
        <ele>1276.062</ele>
        <time>2023-05-17T14:32:35Z</time>
      </trkpt>
      <trkpt lat="27.739658" lon="-17.996945">
        <ele>1275.083</ele>
        <time>2023-05-17T14:32:46Z</time>
      </trkpt>
      <trkpt lat="27.740106" lon="-17.996770">
        <ele>1260.211</ele>
        <time>2023-05-17T14:34:01Z</time>
      </trkpt>
      <trkpt lat="27.740272" lon="-17.996855">
        <ele>1248.309</ele>
        <time>2023-05-17T14:34:37Z</time>
      </trkpt>
      <trkpt lat="27.740366" lon="-17.996691">
        <ele>1241.737</ele>
        <time>2023-05-17T14:35:17Z</time>
      </trkpt>
      <trkpt lat="27.740507" lon="-17.996713">
        <ele>1240.229</ele>
        <time>2023-05-17T14:35:39Z</time>
      </trkpt>
      <trkpt lat="27.740535" lon="-17.997059">
        <ele>1221.391</ele>
        <time>2023-05-17T14:36:47Z</time>
      </trkpt>
      <trkpt lat="27.740654" lon="-17.996926">
        <ele>1213.266</ele>
        <time>2023-05-17T14:37:10Z</time>
      </trkpt>
      <trkpt lat="27.740715" lon="-17.997082">
        <ele>1208.949</ele>
        <time>2023-05-17T14:37:37Z</time>
      </trkpt>
      <trkpt lat="27.740790" lon="-17.997011">
        <ele>1203.558</ele>
        <time>2023-05-17T14:38:06Z</time>
      </trkpt>
      <trkpt lat="27.740996" lon="-17.997288">
        <ele>1178.538</ele>
        <time>2023-05-17T15:13:46Z</time>
      </trkpt>
      <trkpt lat="27.741315" lon="-17.997409">
        <ele>1171.482</ele>
        <time>2023-05-17T15:14:38Z</time>
      </trkpt>
      <trkpt lat="27.741099" lon="-17.997612">
        <ele>1156.890</ele>
        <time>2023-05-17T15:15:45Z</time>
      </trkpt>
      <trkpt lat="27.741635" lon="-17.997954">
        <ele>1130.419</ele>
        <time>2023-05-17T15:17:44Z</time>
      </trkpt>
      <trkpt lat="27.741348" lon="-17.997986">
        <ele>1122.709</ele>
        <time>2023-05-17T15:18:22Z</time>
      </trkpt>
      <trkpt lat="27.741172" lon="-17.998259">
        <ele>1112.519</ele>
        <time>2023-05-17T15:19:29Z</time>
      </trkpt>
      <trkpt lat="27.741274" lon="-17.998268">
        <ele>1108.609</ele>
        <time>2023-05-17T15:19:55Z</time>
      </trkpt>
      <trkpt lat="27.741264" lon="-17.998368">
        <ele>1101.922</ele>
        <time>2023-05-17T15:20:14Z</time>
      </trkpt>
      <trkpt lat="27.741996" lon="-17.998540">
        <ele>1067.574</ele>
        <time>2023-05-17T15:22:34Z</time>
      </trkpt>
      <trkpt lat="27.742061" lon="-17.998731">
        <ele>1058.366</ele>
        <time>2023-05-17T15:23:19Z</time>
      </trkpt>
      <trkpt lat="27.742307" lon="-17.998904">
        <ele>1045.641</ele>
        <time>2023-05-17T15:24:13Z</time>
      </trkpt>
      <trkpt lat="27.742303" lon="-17.999007">
        <ele>1037.384</ele>
        <time>2023-05-17T15:24:41Z</time>
      </trkpt>
      <trkpt lat="27.742402" lon="-17.998984">
        <ele>1035.073</ele>
        <time>2023-05-17T15:24:52Z</time>
      </trkpt>
      <trkpt lat="27.742697" lon="-17.999248">
        <ele>1011.723</ele>
        <time>2023-05-17T15:27:27Z</time>
      </trkpt>
      <trkpt lat="27.742578" lon="-17.999638">
        <ele>988.797</ele>
        <time>2023-05-17T15:29:30Z</time>
      </trkpt>
      <trkpt lat="27.742753" lon="-17.999714">
        <ele>977.765</ele>
        <time>2023-05-17T15:29:52Z</time>
      </trkpt>
      <trkpt lat="27.742729" lon="-17.999615">
        <ele>973.257</ele>
        <time>2023-05-17T15:30:15Z</time>
      </trkpt>
      <trkpt lat="27.742750" lon="-17.999690">
        <ele>974.500</ele>
        <time>2023-05-17T15:30:39Z</time>
      </trkpt>
      <trkpt lat="27.743075" lon="-17.999618">
        <ele>967.220</ele>
        <time>2023-05-17T15:31:57Z</time>
      </trkpt>
      <trkpt lat="27.743151" lon="-17.999684">
        <ele>963.309</ele>
        <time>2023-05-17T15:32:15Z</time>
      </trkpt>
      <trkpt lat="27.742851" lon="-18.000213">
        <ele>949.986</ele>
        <time>2023-05-17T15:43:26Z</time>
      </trkpt>
      <trkpt lat="27.742603" lon="-18.000445">
        <ele>938.168</ele>
        <time>2023-05-17T15:44:12Z</time>
      </trkpt>
      <trkpt lat="27.742677" lon="-18.000582">
        <ele>932.310</ele>
        <time>2023-05-17T15:44:32Z</time>
      </trkpt>
      <trkpt lat="27.742550" lon="-18.000922">
        <ele>921.585</ele>
        <time>2023-05-17T15:45:29Z</time>
      </trkpt>
      <trkpt lat="27.742386" lon="-18.001039">
        <ele>911.128</ele>
        <time>2023-05-17T15:46:07Z</time>
      </trkpt>
      <trkpt lat="27.742569" lon="-18.001273">
        <ele>902.727</ele>
        <time>2023-05-17T15:46:59Z</time>
      </trkpt>
      <trkpt lat="27.742818" lon="-18.001369">
        <ele>888.397</ele>
        <time>2023-05-17T15:48:28Z</time>
      </trkpt>
      <trkpt lat="27.742380" lon="-18.001884">
        <ele>873.091</ele>
        <time>2023-05-17T15:49:56Z</time>
      </trkpt>
      <trkpt lat="27.742680" lon="-18.001924">
        <ele>863.839</ele>
        <time>2023-05-17T15:50:38Z</time>
      </trkpt>
      <trkpt lat="27.742654" lon="-18.002190">
        <ele>851.699</ele>
        <time>2023-05-17T15:51:51Z</time>
      </trkpt>
      <trkpt lat="27.742811" lon="-18.002244">
        <ele>840.107</ele>
        <time>2023-05-17T15:52:46Z</time>
      </trkpt>
      <trkpt lat="27.742959" lon="-18.001986">
        <ele>834.227</ele>
        <time>2023-05-17T15:53:37Z</time>
      </trkpt>
      <trkpt lat="27.743536" lon="-18.001677">
        <ele>828.609</ele>
        <time>2023-05-17T15:54:56Z</time>
      </trkpt>
      <trkpt lat="27.743995" lon="-18.001142">
        <ele>826.710</ele>
        <time>2023-05-17T15:56:03Z</time>
      </trkpt>
      <trkpt lat="27.745161" lon="-18.000570">
        <ele>819.032</ele>
        <time>2023-05-17T15:58:21Z</time>
      </trkpt>
      <trkpt lat="27.745522" lon="-18.000096">
        <ele>812.144</ele>
        <time>2023-05-17T15:59:21Z</time>
      </trkpt>
      <trkpt lat="27.746198" lon="-17.999747">
        <ele>807.239</ele>
        <time>2023-05-17T16:00:53Z</time>
      </trkpt>
      <trkpt lat="27.746261" lon="-17.999510">
        <ele>799.362</ele>
        <time>2023-05-17T16:01:25Z</time>
      </trkpt>
      <trkpt lat="27.746569" lon="-17.999232">
        <ele>797.211</ele>
        <time>2023-05-17T16:02:02Z</time>
      </trkpt>
      <trkpt lat="27.746710" lon="-17.998792">
        <ele>797.051</ele>
        <time>2023-05-17T16:12:33Z</time>
      </trkpt>
      <trkpt lat="27.746580" lon="-17.998517">
        <ele>801.175</ele>
        <time>2023-05-17T16:13:07Z</time>
      </trkpt>
      <trkpt lat="27.746098" lon="-17.998099">
        <ele>799.153</ele>
        <time>2023-05-17T16:14:05Z</time>
      </trkpt>
      <trkpt lat="27.746009" lon="-17.997899">
        <ele>795.889</ele>
        <time>2023-05-17T16:14:30Z</time>
      </trkpt>
      <trkpt lat="27.746050" lon="-17.997731">
        <ele>796.406</ele>
        <time>2023-05-17T16:14:53Z</time>
      </trkpt>
      <trkpt lat="27.746123" lon="-17.997673">
        <ele>796.226</ele>
        <time>2023-05-17T16:15:07Z</time>
      </trkpt>
      <trkpt lat="27.746150" lon="-17.997773">
        <ele>795.109</ele>
        <time>2023-05-17T16:15:18Z</time>
      </trkpt>
      <trkpt lat="27.746342" lon="-17.997547">
        <ele>780.059</ele>
        <time>2023-05-17T16:16:25Z</time>
      </trkpt>
      <trkpt lat="27.746408" lon="-17.997615">
        <ele>777.841</ele>
        <time>2023-05-17T16:16:47Z</time>
      </trkpt>
      <trkpt lat="27.746383" lon="-17.997561">
        <ele>776.183</ele>
        <time>2023-05-17T16:17:00Z</time>
      </trkpt>
      <trkpt lat="27.746595" lon="-17.997534">
        <ele>764.638</ele>
        <time>2023-05-17T16:17:52Z</time>
      </trkpt>
      <trkpt lat="27.746755" lon="-17.997632">
        <ele>756.311</ele>
        <time>2023-05-17T16:18:36Z</time>
      </trkpt>
      <trkpt lat="27.746921" lon="-17.997609">
        <ele>747.240</ele>
        <time>2023-05-17T16:19:39Z</time>
      </trkpt>
      <trkpt lat="27.747007" lon="-17.997524">
        <ele>742.230</ele>
        <time>2023-05-17T16:19:59Z</time>
      </trkpt>
      <trkpt lat="27.747032" lon="-17.997200">
        <ele>730.634</ele>
        <time>2023-05-17T16:21:24Z</time>
      </trkpt>
      <trkpt lat="27.747170" lon="-17.997170">
        <ele>722.492</ele>
        <time>2023-05-17T16:21:45Z</time>
      </trkpt>
      <trkpt lat="27.747362" lon="-17.996910">
        <ele>712.967</ele>
        <time>2023-05-17T16:22:30Z</time>
      </trkpt>
      <trkpt lat="27.748157" lon="-17.997039">
        <ele>691.281</ele>
        <time>2023-05-17T16:24:52Z</time>
      </trkpt>
      <trkpt lat="27.748723" lon="-17.997316">
        <ele>679.519</ele>
        <time>2023-05-17T16:26:19Z</time>
      </trkpt>
      <trkpt lat="27.748358" lon="-17.997372">
        <ele>668.009</ele>
        <time>2023-05-17T16:35:37Z</time>
      </trkpt>
      <trkpt lat="27.748188" lon="-17.997486">
        <ele>662.667</ele>
        <time>2023-05-17T16:36:00Z</time>
      </trkpt>
      <trkpt lat="27.748191" lon="-17.997592">
        <ele>660.859</ele>
        <time>2023-05-17T16:36:12Z</time>
      </trkpt>
      <trkpt lat="27.748470" lon="-17.997689">
        <ele>655.421</ele>
        <time>2023-05-17T16:36:48Z</time>
      </trkpt>
      <trkpt lat="27.748713" lon="-17.998042">
        <ele>646.666</ele>
        <time>2023-05-17T16:37:32Z</time>
      </trkpt>
      <trkpt lat="27.748934" lon="-17.998163">
        <ele>642.319</ele>
        <time>2023-05-17T16:37:54Z</time>
      </trkpt>
      <trkpt lat="27.749284" lon="-17.998693">
        <ele>628.448</ele>
        <time>2023-05-17T16:39:14Z</time>
      </trkpt>
      <trkpt lat="27.749698" lon="-17.998937">
        <ele>614.898</ele>
        <time>2023-05-17T16:40:28Z</time>
      </trkpt>
      <trkpt lat="27.750214" lon="-17.999527">
        <ele>592.652</ele>
        <time>2023-05-17T16:42:18Z</time>
      </trkpt>
      <trkpt lat="27.750350" lon="-18.000269">
        <ele>577.870</ele>
        <time>2023-05-17T16:43:52Z</time>
      </trkpt>
      <trkpt lat="27.750247" lon="-18.000335">
        <ele>572.113</ele>
        <time>2023-05-17T16:45:38Z</time>
      </trkpt>
      <trkpt lat="27.750349" lon="-18.000716">
        <ele>568.943</ele>
        <time>2023-05-17T16:46:29Z</time>
      </trkpt>
      <trkpt lat="27.750116" lon="-18.001217">
        <ele>563.007</ele>
        <time>2023-05-17T16:47:20Z</time>
      </trkpt>
      <trkpt lat="27.749766" lon="-18.001492">
        <ele>561.109</ele>
        <time>2023-05-17T16:47:59Z</time>
      </trkpt>
      <trkpt lat="27.749585" lon="-18.001769">
        <ele>559.192</ele>
        <time>2023-05-17T16:48:28Z</time>
      </trkpt>
      <trkpt lat="27.748995" lon="-18.002108">
        <ele>551.764</ele>
        <time>2023-05-17T16:49:28Z</time>
      </trkpt>
      <trkpt lat="27.748664" lon="-18.002619">
        <ele>544.896</ele>
        <time>2023-05-17T16:50:25Z</time>
      </trkpt>
      <trkpt lat="27.748887" lon="-18.002822">
        <ele>541.161</ele>
        <time>2023-05-17T16:51:41Z</time>
      </trkpt>
      <trkpt lat="27.749174" lon="-18.002887">
        <ele>532.874</ele>
        <time>2023-05-17T16:52:38Z</time>
      </trkpt>
      <trkpt lat="27.749158" lon="-18.003105">
        <ele>524.063</ele>
        <time>2023-05-17T16:53:20Z</time>
      </trkpt>
      <trkpt lat="27.749915" lon="-18.003065">
        <ele>497.983</ele>
        <time>2023-05-17T16:55:17Z</time>
      </trkpt>
      <trkpt lat="27.749869" lon="-18.003144">
        <ele>497.227</ele>
        <time>2023-05-17T16:55:35Z</time>
      </trkpt>
      <trkpt lat="27.750104" lon="-18.003216">
        <ele>491.755</ele>
        <time>2023-05-17T16:56:14Z</time>
      </trkpt>
      <trkpt lat="27.751587" lon="-18.002773">
        <ele>453.561</ele>
        <time>2023-05-17T16:59:43Z</time>
      </trkpt>
      <trkpt lat="27.751643" lon="-18.003046">
        <ele>444.321</ele>
        <time>2023-05-17T17:00:26Z</time>
      </trkpt>
      <trkpt lat="27.751828" lon="-18.003009">
        <ele>439.513</ele>
        <time>2023-05-17T17:01:12Z</time>
      </trkpt>
      <trkpt lat="27.752071" lon="-18.002763">
        <ele>428.709</ele>
        <time>2023-05-17T17:02:16Z</time>
      </trkpt>
      <trkpt lat="27.752504" lon="-18.002815">
        <ele>418.117</ele>
        <time>2023-05-17T17:03:10Z</time>
      </trkpt>
      <trkpt lat="27.753068" lon="-18.002209">
        <ele>405.819</ele>
        <time>2023-05-17T17:05:23Z</time>
      </trkpt>
      <trkpt lat="27.753648" lon="-18.001883">
        <ele>403.161</ele>
        <time>2023-05-17T17:11:08Z</time>
      </trkpt>
      <trkpt lat="27.753970" lon="-18.001400">
        <ele>387.326</ele>
        <time>2023-05-17T17:12:18Z</time>
      </trkpt>
      <trkpt lat="27.754288" lon="-18.001163">
        <ele>375.229</ele>
        <time>2023-05-17T17:13:14Z</time>
      </trkpt>
      <trkpt lat="27.754948" lon="-18.001126">
        <ele>367.188</ele>
        <time>2023-05-17T17:14:53Z</time>
      </trkpt>
      <trkpt lat="27.755240" lon="-18.001286">
        <ele>354.228</ele>
        <time>2023-05-17T17:16:12Z</time>
      </trkpt>
      <trkpt lat="27.755262" lon="-18.001492">
        <ele>347.762</ele>
        <time>2023-05-17T17:16:40Z</time>
      </trkpt>
      <trkpt lat="27.755204" lon="-18.001441">
        <ele>352.560</ele>
        <time>2023-05-17T17:17:58Z</time>
      </trkpt>
      <trkpt lat="27.755240" lon="-18.001546">
        <ele>352.561</ele>
        <time>2023-05-17T17:18:13Z</time>
      </trkpt>
      <trkpt lat="27.754983" lon="-18.001928">
        <ele>353.121</ele>
        <time>2023-05-17T17:18:56Z</time>
      </trkpt>
      <trkpt lat="27.754788" lon="-18.002549">
        <ele>346.713</ele>
        <time>2023-05-17T17:19:58Z</time>
      </trkpt>
      <trkpt lat="27.754085" lon="-18.003521">
        <ele>340.509</ele>
        <time>2023-05-17T17:21:44Z</time>
      </trkpt>
      <trkpt lat="27.753964" lon="-18.004155">
        <ele>330.727</ele>
        <time>2023-05-17T17:23:01Z</time>
      </trkpt>
      <trkpt lat="27.754156" lon="-18.004487">
        <ele>323.729</ele>
        <time>2023-05-17T17:23:33Z</time>
      </trkpt>
      <trkpt lat="27.754443" lon="-18.004673">
        <ele>317.241</ele>
        <time>2023-05-17T17:24:57Z</time>
      </trkpt>
      <trkpt lat="27.754503" lon="-18.004941">
        <ele>312.596</ele>
        <time>2023-05-17T17:25:35Z</time>
      </trkpt>
      <trkpt lat="27.754370" lon="-18.005171">
        <ele>307.249</ele>
        <time>2023-05-17T17:26:03Z</time>
      </trkpt>
      <trkpt lat="27.754059" lon="-18.006434">
        <ele>283.658</ele>
        <time>2023-05-17T17:27:49Z</time>
      </trkpt>
      <trkpt lat="27.753982" lon="-18.007556">
        <ele>277.218</ele>
        <time>2023-05-17T17:29:32Z</time>
      </trkpt>
      <trkpt lat="27.752984" lon="-18.009882">
        <ele>277.852</ele>
        <time>2023-05-17T17:34:44Z</time>
      </trkpt>
      <trkpt lat="27.752330" lon="-18.012135">
        <ele>270.220</ele>
        <time>2023-05-17T17:37:54Z</time>
      </trkpt>
      <trkpt lat="27.752378" lon="-18.012551">
        <ele>267.911</ele>
        <time>2023-05-17T17:38:26Z</time>
      </trkpt>
      <trkpt lat="27.752197" lon="-18.012714">
        <ele>269.221</ele>
        <time>2023-05-17T17:38:47Z</time>
      </trkpt>
      <trkpt lat="27.752220" lon="-18.013112">
        <ele>270.503</ele>
        <time>2023-05-17T17:39:33Z</time>
      </trkpt>
    </trkseg>
  </trk></gpx>