<?xml version="1.0" encoding="UTF-8"?>
<gpx version="1.1" creator="Aventuras en Cada Paso" xmlns="http://www.topografix.com/GPX/1/1">
  <metadata>
    <name>Cañada de Jorge – Garajonay</name>
    <desc>Sendero corto por fayal-brezal en la vertiente sur de Garajonay. Canal histórico de agua en el fondo del barranco. Complemento perfecto al Raso de la Bruma.</desc>
    <author><name>Aventuras en Cada Paso</name></author>
    <time>2026-07-08T08:12:58.201Z</time>
    <keywords>La Gomera, Senderismo, Fácil, senderismo Canarias</keywords>
  </metadata>
  <wpt lat="28.105" lon="-17.245">
    <name>Cañada de Jorge – Garajonay</name>
    <desc>Sendero corto por fayal-brezal en la vertiente sur de Garajonay. Canal histórico de agua en el fondo del barranco. Complemento perfecto al Raso de la Bruma. | Isla: La Gomera | Tipo: Senderismo | Dificultad: Fácil | Distancia: 4km | Duración: Menos de 2h</desc>
    <type>Senderismo</type>
    <extensions>
      <isla>La Gomera</isla>
      <dificultad>Fácil</dificultad>
      <distancia>4</distancia>
      <duracion>Menos de 2h</duracion>
    </extensions>
  </wpt>
</gpx>