<?xml version="1.0" encoding="UTF-8"?>
<gpx version="1.1" creator="Aventuras en Cada Paso" xmlns="http://www.topografix.com/GPX/1/1">
  <metadata>
    <name>Cara Sur – Volcanes y Costa</name>
    <desc>Ruta guiada por la cara sur de Lanzarote: volcanes, fauna y vistas espectaculares. Nivel de dificultad 4. 5 horas de recorrido intenso.</desc>
    <author><name>Aventuras en Cada Paso</name></author>
    <time>2026-07-08T08:12:58.174Z</time>
    <keywords>Lanzarote, Senderismo, Difícil, senderismo Canarias</keywords>
  </metadata>
  <wpt lat="28.9" lon="-13.72">
    <name>Cara Sur – Volcanes y Costa</name>
    <desc>Ruta guiada por la cara sur de Lanzarote: volcanes, fauna y vistas espectaculares. Nivel de dificultad 4. 5 horas de recorrido intenso. | Isla: Lanzarote | Tipo: Senderismo | Dificultad: Difícil | Distancia: 12km | Duración: 4-8 horas</desc>
    <type>Senderismo</type>
    <extensions>
      <isla>Lanzarote</isla>
      <dificultad>Difícil</dificultad>
      <distancia>12</distancia>
      <duracion>4-8 horas</duracion>
    </extensions>
  </wpt>
</gpx>