<?xml version="1.0" encoding="UTF-8"?>
<gpx version="1.1" creator="Aventuras en Cada Paso" xmlns="http://www.topografix.com/GPX/1/1">
  <metadata>
    <name>El Cedro – Chorro del Cedro</name>
    <desc>Circular por laurisilva en el corazón de Garajonay. El Chorro del Cedro es la única cascada permanente de La Gomera, en un entorno de bosque mágico y húmedo.</desc>
    <author><name>Aventuras en Cada Paso</name></author>
    <time>2026-07-08T08:12:58.201Z</time>
    <keywords>La Gomera, Senderismo, Fácil, senderismo Canarias</keywords>
  </metadata>
  <wpt lat="28.1167" lon="-17.2333">
    <name>El Cedro – Chorro del Cedro</name>
    <desc>Circular por laurisilva en el corazón de Garajonay. El Chorro del Cedro es la única cascada permanente de La Gomera, en un entorno de bosque mágico y húmedo. | Isla: La Gomera | Tipo: Senderismo | Dificultad: Fácil | Distancia: 7km | Duración: 2-4 horas</desc>
    <type>Senderismo</type>
    <extensions>
      <isla>La Gomera</isla>
      <dificultad>Fácil</dificultad>
      <distancia>7</distancia>
      <duracion>2-4 horas</duracion>
    </extensions>
  </wpt>
</gpx>