<?xml version="1.0" encoding="UTF-8"?>
<gpx version="1.1" creator="Aventuras en Cada Paso" xmlns="http://www.topografix.com/GPX/1/1">
  <metadata>
    <name>Charco Manso – Costa Norte</name>
    <desc>Ruta costera hasta la piscina natural de Charco Manso en el extremo norte. Acceso por sendero entre malpaíses. Baño en aguas cristalinas.</desc>
    <author><name>Aventuras en Cada Paso</name></author>
    <time>2026-07-08T08:12:58.203Z</time>
    <keywords>El Hierro, Senderismo, Fácil, senderismo Canarias</keywords>
  </metadata>
  <wpt lat="27.8322" lon="-17.9261">
    <name>Charco Manso – Costa Norte</name>
    <desc>Ruta costera hasta la piscina natural de Charco Manso en el extremo norte. Acceso por sendero entre malpaíses. Baño en aguas cristalinas. | Isla: El Hierro | Tipo: Senderismo | Dificultad: Fácil | Distancia: 5km | Duración: 2-4 horas</desc>
    <type>Senderismo</type>
    <extensions>
      <isla>El Hierro</isla>
      <dificultad>Fácil</dificultad>
      <distancia>5</distancia>
      <duracion>2-4 horas</duracion>
    </extensions>
  </wpt>
</gpx>