<?xml version="1.0" encoding="UTF-8"?>
<gpx creator="Wikiloc - https://www.wikiloc.com" version="1.1" xmlns="http://www.topografix.com/GPX/1/1" xmlns:xsi="http://www.w3.org/2001/XMLSchema-instance" xsi:schemaLocation="http://www.topografix.com/GPX/1/1 http://www.topografix.com/GPX/1/1/gpx.xsd">
  <metadata>
    <name>Wikiloc - La Palma / San Andrés - Piscinas 'Charco Azul '</name>
    <link href="https://www.wikiloc.com/walking-trails/la-palma-san-andres-piscinas-charco-azul-151119371">
      <text>La Palma / San Andrés - Piscinas 'Charco Azul ' - Wikiloc on Wikiloc</text>
    </link>
    <time>2023-10-22T19:20:23Z</time>
  </metadata>
  <trk>
    <name>La Palma / San Andrés - Piscinas 'Charco Azul ' - Wikiloc</name>
    <cmt></cmt>
    <desc></desc>
    <trkseg>
      <trkpt lat="28.799284" lon="-17.759961">
        <ele>49.431</ele>
        <time>2023-10-22T15:25:50Z</time>
      </trkpt>
      <trkpt lat="28.799438" lon="-17.759906">
        <ele>51.461</ele>
        <time>2023-10-22T15:26:34Z</time>
      </trkpt>
      <trkpt lat="28.799346" lon="-17.759880">
        <ele>49.407</ele>
        <time>2023-10-22T15:26:50Z</time>
      </trkpt>
      <trkpt lat="28.799162" lon="-17.759951">
        <ele>51.409</ele>
        <time>2023-10-22T15:27:11Z</time>
      </trkpt>
      <trkpt lat="28.799122" lon="-17.760385">
        <ele>58.454</ele>
        <time>2023-10-22T15:28:36Z</time>
      </trkpt>
      <trkpt lat="28.799066" lon="-17.760489">
        <ele>58.418</ele>
        <time>2023-10-22T15:28:50Z</time>
      </trkpt>
      <trkpt lat="28.799107" lon="-17.760656">
        <ele>63.474</ele>
        <time>2023-10-22T15:29:07Z</time>
      </trkpt>
      <trkpt lat="28.799327" lon="-17.760774">
        <ele>67.474</ele>
        <time>2023-10-22T15:29:37Z</time>
      </trkpt>
      <trkpt lat="28.799473" lon="-17.760730">
        <ele>67.454</ele>
        <time>2023-10-22T15:29:54Z</time>
      </trkpt>
      <trkpt lat="28.799453" lon="-17.760645">
        <ele>67.452</ele>
        <time>2023-10-22T15:30:32Z</time>
      </trkpt>
      <trkpt lat="28.799526" lon="-17.760566">
        <ele>63.456</ele>
        <time>2023-10-22T15:42:56Z</time>
      </trkpt>
      <trkpt lat="28.799508" lon="-17.760621">
        <ele>63.440</ele>
        <time>2023-10-22T15:43:02Z</time>
      </trkpt>
      <trkpt lat="28.799411" lon="-17.760637">
        <ele>63.434</ele>
        <time>2023-10-22T15:43:39Z</time>
      </trkpt>
      <trkpt lat="28.799304" lon="-17.760432">
        <ele>63.462</ele>
        <time>2023-10-22T16:02:46Z</time>
      </trkpt>
      <trkpt lat="28.799470" lon="-17.760609">
        <ele>66.483</ele>
        <time>2023-10-22T17:23:08Z</time>
      </trkpt>
      <trkpt lat="28.799587" lon="-17.760477">
        <ele>65.411</ele>
        <time>2023-10-22T17:46:22Z</time>
      </trkpt>
      <trkpt lat="28.799622" lon="-17.760325">
        <ele>71.409</ele>
        <time>2023-10-22T17:46:41Z</time>
      </trkpt>
      <trkpt lat="28.799669" lon="-17.760338">
        <ele>70.927</ele>
        <time>2023-10-22T17:46:54Z</time>
      </trkpt>
      <trkpt lat="28.799688" lon="-17.760183">
        <ele>72.441</ele>
        <time>2023-10-22T17:49:07Z</time>
      </trkpt>
      <trkpt lat="28.799839" lon="-17.759985">
        <ele>63.477</ele>
        <time>2023-10-22T17:49:54Z</time>
      </trkpt>
      <trkpt lat="28.799793" lon="-17.760002">
        <ele>62.427</ele>
        <time>2023-10-22T17:50:16Z</time>
      </trkpt>
      <trkpt lat="28.799897" lon="-17.759967">
        <ele>59.487</ele>
        <time>2023-10-22T17:50:51Z</time>
      </trkpt>
      <trkpt lat="28.800141" lon="-17.760016">
        <ele>57.425</ele>
        <time>2023-10-22T17:52:02Z</time>
      </trkpt>
      <trkpt lat="28.800295" lon="-17.759805">
        <ele>53.489</ele>
        <time>2023-10-22T17:52:53Z</time>
      </trkpt>
      <trkpt lat="28.800341" lon="-17.759803">
        <ele>51.483</ele>
        <time>2023-10-22T17:53:05Z</time>
      </trkpt>
      <trkpt lat="28.800507" lon="-17.760073">
        <ele>49.487</ele>
        <time>2023-10-22T17:55:04Z</time>
      </trkpt>
      <trkpt lat="28.800462" lon="-17.760678">
        <ele>36.419</ele>
        <time>2023-10-22T17:56:27Z</time>
      </trkpt>
      <trkpt lat="28.800529" lon="-17.760769">
        <ele>34.409</ele>
        <time>2023-10-22T17:56:41Z</time>
      </trkpt>
      <trkpt lat="28.800579" lon="-17.760759">
        <ele>34.419</ele>
        <time>2023-10-22T17:56:55Z</time>
      </trkpt>
      <trkpt lat="28.800634" lon="-17.760607">
        <ele>37.409</ele>
        <time>2023-10-22T17:59:13Z</time>
      </trkpt>
      <trkpt lat="28.800632" lon="-17.760410">
        <ele>39.492</ele>
        <time>2023-10-22T18:00:13Z</time>
      </trkpt>
      <trkpt lat="28.800687" lon="-17.760265">
        <ele>35.416</ele>
        <time>2023-10-22T18:00:36Z</time>
      </trkpt>
      <trkpt lat="28.800669" lon="-17.760101">
        <ele>32.492</ele>
        <time>2023-10-22T18:00:54Z</time>
      </trkpt>
      <trkpt lat="28.800751" lon="-17.759902">
        <ele>31.422</ele>
        <time>2023-10-22T18:01:24Z</time>
      </trkpt>
      <trkpt lat="28.800984" lon="-17.760214">
        <ele>30.452</ele>
        <time>2023-10-22T18:03:02Z</time>
      </trkpt>
      <trkpt lat="28.801389" lon="-17.759895">
        <ele>24.430</ele>
        <time>2023-10-22T18:04:24Z</time>
      </trkpt>
      <trkpt lat="28.801579" lon="-17.759844">
        <ele>27.484</ele>
        <time>2023-10-22T18:04:48Z</time>
      </trkpt>
      <trkpt lat="28.801643" lon="-17.759764">
        <ele>33.478</ele>
        <time>2023-10-22T18:06:18Z</time>
      </trkpt>
      <trkpt lat="28.801603" lon="-17.759798">
        <ele>33.412</ele>
        <time>2023-10-22T18:06:34Z</time>
      </trkpt>
      <trkpt lat="28.801983" lon="-17.759723">
        <ele>31.411</ele>
        <time>2023-10-22T18:07:25Z</time>
      </trkpt>
      <trkpt lat="28.802078" lon="-17.759761">
        <ele>30.421</ele>
        <time>2023-10-22T18:08:00Z</time>
      </trkpt>
      <trkpt lat="28.802581" lon="-17.759741">
        <ele>37.403</ele>
        <time>2023-10-22T18:09:19Z</time>
      </trkpt>
      <trkpt lat="28.803325" lon="-17.759852">
        <ele>43.409</ele>
        <time>2023-10-22T18:11:58Z</time>
      </trkpt>
      <trkpt lat="28.803640" lon="-17.759825">
        <ele>41.412</ele>
        <time>2023-10-22T18:12:37Z</time>
      </trkpt>
      <trkpt lat="28.803766" lon="-17.759923">
        <ele>38.996</ele>
        <time>2023-10-22T18:12:55Z</time>
      </trkpt>
      <trkpt lat="28.803960" lon="-17.760243">
        <ele>39.462</ele>
        <time>2023-10-22T18:13:29Z</time>
      </trkpt>
      <trkpt lat="28.804177" lon="-17.760370">
        <ele>37.422</ele>
        <time>2023-10-22T18:16:03Z</time>
      </trkpt>
      <trkpt lat="28.804425" lon="-17.760426">
        <ele>35.482</ele>
        <time>2023-10-22T18:16:33Z</time>
      </trkpt>
      <trkpt lat="28.804426" lon="-17.760480">
        <ele>33.410</ele>
        <time>2023-10-22T18:16:54Z</time>
      </trkpt>
      <trkpt lat="28.804668" lon="-17.760709">
        <ele>29.474</ele>
        <time>2023-10-22T18:17:25Z</time>
      </trkpt>
      <trkpt lat="28.804835" lon="-17.760988">
        <ele>30.948</ele>
        <time>2023-10-22T18:17:56Z</time>
      </trkpt>
      <trkpt lat="28.804890" lon="-17.761253">
        <ele>33.442</ele>
        <time>2023-10-22T18:18:43Z</time>
      </trkpt>
      <trkpt lat="28.805049" lon="-17.761416">
        <ele>33.481</ele>
        <time>2023-10-22T18:19:05Z</time>
      </trkpt>
      <trkpt lat="28.805240" lon="-17.761758">
        <ele>30.461</ele>
        <time>2023-10-22T18:19:47Z</time>
      </trkpt>
      <trkpt lat="28.805305" lon="-17.761742">
        <ele>32.417</ele>
        <time>2023-10-22T18:20:10Z</time>
      </trkpt>
      <trkpt lat="28.805432" lon="-17.761906">
        <ele>33.409</ele>
        <time>2023-10-22T18:20:33Z</time>
      </trkpt>
      <trkpt lat="28.805657" lon="-17.762024">
        <ele>35.449</ele>
        <time>2023-10-22T18:21:07Z</time>
      </trkpt>
      <trkpt lat="28.806072" lon="-17.762054">
        <ele>42.483</ele>
        <time>2023-10-22T18:21:47Z</time>
      </trkpt>
      <trkpt lat="28.806604" lon="-17.762185">
        <ele>37.419</ele>
        <time>2023-10-22T18:22:49Z</time>
      </trkpt>
      <trkpt lat="28.806799" lon="-17.762173">
        <ele>37.429</ele>
        <time>2023-10-22T18:23:07Z</time>
      </trkpt>
      <trkpt lat="28.806838" lon="-17.762146">
        <ele>37.419</ele>
        <time>2023-10-22T18:23:12Z</time>
      </trkpt>
      <trkpt lat="28.806770" lon="-17.762079">
        <ele>38.447</ele>
        <time>2023-10-22T18:23:22Z</time>
      </trkpt>
      <trkpt lat="28.806763" lon="-17.761965">
        <ele>38.471</ele>
        <time>2023-10-22T18:23:35Z</time>
      </trkpt>
      <trkpt lat="28.806872" lon="-17.761775">
        <ele>35.495</ele>
        <time>2023-10-22T18:24:12Z</time>
      </trkpt>
      <trkpt lat="28.807098" lon="-17.761569">
        <ele>32.429</ele>
        <time>2023-10-22T18:24:48Z</time>
      </trkpt>
      <trkpt lat="28.807440" lon="-17.761574">
        <ele>26.484</ele>
        <time>2023-10-22T18:26:13Z</time>
      </trkpt>
      <trkpt lat="28.807421" lon="-17.761457">
        <ele>25.407</ele>
        <time>2023-10-22T18:26:25Z</time>
      </trkpt>
      <trkpt lat="28.807458" lon="-17.761405">
        <ele>23.417</ele>
        <time>2023-10-22T18:28:51Z</time>
      </trkpt>
      <trkpt lat="28.807479" lon="-17.761555">
        <ele>23.409</ele>
        <time>2023-10-22T18:32:10Z</time>
      </trkpt>
      <trkpt lat="28.807675" lon="-17.761577">
        <ele>24.469</ele>
        <time>2023-10-22T18:32:37Z</time>
      </trkpt>
      <trkpt lat="28.807900" lon="-17.761668">
        <ele>27.453</ele>
        <time>2023-10-22T18:33:10Z</time>
      </trkpt>
      <trkpt lat="28.807981" lon="-17.761723">
        <ele>28.459</ele>
        <time>2023-10-22T18:33:24Z</time>
      </trkpt>
      <trkpt lat="28.807948" lon="-17.761772">
        <ele>24.469</ele>
        <time>2023-10-22T18:34:12Z</time>
      </trkpt>
      <trkpt lat="28.807991" lon="-17.761824">
        <ele>23.489</ele>
        <time>2023-10-22T18:34:25Z</time>
      </trkpt>
      <trkpt lat="28.808178" lon="-17.761739">
        <ele>20.937</ele>
        <time>2023-10-22T18:34:46Z</time>
      </trkpt>
      <trkpt lat="28.808156" lon="-17.761694">
        <ele>21.451</ele>
        <time>2023-10-22T18:35:21Z</time>
      </trkpt>
      <trkpt lat="28.808309" lon="-17.761902">
        <ele>16.465</ele>
        <time>2023-10-22T18:39:52Z</time>
      </trkpt>
      <trkpt lat="28.808069" lon="-17.761827">
        <ele>18.459</ele>
        <time>2023-10-22T18:42:11Z</time>
      </trkpt>
      <trkpt lat="28.807936" lon="-17.761876">
        <ele>19.462</ele>
        <time>2023-10-22T18:43:24Z</time>
      </trkpt>
      <trkpt lat="28.807746" lon="-17.761712">
        <ele>25.483</ele>
        <time>2023-10-22T18:46:30Z</time>
      </trkpt>
      <trkpt lat="28.807709" lon="-17.761750">
        <ele>25.411</ele>
        <time>2023-10-22T18:47:06Z</time>
      </trkpt>
      <trkpt lat="28.807660" lon="-17.761663">
        <ele>24.409</ele>
        <time>2023-10-22T18:47:19Z</time>
      </trkpt>
      <trkpt lat="28.807714" lon="-17.761647">
        <ele>22.497</ele>
        <time>2023-10-22T18:47:26Z</time>
      </trkpt>
      <trkpt lat="28.807950" lon="-17.761726">
        <ele>17.481</ele>
        <time>2023-10-22T18:47:56Z</time>
      </trkpt>
      <trkpt lat="28.808013" lon="-17.761530">
        <ele>16.447</ele>
        <time>2023-10-22T18:48:27Z</time>
      </trkpt>
      <trkpt lat="28.807967" lon="-17.761508">
        <ele>16.457</ele>
        <time>2023-10-22T18:49:19Z</time>
      </trkpt>
      <trkpt lat="28.807934" lon="-17.761708">
        <ele>18.457</ele>
        <time>2023-10-22T18:50:12Z</time>
      </trkpt>
      <trkpt lat="28.807365" lon="-17.761624">
        <ele>19.485</ele>
        <time>2023-10-22T18:51:20Z</time>
      </trkpt>
      <trkpt lat="28.807344" lon="-17.761520">
        <ele>18.499</ele>
        <time>2023-10-22T18:51:45Z</time>
      </trkpt>
      <trkpt lat="28.807265" lon="-17.761581">
        <ele>17.473</ele>
        <time>2023-10-22T18:52:35Z</time>
      </trkpt>
      <trkpt lat="28.807218" lon="-17.761563">
        <ele>17.457</ele>
        <time>2023-10-22T18:53:05Z</time>
      </trkpt>
      <trkpt lat="28.807357" lon="-17.761570">
        <ele>19.417</ele>
        <time>2023-10-22T18:53:32Z</time>
      </trkpt>
      <trkpt lat="28.807112" lon="-17.761614">
        <ele>20.487</ele>
        <time>2023-10-22T18:55:01Z</time>
      </trkpt>
      <trkpt lat="28.806871" lon="-17.761793">
        <ele>25.415</ele>
        <time>2023-10-22T18:55:35Z</time>
      </trkpt>
      <trkpt lat="28.806748" lon="-17.762029">
        <ele>24.409</ele>
        <time>2023-10-22T18:56:03Z</time>
      </trkpt>
      <trkpt lat="28.806753" lon="-17.762150">
        <ele>24.472</ele>
        <time>2023-10-22T18:56:15Z</time>
      </trkpt>
      <trkpt lat="28.806796" lon="-17.762191">
        <ele>24.426</ele>
        <time>2023-10-22T18:56:23Z</time>
      </trkpt>
      <trkpt lat="28.806195" lon="-17.762196">
        <ele>43.482</ele>
        <time>2023-10-22T18:57:51Z</time>
      </trkpt>
      <trkpt lat="28.805841" lon="-17.762125">
        <ele>44.482</ele>
        <time>2023-10-22T18:58:27Z</time>
      </trkpt>
      <trkpt lat="28.805469" lon="-17.761963">
        <ele>44.452</ele>
        <time>2023-10-22T18:59:01Z</time>
      </trkpt>
      <trkpt lat="28.805393" lon="-17.761880">
        <ele>44.460</ele>
        <time>2023-10-22T18:59:10Z</time>
      </trkpt>
      <trkpt lat="28.805191" lon="-17.761511">
        <ele>45.414</ele>
        <time>2023-10-22T18:59:47Z</time>
      </trkpt>
      <trkpt lat="28.804991" lon="-17.761339">
        <ele>40.418</ele>
        <time>2023-10-22T19:01:27Z</time>
      </trkpt>
      <trkpt lat="28.805004" lon="-17.761290">
        <ele>35.432</ele>
        <time>2023-10-22T19:02:09Z</time>
      </trkpt>
      <trkpt lat="28.804935" lon="-17.761211">
        <ele>34.483</ele>
        <time>2023-10-22T19:02:21Z</time>
      </trkpt>
      <trkpt lat="28.804845" lon="-17.760931">
        <ele>31.425</ele>
        <time>2023-10-22T19:02:50Z</time>
      </trkpt>
      <trkpt lat="28.804849" lon="-17.760825">
        <ele>31.917</ele>
        <time>2023-10-22T19:02:59Z</time>
      </trkpt>
      <trkpt lat="28.804801" lon="-17.760841">
        <ele>32.409</ele>
        <time>2023-10-22T19:03:15Z</time>
      </trkpt>
      <trkpt lat="28.804601" lon="-17.760674">
        <ele>34.459</ele>
        <time>2023-10-22T19:03:38Z</time>
      </trkpt>
      <trkpt lat="28.804564" lon="-17.760572">
        <ele>35.473</ele>
        <time>2023-10-22T19:03:49Z</time>
      </trkpt>
      <trkpt lat="28.804275" lon="-17.760491">
        <ele>36.469</ele>
        <time>2023-10-22T19:04:40Z</time>
      </trkpt>
      <trkpt lat="28.803883" lon="-17.760006">
        <ele>54.459</ele>
        <time>2023-10-22T19:06:25Z</time>
      </trkpt>
      <trkpt lat="28.803758" lon="-17.759935">
        <ele>51.429</ele>
        <time>2023-10-22T19:06:38Z</time>
      </trkpt>
      <trkpt lat="28.801966" lon="-17.759782">
        <ele>48.987</ele>
        <time>2023-10-22T19:09:50Z</time>
      </trkpt>
      <trkpt lat="28.801752" lon="-17.759807">
        <ele>43.451</ele>
        <time>2023-10-22T19:10:12Z</time>
      </trkpt>
      <trkpt lat="28.801438" lon="-17.759931">
        <ele>32.485</ele>
        <time>2023-10-22T19:10:47Z</time>
      </trkpt>
      <trkpt lat="28.801085" lon="-17.760230">
        <ele>23.489</ele>
        <time>2023-10-22T19:11:48Z</time>
      </trkpt>
      <trkpt lat="28.800920" lon="-17.760114">
        <ele>25.443</ele>
        <time>2023-10-22T19:12:08Z</time>
      </trkpt>
      <trkpt lat="28.800789" lon="-17.759951">
        <ele>27.464</ele>
        <time>2023-10-22T19:13:00Z</time>
      </trkpt>
      <trkpt lat="28.800746" lon="-17.760236">
        <ele>30.410</ele>
        <time>2023-10-22T19:13:55Z</time>
      </trkpt>
      <trkpt lat="28.800607" lon="-17.760467">
        <ele>39.409</ele>
        <time>2023-10-22T19:14:39Z</time>
      </trkpt>
      <trkpt lat="28.800554" lon="-17.760737">
        <ele>33.485</ele>
        <time>2023-10-22T19:15:16Z</time>
      </trkpt>
      <trkpt lat="28.800489" lon="-17.760668">
        <ele>32.469</ele>
        <time>2023-10-22T19:15:43Z</time>
      </trkpt>
      <trkpt lat="28.800452" lon="-17.760452">
        <ele>31.445</ele>
        <time>2023-10-22T19:16:08Z</time>
      </trkpt>
      <trkpt lat="28.800484" lon="-17.760077">
        <ele>34.455</ele>
        <time>2023-10-22T19:16:53Z</time>
      </trkpt>
      <trkpt lat="28.800369" lon="-17.759853">
        <ele>48.415</ele>
        <time>2023-10-22T19:17:32Z</time>
      </trkpt>
      <trkpt lat="28.800222" lon="-17.759989">
        <ele>49.473</ele>
        <time>2023-10-22T19:17:59Z</time>
      </trkpt>
      <trkpt lat="28.800032" lon="-17.760033">
        <ele>50.467</ele>
        <time>2023-10-22T19:18:28Z</time>
      </trkpt>
      <trkpt lat="28.799372" lon="-17.759991">
        <ele>61.451</ele>
        <time>2023-10-22T19:20:23Z</time>
      </trkpt>
    </trkseg>
  </trk></gpx>