<?xml version="1.0" encoding="UTF-8"?>
<gpx version="1.1" creator="Aventuras en Cada Paso" xmlns="http://www.topografix.com/GPX/1/1">
  <metadata>
    <name>San José de los Llanos – Chinyero</name>
    <desc>Ruta por las coladas del último volcán en erupción de Tenerife (1909). Lava negra entre pinos centenarios. Ideal para familias y niños.</desc>
    <author><name>Aventuras en Cada Paso</name></author>
    <time>2026-07-08T08:12:58.155Z</time>
    <keywords>Tenerife, Senderismo, Fácil, senderismo Canarias</keywords>
  </metadata>
  <wpt lat="28.3469" lon="-16.7944">
    <name>San José de los Llanos – Chinyero</name>
    <desc>Ruta por las coladas del último volcán en erupción de Tenerife (1909). Lava negra entre pinos centenarios. Ideal para familias y niños. | Isla: Tenerife | Tipo: Senderismo | Dificultad: Fácil | Distancia: 4km | Duración: 2-4 horas</desc>
    <type>Senderismo</type>
    <extensions>
      <isla>Tenerife</isla>
      <dificultad>Fácil</dificultad>
      <distancia>4</distancia>
      <duracion>2-4 horas</duracion>
    </extensions>
  </wpt>
</gpx>