<?xml version="1.0" encoding="UTF-8"?>
<gpx creator="Wikiloc - https://www.wikiloc.com" version="1.1" xmlns="http://www.topografix.com/GPX/1/1" xmlns:xsi="http://www.w3.org/2001/XMLSchema-instance" xsi:schemaLocation="http://www.topografix.com/GPX/1/1 http://www.topografix.com/GPX/1/1/gpx.xsd">
  <metadata>
    <name>Wikiloc - Garachico Teno Alto Masca santiago del teide 2014-07-24-03 -...</name>
    <link href="https://www.wikiloc.com/cycling-trails/garachico-teno-alto-masca-santiago-del-teide-2014-07-24-03-7777534">
      <text>Garachico Teno Alto Masca santiago del teide 2014-07-24-03 -... on Wikiloc</text>
    </link>
    <time>2014-07-24T16:50:32Z</time>
  </metadata>
  <trk>
    <name>Garachico Teno Alto Masca santiago del teide 2014-07-24-03 -... - Wikiloc</name>
    <cmt></cmt>
    <desc></desc>
    <trkseg>
      <trkpt lat="28.375267" lon="-16.762703">
        <ele>2.159</ele>
        <time>2014-07-24T11:03:44Z</time>
      </trkpt>
      <trkpt lat="28.375232" lon="-16.764065">
        <ele>2.203</ele>
        <time>2014-07-24T11:04:13Z</time>
      </trkpt>
      <trkpt lat="28.374330" lon="-16.765233">
        <ele>7.823</ele>
        <time>2014-07-24T11:04:52Z</time>
      </trkpt>
      <trkpt lat="28.372490" lon="-16.766100">
        <ele>7.307</ele>
        <time>2014-07-24T11:05:20Z</time>
      </trkpt>
      <trkpt lat="28.371669" lon="-16.767918">
        <ele>0.032</ele>
        <time>2014-07-24T11:05:48Z</time>
      </trkpt>
      <trkpt lat="28.370995" lon="-16.767633">
        <ele>1.582</ele>
        <time>2014-07-24T11:05:58Z</time>
      </trkpt>
      <trkpt lat="28.370640" lon="-16.767860">
        <ele>2.382</ele>
        <time>2014-07-24T11:06:05Z</time>
      </trkpt>
      <trkpt lat="28.370997" lon="-16.768726">
        <ele>3.462</ele>
        <time>2014-07-24T11:06:20Z</time>
      </trkpt>
      <trkpt lat="28.370935" lon="-16.770236">
        <ele>18.440</ele>
        <time>2014-07-24T11:06:44Z</time>
      </trkpt>
      <trkpt lat="28.372112" lon="-16.769713">
        <ele>14.428</ele>
        <time>2014-07-24T11:07:15Z</time>
      </trkpt>
      <trkpt lat="28.372345" lon="-16.769900">
        <ele>15.859</ele>
        <time>2014-07-24T11:07:21Z</time>
      </trkpt>
      <trkpt lat="28.372420" lon="-16.771138">
        <ele>27.792</ele>
        <time>2014-07-24T11:07:45Z</time>
      </trkpt>
      <trkpt lat="28.373179" lon="-16.772585">
        <ele>28.873</ele>
        <time>2014-07-24T11:08:11Z</time>
      </trkpt>
      <trkpt lat="28.372875" lon="-16.777578">
        <ele>32.120</ele>
        <time>2014-07-24T11:10:13Z</time>
      </trkpt>
      <trkpt lat="28.372112" lon="-16.780531">
        <ele>41.807</ele>
        <time>2014-07-24T11:10:52Z</time>
      </trkpt>
      <trkpt lat="28.372644" lon="-16.781935">
        <ele>45.916</ele>
        <time>2014-07-24T11:11:17Z</time>
      </trkpt>
      <trkpt lat="28.372152" lon="-16.783047">
        <ele>46.816</ele>
        <time>2014-07-24T11:11:34Z</time>
      </trkpt>
      <trkpt lat="28.372237" lon="-16.785545">
        <ele>40.846</ele>
        <time>2014-07-24T11:12:02Z</time>
      </trkpt>
      <trkpt lat="28.370194" lon="-16.793253">
        <ele>36.626</ele>
        <time>2014-07-24T11:13:11Z</time>
      </trkpt>
      <trkpt lat="28.370460" lon="-16.795628">
        <ele>41.054</ele>
        <time>2014-07-24T11:13:37Z</time>
      </trkpt>
      <trkpt lat="28.369755" lon="-16.802303">
        <ele>56.182</ele>
        <time>2014-07-24T11:15:04Z</time>
      </trkpt>
      <trkpt lat="28.369133" lon="-16.803302">
        <ele>57.633</ele>
        <time>2014-07-24T11:15:21Z</time>
      </trkpt>
      <trkpt lat="28.368075" lon="-16.808182">
        <ele>74.953</ele>
        <time>2014-07-24T11:16:37Z</time>
      </trkpt>
      <trkpt lat="28.366455" lon="-16.809358">
        <ele>81.604</ele>
        <time>2014-07-24T11:17:12Z</time>
      </trkpt>
      <trkpt lat="28.365745" lon="-16.810313">
        <ele>85.214</ele>
        <time>2014-07-24T11:17:32Z</time>
      </trkpt>
      <trkpt lat="28.365487" lon="-16.813291">
        <ele>87.407</ele>
        <time>2014-07-24T11:18:16Z</time>
      </trkpt>
      <trkpt lat="28.364657" lon="-16.814375">
        <ele>94.742</ele>
        <time>2014-07-24T11:18:36Z</time>
      </trkpt>
      <trkpt lat="28.364730" lon="-16.818276">
        <ele>110.022</ele>
        <time>2014-07-24T11:19:40Z</time>
      </trkpt>
      <trkpt lat="28.365640" lon="-16.821061">
        <ele>106.072</ele>
        <time>2014-07-24T11:20:18Z</time>
      </trkpt>
      <trkpt lat="28.365893" lon="-16.828425">
        <ele>116.432</ele>
        <time>2014-07-24T11:21:38Z</time>
      </trkpt>
      <trkpt lat="28.367509" lon="-16.832877">
        <ele>134.680</ele>
        <time>2014-07-24T11:22:54Z</time>
      </trkpt>
      <trkpt lat="28.367440" lon="-16.841365">
        <ele>137.618</ele>
        <time>2014-07-24T11:24:39Z</time>
      </trkpt>
      <trkpt lat="28.369580" lon="-16.846445">
        <ele>133.229</ele>
        <time>2014-07-24T11:25:27Z</time>
      </trkpt>
      <trkpt lat="28.369907" lon="-16.849858">
        <ele>127.225</ele>
        <time>2014-07-24T11:26:10Z</time>
      </trkpt>
      <trkpt lat="28.367103" lon="-16.848772">
        <ele>143.926</ele>
        <time>2014-07-24T11:27:21Z</time>
      </trkpt>
      <trkpt lat="28.366802" lon="-16.846878">
        <ele>153.708</ele>
        <time>2014-07-24T11:28:03Z</time>
      </trkpt>
      <trkpt lat="28.365362" lon="-16.845541">
        <ele>166.407</ele>
        <time>2014-07-24T11:28:43Z</time>
      </trkpt>
      <trkpt lat="28.362159" lon="-16.845995">
        <ele>192.389</ele>
        <time>2014-07-24T11:29:58Z</time>
      </trkpt>
      <trkpt lat="28.361165" lon="-16.848251">
        <ele>205.059</ele>
        <time>2014-07-24T11:30:51Z</time>
      </trkpt>
      <trkpt lat="28.360680" lon="-16.848601">
        <ele>211.819</ele>
        <time>2014-07-24T11:31:06Z</time>
      </trkpt>
      <trkpt lat="28.360757" lon="-16.846732">
        <ele>225.999</ele>
        <time>2014-07-24T11:31:48Z</time>
      </trkpt>
      <trkpt lat="28.359119" lon="-16.842998">
        <ele>254.947</ele>
        <time>2014-07-24T11:33:14Z</time>
      </trkpt>
      <trkpt lat="28.359370" lon="-16.844950">
        <ele>260.215</ele>
        <time>2014-07-24T11:34:01Z</time>
      </trkpt>
      <trkpt lat="28.358728" lon="-16.846440">
        <ele>266.026</ele>
        <time>2014-07-24T11:34:44Z</time>
      </trkpt>
      <trkpt lat="28.358437" lon="-16.844350">
        <ele>294.425</ele>
        <time>2014-07-24T11:35:40Z</time>
      </trkpt>
      <trkpt lat="28.357710" lon="-16.845512">
        <ele>300.026</ele>
        <time>2014-07-24T11:36:18Z</time>
      </trkpt>
      <trkpt lat="28.356529" lon="-16.846346">
        <ele>308.908</ele>
        <time>2014-07-24T11:37:04Z</time>
      </trkpt>
      <trkpt lat="28.356999" lon="-16.843745">
        <ele>338.207</ele>
        <time>2014-07-24T11:38:05Z</time>
      </trkpt>
      <trkpt lat="28.354542" lon="-16.845691">
        <ele>353.569</ele>
        <time>2014-07-24T11:39:38Z</time>
      </trkpt>
      <trkpt lat="28.354413" lon="-16.844088">
        <ele>372.739</ele>
        <time>2014-07-24T11:40:24Z</time>
      </trkpt>
      <trkpt lat="28.352488" lon="-16.845057">
        <ele>385.659</ele>
        <time>2014-07-24T11:41:29Z</time>
      </trkpt>
      <trkpt lat="28.352197" lon="-16.843576">
        <ele>403.159</ele>
        <time>2014-07-24T11:42:12Z</time>
      </trkpt>
      <trkpt lat="28.351830" lon="-16.844680">
        <ele>404.697</ele>
        <time>2014-07-24T11:42:45Z</time>
      </trkpt>
      <trkpt lat="28.351340" lon="-16.844823">
        <ele>408.635</ele>
        <time>2014-07-24T11:42:59Z</time>
      </trkpt>
      <trkpt lat="28.350270" lon="-16.844315">
        <ele>421.116</ele>
        <time>2014-07-24T11:43:35Z</time>
      </trkpt>
      <trkpt lat="28.349250" lon="-16.845810">
        <ele>432.495</ele>
        <time>2014-07-24T11:44:27Z</time>
      </trkpt>
      <trkpt lat="28.349194" lon="-16.844070">
        <ele>446.449</ele>
        <time>2014-07-24T11:45:16Z</time>
      </trkpt>
      <trkpt lat="28.348730" lon="-16.844918">
        <ele>456.723</ele>
        <time>2014-07-24T11:45:46Z</time>
      </trkpt>
      <trkpt lat="28.347882" lon="-16.843742">
        <ele>468.607</ele>
        <time>2014-07-24T11:46:26Z</time>
      </trkpt>
      <trkpt lat="28.347264" lon="-16.843740">
        <ele>471.426</ele>
        <time>2014-07-24T11:46:43Z</time>
      </trkpt>
      <trkpt lat="28.345745" lon="-16.844833">
        <ele>486.956</ele>
        <time>2014-07-24T11:47:37Z</time>
      </trkpt>
      <trkpt lat="28.345822" lon="-16.846240">
        <ele>496.776</ele>
        <time>2014-07-24T11:48:19Z</time>
      </trkpt>
      <trkpt lat="28.344655" lon="-16.846300">
        <ele>505.516</ele>
        <time>2014-07-24T11:48:54Z</time>
      </trkpt>
      <trkpt lat="28.342019" lon="-16.849468">
        <ele>525.234</ele>
        <time>2014-07-24T11:50:23Z</time>
      </trkpt>
      <trkpt lat="28.340850" lon="-16.850390">
        <ele>529.572</ele>
        <time>2014-07-24T11:50:52Z</time>
      </trkpt>
      <trkpt lat="28.341968" lon="-16.850537">
        <ele>523.683</ele>
        <time>2014-07-24T11:51:12Z</time>
      </trkpt>
      <trkpt lat="28.341432" lon="-16.852700">
        <ele>539.755</ele>
        <time>2014-07-24T11:52:17Z</time>
      </trkpt>
      <trkpt lat="28.341653" lon="-16.854160">
        <ele>564.907</ele>
        <time>2014-07-24T11:53:20Z</time>
      </trkpt>
      <trkpt lat="28.341198" lon="-16.854605">
        <ele>570.817</ele>
        <time>2014-07-24T11:53:44Z</time>
      </trkpt>
      <trkpt lat="28.342050" lon="-16.854845">
        <ele>580.007</ele>
        <time>2014-07-24T11:54:19Z</time>
      </trkpt>
      <trkpt lat="28.341372" lon="-16.855760">
        <ele>589.682</ele>
        <time>2014-07-24T11:54:57Z</time>
      </trkpt>
      <trkpt lat="28.342218" lon="-16.856027">
        <ele>603.472</ele>
        <time>2014-07-24T11:55:33Z</time>
      </trkpt>
      <trkpt lat="28.341264" lon="-16.857403">
        <ele>626.372</ele>
        <time>2014-07-24T11:56:40Z</time>
      </trkpt>
      <trkpt lat="28.342980" lon="-16.857406">
        <ele>650.442</ele>
        <time>2014-07-24T11:57:59Z</time>
      </trkpt>
      <trkpt lat="28.342998" lon="-16.857776">
        <ele>658.130</ele>
        <time>2014-07-24T11:58:18Z</time>
      </trkpt>
      <trkpt lat="28.341720" lon="-16.858478">
        <ele>669.838</ele>
        <time>2014-07-24T11:59:22Z</time>
      </trkpt>
      <trkpt lat="28.341170" lon="-16.859285">
        <ele>686.769</ele>
        <time>2014-07-24T12:00:02Z</time>
      </trkpt>
      <trkpt lat="28.339730" lon="-16.858663">
        <ele>690.246</ele>
        <time>2014-07-24T12:01:05Z</time>
      </trkpt>
      <trkpt lat="28.339214" lon="-16.859531">
        <ele>723.488</ele>
        <time>2014-07-24T12:01:50Z</time>
      </trkpt>
      <trkpt lat="28.338224" lon="-16.859215">
        <ele>723.516</ele>
        <time>2014-07-24T12:02:28Z</time>
      </trkpt>
      <trkpt lat="28.336564" lon="-16.859646">
        <ele>760.207</ele>
        <time>2014-07-24T12:03:41Z</time>
      </trkpt>
      <trkpt lat="28.338242" lon="-16.859643">
        <ele>750.861</ele>
        <time>2014-07-24T12:04:57Z</time>
      </trkpt>
      <trkpt lat="28.338770" lon="-16.860314">
        <ele>781.821</ele>
        <time>2014-07-24T12:05:41Z</time>
      </trkpt>
      <trkpt lat="28.339865" lon="-16.860316">
        <ele>777.391</ele>
        <time>2014-07-24T12:06:34Z</time>
      </trkpt>
      <trkpt lat="28.340242" lon="-16.861101">
        <ele>809.391</ele>
        <time>2014-07-24T12:07:14Z</time>
      </trkpt>
      <trkpt lat="28.341829" lon="-16.861575">
        <ele>807.329</ele>
        <time>2014-07-24T12:08:33Z</time>
      </trkpt>
      <trkpt lat="28.342037" lon="-16.863581">
        <ele>810.147</ele>
        <time>2014-07-24T12:09:16Z</time>
      </trkpt>
      <trkpt lat="28.340847" lon="-16.862763">
        <ele>824.788</ele>
        <time>2014-07-24T12:09:51Z</time>
      </trkpt>
      <trkpt lat="28.337732" lon="-16.862258">
        <ele>882.343</ele>
        <time>2014-07-24T12:11:56Z</time>
      </trkpt>
      <trkpt lat="28.337747" lon="-16.863302">
        <ele>864.464</ele>
        <time>2014-07-24T12:12:31Z</time>
      </trkpt>
      <trkpt lat="28.336835" lon="-16.863291">
        <ele>886.110</ele>
        <time>2014-07-24T12:12:57Z</time>
      </trkpt>
      <trkpt lat="28.337034" lon="-16.864803">
        <ele>864.207</ele>
        <time>2014-07-24T12:13:19Z</time>
      </trkpt>
      <trkpt lat="28.335764" lon="-16.865200">
        <ele>887.591</ele>
        <time>2014-07-24T12:13:40Z</time>
      </trkpt>
      <trkpt lat="28.336400" lon="-16.866068">
        <ele>862.471</ele>
        <time>2014-07-24T12:13:59Z</time>
      </trkpt>
      <trkpt lat="28.337787" lon="-16.866597">
        <ele>834.721</ele>
        <time>2014-07-24T12:14:20Z</time>
      </trkpt>
      <trkpt lat="28.337622" lon="-16.867480">
        <ele>839.611</ele>
        <time>2014-07-24T12:14:32Z</time>
      </trkpt>
      <trkpt lat="28.336470" lon="-16.867832">
        <ele>860.489</ele>
        <time>2014-07-24T12:14:49Z</time>
      </trkpt>
      <trkpt lat="28.337387" lon="-16.869096">
        <ele>844.147</ele>
        <time>2014-07-24T12:15:11Z</time>
      </trkpt>
      <trkpt lat="28.339012" lon="-16.869408">
        <ele>808.538</ele>
        <time>2014-07-24T12:15:30Z</time>
      </trkpt>
      <trkpt lat="28.338533" lon="-16.871346">
        <ele>825.833</ele>
        <time>2014-07-24T12:15:52Z</time>
      </trkpt>
      <trkpt lat="28.338937" lon="-16.872123">
        <ele>808.723</ele>
        <time>2014-07-24T12:16:03Z</time>
      </trkpt>
      <trkpt lat="28.338300" lon="-16.872560">
        <ele>820.615</ele>
        <time>2014-07-24T12:16:15Z</time>
      </trkpt>
      <trkpt lat="28.338680" lon="-16.873223">
        <ele>806.507</ele>
        <time>2014-07-24T12:16:27Z</time>
      </trkpt>
      <trkpt lat="28.338567" lon="-16.874238">
        <ele>812.020</ele>
        <time>2014-07-24T12:16:42Z</time>
      </trkpt>
      <trkpt lat="28.339687" lon="-16.874268">
        <ele>792.540</ele>
        <time>2014-07-24T12:17:00Z</time>
      </trkpt>
      <trkpt lat="28.340610" lon="-16.875142">
        <ele>795.490</ele>
        <time>2014-07-24T12:17:17Z</time>
      </trkpt>
      <trkpt lat="28.341479" lon="-16.874040">
        <ele>787.030</ele>
        <time>2014-07-24T12:17:39Z</time>
      </trkpt>
      <trkpt lat="28.341638" lon="-16.872713">
        <ele>775.138</ele>
        <time>2014-07-24T12:18:03Z</time>
      </trkpt>
      <trkpt lat="28.342200" lon="-16.872575">
        <ele>779.026</ele>
        <time>2014-07-24T12:18:17Z</time>
      </trkpt>
      <trkpt lat="28.342300" lon="-16.873500">
        <ele>793.987</ele>
        <time>2014-07-24T12:18:34Z</time>
      </trkpt>
      <trkpt lat="28.343124" lon="-16.873868">
        <ele>773.498</ele>
        <time>2014-07-24T12:18:48Z</time>
      </trkpt>
      <trkpt lat="28.342127" lon="-16.874907">
        <ele>788.115</ele>
        <time>2014-07-24T12:19:11Z</time>
      </trkpt>
      <trkpt lat="28.344630" lon="-16.879120">
        <ele>757.926</ele>
        <time>2014-07-24T12:24:59Z</time>
      </trkpt>
      <trkpt lat="28.344799" lon="-16.882020">
        <ele>749.407</ele>
        <time>2014-07-24T12:25:31Z</time>
      </trkpt>
      <trkpt lat="28.344330" lon="-16.882533">
        <ele>750.246</ele>
        <time>2014-07-24T12:26:10Z</time>
      </trkpt>
      <trkpt lat="28.344487" lon="-16.883248">
        <ele>747.756</ele>
        <time>2014-07-24T12:27:34Z</time>
      </trkpt>
      <trkpt lat="28.344795" lon="-16.879828">
        <ele>752.856</ele>
        <time>2014-07-24T12:28:54Z</time>
      </trkpt>
      <trkpt lat="28.343412" lon="-16.876880">
        <ele>771.276</ele>
        <time>2014-07-24T12:30:00Z</time>
      </trkpt>
      <trkpt lat="28.345842" lon="-16.877635">
        <ele>769.384</ele>
        <time>2014-07-24T12:31:19Z</time>
      </trkpt>
      <trkpt lat="28.346385" lon="-16.878546">
        <ele>763.742</ele>
        <time>2014-07-24T12:31:34Z</time>
      </trkpt>
      <trkpt lat="28.346567" lon="-16.880198">
        <ele>757.663</ele>
        <time>2014-07-24T12:31:57Z</time>
      </trkpt>
      <trkpt lat="28.346975" lon="-16.879400">
        <ele>743.299</ele>
        <time>2014-07-24T12:32:08Z</time>
      </trkpt>
      <trkpt lat="28.347619" lon="-16.879028">
        <ele>727.807</ele>
        <time>2014-07-24T12:32:21Z</time>
      </trkpt>
      <trkpt lat="28.347909" lon="-16.880360">
        <ele>715.027</ele>
        <time>2014-07-24T12:34:18Z</time>
      </trkpt>
      <trkpt lat="28.347604" lon="-16.882096">
        <ele>697.907</ele>
        <time>2014-07-24T12:35:14Z</time>
      </trkpt>
      <trkpt lat="28.348314" lon="-16.883465">
        <ele>678.776</ele>
        <time>2014-07-24T12:35:35Z</time>
      </trkpt>
      <trkpt lat="28.349399" lon="-16.884571">
        <ele>659.586</ele>
        <time>2014-07-24T12:35:59Z</time>
      </trkpt>
      <trkpt lat="28.349737" lon="-16.883298">
        <ele>662.766</ele>
        <time>2014-07-24T12:36:19Z</time>
      </trkpt>
      <trkpt lat="28.352365" lon="-16.885573">
        <ele>643.226</ele>
        <time>2014-07-24T12:37:01Z</time>
      </trkpt>
      <trkpt lat="28.353109" lon="-16.887030">
        <ele>638.284</ele>
        <time>2014-07-24T12:37:27Z</time>
      </trkpt>
      <trkpt lat="28.352314" lon="-16.885548">
        <ele>642.892</ele>
        <time>2014-07-24T12:41:55Z</time>
      </trkpt>
      <trkpt lat="28.349742" lon="-16.883335">
        <ele>662.133</ele>
        <time>2014-07-24T12:43:25Z</time>
      </trkpt>
      <trkpt lat="28.349372" lon="-16.884595">
        <ele>658.987</ele>
        <time>2014-07-24T12:43:58Z</time>
      </trkpt>
      <trkpt lat="28.348342" lon="-16.883441">
        <ele>680.342</ele>
        <time>2014-07-24T12:45:14Z</time>
      </trkpt>
      <trkpt lat="28.347660" lon="-16.882075">
        <ele>698.826</ele>
        <time>2014-07-24T12:46:10Z</time>
      </trkpt>
      <trkpt lat="28.347808" lon="-16.879225">
        <ele>722.507</ele>
        <time>2014-07-24T12:48:04Z</time>
      </trkpt>
      <trkpt lat="28.346762" lon="-16.880342">
        <ele>746.585</ele>
        <time>2014-07-24T12:49:18Z</time>
      </trkpt>
      <trkpt lat="28.346480" lon="-16.878658">
        <ele>761.645</ele>
        <time>2014-07-24T12:50:32Z</time>
      </trkpt>
      <trkpt lat="28.345888" lon="-16.877773">
        <ele>771.975</ele>
        <time>2014-07-24T12:51:15Z</time>
      </trkpt>
      <trkpt lat="28.344565" lon="-16.876892">
        <ele>768.475</ele>
        <time>2014-07-24T12:52:06Z</time>
      </trkpt>
      <trkpt lat="28.343455" lon="-16.876861">
        <ele>771.223</ele>
        <time>2014-07-24T12:52:40Z</time>
      </trkpt>
      <trkpt lat="28.342365" lon="-16.875043">
        <ele>780.141</ele>
        <time>2014-07-24T12:53:31Z</time>
      </trkpt>
      <trkpt lat="28.343282" lon="-16.874093">
        <ele>772.622</ele>
        <time>2014-07-24T12:54:07Z</time>
      </trkpt>
      <trkpt lat="28.342448" lon="-16.873616">
        <ele>791.368</ele>
        <time>2014-07-24T12:54:35Z</time>
      </trkpt>
      <trkpt lat="28.342267" lon="-16.872782">
        <ele>784.642</ele>
        <time>2014-07-24T12:54:53Z</time>
      </trkpt>
      <trkpt lat="28.341768" lon="-16.872908">
        <ele>783.226</ele>
        <time>2014-07-24T12:55:05Z</time>
      </trkpt>
      <trkpt lat="28.341662" lon="-16.874246">
        <ele>790.907</ele>
        <time>2014-07-24T12:55:56Z</time>
      </trkpt>
      <trkpt lat="28.340875" lon="-16.875373">
        <ele>798.953</ele>
        <time>2014-07-24T12:56:30Z</time>
      </trkpt>
      <trkpt lat="28.339884" lon="-16.874555">
        <ele>796.473</ele>
        <time>2014-07-24T12:57:00Z</time>
      </trkpt>
      <trkpt lat="28.338745" lon="-16.874588">
        <ele>808.793</ele>
        <time>2014-07-24T12:57:30Z</time>
      </trkpt>
      <trkpt lat="28.338825" lon="-16.873393">
        <ele>802.073</ele>
        <time>2014-07-24T12:57:54Z</time>
      </trkpt>
      <trkpt lat="28.338482" lon="-16.872787">
        <ele>811.731</ele>
        <time>2014-07-24T12:58:08Z</time>
      </trkpt>
      <trkpt lat="28.339152" lon="-16.872273">
        <ele>804.089</ele>
        <time>2014-07-24T12:58:27Z</time>
      </trkpt>
      <trkpt lat="28.338738" lon="-16.871508">
        <ele>816.540</ele>
        <time>2014-07-24T12:58:46Z</time>
      </trkpt>
      <trkpt lat="28.339167" lon="-16.869638">
        <ele>813.918</ele>
        <time>2014-07-24T12:59:39Z</time>
      </trkpt>
      <trkpt lat="28.337451" lon="-16.869251">
        <ele>846.198</ele>
        <time>2014-07-24T13:00:46Z</time>
      </trkpt>
      <trkpt lat="28.336687" lon="-16.867960">
        <ele>853.417</ele>
        <time>2014-07-24T13:01:35Z</time>
      </trkpt>
      <trkpt lat="28.337737" lon="-16.867705">
        <ele>829.207</ele>
        <time>2014-07-24T13:02:04Z</time>
      </trkpt>
      <trkpt lat="28.337873" lon="-16.866781">
        <ele>835.948</ele>
        <time>2014-07-24T13:02:29Z</time>
      </trkpt>
      <trkpt lat="28.336015" lon="-16.865813">
        <ele>869.858</ele>
        <time>2014-07-24T13:03:31Z</time>
      </trkpt>
      <trkpt lat="28.336100" lon="-16.865226">
        <ele>873.948</ele>
        <time>2014-07-24T13:03:43Z</time>
      </trkpt>
      <trkpt lat="28.337178" lon="-16.865026">
        <ele>854.788</ele>
        <time>2014-07-24T13:04:06Z</time>
      </trkpt>
      <trkpt lat="28.337085" lon="-16.863426">
        <ele>874.996</ele>
        <time>2014-07-24T13:04:37Z</time>
      </trkpt>
      <trkpt lat="28.337784" lon="-16.863495">
        <ele>858.174</ele>
        <time>2014-07-24T13:04:52Z</time>
      </trkpt>
      <trkpt lat="28.337970" lon="-16.862365">
        <ele>866.415</ele>
        <time>2014-07-24T13:05:09Z</time>
      </trkpt>
      <trkpt lat="28.340980" lon="-16.862805">
        <ele>827.832</ele>
        <time>2014-07-24T13:05:45Z</time>
      </trkpt>
      <trkpt lat="28.342132" lon="-16.863590">
        <ele>810.592</ele>
        <time>2014-07-24T13:06:07Z</time>
      </trkpt>
      <trkpt lat="28.341870" lon="-16.861546">
        <ele>806.311</ele>
        <time>2014-07-24T13:06:48Z</time>
      </trkpt>
      <trkpt lat="28.340162" lon="-16.860826">
        <ele>793.507</ele>
        <time>2014-07-24T13:08:49Z</time>
      </trkpt>
      <trkpt lat="28.339914" lon="-16.860143">
        <ele>767.760</ele>
        <time>2014-07-24T13:09:00Z</time>
      </trkpt>
      <trkpt lat="28.338797" lon="-16.860132">
        <ele>770.880</ele>
        <time>2014-07-24T13:09:17Z</time>
      </trkpt>
      <trkpt lat="28.338269" lon="-16.859423">
        <ele>734.280</ele>
        <time>2014-07-24T13:09:29Z</time>
      </trkpt>
      <trkpt lat="28.336586" lon="-16.859321">
        <ele>744.870</ele>
        <time>2014-07-24T13:10:01Z</time>
      </trkpt>
      <trkpt lat="28.338353" lon="-16.858777">
        <ele>697.068</ele>
        <time>2014-07-24T13:10:34Z</time>
      </trkpt>
      <trkpt lat="28.339357" lon="-16.858973">
        <ele>698.086</ele>
        <time>2014-07-24T13:10:52Z</time>
      </trkpt>
      <trkpt lat="28.339819" lon="-16.858206">
        <ele>664.847</ele>
        <time>2014-07-24T13:11:05Z</time>
      </trkpt>
      <trkpt lat="28.340827" lon="-16.858671">
        <ele>662.818</ele>
        <time>2014-07-24T13:11:20Z</time>
      </trkpt>
      <trkpt lat="28.341442" lon="-16.858507">
        <ele>664.998</ele>
        <time>2014-07-24T13:11:32Z</time>
      </trkpt>
      <trkpt lat="28.341780" lon="-16.857895">
        <ele>643.717</ele>
        <time>2014-07-24T13:11:45Z</time>
      </trkpt>
      <trkpt lat="28.342252" lon="-16.858066">
        <ele>655.807</ele>
        <time>2014-07-24T13:11:56Z</time>
      </trkpt>
      <trkpt lat="28.342964" lon="-16.857533">
        <ele>652.478</ele>
        <time>2014-07-24T13:12:12Z</time>
      </trkpt>
      <trkpt lat="28.342962" lon="-16.857281">
        <ele>647.788</ele>
        <time>2014-07-24T13:12:19Z</time>
      </trkpt>
      <trkpt lat="28.341202" lon="-16.857386">
        <ele>625.488</ele>
        <time>2014-07-24T13:12:47Z</time>
      </trkpt>
      <trkpt lat="28.342205" lon="-16.855998">
        <ele>602.788</ele>
        <time>2014-07-24T13:13:11Z</time>
      </trkpt>
      <trkpt lat="28.341362" lon="-16.855838">
        <ele>590.926</ele>
        <time>2014-07-24T13:13:25Z</time>
      </trkpt>
      <trkpt lat="28.342073" lon="-16.854887">
        <ele>581.124</ele>
        <time>2014-07-24T13:13:40Z</time>
      </trkpt>
      <trkpt lat="28.341208" lon="-16.854641">
        <ele>571.455</ele>
        <time>2014-07-24T13:13:53Z</time>
      </trkpt>
      <trkpt lat="28.341657" lon="-16.854212">
        <ele>565.588</ele>
        <time>2014-07-24T13:14:02Z</time>
      </trkpt>
      <trkpt lat="28.341402" lon="-16.852748">
        <ele>540.524</ele>
        <time>2014-07-24T13:14:16Z</time>
      </trkpt>
      <trkpt lat="28.341944" lon="-16.850443">
        <ele>522.826</ele>
        <time>2014-07-24T13:14:39Z</time>
      </trkpt>
      <trkpt lat="28.340733" lon="-16.850432">
        <ele>530.307</ele>
        <time>2014-07-24T13:15:05Z</time>
      </trkpt>
      <trkpt lat="28.338990" lon="-16.851547">
        <ele>542.285</ele>
        <time>2014-07-24T13:16:05Z</time>
      </trkpt>
      <trkpt lat="28.335133" lon="-16.851663">
        <ele>577.915</ele>
        <time>2014-07-24T13:18:03Z</time>
      </trkpt>
      <trkpt lat="28.334414" lon="-16.850532">
        <ele>578.375</ele>
        <time>2014-07-24T13:18:32Z</time>
      </trkpt>
      <trkpt lat="28.335085" lon="-16.848218">
        <ele>585.485</ele>
        <time>2014-07-24T13:19:22Z</time>
      </trkpt>
      <trkpt lat="28.334110" lon="-16.845830">
        <ele>607.223</ele>
        <time>2014-07-24T13:20:26Z</time>
      </trkpt>
      <trkpt lat="28.334150" lon="-16.843860">
        <ele>622.411</ele>
        <time>2014-07-24T13:21:19Z</time>
      </trkpt>
      <trkpt lat="28.333168" lon="-16.844805">
        <ele>635.492</ele>
        <time>2014-07-24T13:22:07Z</time>
      </trkpt>
      <trkpt lat="28.332097" lon="-16.844773">
        <ele>646.634</ele>
        <time>2014-07-24T13:22:38Z</time>
      </trkpt>
      <trkpt lat="28.331807" lon="-16.845940">
        <ele>650.855</ele>
        <time>2014-07-24T13:23:11Z</time>
      </trkpt>
      <trkpt lat="28.331119" lon="-16.846776">
        <ele>651.710</ele>
        <time>2014-07-24T13:23:37Z</time>
      </trkpt>
      <trkpt lat="28.329635" lon="-16.847485">
        <ele>668.107</ele>
        <time>2014-07-24T13:24:26Z</time>
      </trkpt>
      <trkpt lat="28.328835" lon="-16.846858">
        <ele>679.340</ele>
        <time>2014-07-24T13:24:59Z</time>
      </trkpt>
      <trkpt lat="28.329097" lon="-16.845015">
        <ele>691.660</ele>
        <time>2014-07-24T13:25:50Z</time>
      </trkpt>
      <trkpt lat="28.328580" lon="-16.843121">
        <ele>717.020</ele>
        <time>2014-07-24T13:27:06Z</time>
      </trkpt>
      <trkpt lat="28.327085" lon="-16.843591">
        <ele>726.220</ele>
        <time>2014-07-24T13:28:00Z</time>
      </trkpt>
      <trkpt lat="28.326795" lon="-16.845365">
        <ele>722.118</ele>
        <time>2014-07-24T13:28:28Z</time>
      </trkpt>
      <trkpt lat="28.325860" lon="-16.845768">
        <ele>726.896</ele>
        <time>2014-07-24T13:28:47Z</time>
      </trkpt>
      <trkpt lat="28.325225" lon="-16.845365">
        <ele>731.487</ele>
        <time>2014-07-24T13:29:02Z</time>
      </trkpt>
      <trkpt lat="28.324364" lon="-16.842952">
        <ele>741.384</ele>
        <time>2014-07-24T13:29:46Z</time>
      </trkpt>
      <trkpt lat="28.323650" lon="-16.842595">
        <ele>747.507</ele>
        <time>2014-07-24T13:30:01Z</time>
      </trkpt>
      <trkpt lat="28.323129" lon="-16.844681">
        <ele>757.617</ele>
        <time>2014-07-24T13:31:08Z</time>
      </trkpt>
      <trkpt lat="28.322264" lon="-16.844686">
        <ele>771.407</ele>
        <time>2014-07-24T13:31:39Z</time>
      </trkpt>
      <trkpt lat="28.322447" lon="-16.845865">
        <ele>766.885</ele>
        <time>2014-07-24T13:32:09Z</time>
      </trkpt>
      <trkpt lat="28.322005" lon="-16.846390">
        <ele>787.185</ele>
        <time>2014-07-24T13:32:29Z</time>
      </trkpt>
      <trkpt lat="28.322330" lon="-16.846915">
        <ele>784.125</ele>
        <time>2014-07-24T13:32:46Z</time>
      </trkpt>
      <trkpt lat="28.322149" lon="-16.848275">
        <ele>797.315</ele>
        <time>2014-07-24T13:33:24Z</time>
      </trkpt>
      <trkpt lat="28.322500" lon="-16.849516">
        <ele>811.193</ele>
        <time>2014-07-24T13:33:57Z</time>
      </trkpt>
      <trkpt lat="28.323078" lon="-16.849945">
        <ele>788.011</ele>
        <time>2014-07-24T13:34:13Z</time>
      </trkpt>
      <trkpt lat="28.323162" lon="-16.850578">
        <ele>800.762</ele>
        <time>2014-07-24T13:34:24Z</time>
      </trkpt>
      <trkpt lat="28.324130" lon="-16.850701">
        <ele>788.551</ele>
        <time>2014-07-24T13:34:42Z</time>
      </trkpt>
      <trkpt lat="28.323950" lon="-16.851825">
        <ele>810.601</ele>
        <time>2014-07-24T13:34:57Z</time>
      </trkpt>
      <trkpt lat="28.324625" lon="-16.852175">
        <ele>795.611</ele>
        <time>2014-07-24T13:35:07Z</time>
      </trkpt>
      <trkpt lat="28.324847" lon="-16.852758">
        <ele>807.107</ele>
        <time>2014-07-24T13:35:15Z</time>
      </trkpt>
      <trkpt lat="28.325530" lon="-16.852793">
        <ele>797.822</ele>
        <time>2014-07-24T13:35:26Z</time>
      </trkpt>
      <trkpt lat="28.326020" lon="-16.854242">
        <ele>815.352</ele>
        <time>2014-07-24T13:35:50Z</time>
      </trkpt>
      <trkpt lat="28.326959" lon="-16.854767">
        <ele>791.832</ele>
        <time>2014-07-24T13:36:08Z</time>
      </trkpt>
      <trkpt lat="28.327074" lon="-16.855660">
        <ele>814.522</ele>
        <time>2014-07-24T13:36:22Z</time>
      </trkpt>
      <trkpt lat="28.327927" lon="-16.856296">
        <ele>791.430</ele>
        <time>2014-07-24T13:36:39Z</time>
      </trkpt>
      <trkpt lat="28.326972" lon="-16.856830">
        <ele>783.298</ele>
        <time>2014-07-24T13:37:46Z</time>
      </trkpt>
      <trkpt lat="28.325589" lon="-16.855782">
        <ele>790.529</ele>
        <time>2014-07-24T13:38:06Z</time>
      </trkpt>
      <trkpt lat="28.324830" lon="-16.857063">
        <ele>745.919</ele>
        <time>2014-07-24T13:38:25Z</time>
      </trkpt>
      <trkpt lat="28.323957" lon="-16.856598">
        <ele>755.309</ele>
        <time>2014-07-24T13:38:37Z</time>
      </trkpt>
      <trkpt lat="28.323592" lon="-16.857169">
        <ele>723.519</ele>
        <time>2014-07-24T13:38:44Z</time>
      </trkpt>
      <trkpt lat="28.322827" lon="-16.857383">
        <ele>712.607</ele>
        <time>2014-07-24T13:38:55Z</time>
      </trkpt>
      <trkpt lat="28.322141" lon="-16.856069">
        <ele>720.588</ele>
        <time>2014-07-24T13:39:10Z</time>
      </trkpt>
      <trkpt lat="28.321108" lon="-16.856364">
        <ele>680.428</ele>
        <time>2014-07-24T13:39:22Z</time>
      </trkpt>
      <trkpt lat="28.320963" lon="-16.855580">
        <ele>689.068</ele>
        <time>2014-07-24T13:39:30Z</time>
      </trkpt>
      <trkpt lat="28.320146" lon="-16.855330">
        <ele>670.458</ele>
        <time>2014-07-24T13:39:42Z</time>
      </trkpt>
      <trkpt lat="28.317418" lon="-16.852329">
        <ele>721.986</ele>
        <time>2014-07-24T13:41:58Z</time>
      </trkpt>
      <trkpt lat="28.316180" lon="-16.852520">
        <ele>724.064</ele>
        <time>2014-07-24T13:42:56Z</time>
      </trkpt>
      <trkpt lat="28.316920" lon="-16.849938">
        <ele>742.815</ele>
        <time>2014-07-24T13:43:53Z</time>
      </trkpt>
      <trkpt lat="28.315970" lon="-16.849168">
        <ele>744.978</ele>
        <time>2014-07-24T13:44:17Z</time>
      </trkpt>
      <trkpt lat="28.313642" lon="-16.845657">
        <ele>783.633</ele>
        <time>2014-07-24T13:46:29Z</time>
      </trkpt>
      <trkpt lat="28.312850" lon="-16.845507">
        <ele>767.226</ele>
        <time>2014-07-24T13:46:57Z</time>
      </trkpt>
      <trkpt lat="28.311973" lon="-16.846566">
        <ele>761.407</ele>
        <time>2014-07-24T13:48:37Z</time>
      </trkpt>
      <trkpt lat="28.311025" lon="-16.846967">
        <ele>746.224</ele>
        <time>2014-07-24T13:48:48Z</time>
      </trkpt>
      <trkpt lat="28.308355" lon="-16.845901">
        <ele>698.164</ele>
        <time>2014-07-24T13:49:16Z</time>
      </trkpt>
      <trkpt lat="28.309798" lon="-16.846156">
        <ele>709.914</ele>
        <time>2014-07-24T13:49:43Z</time>
      </trkpt>
      <trkpt lat="28.310820" lon="-16.845867">
        <ele>694.734</ele>
        <time>2014-07-24T13:49:56Z</time>
      </trkpt>
      <trkpt lat="28.311014" lon="-16.845273">
        <ele>685.662</ele>
        <time>2014-07-24T13:50:02Z</time>
      </trkpt>
      <trkpt lat="28.310562" lon="-16.844335">
        <ele>676.410</ele>
        <time>2014-07-24T13:50:14Z</time>
      </trkpt>
      <trkpt lat="28.310551" lon="-16.843096">
        <ele>674.891</ele>
        <time>2014-07-24T13:50:30Z</time>
      </trkpt>
      <trkpt lat="28.309615" lon="-16.842582">
        <ele>646.527</ele>
        <time>2014-07-24T13:50:50Z</time>
      </trkpt>
      <trkpt lat="28.310067" lon="-16.841570">
        <ele>650.868</ele>
        <time>2014-07-24T13:51:06Z</time>
      </trkpt>
      <trkpt lat="28.308786" lon="-16.840900">
        <ele>626.714</ele>
        <time>2014-07-24T13:51:26Z</time>
      </trkpt>
      <trkpt lat="28.308225" lon="-16.839573">
        <ele>617.107</ele>
        <time>2014-07-24T13:51:42Z</time>
      </trkpt>
      <trkpt lat="28.307317" lon="-16.840298">
        <ele>622.059</ele>
        <time>2014-07-24T13:52:06Z</time>
      </trkpt>
      <trkpt lat="28.305752" lon="-16.840263">
        <ele>613.759</ele>
        <time>2014-07-24T13:52:34Z</time>
      </trkpt>
      <trkpt lat="28.304652" lon="-16.838812">
        <ele>615.989</ele>
        <time>2014-07-24T13:53:26Z</time>
      </trkpt>
      <trkpt lat="28.303552" lon="-16.836615">
        <ele>646.149</ele>
        <time>2014-07-24T13:54:54Z</time>
      </trkpt>
      <trkpt lat="28.303354" lon="-16.834726">
        <ele>649.967</ele>
        <time>2014-07-24T13:56:26Z</time>
      </trkpt>
      <trkpt lat="28.303814" lon="-16.834562">
        <ele>698.885</ele>
        <time>2014-07-24T13:56:42Z</time>
      </trkpt>
      <trkpt lat="28.303835" lon="-16.835514">
        <ele>670.216</ele>
        <time>2014-07-24T13:57:18Z</time>
      </trkpt>
      <trkpt lat="28.303923" lon="-16.834943">
        <ele>686.345</ele>
        <time>2014-07-24T13:58:06Z</time>
      </trkpt>
      <trkpt lat="28.303351" lon="-16.833546">
        <ele>728.147</ele>
        <time>2014-07-24T13:59:02Z</time>
      </trkpt>
      <trkpt lat="28.302895" lon="-16.833257">
        <ele>709.511</ele>
        <time>2014-07-24T13:59:38Z</time>
      </trkpt>
      <trkpt lat="28.302917" lon="-16.832018">
        <ele>735.707</ele>
        <time>2014-07-24T14:00:41Z</time>
      </trkpt>
      <trkpt lat="28.302587" lon="-16.832520">
        <ele>717.571</ele>
        <time>2014-07-24T14:01:40Z</time>
      </trkpt>
      <trkpt lat="28.302531" lon="-16.829958">
        <ele>780.941</ele>
        <time>2014-07-24T14:03:35Z</time>
      </trkpt>
      <trkpt lat="28.303595" lon="-16.829859">
        <ele>839.491</ele>
        <time>2014-07-24T14:04:49Z</time>
      </trkpt>
      <trkpt lat="28.302929" lon="-16.829376">
        <ele>828.381</ele>
        <time>2014-07-24T14:06:33Z</time>
      </trkpt>
      <trkpt lat="28.304137" lon="-16.829101">
        <ele>919.689</ele>
        <time>2014-07-24T14:07:29Z</time>
      </trkpt>
      <trkpt lat="28.303306" lon="-16.829247">
        <ele>857.467</ele>
        <time>2014-07-24T14:08:05Z</time>
      </trkpt>
      <trkpt lat="28.303239" lon="-16.828396">
        <ele>908.518</ele>
        <time>2014-07-24T14:08:53Z</time>
      </trkpt>
      <trkpt lat="28.302460" lon="-16.827860">
        <ele>897.061</ele>
        <time>2014-07-24T14:09:45Z</time>
      </trkpt>
      <trkpt lat="28.301723" lon="-16.826506">
        <ele>940.121</ele>
        <time>2014-07-24T14:10:49Z</time>
      </trkpt>
      <trkpt lat="28.301061" lon="-16.826673">
        <ele>946.013</ele>
        <time>2014-07-24T14:11:21Z</time>
      </trkpt>
      <trkpt lat="28.300983" lon="-16.827208">
        <ele>922.407</ele>
        <time>2014-07-24T14:11:43Z</time>
      </trkpt>
      <trkpt lat="28.299177" lon="-16.827601">
        <ele>952.133</ele>
        <time>2014-07-24T14:13:26Z</time>
      </trkpt>
      <trkpt lat="28.300255" lon="-16.826632">
        <ele>972.313</ele>
        <time>2014-07-24T14:14:36Z</time>
      </trkpt>
      <trkpt lat="28.299469" lon="-16.825635">
        <ele>994.793</ele>
        <time>2014-07-24T14:15:54Z</time>
      </trkpt>
      <trkpt lat="28.301052" lon="-16.825108">
        <ele>1020.023</ele>
        <time>2014-07-24T14:17:35Z</time>
      </trkpt>
      <trkpt lat="28.299053" lon="-16.823126">
        <ele>1043.581</ele>
        <time>2014-07-24T14:19:30Z</time>
      </trkpt>
      <trkpt lat="28.298114" lon="-16.821016">
        <ele>1010.469</ele>
        <time>2014-07-24T14:19:54Z</time>
      </trkpt>
      <trkpt lat="28.299385" lon="-16.822290">
        <ele>1009.710</ele>
        <time>2014-07-24T14:20:18Z</time>
      </trkpt>
      <trkpt lat="28.298907" lon="-16.820497">
        <ele>972.729</ele>
        <time>2014-07-24T14:20:38Z</time>
      </trkpt>
      <trkpt lat="28.297999" lon="-16.819875">
        <ele>965.400</ele>
        <time>2014-07-24T14:20:52Z</time>
      </trkpt>
      <trkpt lat="28.296838" lon="-16.818303">
        <ele>943.720</ele>
        <time>2014-07-24T14:21:10Z</time>
      </trkpt>
      <trkpt lat="28.296857" lon="-16.817208">
        <ele>929.607</ele>
        <time>2014-07-24T14:21:23Z</time>
      </trkpt>
      <trkpt lat="28.297376" lon="-16.816002">
        <ele>928.669</ele>
        <time>2014-07-24T15:37:23Z</time>
      </trkpt>
      <trkpt lat="28.298183" lon="-16.816188">
        <ele>932.339</ele>
        <time>2014-07-24T15:37:56Z</time>
      </trkpt>
      <trkpt lat="28.300365" lon="-16.814775">
        <ele>937.859</ele>
        <time>2014-07-24T15:38:55Z</time>
      </trkpt>
      <trkpt lat="28.303035" lon="-16.816335">
        <ele>949.269</ele>
        <time>2014-07-24T15:40:08Z</time>
      </trkpt>
      <trkpt lat="28.304182" lon="-16.815020">
        <ele>954.367</ele>
        <time>2014-07-24T15:40:49Z</time>
      </trkpt>
      <trkpt lat="28.304155" lon="-16.812721">
        <ele>958.525</ele>
        <time>2014-07-24T15:41:44Z</time>
      </trkpt>
      <trkpt lat="28.307768" lon="-16.813765">
        <ele>1000.266</ele>
        <time>2014-07-24T15:43:48Z</time>
      </trkpt>
      <trkpt lat="28.308547" lon="-16.812613">
        <ele>1015.872</ele>
        <time>2014-07-24T15:44:32Z</time>
      </trkpt>
      <trkpt lat="28.307933" lon="-16.812061">
        <ele>1011.513</ele>
        <time>2014-07-24T15:44:57Z</time>
      </trkpt>
      <trkpt lat="28.308128" lon="-16.811158">
        <ele>1030.614</ele>
        <time>2014-07-24T15:45:21Z</time>
      </trkpt>
      <trkpt lat="28.307088" lon="-16.810863">
        <ele>1021.207</ele>
        <time>2014-07-24T15:45:54Z</time>
      </trkpt>
      <trkpt lat="28.307169" lon="-16.810255">
        <ele>1028.384</ele>
        <time>2014-07-24T15:46:12Z</time>
      </trkpt>
      <trkpt lat="28.309602" lon="-16.809938">
        <ele>1063.564</ele>
        <time>2014-07-24T15:47:31Z</time>
      </trkpt>
      <trkpt lat="28.309378" lon="-16.808753">
        <ele>1047.924</ele>
        <time>2014-07-24T15:48:03Z</time>
      </trkpt>
      <trkpt lat="28.310575" lon="-16.808853">
        <ele>1070.664</ele>
        <time>2014-07-24T15:48:39Z</time>
      </trkpt>
      <trkpt lat="28.311642" lon="-16.806901">
        <ele>1074.852</ele>
        <time>2014-07-24T15:49:46Z</time>
      </trkpt>
      <trkpt lat="28.312445" lon="-16.807008">
        <ele>1090.560</ele>
        <time>2014-07-24T15:50:12Z</time>
      </trkpt>
      <trkpt lat="28.313013" lon="-16.806653">
        <ele>1093.211</ele>
        <time>2014-07-24T15:50:34Z</time>
      </trkpt>
      <trkpt lat="28.313995" lon="-16.805101">
        <ele>1101.213</ele>
        <time>2014-07-24T15:51:30Z</time>
      </trkpt>
      <trkpt lat="28.315100" lon="-16.805091">
        <ele>1097.743</ele>
        <time>2014-07-24T15:51:58Z</time>
      </trkpt>
      <trkpt lat="28.315060" lon="-16.804001">
        <ele>1099.407</ele>
        <time>2014-07-24T15:52:15Z</time>
      </trkpt>
      <trkpt lat="28.316188" lon="-16.803642">
        <ele>1098.307</ele>
        <time>2014-07-24T15:52:29Z</time>
      </trkpt>
      <trkpt lat="28.316524" lon="-16.804618">
        <ele>1081.788</ele>
        <time>2014-07-24T15:52:39Z</time>
      </trkpt>
      <trkpt lat="28.317183" lon="-16.804071">
        <ele>1086.968</ele>
        <time>2014-07-24T15:52:48Z</time>
      </trkpt>
      <trkpt lat="28.317750" lon="-16.804131">
        <ele>1083.188</ele>
        <time>2014-07-24T15:52:55Z</time>
      </trkpt>
      <trkpt lat="28.316225" lon="-16.802668">
        <ele>1099.678</ele>
        <time>2014-07-24T15:53:51Z</time>
      </trkpt>
      <trkpt lat="28.316339" lon="-16.801670">
        <ele>1103.836</ele>
        <time>2014-07-24T15:54:22Z</time>
      </trkpt>
      <trkpt lat="28.315403" lon="-16.800290">
        <ele>1112.094</ele>
        <time>2014-07-24T15:55:12Z</time>
      </trkpt>
      <trkpt lat="28.316972" lon="-16.798702">
        <ele>1130.235</ele>
        <time>2014-07-24T15:56:11Z</time>
      </trkpt>
      <trkpt lat="28.317697" lon="-16.798690">
        <ele>1127.576</ele>
        <time>2014-07-24T15:56:27Z</time>
      </trkpt>
      <trkpt lat="28.318139" lon="-16.796821">
        <ele>1140.590</ele>
        <time>2014-07-24T15:57:48Z</time>
      </trkpt>
      <trkpt lat="28.319178" lon="-16.796281">
        <ele>1133.719</ele>
        <time>2014-07-24T15:58:17Z</time>
      </trkpt>
      <trkpt lat="28.320790" lon="-16.797473">
        <ele>1133.507</ele>
        <time>2014-07-24T15:58:48Z</time>
      </trkpt>
      <trkpt lat="28.321459" lon="-16.797572">
        <ele>1126.644</ele>
        <time>2014-07-24T15:58:56Z</time>
      </trkpt>
      <trkpt lat="28.324015" lon="-16.796462">
        <ele>1113.554</ele>
        <time>2014-07-24T15:59:23Z</time>
      </trkpt>
      <trkpt lat="28.324985" lon="-16.795293">
        <ele>1116.934</ele>
        <time>2014-07-24T15:59:45Z</time>
      </trkpt>
      <trkpt lat="28.325183" lon="-16.793200">
        <ele>1119.394</ele>
        <time>2014-07-24T16:00:21Z</time>
      </trkpt>
      <trkpt lat="28.325658" lon="-16.792163">
        <ele>1117.442</ele>
        <time>2014-07-24T16:00:38Z</time>
      </trkpt>
      <trkpt lat="28.328920" lon="-16.789192">
        <ele>1088.290</ele>
        <time>2014-07-24T16:01:17Z</time>
      </trkpt>
      <trkpt lat="28.330122" lon="-16.786063">
        <ele>1074.941</ele>
        <time>2014-07-24T16:01:39Z</time>
      </trkpt>
      <trkpt lat="28.329988" lon="-16.785075">
        <ele>1068.149</ele>
        <time>2014-07-24T16:01:47Z</time>
      </trkpt>
      <trkpt lat="28.328770" lon="-16.782835">
        <ele>1077.902</ele>
        <time>2014-07-24T16:02:21Z</time>
      </trkpt>
      <trkpt lat="28.328847" lon="-16.781226">
        <ele>1078.522</ele>
        <time>2014-07-24T16:02:43Z</time>
      </trkpt>
      <trkpt lat="28.329333" lon="-16.778118">
        <ele>1069.807</ele>
        <time>2014-07-24T16:03:20Z</time>
      </trkpt>
      <trkpt lat="28.330662" lon="-16.774415">
        <ele>1064.371</ele>
        <time>2014-07-24T16:04:09Z</time>
      </trkpt>
      <trkpt lat="28.330327" lon="-16.772278">
        <ele>1070.141</ele>
        <time>2014-07-24T16:04:40Z</time>
      </trkpt>
      <trkpt lat="28.330520" lon="-16.769586">
        <ele>1064.331</ele>
        <time>2014-07-24T16:05:15Z</time>
      </trkpt>
      <trkpt lat="28.332104" lon="-16.764409">
        <ele>1048.351</ele>
        <time>2014-07-24T16:06:15Z</time>
      </trkpt>
      <trkpt lat="28.332113" lon="-16.762658">
        <ele>1052.439</ele>
        <time>2014-07-24T16:06:31Z</time>
      </trkpt>
      <trkpt lat="28.332772" lon="-16.759887">
        <ele>1055.957</ele>
        <time>2014-07-24T16:07:05Z</time>
      </trkpt>
      <trkpt lat="28.332530" lon="-16.758050">
        <ele>1059.428</ele>
        <time>2014-07-24T16:07:27Z</time>
      </trkpt>
      <trkpt lat="28.332910" lon="-16.756746">
        <ele>1047.956</ele>
        <time>2014-07-24T16:07:39Z</time>
      </trkpt>
      <trkpt lat="28.334642" lon="-16.755878">
        <ele>1030.259</ele>
        <time>2014-07-24T16:07:57Z</time>
      </trkpt>
      <trkpt lat="28.334554" lon="-16.758511">
        <ele>1007.814</ele>
        <time>2014-07-24T16:08:17Z</time>
      </trkpt>
      <trkpt lat="28.334935" lon="-16.759113">
        <ele>1003.007</ele>
        <time>2014-07-24T16:08:23Z</time>
      </trkpt>
      <trkpt lat="28.335503" lon="-16.759148">
        <ele>996.932</ele>
        <time>2014-07-24T16:08:28Z</time>
      </trkpt>
      <trkpt lat="28.335963" lon="-16.757812">
        <ele>978.182</ele>
        <time>2014-07-24T16:08:39Z</time>
      </trkpt>
      <trkpt lat="28.337700" lon="-16.756073">
        <ele>963.412</ele>
        <time>2014-07-24T16:08:59Z</time>
      </trkpt>
      <trkpt lat="28.342587" lon="-16.754672">
        <ele>902.462</ele>
        <time>2014-07-24T16:09:37Z</time>
      </trkpt>
      <trkpt lat="28.343430" lon="-16.753501">
        <ele>889.430</ele>
        <time>2014-07-24T16:09:48Z</time>
      </trkpt>
      <trkpt lat="28.344303" lon="-16.753415">
        <ele>875.918</ele>
        <time>2014-07-24T16:09:57Z</time>
      </trkpt>
      <trkpt lat="28.345088" lon="-16.752310">
        <ele>864.239</ele>
        <time>2014-07-24T16:10:08Z</time>
      </trkpt>
      <trkpt lat="28.346034" lon="-16.751705">
        <ele>847.842</ele>
        <time>2014-07-24T16:10:17Z</time>
      </trkpt>
      <trkpt lat="28.346485" lon="-16.750596">
        <ele>840.422</ele>
        <time>2014-07-24T16:10:26Z</time>
      </trkpt>
      <trkpt lat="28.347143" lon="-16.750371">
        <ele>831.314</ele>
        <time>2014-07-24T16:10:33Z</time>
      </trkpt>
      <trkpt lat="28.347719" lon="-16.748393">
        <ele>811.307</ele>
        <time>2014-07-24T16:10:49Z</time>
      </trkpt>
      <trkpt lat="28.349734" lon="-16.747865">
        <ele>786.891</ele>
        <time>2014-07-24T16:11:06Z</time>
      </trkpt>
      <trkpt lat="28.351742" lon="-16.746555">
        <ele>757.731</ele>
        <time>2014-07-24T16:11:22Z</time>
      </trkpt>
      <trkpt lat="28.352067" lon="-16.745900">
        <ele>752.141</ele>
        <time>2014-07-24T16:11:27Z</time>
      </trkpt>
      <trkpt lat="28.351875" lon="-16.744216">
        <ele>740.381</ele>
        <time>2014-07-24T16:11:39Z</time>
      </trkpt>
      <trkpt lat="28.353894" lon="-16.742785">
        <ele>708.089</ele>
        <time>2014-07-24T16:12:01Z</time>
      </trkpt>
      <trkpt lat="28.353830" lon="-16.740736">
        <ele>696.647</ele>
        <time>2014-07-24T16:12:20Z</time>
      </trkpt>
      <trkpt lat="28.355769" lon="-16.738745">
        <ele>666.198</ele>
        <time>2014-07-24T16:12:44Z</time>
      </trkpt>
      <trkpt lat="28.355368" lon="-16.737725">
        <ele>667.764</ele>
        <time>2014-07-24T16:12:57Z</time>
      </trkpt>
      <trkpt lat="28.356215" lon="-16.736892">
        <ele>650.806</ele>
        <time>2014-07-24T16:13:08Z</time>
      </trkpt>
      <trkpt lat="28.356480" lon="-16.735306">
        <ele>642.116</ele>
        <time>2014-07-24T16:13:24Z</time>
      </trkpt>
      <trkpt lat="28.355892" lon="-16.732060">
        <ele>641.907</ele>
        <time>2014-07-24T16:14:07Z</time>
      </trkpt>
      <trkpt lat="28.357135" lon="-16.728255">
        <ele>627.773</ele>
        <time>2014-07-24T16:14:51Z</time>
      </trkpt>
      <trkpt lat="28.357537" lon="-16.728563">
        <ele>619.693</ele>
        <time>2014-07-24T16:14:57Z</time>
      </trkpt>
      <trkpt lat="28.357843" lon="-16.730241">
        <ele>605.543</ele>
        <time>2014-07-24T16:15:12Z</time>
      </trkpt>
      <trkpt lat="28.357197" lon="-16.731458">
        <ele>603.343</ele>
        <time>2014-07-24T16:15:25Z</time>
      </trkpt>
      <trkpt lat="28.357222" lon="-16.732327">
        <ele>599.111</ele>
        <time>2014-07-24T16:15:32Z</time>
      </trkpt>
      <trkpt lat="28.358060" lon="-16.733296">
        <ele>585.889</ele>
        <time>2014-07-24T16:15:42Z</time>
      </trkpt>
      <trkpt lat="28.358728" lon="-16.733520">
        <ele>572.410</ele>
        <time>2014-07-24T16:15:49Z</time>
      </trkpt>
      <trkpt lat="28.358745" lon="-16.734580">
        <ele>576.728</ele>
        <time>2014-07-24T16:16:00Z</time>
      </trkpt>
      <trkpt lat="28.359235" lon="-16.735083">
        <ele>569.289</ele>
        <time>2014-07-24T16:16:07Z</time>
      </trkpt>
      <trkpt lat="28.359562" lon="-16.734936">
        <ele>564.517</ele>
        <time>2014-07-24T16:16:11Z</time>
      </trkpt>
      <trkpt lat="28.359533" lon="-16.733276">
        <ele>553.907</ele>
        <time>2014-07-24T16:16:26Z</time>
      </trkpt>
      <trkpt lat="28.358968" lon="-16.732708">
        <ele>550.929</ele>
        <time>2014-07-24T16:16:34Z</time>
      </trkpt>
      <trkpt lat="28.358994" lon="-16.732202">
        <ele>546.189</ele>
        <time>2014-07-24T16:16:38Z</time>
      </trkpt>
      <trkpt lat="28.361009" lon="-16.732233">
        <ele>519.999</ele>
        <time>2014-07-24T16:16:56Z</time>
      </trkpt>
      <trkpt lat="28.361540" lon="-16.733393">
        <ele>516.679</ele>
        <time>2014-07-24T16:17:06Z</time>
      </trkpt>
      <trkpt lat="28.362740" lon="-16.734598">
        <ele>497.197</ele>
        <time>2014-07-24T16:17:18Z</time>
      </trkpt>
      <trkpt lat="28.362785" lon="-16.735697">
        <ele>494.965</ele>
        <time>2014-07-24T16:17:26Z</time>
      </trkpt>
      <trkpt lat="28.363552" lon="-16.736433">
        <ele>473.876</ele>
        <time>2014-07-24T16:17:38Z</time>
      </trkpt>
      <trkpt lat="28.363563" lon="-16.735186">
        <ele>471.032</ele>
        <time>2014-07-24T16:17:50Z</time>
      </trkpt>
      <trkpt lat="28.364220" lon="-16.734381">
        <ele>456.092</ele>
        <time>2014-07-24T16:17:59Z</time>
      </trkpt>
      <trkpt lat="28.364105" lon="-16.732746">
        <ele>448.311</ele>
        <time>2014-07-24T16:18:12Z</time>
      </trkpt>
      <trkpt lat="28.364460" lon="-16.731748">
        <ele>435.707</ele>
        <time>2014-07-24T16:18:20Z</time>
      </trkpt>
      <trkpt lat="28.364002" lon="-16.729537">
        <ele>430.430</ele>
        <time>2014-07-24T16:18:36Z</time>
      </trkpt>
      <trkpt lat="28.364203" lon="-16.728106">
        <ele>407.430</ele>
        <time>2014-07-24T16:18:48Z</time>
      </trkpt>
      <trkpt lat="28.364645" lon="-16.729895">
        <ele>404.830</ele>
        <time>2014-07-24T16:19:05Z</time>
      </trkpt>
      <trkpt lat="28.365264" lon="-16.730610">
        <ele>391.510</ele>
        <time>2014-07-24T16:19:13Z</time>
      </trkpt>
      <trkpt lat="28.365118" lon="-16.731307">
        <ele>398.518</ele>
        <time>2014-07-24T16:19:20Z</time>
      </trkpt>
      <trkpt lat="28.368018" lon="-16.734450">
        <ele>361.286</ele>
        <time>2014-07-24T16:19:58Z</time>
      </trkpt>
      <trkpt lat="28.368127" lon="-16.733998">
        <ele>354.857</ele>
        <time>2014-07-24T16:20:18Z</time>
      </trkpt>
      <trkpt lat="28.367744" lon="-16.736498">
        <ele>368.166</ele>
        <time>2014-07-24T16:21:24Z</time>
      </trkpt>
      <trkpt lat="28.367130" lon="-16.737337">
        <ele>378.229</ele>
        <time>2014-07-24T16:21:52Z</time>
      </trkpt>
      <trkpt lat="28.367250" lon="-16.738325">
        <ele>383.521</ele>
        <time>2014-07-24T16:22:16Z</time>
      </trkpt>
      <trkpt lat="28.366778" lon="-16.740093">
        <ele>399.707</ele>
        <time>2014-07-24T16:23:03Z</time>
      </trkpt>
      <trkpt lat="28.367079" lon="-16.740718">
        <ele>400.083</ele>
        <time>2014-07-24T16:23:21Z</time>
      </trkpt>
      <trkpt lat="28.366614" lon="-16.741321">
        <ele>410.573</ele>
        <time>2014-07-24T16:23:41Z</time>
      </trkpt>
      <trkpt lat="28.367022" lon="-16.742577">
        <ele>418.953</ele>
        <time>2014-07-24T16:24:15Z</time>
      </trkpt>
      <trkpt lat="28.366850" lon="-16.744091">
        <ele>424.973</ele>
        <time>2014-07-24T16:24:54Z</time>
      </trkpt>
      <trkpt lat="28.366425" lon="-16.744426">
        <ele>436.121</ele>
        <time>2014-07-24T16:25:09Z</time>
      </trkpt>
      <trkpt lat="28.366275" lon="-16.745535">
        <ele>432.849</ele>
        <time>2014-07-24T16:25:38Z</time>
      </trkpt>
      <trkpt lat="28.365640" lon="-16.745730">
        <ele>444.840</ele>
        <time>2014-07-24T16:25:56Z</time>
      </trkpt>
      <trkpt lat="28.364980" lon="-16.746653">
        <ele>453.425</ele>
        <time>2014-07-24T16:26:26Z</time>
      </trkpt>
      <trkpt lat="28.365427" lon="-16.747795">
        <ele>454.226</ele>
        <time>2014-07-24T16:26:56Z</time>
      </trkpt>
      <trkpt lat="28.364157" lon="-16.749261">
        <ele>469.908</ele>
        <time>2014-07-24T16:27:42Z</time>
      </trkpt>
      <trkpt lat="28.363060" lon="-16.753228">
        <ele>484.007</ele>
        <time>2014-07-24T16:29:03Z</time>
      </trkpt>
      <trkpt lat="28.363952" lon="-16.755037">
        <ele>481.999</ele>
        <time>2014-07-24T16:29:35Z</time>
      </trkpt>
      <trkpt lat="28.363555" lon="-16.755968">
        <ele>486.159</ele>
        <time>2014-07-24T16:29:53Z</time>
      </trkpt>
      <trkpt lat="28.363312" lon="-16.759485">
        <ele>494.219</ele>
        <time>2014-07-24T16:30:56Z</time>
      </trkpt>
      <trkpt lat="28.362640" lon="-16.760280">
        <ele>511.579</ele>
        <time>2014-07-24T16:31:18Z</time>
      </trkpt>
      <trkpt lat="28.363044" lon="-16.761100">
        <ele>511.387</ele>
        <time>2014-07-24T16:31:42Z</time>
      </trkpt>
      <trkpt lat="28.361939" lon="-16.762000">
        <ele>520.515</ele>
        <time>2014-07-24T16:32:19Z</time>
      </trkpt>
      <trkpt lat="28.361709" lon="-16.764048">
        <ele>530.526</ele>
        <time>2014-07-24T16:33:01Z</time>
      </trkpt>
      <trkpt lat="28.363287" lon="-16.766625">
        <ele>494.587</ele>
        <time>2014-07-24T16:33:29Z</time>
      </trkpt>
      <trkpt lat="28.363063" lon="-16.767593">
        <ele>491.842</ele>
        <time>2014-07-24T16:33:37Z</time>
      </trkpt>
      <trkpt lat="28.363338" lon="-16.768473">
        <ele>477.826</ele>
        <time>2014-07-24T16:33:45Z</time>
      </trkpt>
      <trkpt lat="28.362968" lon="-16.768997">
        <ele>479.907</ele>
        <time>2014-07-24T16:33:54Z</time>
      </trkpt>
      <trkpt lat="28.363597" lon="-16.768607">
        <ele>467.515</ele>
        <time>2014-07-24T16:34:02Z</time>
      </trkpt>
      <trkpt lat="28.364445" lon="-16.766642">
        <ele>457.535</ele>
        <time>2014-07-24T16:34:19Z</time>
      </trkpt>
      <trkpt lat="28.365142" lon="-16.766317">
        <ele>445.215</ele>
        <time>2014-07-24T16:34:26Z</time>
      </trkpt>
      <trkpt lat="28.365175" lon="-16.765700">
        <ele>438.215</ele>
        <time>2014-07-24T16:34:33Z</time>
      </trkpt>
      <trkpt lat="28.365563" lon="-16.766163">
        <ele>431.683</ele>
        <time>2014-07-24T16:34:44Z</time>
      </trkpt>
      <trkpt lat="28.364965" lon="-16.769111">
        <ele>415.721</ele>
        <time>2014-07-24T16:36:37Z</time>
      </trkpt>
      <trkpt lat="28.364030" lon="-16.770346">
        <ele>419.822</ele>
        <time>2014-07-24T16:36:55Z</time>
      </trkpt>
      <trkpt lat="28.364098" lon="-16.771703">
        <ele>423.938</ele>
        <time>2014-07-24T16:37:16Z</time>
      </trkpt>
      <trkpt lat="28.365072" lon="-16.773741">
        <ele>400.370</ele>
        <time>2014-07-24T16:37:40Z</time>
      </trkpt>
      <trkpt lat="28.364947" lon="-16.775193">
        <ele>386.717</ele>
        <time>2014-07-24T16:37:51Z</time>
      </trkpt>
      <trkpt lat="28.365624" lon="-16.773877">
        <ele>377.807</ele>
        <time>2014-07-24T16:38:09Z</time>
      </trkpt>
      <trkpt lat="28.365752" lon="-16.769280">
        <ele>377.590</ele>
        <time>2014-07-24T16:38:53Z</time>
      </trkpt>
      <trkpt lat="28.366280" lon="-16.771528">
        <ele>349.140</ele>
        <time>2014-07-24T16:39:17Z</time>
      </trkpt>
      <trkpt lat="28.366317" lon="-16.769397">
        <ele>339.020</ele>
        <time>2014-07-24T16:39:42Z</time>
      </trkpt>
      <trkpt lat="28.366482" lon="-16.770556">
        <ele>324.310</ele>
        <time>2014-07-24T16:39:54Z</time>
      </trkpt>
      <trkpt lat="28.367313" lon="-16.771256">
        <ele>309.018</ele>
        <time>2014-07-24T16:40:03Z</time>
      </trkpt>
      <trkpt lat="28.367412" lon="-16.773790">
        <ele>286.986</ele>
        <time>2014-07-24T16:40:18Z</time>
      </trkpt>
      <trkpt lat="28.366942" lon="-16.775435">
        <ele>277.547</ele>
        <time>2014-07-24T16:40:31Z</time>
      </trkpt>
      <trkpt lat="28.367837" lon="-16.773613">
        <ele>260.948</ele>
        <time>2014-07-24T16:40:48Z</time>
      </trkpt>
      <trkpt lat="28.368003" lon="-16.772291">
        <ele>254.961</ele>
        <time>2014-07-24T16:41:02Z</time>
      </trkpt>
      <trkpt lat="28.368150" lon="-16.773680">
        <ele>239.117</ele>
        <time>2014-07-24T16:41:14Z</time>
      </trkpt>
      <trkpt lat="28.367240" lon="-16.776702">
        <ele>226.907</ele>
        <time>2014-07-24T16:41:38Z</time>
      </trkpt>
      <trkpt lat="28.368372" lon="-16.775078">
        <ele>197.671</ele>
        <time>2014-07-24T16:41:56Z</time>
      </trkpt>
      <trkpt lat="28.369070" lon="-16.772963">
        <ele>174.871</ele>
        <time>2014-07-24T16:42:16Z</time>
      </trkpt>
      <trkpt lat="28.368782" lon="-16.775225">
        <ele>170.341</ele>
        <time>2014-07-24T16:42:38Z</time>
      </trkpt>
      <trkpt lat="28.368022" lon="-16.777083">
        <ele>167.141</ele>
        <time>2014-07-24T16:42:54Z</time>
      </trkpt>
      <trkpt lat="28.367907" lon="-16.779708">
        <ele>149.889</ele>
        <time>2014-07-24T16:43:12Z</time>
      </trkpt>
      <trkpt lat="28.368245" lon="-16.780598">
        <ele>142.117</ele>
        <time>2014-07-24T16:43:21Z</time>
      </trkpt>
      <trkpt lat="28.367438" lon="-16.782770">
        <ele>128.348</ele>
        <time>2014-07-24T16:43:41Z</time>
      </trkpt>
      <trkpt lat="28.368500" lon="-16.781225">
        <ele>120.185</ele>
        <time>2014-07-24T16:44:00Z</time>
      </trkpt>
      <trkpt lat="28.369763" lon="-16.780831">
        <ele>98.989</ele>
        <time>2014-07-24T16:44:13Z</time>
      </trkpt>
      <trkpt lat="28.369810" lon="-16.778797">
        <ele>93.417</ele>
        <time>2014-07-24T16:44:36Z</time>
      </trkpt>
      <trkpt lat="28.371575" lon="-16.779122">
        <ele>55.607</ele>
        <time>2014-07-24T16:44:53Z</time>
      </trkpt>
      <trkpt lat="28.372084" lon="-16.779787">
        <ele>43.495</ele>
        <time>2014-07-24T16:45:01Z</time>
      </trkpt>
      <trkpt lat="28.372014" lon="-16.780668">
        <ele>45.055</ele>
        <time>2014-07-24T16:45:15Z</time>
      </trkpt>
      <trkpt lat="28.372752" lon="-16.777620">
        <ele>34.445</ele>
        <time>2014-07-24T16:45:48Z</time>
      </trkpt>
      <trkpt lat="28.372593" lon="-16.776050">
        <ele>34.485</ele>
        <time>2014-07-24T16:46:09Z</time>
      </trkpt>
      <trkpt lat="28.373027" lon="-16.772537">
        <ele>31.513</ele>
        <time>2014-07-24T16:46:57Z</time>
      </trkpt>
      <trkpt lat="28.372283" lon="-16.771005">
        <ele>33.631</ele>
        <time>2014-07-24T16:47:20Z</time>
      </trkpt>
      <trkpt lat="28.372287" lon="-16.769950">
        <ele>18.242</ele>
        <time>2014-07-24T16:47:33Z</time>
      </trkpt>
      <trkpt lat="28.371238" lon="-16.770395">
        <ele>32.363</ele>
        <time>2014-07-24T16:47:45Z</time>
      </trkpt>
      <trkpt lat="28.370798" lon="-16.770250">
        <ele>21.744</ele>
        <time>2014-07-24T16:47:49Z</time>
      </trkpt>
      <trkpt lat="28.370529" lon="-16.767892">
        <ele>3.918</ele>
        <time>2014-07-24T16:48:12Z</time>
      </trkpt>
      <trkpt lat="28.370888" lon="-16.767571">
        <ele>1.807</ele>
        <time>2014-07-24T16:48:18Z</time>
      </trkpt>
      <trkpt lat="28.371590" lon="-16.767868">
        <ele>0.193</ele>
        <time>2014-07-24T16:48:28Z</time>
      </trkpt>
      <trkpt lat="28.372570" lon="-16.765952">
        <ele>8.293</ele>
        <time>2014-07-24T16:49:04Z</time>
      </trkpt>
      <trkpt lat="28.374497" lon="-16.765041">
        <ele>7.983</ele>
        <time>2014-07-24T16:49:39Z</time>
      </trkpt>
      <trkpt lat="28.375242" lon="-16.763832">
        <ele>2.323</ele>
        <time>2014-07-24T16:50:03Z</time>
      </trkpt>
      <trkpt lat="28.375017" lon="-16.762205">
        <ele>2.731</ele>
        <time>2014-07-24T16:50:32Z</time>
      </trkpt>
    </trkseg>
  </trk></gpx>