<?xml version="1.0" encoding="UTF-8"?>
<gpx creator="Wikiloc - https://www.wikiloc.com" version="1.1" xmlns="http://www.topografix.com/GPX/1/1" xmlns:xsi="http://www.w3.org/2001/XMLSchema-instance" xsi:schemaLocation="http://www.topografix.com/GPX/1/1 http://www.topografix.com/GPX/1/1/gpx.xsd">
  <metadata>
    <name>Wikiloc - ANAGA: Pico del Inglés, Fuente sin agua, Las Hiedras , Cruz ...</name>
    <link href="https://www.wikiloc.com/hiking-trails/anaga-pico-del-ingles-fuente-sin-agua-las-hiedras-cruz-del-carmen-llano-de-los-loros-jardina-catedr-175686546">
      <text>ANAGA: Pico del Inglés, Fuente sin agua, Las Hiedras , Cruz ... on Wikiloc</text>
    </link>
    <time>2024-06-29T13:15:04.269Z</time>
  </metadata>
  <trk>
    <name>ANAGA: Pico del Inglés, Fuente sin agua, Las Hiedras , Cruz ... - Wikiloc</name>
    <cmt></cmt>
    <desc></desc>
    <trkseg>
      <trkpt lat="28.537323" lon="-16.268441">
        <ele>1010.668</ele>
        <time>2024-06-29T09:00:45Z</time>
      </trkpt>
      <trkpt lat="28.537486" lon="-16.268872">
        <ele>1009.042</ele>
        <time>2024-06-29T09:01:58.267Z</time>
      </trkpt>
      <trkpt lat="28.537639" lon="-16.268461">
        <ele>996.426</ele>
        <time>2024-06-29T09:03:23.297Z</time>
      </trkpt>
      <trkpt lat="28.537937" lon="-16.268207">
        <ele>985.409</ele>
        <time>2024-06-29T09:04:12.254Z</time>
      </trkpt>
      <trkpt lat="28.537933" lon="-16.268544">
        <ele>976.727</ele>
        <time>2024-06-29T09:05:23.259Z</time>
      </trkpt>
      <trkpt lat="28.538096" lon="-16.268801">
        <ele>977.593</ele>
        <time>2024-06-29T09:05:58.258Z</time>
      </trkpt>
      <trkpt lat="28.538143" lon="-16.268731">
        <ele>966.441</ele>
        <time>2024-06-29T09:06:56.273Z</time>
      </trkpt>
      <trkpt lat="28.538316" lon="-16.268843">
        <ele>955.622</ele>
        <time>2024-06-29T09:07:42.269Z</time>
      </trkpt>
      <trkpt lat="28.538746" lon="-16.268086">
        <ele>932.024</ele>
        <time>2024-06-29T09:10:06.269Z</time>
      </trkpt>
      <trkpt lat="28.538899" lon="-16.267347">
        <ele>924.722</ele>
        <time>2024-06-29T09:11:08.270Z</time>
      </trkpt>
      <trkpt lat="28.538829" lon="-16.267051">
        <ele>927.291</ele>
        <time>2024-06-29T09:11:36.267Z</time>
      </trkpt>
      <trkpt lat="28.539861" lon="-16.266321">
        <ele>914.870</ele>
        <time>2024-06-29T09:13:49.265Z</time>
      </trkpt>
      <trkpt lat="28.539866" lon="-16.266207">
        <ele>914.182</ele>
        <time>2024-06-29T09:14:02.255Z</time>
      </trkpt>
      <trkpt lat="28.540077" lon="-16.266284">
        <ele>912.652</ele>
        <time>2024-06-29T09:14:45.265Z</time>
      </trkpt>
      <trkpt lat="28.540583" lon="-16.266277">
        <ele>896.053</ele>
        <time>2024-06-29T09:16:16.305Z</time>
      </trkpt>
      <trkpt lat="28.540200" lon="-16.266287">
        <ele>903.008</ele>
        <time>2024-06-29T09:18:34.266Z</time>
      </trkpt>
      <trkpt lat="28.539960" lon="-16.266189">
        <ele>906.909</ele>
        <time>2024-06-29T09:19:16.283Z</time>
      </trkpt>
      <trkpt lat="28.539896" lon="-16.266322">
        <ele>909.586</ele>
        <time>2024-06-29T09:19:41.270Z</time>
      </trkpt>
      <trkpt lat="28.538893" lon="-16.266942">
        <ele>937.482</ele>
        <time>2024-06-29T09:22:26.304Z</time>
      </trkpt>
      <trkpt lat="28.538806" lon="-16.267083">
        <ele>938.270</ele>
        <time>2024-06-29T09:22:42.286Z</time>
      </trkpt>
      <trkpt lat="28.538878" lon="-16.267514">
        <ele>932.841</ele>
        <time>2024-06-29T09:23:16.267Z</time>
      </trkpt>
      <trkpt lat="28.538621" lon="-16.268224">
        <ele>923.433</ele>
        <time>2024-06-29T09:24:38.263Z</time>
      </trkpt>
      <trkpt lat="28.538575" lon="-16.268656">
        <ele>923.191</ele>
        <time>2024-06-29T09:25:14.265Z</time>
      </trkpt>
      <trkpt lat="28.538755" lon="-16.268887">
        <ele>930.140</ele>
        <time>2024-06-29T09:25:55.260Z</time>
      </trkpt>
      <trkpt lat="28.538815" lon="-16.269376">
        <ele>925.249</ele>
        <time>2024-06-29T09:26:41.256Z</time>
      </trkpt>
      <trkpt lat="28.539221" lon="-16.269635">
        <ele>930.511</ele>
        <time>2024-06-29T09:27:53.257Z</time>
      </trkpt>
      <trkpt lat="28.539518" lon="-16.270094">
        <ele>922.793</ele>
        <time>2024-06-29T09:28:36.279Z</time>
      </trkpt>
      <trkpt lat="28.539994" lon="-16.270297">
        <ele>921.865</ele>
        <time>2024-06-29T09:29:16.261Z</time>
      </trkpt>
      <trkpt lat="28.540159" lon="-16.270276">
        <ele>916.521</ele>
        <time>2024-06-29T09:29:32.262Z</time>
      </trkpt>
      <trkpt lat="28.540589" lon="-16.270644">
        <ele>908.309</ele>
        <time>2024-06-29T09:30:23.270Z</time>
      </trkpt>
      <trkpt lat="28.540681" lon="-16.271082">
        <ele>909.850</ele>
        <time>2024-06-29T09:31:12.262Z</time>
      </trkpt>
      <trkpt lat="28.541014" lon="-16.271815">
        <ele>901.636</ele>
        <time>2024-06-29T09:32:26.272Z</time>
      </trkpt>
      <trkpt lat="28.541079" lon="-16.272468">
        <ele>888.314</ele>
        <time>2024-06-29T09:33:23.262Z</time>
      </trkpt>
      <trkpt lat="28.541236" lon="-16.272883">
        <ele>886.415</ele>
        <time>2024-06-29T09:33:58.276Z</time>
      </trkpt>
      <trkpt lat="28.541545" lon="-16.273176">
        <ele>889.577</ele>
        <time>2024-06-29T09:34:28.267Z</time>
      </trkpt>
      <trkpt lat="28.541855" lon="-16.273650">
        <ele>882.315</ele>
        <time>2024-06-29T09:35:16.253Z</time>
      </trkpt>
      <trkpt lat="28.541946" lon="-16.274387">
        <ele>878.714</ele>
        <time>2024-06-29T09:36:33.273Z</time>
      </trkpt>
      <trkpt lat="28.542296" lon="-16.274900">
        <ele>871.113</ele>
        <time>2024-06-29T09:37:24.273Z</time>
      </trkpt>
      <trkpt lat="28.542525" lon="-16.275412">
        <ele>859.865</ele>
        <time>2024-06-29T09:38:21.270Z</time>
      </trkpt>
      <trkpt lat="28.542585" lon="-16.275809">
        <ele>863.461</ele>
        <time>2024-06-29T09:39:04.270Z</time>
      </trkpt>
      <trkpt lat="28.541292" lon="-16.275621">
        <ele>867.721</ele>
        <time>2024-06-29T09:41:21.267Z</time>
      </trkpt>
      <trkpt lat="28.540592" lon="-16.275875">
        <ele>856.413</ele>
        <time>2024-06-29T09:42:36.266Z</time>
      </trkpt>
      <trkpt lat="28.539915" lon="-16.275889">
        <ele>861.909</ele>
        <time>2024-06-29T09:43:44.267Z</time>
      </trkpt>
      <trkpt lat="28.539516" lon="-16.276142">
        <ele>855.637</ele>
        <time>2024-06-29T09:44:27.279Z</time>
      </trkpt>
      <trkpt lat="28.539319" lon="-16.276067">
        <ele>852.063</ele>
        <time>2024-06-29T09:44:47.277Z</time>
      </trkpt>
      <trkpt lat="28.539241" lon="-16.275488">
        <ele>851.591</ele>
        <time>2024-06-29T09:45:56.267Z</time>
      </trkpt>
      <trkpt lat="28.539078" lon="-16.275252">
        <ele>853.092</ele>
        <time>2024-06-29T09:46:28.273Z</time>
      </trkpt>
      <trkpt lat="28.538933" lon="-16.275337">
        <ele>862.084</ele>
        <time>2024-06-29T09:47:27.272Z</time>
      </trkpt>
      <trkpt lat="28.538778" lon="-16.275664">
        <ele>850.022</ele>
        <time>2024-06-29T09:47:55.278Z</time>
      </trkpt>
      <trkpt lat="28.538576" lon="-16.275718">
        <ele>848.341</ele>
        <time>2024-06-29T09:48:19.271Z</time>
      </trkpt>
      <trkpt lat="28.538283" lon="-16.275546">
        <ele>848.930</ele>
        <time>2024-06-29T09:48:53.273Z</time>
      </trkpt>
      <trkpt lat="28.537918" lon="-16.275169">
        <ele>846.652</ele>
        <time>2024-06-29T09:49:36.268Z</time>
      </trkpt>
      <trkpt lat="28.537616" lon="-16.275074">
        <ele>849.474</ele>
        <time>2024-06-29T09:50:01.261Z</time>
      </trkpt>
      <trkpt lat="28.537584" lon="-16.275801">
        <ele>828.156</ele>
        <time>2024-06-29T09:51:37.264Z</time>
      </trkpt>
      <trkpt lat="28.537966" lon="-16.276562">
        <ele>811.021</ele>
        <time>2024-06-29T09:52:50.270Z</time>
      </trkpt>
      <trkpt lat="28.538009" lon="-16.277010">
        <ele>810.609</ele>
        <time>2024-06-29T09:53:32.304Z</time>
      </trkpt>
      <trkpt lat="28.537935" lon="-16.277077">
        <ele>826.398</ele>
        <time>2024-06-29T09:54:00.259Z</time>
      </trkpt>
      <trkpt lat="28.537985" lon="-16.276943">
        <ele>837.214</ele>
        <time>2024-06-29T09:54:32.273Z</time>
      </trkpt>
      <trkpt lat="28.537829" lon="-16.276635">
        <ele>837.462</ele>
        <time>2024-06-29T09:55:26.275Z</time>
      </trkpt>
      <trkpt lat="28.537526" lon="-16.276415">
        <ele>844.853</ele>
        <time>2024-06-29T09:56:22.293Z</time>
      </trkpt>
      <trkpt lat="28.537286" lon="-16.277323">
        <ele>858.135</ele>
        <time>2024-06-29T09:58:28.273Z</time>
      </trkpt>
      <trkpt lat="28.536534" lon="-16.277129">
        <ele>876.953</ele>
        <time>2024-06-29T10:00:26.263Z</time>
      </trkpt>
      <trkpt lat="28.535896" lon="-16.277225">
        <ele>882.622</ele>
        <time>2024-06-29T10:02:14.270Z</time>
      </trkpt>
      <trkpt lat="28.535515" lon="-16.277063">
        <ele>893.691</ele>
        <time>2024-06-29T10:03:21.266Z</time>
      </trkpt>
      <trkpt lat="28.535118" lon="-16.277199">
        <ele>897.943</ele>
        <time>2024-06-29T10:04:18.265Z</time>
      </trkpt>
      <trkpt lat="28.534018" lon="-16.278321">
        <ele>897.072</ele>
        <time>2024-06-29T10:06:53.277Z</time>
      </trkpt>
      <trkpt lat="28.533680" lon="-16.279382">
        <ele>896.413</ele>
        <time>2024-06-29T10:09:12.265Z</time>
      </trkpt>
      <trkpt lat="28.533469" lon="-16.279647">
        <ele>902.514</ele>
        <time>2024-06-29T10:09:49.276Z</time>
      </trkpt>
      <trkpt lat="28.532329" lon="-16.280026">
        <ele>923.309</ele>
        <time>2024-06-29T10:11:53.273Z</time>
      </trkpt>
      <trkpt lat="28.532372" lon="-16.280259">
        <ele>926.648</ele>
        <time>2024-06-29T10:12:32.326Z</time>
      </trkpt>
      <trkpt lat="28.532281" lon="-16.280450">
        <ele>927.364</ele>
        <time>2024-06-29T10:13:23.268Z</time>
      </trkpt>
      <trkpt lat="28.531848" lon="-16.280333">
        <ele>937.342</ele>
        <time>2024-06-29T10:14:19.269Z</time>
      </trkpt>
      <trkpt lat="28.531233" lon="-16.279985">
        <ele>960.213</ele>
        <time>2024-06-29T10:19:25.271Z</time>
      </trkpt>
      <trkpt lat="28.530559" lon="-16.279918">
        <ele>951.235</ele>
        <time>2024-06-29T10:20:46.265Z</time>
      </trkpt>
      <trkpt lat="28.530239" lon="-16.280054">
        <ele>948.123</ele>
        <time>2024-06-29T10:21:30.269Z</time>
      </trkpt>
      <trkpt lat="28.529782" lon="-16.280052">
        <ele>944.412</ele>
        <time>2024-06-29T10:22:15.262Z</time>
      </trkpt>
      <trkpt lat="28.529176" lon="-16.280274">
        <ele>945.741</ele>
        <time>2024-06-29T10:23:25.258Z</time>
      </trkpt>
      <trkpt lat="28.528785" lon="-16.280214">
        <ele>936.973</ele>
        <time>2024-06-29T10:24:35.268Z</time>
      </trkpt>
      <trkpt lat="28.528531" lon="-16.280741">
        <ele>928.127</ele>
        <time>2024-06-29T10:25:50.288Z</time>
      </trkpt>
      <trkpt lat="28.527984" lon="-16.281120">
        <ele>919.268</ele>
        <time>2024-06-29T10:27:14.264Z</time>
      </trkpt>
      <trkpt lat="28.527688" lon="-16.281032">
        <ele>907.414</ele>
        <time>2024-06-29T10:28:32.267Z</time>
      </trkpt>
      <trkpt lat="28.527527" lon="-16.280734">
        <ele>906.709</ele>
        <time>2024-06-29T10:29:59.269Z</time>
      </trkpt>
      <trkpt lat="28.527367" lon="-16.280855">
        <ele>893.733</ele>
        <time>2024-06-29T10:30:36.290Z</time>
      </trkpt>
      <trkpt lat="28.527358" lon="-16.281158">
        <ele>885.019</ele>
        <time>2024-06-29T10:31:20.269Z</time>
      </trkpt>
      <trkpt lat="28.526735" lon="-16.280710">
        <ele>875.367</ele>
        <time>2024-06-29T10:33:31.283Z</time>
      </trkpt>
      <trkpt lat="28.526563" lon="-16.280425">
        <ele>867.438</ele>
        <time>2024-06-29T10:34:27.270Z</time>
      </trkpt>
      <trkpt lat="28.526658" lon="-16.280657">
        <ele>866.480</ele>
        <time>2024-06-29T10:36:10.264Z</time>
      </trkpt>
      <trkpt lat="28.526467" lon="-16.280897">
        <ele>865.268</ele>
        <time>2024-06-29T10:36:53.267Z</time>
      </trkpt>
      <trkpt lat="28.526324" lon="-16.281317">
        <ele>866.827</ele>
        <time>2024-06-29T10:37:51.270Z</time>
      </trkpt>
      <trkpt lat="28.525941" lon="-16.281769">
        <ele>866.116</ele>
        <time>2024-06-29T10:38:58.273Z</time>
      </trkpt>
      <trkpt lat="28.525803" lon="-16.282185">
        <ele>863.198</ele>
        <time>2024-06-29T10:39:42.306Z</time>
      </trkpt>
      <trkpt lat="28.525907" lon="-16.283208">
        <ele>851.427</ele>
        <time>2024-06-29T10:41:34.270Z</time>
      </trkpt>
      <trkpt lat="28.525779" lon="-16.283713">
        <ele>853.768</ele>
        <time>2024-06-29T10:42:21.274Z</time>
      </trkpt>
      <trkpt lat="28.525606" lon="-16.283884">
        <ele>848.714</ele>
        <time>2024-06-29T10:42:56.259Z</time>
      </trkpt>
      <trkpt lat="28.525507" lon="-16.283846">
        <ele>842.609</ele>
        <time>2024-06-29T10:43:05.265Z</time>
      </trkpt>
      <trkpt lat="28.525505" lon="-16.283507">
        <ele>838.253</ele>
        <time>2024-06-29T10:44:18.280Z</time>
      </trkpt>
      <trkpt lat="28.525217" lon="-16.282861">
        <ele>821.129</ele>
        <time>2024-06-29T10:46:00.265Z</time>
      </trkpt>
      <trkpt lat="28.525147" lon="-16.282173">
        <ele>809.547</ele>
        <time>2024-06-29T10:47:48.269Z</time>
      </trkpt>
      <trkpt lat="28.524942" lon="-16.282669">
        <ele>806.448</ele>
        <time>2024-06-29T10:49:19.278Z</time>
      </trkpt>
      <trkpt lat="28.524784" lon="-16.282763">
        <ele>799.720</ele>
        <time>2024-06-29T10:50:09.339Z</time>
      </trkpt>
      <trkpt lat="28.524742" lon="-16.282640">
        <ele>793.218</ele>
        <time>2024-06-29T10:50:46.265Z</time>
      </trkpt>
      <trkpt lat="28.524574" lon="-16.282555">
        <ele>782.757</ele>
        <time>2024-06-29T10:51:30.281Z</time>
      </trkpt>
      <trkpt lat="28.524542" lon="-16.282661">
        <ele>780.616</ele>
        <time>2024-06-29T10:51:48.303Z</time>
      </trkpt>
      <trkpt lat="28.524442" lon="-16.282617">
        <ele>778.678</ele>
        <time>2024-06-29T10:53:00.276Z</time>
      </trkpt>
      <trkpt lat="28.524322" lon="-16.282736">
        <ele>782.321</ele>
        <time>2024-06-29T10:53:40.267Z</time>
      </trkpt>
      <trkpt lat="28.524248" lon="-16.282592">
        <ele>778.041</ele>
        <time>2024-06-29T10:54:34.282Z</time>
      </trkpt>
      <trkpt lat="28.524062" lon="-16.282508">
        <ele>774.105</ele>
        <time>2024-06-29T10:55:39.278Z</time>
      </trkpt>
      <trkpt lat="28.523955" lon="-16.282606">
        <ele>772.609</ele>
        <time>2024-06-29T10:57:28.276Z</time>
      </trkpt>
      <trkpt lat="28.523874" lon="-16.283096">
        <ele>765.893</ele>
        <time>2024-06-29T10:59:32.266Z</time>
      </trkpt>
      <trkpt lat="28.523415" lon="-16.283178">
        <ele>758.519</ele>
        <time>2024-06-29T11:00:31.277Z</time>
      </trkpt>
      <trkpt lat="28.523144" lon="-16.283040">
        <ele>753.787</ele>
        <time>2024-06-29T11:01:15.287Z</time>
      </trkpt>
      <trkpt lat="28.522917" lon="-16.283108">
        <ele>749.878</ele>
        <time>2024-06-29T11:02:25.307Z</time>
      </trkpt>
      <trkpt lat="28.522211" lon="-16.283829">
        <ele>738.130</ele>
        <time>2024-06-29T11:04:29.268Z</time>
      </trkpt>
      <trkpt lat="28.521597" lon="-16.284192">
        <ele>723.788</ele>
        <time>2024-06-29T11:05:55.274Z</time>
      </trkpt>
      <trkpt lat="28.520534" lon="-16.285461">
        <ele>685.467</ele>
        <time>2024-06-29T11:09:57.265Z</time>
      </trkpt>
      <trkpt lat="28.520200" lon="-16.285631">
        <ele>681.726</ele>
        <time>2024-06-29T11:10:41.282Z</time>
      </trkpt>
      <trkpt lat="28.519962" lon="-16.285648">
        <ele>678.978</ele>
        <time>2024-06-29T11:11:13.270Z</time>
      </trkpt>
      <trkpt lat="28.519682" lon="-16.285871">
        <ele>674.552</ele>
        <time>2024-06-29T11:12:03.273Z</time>
      </trkpt>
      <trkpt lat="28.519470" lon="-16.286389">
        <ele>671.953</ele>
        <time>2024-06-29T11:12:55.275Z</time>
      </trkpt>
      <trkpt lat="28.519315" lon="-16.286529">
        <ele>665.708</ele>
        <time>2024-06-29T11:13:22.271Z</time>
      </trkpt>
      <trkpt lat="28.519130" lon="-16.286576">
        <ele>664.709</ele>
        <time>2024-06-29T11:13:59.271Z</time>
      </trkpt>
      <trkpt lat="28.518574" lon="-16.286338">
        <ele>657.656</ele>
        <time>2024-06-29T11:15:11.276Z</time>
      </trkpt>
      <trkpt lat="28.518108" lon="-16.286474">
        <ele>650.252</ele>
        <time>2024-06-29T11:16:06.278Z</time>
      </trkpt>
      <trkpt lat="28.517978" lon="-16.286655">
        <ele>648.360</ele>
        <time>2024-06-29T11:16:25.287Z</time>
      </trkpt>
      <trkpt lat="28.517696" lon="-16.286740">
        <ele>643.851</ele>
        <time>2024-06-29T11:17:04.272Z</time>
      </trkpt>
      <trkpt lat="28.517117" lon="-16.287515">
        <ele>636.923</ele>
        <time>2024-06-29T11:18:53.289Z</time>
      </trkpt>
      <trkpt lat="28.516673" lon="-16.288503">
        <ele>634.891</ele>
        <time>2024-06-29T11:20:55.274Z</time>
      </trkpt>
      <trkpt lat="28.516283" lon="-16.289081">
        <ele>626.290</ele>
        <time>2024-06-29T11:22:30.272Z</time>
      </trkpt>
      <trkpt lat="28.516115" lon="-16.289192">
        <ele>620.139</ele>
        <time>2024-06-29T11:22:52.290Z</time>
      </trkpt>
      <trkpt lat="28.515981" lon="-16.289487">
        <ele>624.991</ele>
        <time>2024-06-29T11:23:22.277Z</time>
      </trkpt>
      <trkpt lat="28.515969" lon="-16.289989">
        <ele>624.325</ele>
        <time>2024-06-29T11:24:02.285Z</time>
      </trkpt>
      <trkpt lat="28.515694" lon="-16.290575">
        <ele>623.926</ele>
        <time>2024-06-29T11:25:05.282Z</time>
      </trkpt>
      <trkpt lat="28.515604" lon="-16.291687">
        <ele>619.508</ele>
        <time>2024-06-29T11:26:44.274Z</time>
      </trkpt>
      <trkpt lat="28.514877" lon="-16.293242">
        <ele>610.309</ele>
        <time>2024-06-29T11:30:52.285Z</time>
      </trkpt>
      <trkpt lat="28.514495" lon="-16.294654">
        <ele>609.773</ele>
        <time>2024-06-29T11:33:07.276Z</time>
      </trkpt>
      <trkpt lat="28.513348" lon="-16.295686">
        <ele>605.969</ele>
        <time>2024-06-29T11:35:51.299Z</time>
      </trkpt>
      <trkpt lat="28.512196" lon="-16.296976">
        <ele>598.087</ele>
        <time>2024-06-29T11:38:49.273Z</time>
      </trkpt>
      <trkpt lat="28.511795" lon="-16.297624">
        <ele>598.728</ele>
        <time>2024-06-29T11:39:57.310Z</time>
      </trkpt>
      <trkpt lat="28.510498" lon="-16.299219">
        <ele>598.340</ele>
        <time>2024-06-29T11:43:25.270Z</time>
      </trkpt>
      <trkpt lat="28.509968" lon="-16.299751">
        <ele>594.838</ele>
        <time>2024-06-29T11:44:37.271Z</time>
      </trkpt>
      <trkpt lat="28.507531" lon="-16.301576">
        <ele>589.887</ele>
        <time>2024-06-29T11:50:37.300Z</time>
      </trkpt>
      <trkpt lat="28.506538" lon="-16.302490">
        <ele>582.236</ele>
        <time>2024-06-29T11:53:05.272Z</time>
      </trkpt>
      <trkpt lat="28.504172" lon="-16.304697">
        <ele>572.948</ele>
        <time>2024-06-29T11:59:48.276Z</time>
      </trkpt>
      <trkpt lat="28.504093" lon="-16.304945">
        <ele>573.766</ele>
        <time>2024-06-29T12:00:23.285Z</time>
      </trkpt>
      <trkpt lat="28.504033" lon="-16.304918">
        <ele>579.829</ele>
        <time>2024-06-29T12:22:36.282Z</time>
      </trkpt>
      <trkpt lat="28.504080" lon="-16.305035">
        <ele>580.221</ele>
        <time>2024-06-29T12:24:59.270Z</time>
      </trkpt>
      <trkpt lat="28.504236" lon="-16.305018">
        <ele>582.309</ele>
        <time>2024-06-29T12:26:25.278Z</time>
      </trkpt>
      <trkpt lat="28.503979" lon="-16.304874">
        <ele>583.957</ele>
        <time>2024-06-29T12:30:10.273Z</time>
      </trkpt>
      <trkpt lat="28.503314" lon="-16.305532">
        <ele>578.383</ele>
        <time>2024-06-29T12:31:43.328Z</time>
      </trkpt>
      <trkpt lat="28.503042" lon="-16.305709">
        <ele>577.811</ele>
        <time>2024-06-29T12:32:16.297Z</time>
      </trkpt>
      <trkpt lat="28.502861" lon="-16.305639">
        <ele>576.182</ele>
        <time>2024-06-29T12:32:41.277Z</time>
      </trkpt>
      <trkpt lat="28.502780" lon="-16.305923">
        <ele>569.734</ele>
        <time>2024-06-29T12:33:19.276Z</time>
      </trkpt>
      <trkpt lat="28.502402" lon="-16.306354">
        <ele>569.972</ele>
        <time>2024-06-29T12:34:17.282Z</time>
      </trkpt>
      <trkpt lat="28.498782" lon="-16.309722">
        <ele>556.041</ele>
        <time>2024-06-29T12:42:30.274Z</time>
      </trkpt>
      <trkpt lat="28.495366" lon="-16.312506">
        <ele>558.570</ele>
        <time>2024-06-29T12:51:00.268Z</time>
      </trkpt>
      <trkpt lat="28.494818" lon="-16.313073">
        <ele>556.832</ele>
        <time>2024-06-29T12:52:39.264Z</time>
      </trkpt>
      <trkpt lat="28.493518" lon="-16.313684">
        <ele>563.378</ele>
        <time>2024-06-29T12:55:33.308Z</time>
      </trkpt>
      <trkpt lat="28.493187" lon="-16.313688">
        <ele>558.733</ele>
        <time>2024-06-29T12:56:42.276Z</time>
      </trkpt>
      <trkpt lat="28.492859" lon="-16.313830">
        <ele>555.826</ele>
        <time>2024-06-29T12:57:32.296Z</time>
      </trkpt>
      <trkpt lat="28.492727" lon="-16.313671">
        <ele>557.109</ele>
        <time>2024-06-29T12:57:57.286Z</time>
      </trkpt>
      <trkpt lat="28.492546" lon="-16.313114">
        <ele>545.718</ele>
        <time>2024-06-29T12:59:11.279Z</time>
      </trkpt>
      <trkpt lat="28.492466" lon="-16.313034">
        <ele>542.674</ele>
        <time>2024-06-29T12:59:23.272Z</time>
      </trkpt>
      <trkpt lat="28.492264" lon="-16.313045">
        <ele>549.682</ele>
        <time>2024-06-29T12:59:54.282Z</time>
      </trkpt>
      <trkpt lat="28.491582" lon="-16.313365">
        <ele>560.873</ele>
        <time>2024-06-29T13:01:41.301Z</time>
      </trkpt>
      <trkpt lat="28.491417" lon="-16.313322">
        <ele>566.345</ele>
        <time>2024-06-29T13:02:03.282Z</time>
      </trkpt>
      <trkpt lat="28.491109" lon="-16.313544">
        <ele>561.633</ele>
        <time>2024-06-29T13:03:05.284Z</time>
      </trkpt>
      <trkpt lat="28.489483" lon="-16.314244">
        <ele>560.752</ele>
        <time>2024-06-29T13:08:10.284Z</time>
      </trkpt>
      <trkpt lat="28.489331" lon="-16.314406">
        <ele>562.691</ele>
        <time>2024-06-29T13:08:47.274Z</time>
      </trkpt>
      <trkpt lat="28.489049" lon="-16.314418">
        <ele>560.693</ele>
        <time>2024-06-29T13:09:13.313Z</time>
      </trkpt>
      <trkpt lat="28.488157" lon="-16.314705">
        <ele>555.974</ele>
        <time>2024-06-29T13:11:52.280Z</time>
      </trkpt>
      <trkpt lat="28.488183" lon="-16.315027">
        <ele>548.856</ele>
        <time>2024-06-29T13:12:41.291Z</time>
      </trkpt>
      <trkpt lat="28.488455" lon="-16.315486">
        <ele>541.721</ele>
        <time>2024-06-29T13:13:28.266Z</time>
      </trkpt>
      <trkpt lat="28.488706" lon="-16.316426">
        <ele>547.509</ele>
        <time>2024-06-29T13:14:41.307Z</time>
      </trkpt>
      <trkpt lat="28.488862" lon="-16.316656">
        <ele>549.338</ele>
        <time>2024-06-29T13:15:04.269Z</time>
      </trkpt>
    </trkseg>
  </trk></gpx>