<?xml version="1.0" encoding="UTF-8"?>
<gpx creator="Wikiloc - https://www.wikiloc.com" version="1.1" xmlns="http://www.topografix.com/GPX/1/1" xmlns:xsi="http://www.w3.org/2001/XMLSchema-instance" xsi:schemaLocation="http://www.topografix.com/GPX/1/1 http://www.topografix.com/GPX/1/1/gpx.xsd">
  <metadata>
    <name>Wikiloc - LANZAROTE 2015 HARÍA al Mirador del Rio y HARÍA</name>
    <link href="https://www.wikiloc.com/mountain-biking-trails/lanzarote-2015-haria-al-mirador-del-rio-y-haria-11636154">
      <text>LANZAROTE 2015 HARÍA al Mirador del Rio y HARÍA - Wikiloc on Wikiloc</text>
    </link>
    <time>2015-12-03T16:19:58Z</time>
  </metadata>
  <trk>
    <name>LANZAROTE 2015 HARÍA al Mirador del Rio y HARÍA - Wikiloc</name>
    <cmt></cmt>
    <desc></desc>
    <trkseg>
      <trkpt lat="29.147123" lon="-13.498909">
        <ele>289.189</ele>
        <time>2015-12-03T10:41:50Z</time>
      </trkpt>
      <trkpt lat="29.147167" lon="-13.498821">
        <ele>288.706</ele>
        <time>2015-12-03T10:48:26Z</time>
      </trkpt>
      <trkpt lat="29.147292" lon="-13.498917">
        <ele>288.926</ele>
        <time>2015-12-03T10:49:14Z</time>
      </trkpt>
      <trkpt lat="29.147254" lon="-13.499103">
        <ele>289.708</ele>
        <time>2015-12-03T10:49:41Z</time>
      </trkpt>
      <trkpt lat="29.147426" lon="-13.499070">
        <ele>288.979</ele>
        <time>2015-12-03T10:49:56Z</time>
      </trkpt>
      <trkpt lat="29.147924" lon="-13.498269">
        <ele>289.869</ele>
        <time>2015-12-03T10:52:01Z</time>
      </trkpt>
      <trkpt lat="29.147509" lon="-13.497973">
        <ele>288.754</ele>
        <time>2015-12-03T10:52:24Z</time>
      </trkpt>
      <trkpt lat="29.148092" lon="-13.497271">
        <ele>291.051</ele>
        <time>2015-12-03T10:53:20Z</time>
      </trkpt>
      <trkpt lat="29.148845" lon="-13.496954">
        <ele>294.754</ele>
        <time>2015-12-03T10:54:56Z</time>
      </trkpt>
      <trkpt lat="29.149690" lon="-13.495964">
        <ele>307.189</ele>
        <time>2015-12-03T10:58:09Z</time>
      </trkpt>
      <trkpt lat="29.150796" lon="-13.495092">
        <ele>325.183</ele>
        <time>2015-12-03T10:59:48Z</time>
      </trkpt>
      <trkpt lat="29.151637" lon="-13.494727">
        <ele>326.362</ele>
        <time>2015-12-03T11:04:27Z</time>
      </trkpt>
      <trkpt lat="29.151771" lon="-13.493519">
        <ele>334.037</ele>
        <time>2015-12-03T11:07:39Z</time>
      </trkpt>
      <trkpt lat="29.151668" lon="-13.494736">
        <ele>326.049</ele>
        <time>2015-12-03T11:10:43Z</time>
      </trkpt>
      <trkpt lat="29.151840" lon="-13.494822">
        <ele>323.313</ele>
        <time>2015-12-03T11:11:54Z</time>
      </trkpt>
      <trkpt lat="29.151390" lon="-13.494798">
        <ele>328.408</ele>
        <time>2015-12-03T11:14:24Z</time>
      </trkpt>
      <trkpt lat="29.150695" lon="-13.495174">
        <ele>321.724</ele>
        <time>2015-12-03T11:14:41Z</time>
      </trkpt>
      <trkpt lat="29.149807" lon="-13.495866">
        <ele>308.544</ele>
        <time>2015-12-03T11:15:08Z</time>
      </trkpt>
      <trkpt lat="29.148720" lon="-13.497062">
        <ele>294.239</ele>
        <time>2015-12-03T11:15:37Z</time>
      </trkpt>
      <trkpt lat="29.147552" lon="-13.495255">
        <ele>274.836</ele>
        <time>2015-12-03T11:16:17Z</time>
      </trkpt>
      <trkpt lat="29.147770" lon="-13.493942">
        <ele>276.719</ele>
        <time>2015-12-03T11:16:44Z</time>
      </trkpt>
      <trkpt lat="29.146907" lon="-13.490448">
        <ele>278.874</ele>
        <time>2015-12-03T11:20:34Z</time>
      </trkpt>
      <trkpt lat="29.146862" lon="-13.488706">
        <ele>290.998</ele>
        <time>2015-12-03T11:21:40Z</time>
      </trkpt>
      <trkpt lat="29.147423" lon="-13.487088">
        <ele>287.157</ele>
        <time>2015-12-03T11:22:27Z</time>
      </trkpt>
      <trkpt lat="29.147823" lon="-13.486420">
        <ele>285.096</ele>
        <time>2015-12-03T11:22:44Z</time>
      </trkpt>
      <trkpt lat="29.148396" lon="-13.485984">
        <ele>286.531</ele>
        <time>2015-12-03T11:22:59Z</time>
      </trkpt>
      <trkpt lat="29.150594" lon="-13.485213">
        <ele>264.924</ele>
        <time>2015-12-03T11:23:47Z</time>
      </trkpt>
      <trkpt lat="29.152189" lon="-13.485201">
        <ele>249.308</ele>
        <time>2015-12-03T11:24:04Z</time>
      </trkpt>
      <trkpt lat="29.153729" lon="-13.485585">
        <ele>240.370</ele>
        <time>2015-12-03T11:24:27Z</time>
      </trkpt>
      <trkpt lat="29.154237" lon="-13.485233">
        <ele>238.040</ele>
        <time>2015-12-03T11:24:39Z</time>
      </trkpt>
      <trkpt lat="29.155384" lon="-13.485011">
        <ele>239.375</ele>
        <time>2015-12-03T11:25:21Z</time>
      </trkpt>
      <trkpt lat="29.155981" lon="-13.485214">
        <ele>238.262</ele>
        <time>2015-12-03T11:25:34Z</time>
      </trkpt>
      <trkpt lat="29.157138" lon="-13.485270">
        <ele>236.945</ele>
        <time>2015-12-03T11:26:00Z</time>
      </trkpt>
      <trkpt lat="29.158805" lon="-13.486092">
        <ele>238.270</ele>
        <time>2015-12-03T11:26:58Z</time>
      </trkpt>
      <trkpt lat="29.159117" lon="-13.486780">
        <ele>239.154</ele>
        <time>2015-12-03T11:27:17Z</time>
      </trkpt>
      <trkpt lat="29.159080" lon="-13.488301">
        <ele>245.383</ele>
        <time>2015-12-03T11:28:08Z</time>
      </trkpt>
      <trkpt lat="29.158294" lon="-13.488918">
        <ele>243.313</ele>
        <time>2015-12-03T11:28:40Z</time>
      </trkpt>
      <trkpt lat="29.157780" lon="-13.489693">
        <ele>247.043</ele>
        <time>2015-12-03T11:29:14Z</time>
      </trkpt>
      <trkpt lat="29.157995" lon="-13.490354">
        <ele>246.107</ele>
        <time>2015-12-03T11:30:36Z</time>
      </trkpt>
      <trkpt lat="29.157832" lon="-13.491767">
        <ele>254.608</ele>
        <time>2015-12-03T11:31:22Z</time>
      </trkpt>
      <trkpt lat="29.157913" lon="-13.492348">
        <ele>257.282</ele>
        <time>2015-12-03T11:31:47Z</time>
      </trkpt>
      <trkpt lat="29.158608" lon="-13.491858">
        <ele>249.522</ele>
        <time>2015-12-03T11:32:25Z</time>
      </trkpt>
      <trkpt lat="29.159068" lon="-13.491789">
        <ele>251.567</ele>
        <time>2015-12-03T11:32:41Z</time>
      </trkpt>
      <trkpt lat="29.159282" lon="-13.491924">
        <ele>251.954</ele>
        <time>2015-12-03T11:32:54Z</time>
      </trkpt>
      <trkpt lat="29.159355" lon="-13.492747">
        <ele>252.147</ele>
        <time>2015-12-03T11:33:22Z</time>
      </trkpt>
      <trkpt lat="29.159572" lon="-13.492883">
        <ele>254.882</ele>
        <time>2015-12-03T11:33:33Z</time>
      </trkpt>
      <trkpt lat="29.163614" lon="-13.493433">
        <ele>295.016</ele>
        <time>2015-12-03T11:38:11Z</time>
      </trkpt>
      <trkpt lat="29.165015" lon="-13.493462">
        <ele>312.735</ele>
        <time>2015-12-03T11:39:37Z</time>
      </trkpt>
      <trkpt lat="29.167103" lon="-13.492968">
        <ele>315.688</ele>
        <time>2015-12-03T11:41:30Z</time>
      </trkpt>
      <trkpt lat="29.174704" lon="-13.487173">
        <ele>343.024</ele>
        <time>2015-12-03T11:51:34Z</time>
      </trkpt>
      <trkpt lat="29.176115" lon="-13.485052">
        <ele>360.126</ele>
        <time>2015-12-03T11:53:30Z</time>
      </trkpt>
      <trkpt lat="29.176284" lon="-13.483938">
        <ele>365.508</ele>
        <time>2015-12-03T11:54:20Z</time>
      </trkpt>
      <trkpt lat="29.176555" lon="-13.483219">
        <ele>370.439</ele>
        <time>2015-12-03T11:57:58Z</time>
      </trkpt>
      <trkpt lat="29.177499" lon="-13.482248">
        <ele>360.479</ele>
        <time>2015-12-03T11:58:23Z</time>
      </trkpt>
      <trkpt lat="29.178606" lon="-13.480671">
        <ele>354.654</ele>
        <time>2015-12-03T11:59:00Z</time>
      </trkpt>
      <trkpt lat="29.179366" lon="-13.480705">
        <ele>344.141</ele>
        <time>2015-12-03T11:59:16Z</time>
      </trkpt>
      <trkpt lat="29.179810" lon="-13.480458">
        <ele>344.894</ele>
        <time>2015-12-03T11:59:27Z</time>
      </trkpt>
      <trkpt lat="29.180512" lon="-13.479351">
        <ele>338.349</ele>
        <time>2015-12-03T11:59:54Z</time>
      </trkpt>
      <trkpt lat="29.180640" lon="-13.478895">
        <ele>333.013</ele>
        <time>2015-12-03T12:00:02Z</time>
      </trkpt>
      <trkpt lat="29.180582" lon="-13.478420">
        <ele>320.422</ele>
        <time>2015-12-03T12:00:11Z</time>
      </trkpt>
      <trkpt lat="29.181390" lon="-13.477991">
        <ele>323.651</ele>
        <time>2015-12-03T12:00:44Z</time>
      </trkpt>
      <trkpt lat="29.181699" lon="-13.477123">
        <ele>317.501</ele>
        <time>2015-12-03T12:01:17Z</time>
      </trkpt>
      <trkpt lat="29.182697" lon="-13.476130">
        <ele>317.511</ele>
        <time>2015-12-03T12:05:13Z</time>
      </trkpt>
      <trkpt lat="29.183760" lon="-13.474469">
        <ele>309.608</ele>
        <time>2015-12-03T12:05:44Z</time>
      </trkpt>
      <trkpt lat="29.187215" lon="-13.471785">
        <ele>316.646</ele>
        <time>2015-12-03T12:08:02Z</time>
      </trkpt>
      <trkpt lat="29.188309" lon="-13.471113">
        <ele>321.996</ele>
        <time>2015-12-03T12:08:55Z</time>
      </trkpt>
      <trkpt lat="29.188680" lon="-13.471084">
        <ele>320.391</ele>
        <time>2015-12-03T12:09:10Z</time>
      </trkpt>
      <trkpt lat="29.190875" lon="-13.472286">
        <ele>345.118</ele>
        <time>2015-12-03T12:10:59Z</time>
      </trkpt>
      <trkpt lat="29.191932" lon="-13.473377">
        <ele>357.091</ele>
        <time>2015-12-03T12:12:12Z</time>
      </trkpt>
      <trkpt lat="29.193171" lon="-13.473705">
        <ele>359.456</ele>
        <time>2015-12-03T12:14:28Z</time>
      </trkpt>
      <trkpt lat="29.195448" lon="-13.476237">
        <ele>366.120</ele>
        <time>2015-12-03T12:17:09Z</time>
      </trkpt>
      <trkpt lat="29.195797" lon="-13.476813">
        <ele>365.479</ele>
        <time>2015-12-03T12:17:28Z</time>
      </trkpt>
      <trkpt lat="29.196296" lon="-13.478206">
        <ele>369.849</ele>
        <time>2015-12-03T12:18:16Z</time>
      </trkpt>
      <trkpt lat="29.198638" lon="-13.479808">
        <ele>376.502</ele>
        <time>2015-12-03T12:20:12Z</time>
      </trkpt>
      <trkpt lat="29.199116" lon="-13.479939">
        <ele>381.322</ele>
        <time>2015-12-03T12:20:32Z</time>
      </trkpt>
      <trkpt lat="29.201220" lon="-13.479776">
        <ele>398.808</ele>
        <time>2015-12-03T12:22:00Z</time>
      </trkpt>
      <trkpt lat="29.207229" lon="-13.481709">
        <ele>423.315</ele>
        <time>2015-12-03T12:25:46Z</time>
      </trkpt>
      <trkpt lat="29.208127" lon="-13.481158">
        <ele>425.815</ele>
        <time>2015-12-03T12:26:30Z</time>
      </trkpt>
      <trkpt lat="29.208110" lon="-13.480743">
        <ele>423.630</ele>
        <time>2015-12-03T12:26:44Z</time>
      </trkpt>
      <trkpt lat="29.208270" lon="-13.480490">
        <ele>427.777</ele>
        <time>2015-12-03T12:26:56Z</time>
      </trkpt>
      <trkpt lat="29.209730" lon="-13.479383">
        <ele>438.440</ele>
        <time>2015-12-03T12:28:19Z</time>
      </trkpt>
      <trkpt lat="29.209527" lon="-13.479434">
        <ele>438.955</ele>
        <time>2015-12-03T12:28:38Z</time>
      </trkpt>
      <trkpt lat="29.209620" lon="-13.479455">
        <ele>439.119</ele>
        <time>2015-12-03T12:29:00Z</time>
      </trkpt>
      <trkpt lat="29.209674" lon="-13.479036">
        <ele>435.128</ele>
        <time>2015-12-03T12:30:10Z</time>
      </trkpt>
      <trkpt lat="29.209776" lon="-13.479167">
        <ele>436.438</ele>
        <time>2015-12-03T12:30:27Z</time>
      </trkpt>
      <trkpt lat="29.209866" lon="-13.479023">
        <ele>435.770</ele>
        <time>2015-12-03T12:30:38Z</time>
      </trkpt>
      <trkpt lat="29.209945" lon="-13.478489">
        <ele>431.617</ele>
        <time>2015-12-03T12:31:05Z</time>
      </trkpt>
      <trkpt lat="29.210611" lon="-13.479157">
        <ele>443.708</ele>
        <time>2015-12-03T12:31:58Z</time>
      </trkpt>
      <trkpt lat="29.210976" lon="-13.479124">
        <ele>442.664</ele>
        <time>2015-12-03T12:32:15Z</time>
      </trkpt>
      <trkpt lat="29.212159" lon="-13.478571">
        <ele>445.784</ele>
        <time>2015-12-03T12:33:13Z</time>
      </trkpt>
      <trkpt lat="29.212993" lon="-13.478654">
        <ele>448.499</ele>
        <time>2015-12-03T12:33:56Z</time>
      </trkpt>
      <trkpt lat="29.213414" lon="-13.479009">
        <ele>454.456</ele>
        <time>2015-12-03T12:34:25Z</time>
      </trkpt>
      <trkpt lat="29.214308" lon="-13.478504">
        <ele>462.749</ele>
        <time>2015-12-03T12:35:20Z</time>
      </trkpt>
      <trkpt lat="29.215218" lon="-13.478637">
        <ele>470.724</ele>
        <time>2015-12-03T12:36:08Z</time>
      </trkpt>
      <trkpt lat="29.215817" lon="-13.478514">
        <ele>472.058</ele>
        <time>2015-12-03T12:36:41Z</time>
      </trkpt>
      <trkpt lat="29.216487" lon="-13.477994">
        <ele>478.297</ele>
        <time>2015-12-03T12:37:24Z</time>
      </trkpt>
      <trkpt lat="29.217087" lon="-13.477923">
        <ele>482.729</ele>
        <time>2015-12-03T12:41:17Z</time>
      </trkpt>
      <trkpt lat="29.217792" lon="-13.477245">
        <ele>474.200</ele>
        <time>2015-12-03T12:41:44Z</time>
      </trkpt>
      <trkpt lat="29.218407" lon="-13.477103">
        <ele>467.020</ele>
        <time>2015-12-03T12:42:00Z</time>
      </trkpt>
      <trkpt lat="29.219100" lon="-13.476249">
        <ele>462.508</ele>
        <time>2015-12-03T12:49:09Z</time>
      </trkpt>
      <trkpt lat="29.219884" lon="-13.475880">
        <ele>446.233</ele>
        <time>2015-12-03T12:50:26Z</time>
      </trkpt>
      <trkpt lat="29.220583" lon="-13.475134">
        <ele>436.993</ele>
        <time>2015-12-03T12:51:36Z</time>
      </trkpt>
      <trkpt lat="29.221780" lon="-13.474616">
        <ele>428.228</ele>
        <time>2015-12-03T12:52:08Z</time>
      </trkpt>
      <trkpt lat="29.222479" lon="-13.474605">
        <ele>413.465</ele>
        <time>2015-12-03T12:52:23Z</time>
      </trkpt>
      <trkpt lat="29.223013" lon="-13.474416">
        <ele>389.028</ele>
        <time>2015-12-03T12:52:44Z</time>
      </trkpt>
      <trkpt lat="29.222979" lon="-13.474025">
        <ele>394.253</ele>
        <time>2015-12-03T12:53:55Z</time>
      </trkpt>
      <trkpt lat="29.223133" lon="-13.473699">
        <ele>386.647</ele>
        <time>2015-12-03T12:54:28Z</time>
      </trkpt>
      <trkpt lat="29.223500" lon="-13.474049">
        <ele>389.066</ele>
        <time>2015-12-03T12:57:14Z</time>
      </trkpt>
      <trkpt lat="29.223121" lon="-13.474356">
        <ele>388.691</ele>
        <time>2015-12-03T12:57:44Z</time>
      </trkpt>
      <trkpt lat="29.221540" lon="-13.473914">
        <ele>415.681</ele>
        <time>2015-12-03T12:59:34Z</time>
      </trkpt>
      <trkpt lat="29.220529" lon="-13.474459">
        <ele>432.319</ele>
        <time>2015-12-03T13:00:47Z</time>
      </trkpt>
      <trkpt lat="29.220229" lon="-13.474760">
        <ele>439.308</ele>
        <time>2015-12-03T13:01:13Z</time>
      </trkpt>
      <trkpt lat="29.219751" lon="-13.474674">
        <ele>445.750</ele>
        <time>2015-12-03T13:01:44Z</time>
      </trkpt>
      <trkpt lat="29.219078" lon="-13.474989">
        <ele>446.370</ele>
        <time>2015-12-03T13:02:30Z</time>
      </trkpt>
      <trkpt lat="29.218493" lon="-13.476220">
        <ele>457.915</ele>
        <time>2015-12-03T13:03:45Z</time>
      </trkpt>
      <trkpt lat="29.218572" lon="-13.476954">
        <ele>464.962</ele>
        <time>2015-12-03T13:04:21Z</time>
      </trkpt>
      <trkpt lat="29.217912" lon="-13.477231">
        <ele>473.125</ele>
        <time>2015-12-03T13:05:01Z</time>
      </trkpt>
      <trkpt lat="29.217415" lon="-13.477667">
        <ele>485.430</ele>
        <time>2015-12-03T13:05:32Z</time>
      </trkpt>
      <trkpt lat="29.216963" lon="-13.478502">
        <ele>478.474</ele>
        <time>2015-12-03T13:06:14Z</time>
      </trkpt>
      <trkpt lat="29.216669" lon="-13.478626">
        <ele>483.663</ele>
        <time>2015-12-03T13:06:32Z</time>
      </trkpt>
      <trkpt lat="29.216439" lon="-13.478951">
        <ele>472.178</ele>
        <time>2015-12-03T13:11:51Z</time>
      </trkpt>
      <trkpt lat="29.215856" lon="-13.478922">
        <ele>471.433</ele>
        <time>2015-12-03T13:20:32Z</time>
      </trkpt>
      <trkpt lat="29.215210" lon="-13.479475">
        <ele>482.126</ele>
        <time>2015-12-03T13:21:06Z</time>
      </trkpt>
      <trkpt lat="29.214896" lon="-13.479888">
        <ele>478.708</ele>
        <time>2015-12-03T13:21:19Z</time>
      </trkpt>
      <trkpt lat="29.214701" lon="-13.480763">
        <ele>479.988</ele>
        <time>2015-12-03T13:27:28Z</time>
      </trkpt>
      <trkpt lat="29.214510" lon="-13.480844">
        <ele>479.248</ele>
        <time>2015-12-03T13:27:39Z</time>
      </trkpt>
      <trkpt lat="29.214365" lon="-13.480526">
        <ele>476.323</ele>
        <time>2015-12-03T13:27:53Z</time>
      </trkpt>
      <trkpt lat="29.214055" lon="-13.480755">
        <ele>471.860</ele>
        <time>2015-12-03T13:28:19Z</time>
      </trkpt>
      <trkpt lat="29.213744" lon="-13.480539">
        <ele>464.943</ele>
        <time>2015-12-03T13:28:39Z</time>
      </trkpt>
      <trkpt lat="29.213549" lon="-13.480564">
        <ele>464.238</ele>
        <time>2015-12-03T13:28:47Z</time>
      </trkpt>
      <trkpt lat="29.213586" lon="-13.481159">
        <ele>479.572</ele>
        <time>2015-12-03T13:29:17Z</time>
      </trkpt>
      <trkpt lat="29.214322" lon="-13.481199">
        <ele>476.441</ele>
        <time>2015-12-03T13:42:03Z</time>
      </trkpt>
      <trkpt lat="29.213931" lon="-13.481149">
        <ele>474.259</ele>
        <time>2015-12-03T13:45:23Z</time>
      </trkpt>
      <trkpt lat="29.213516" lon="-13.481412">
        <ele>475.103</ele>
        <time>2015-12-03T13:45:36Z</time>
      </trkpt>
      <trkpt lat="29.213025" lon="-13.482025">
        <ele>453.323</ele>
        <time>2015-12-03T13:45:44Z</time>
      </trkpt>
      <trkpt lat="29.212412" lon="-13.483413">
        <ele>447.408</ele>
        <time>2015-12-03T13:46:00Z</time>
      </trkpt>
      <trkpt lat="29.211479" lon="-13.483965">
        <ele>441.466</ele>
        <time>2015-12-03T13:46:11Z</time>
      </trkpt>
      <trkpt lat="29.209067" lon="-13.486732">
        <ele>444.796</ele>
        <time>2015-12-03T13:46:57Z</time>
      </trkpt>
      <trkpt lat="29.207350" lon="-13.487871">
        <ele>438.931</ele>
        <time>2015-12-03T13:48:23Z</time>
      </trkpt>
      <trkpt lat="29.206477" lon="-13.487976">
        <ele>435.538</ele>
        <time>2015-12-03T13:50:01Z</time>
      </trkpt>
      <trkpt lat="29.206219" lon="-13.488349">
        <ele>429.641</ele>
        <time>2015-12-03T13:50:10Z</time>
      </trkpt>
      <trkpt lat="29.205677" lon="-13.488730">
        <ele>423.856</ele>
        <time>2015-12-03T13:50:18Z</time>
      </trkpt>
      <trkpt lat="29.204078" lon="-13.488514">
        <ele>405.060</ele>
        <time>2015-12-03T13:50:34Z</time>
      </trkpt>
      <trkpt lat="29.202507" lon="-13.489081">
        <ele>394.519</ele>
        <time>2015-12-03T13:50:49Z</time>
      </trkpt>
      <trkpt lat="29.201154" lon="-13.490115">
        <ele>389.285</ele>
        <time>2015-12-03T13:54:46Z</time>
      </trkpt>
      <trkpt lat="29.200349" lon="-13.491112">
        <ele>376.589</ele>
        <time>2015-12-03T13:55:04Z</time>
      </trkpt>
      <trkpt lat="29.199436" lon="-13.491735">
        <ele>373.717</ele>
        <time>2015-12-03T13:55:23Z</time>
      </trkpt>
      <trkpt lat="29.198319" lon="-13.491800">
        <ele>360.208</ele>
        <time>2015-12-03T13:55:45Z</time>
      </trkpt>
      <trkpt lat="29.197886" lon="-13.491306">
        <ele>358.669</ele>
        <time>2015-12-03T13:56:06Z</time>
      </trkpt>
      <trkpt lat="29.196417" lon="-13.491154">
        <ele>359.399</ele>
        <time>2015-12-03T13:58:34Z</time>
      </trkpt>
      <trkpt lat="29.194668" lon="-13.490015">
        <ele>364.314</ele>
        <time>2015-12-03T13:59:57Z</time>
      </trkpt>
      <trkpt lat="29.192799" lon="-13.488541">
        <ele>364.721</ele>
        <time>2015-12-03T14:01:17Z</time>
      </trkpt>
      <trkpt lat="29.192346" lon="-13.488388">
        <ele>363.464</ele>
        <time>2015-12-03T14:01:33Z</time>
      </trkpt>
      <trkpt lat="29.190832" lon="-13.488646">
        <ele>362.479</ele>
        <time>2015-12-03T14:02:04Z</time>
      </trkpt>
      <trkpt lat="29.190166" lon="-13.489006">
        <ele>366.323</ele>
        <time>2015-12-03T14:02:20Z</time>
      </trkpt>
      <trkpt lat="29.188792" lon="-13.490234">
        <ele>372.452</ele>
        <time>2015-12-03T14:03:01Z</time>
      </trkpt>
      <trkpt lat="29.187741" lon="-13.490659">
        <ele>377.729</ele>
        <time>2015-12-03T14:03:53Z</time>
      </trkpt>
      <trkpt lat="29.186894" lon="-13.491198">
        <ele>391.600</ele>
        <time>2015-12-03T14:04:45Z</time>
      </trkpt>
      <trkpt lat="29.186235" lon="-13.491329">
        <ele>393.820</ele>
        <time>2015-12-03T14:05:24Z</time>
      </trkpt>
      <trkpt lat="29.183794" lon="-13.491247">
        <ele>408.008</ele>
        <time>2015-12-03T14:09:46Z</time>
      </trkpt>
      <trkpt lat="29.184058" lon="-13.491922">
        <ele>412.083</ele>
        <time>2015-12-03T14:10:51Z</time>
      </trkpt>
      <trkpt lat="29.184706" lon="-13.492571">
        <ele>418.363</ele>
        <time>2015-12-03T14:11:40Z</time>
      </trkpt>
      <trkpt lat="29.185410" lon="-13.493808">
        <ele>424.878</ele>
        <time>2015-12-03T14:12:35Z</time>
      </trkpt>
      <trkpt lat="29.186900" lon="-13.495453">
        <ele>440.855</ele>
        <time>2015-12-03T14:13:52Z</time>
      </trkpt>
      <trkpt lat="29.188087" lon="-13.496005">
        <ele>436.238</ele>
        <time>2015-12-03T14:14:37Z</time>
      </trkpt>
      <trkpt lat="29.188044" lon="-13.495706">
        <ele>430.373</ele>
        <time>2015-12-03T14:16:57Z</time>
      </trkpt>
      <trkpt lat="29.187911" lon="-13.496962">
        <ele>443.047</ele>
        <time>2015-12-03T14:18:40Z</time>
      </trkpt>
      <trkpt lat="29.188016" lon="-13.498147">
        <ele>441.596</ele>
        <time>2015-12-03T14:19:28Z</time>
      </trkpt>
      <trkpt lat="29.186869" lon="-13.498553">
        <ele>443.986</ele>
        <time>2015-12-03T14:24:24Z</time>
      </trkpt>
      <trkpt lat="29.186477" lon="-13.499265">
        <ele>438.360</ele>
        <time>2015-12-03T14:25:01Z</time>
      </trkpt>
      <trkpt lat="29.186081" lon="-13.499601">
        <ele>431.826</ele>
        <time>2015-12-03T14:25:22Z</time>
      </trkpt>
      <trkpt lat="29.185370" lon="-13.499942">
        <ele>400.408</ele>
        <time>2015-12-03T14:27:41Z</time>
      </trkpt>
      <trkpt lat="29.185273" lon="-13.499452">
        <ele>404.719</ele>
        <time>2015-12-03T14:29:41Z</time>
      </trkpt>
      <trkpt lat="29.185091" lon="-13.499747">
        <ele>395.889</ele>
        <time>2015-12-03T14:32:09Z</time>
      </trkpt>
      <trkpt lat="29.185056" lon="-13.499579">
        <ele>395.894</ele>
        <time>2015-12-03T14:33:00Z</time>
      </trkpt>
      <trkpt lat="29.184836" lon="-13.499712">
        <ele>388.091</ele>
        <time>2015-12-03T14:35:25Z</time>
      </trkpt>
      <trkpt lat="29.184667" lon="-13.500347">
        <ele>372.554</ele>
        <time>2015-12-03T14:38:46Z</time>
      </trkpt>
      <trkpt lat="29.184513" lon="-13.500283">
        <ele>370.659</ele>
        <time>2015-12-03T14:40:09Z</time>
      </trkpt>
      <trkpt lat="29.184191" lon="-13.500553">
        <ele>362.423</ele>
        <time>2015-12-03T14:40:36Z</time>
      </trkpt>
      <trkpt lat="29.183978" lon="-13.500264">
        <ele>358.732</ele>
        <time>2015-12-03T14:41:13Z</time>
      </trkpt>
      <trkpt lat="29.183724" lon="-13.500247">
        <ele>354.875</ele>
        <time>2015-12-03T14:41:28Z</time>
      </trkpt>
      <trkpt lat="29.183829" lon="-13.500660">
        <ele>355.728</ele>
        <time>2015-12-03T14:41:50Z</time>
      </trkpt>
      <trkpt lat="29.183721" lon="-13.500529">
        <ele>354.020</ele>
        <time>2015-12-03T14:43:14Z</time>
      </trkpt>
      <trkpt lat="29.184225" lon="-13.501214">
        <ele>349.108</ele>
        <time>2015-12-03T14:44:05Z</time>
      </trkpt>
      <trkpt lat="29.184397" lon="-13.501246">
        <ele>347.458</ele>
        <time>2015-12-03T14:44:51Z</time>
      </trkpt>
      <trkpt lat="29.183858" lon="-13.500738">
        <ele>355.938</ele>
        <time>2015-12-03T14:45:27Z</time>
      </trkpt>
      <trkpt lat="29.183176" lon="-13.498823">
        <ele>359.753</ele>
        <time>2015-12-03T14:46:39Z</time>
      </trkpt>
      <trkpt lat="29.182657" lon="-13.498129">
        <ele>357.660</ele>
        <time>2015-12-03T14:47:14Z</time>
      </trkpt>
      <trkpt lat="29.182195" lon="-13.497063">
        <ele>359.663</ele>
        <time>2015-12-03T14:47:57Z</time>
      </trkpt>
      <trkpt lat="29.180412" lon="-13.493990">
        <ele>365.568</ele>
        <time>2015-12-03T14:50:05Z</time>
      </trkpt>
      <trkpt lat="29.180401" lon="-13.496821">
        <ele>366.422</ele>
        <time>2015-12-03T14:52:03Z</time>
      </trkpt>
      <trkpt lat="29.180199" lon="-13.497413">
        <ele>363.191</ele>
        <time>2015-12-03T14:52:22Z</time>
      </trkpt>
      <trkpt lat="29.180320" lon="-13.497916">
        <ele>362.389</ele>
        <time>2015-12-03T14:52:37Z</time>
      </trkpt>
      <trkpt lat="29.179768" lon="-13.500136">
        <ele>365.506</ele>
        <time>2015-12-03T14:53:31Z</time>
      </trkpt>
      <trkpt lat="29.178855" lon="-13.502059">
        <ele>356.326</ele>
        <time>2015-12-03T14:54:25Z</time>
      </trkpt>
      <trkpt lat="29.174948" lon="-13.506357">
        <ele>375.608</ele>
        <time>2015-12-03T14:57:50Z</time>
      </trkpt>
      <trkpt lat="29.173594" lon="-13.508455">
        <ele>396.579</ele>
        <time>2015-12-03T15:00:02Z</time>
      </trkpt>
      <trkpt lat="29.172957" lon="-13.509180">
        <ele>401.829</ele>
        <time>2015-12-03T15:06:31Z</time>
      </trkpt>
      <trkpt lat="29.172128" lon="-13.510751">
        <ele>431.694</ele>
        <time>2015-12-03T15:08:44Z</time>
      </trkpt>
      <trkpt lat="29.171277" lon="-13.511453">
        <ele>454.811</ele>
        <time>2015-12-03T15:10:18Z</time>
      </trkpt>
      <trkpt lat="29.170822" lon="-13.511499">
        <ele>457.414</ele>
        <time>2015-12-03T15:11:00Z</time>
      </trkpt>
      <trkpt lat="29.170478" lon="-13.511219">
        <ele>472.729</ele>
        <time>2015-12-03T15:11:37Z</time>
      </trkpt>
      <trkpt lat="29.170880" lon="-13.510808">
        <ele>458.483</ele>
        <time>2015-12-03T15:16:21Z</time>
      </trkpt>
      <trkpt lat="29.171087" lon="-13.509613">
        <ele>463.242</ele>
        <time>2015-12-03T15:17:31Z</time>
      </trkpt>
      <trkpt lat="29.170373" lon="-13.508988">
        <ele>489.356</ele>
        <time>2015-12-03T15:20:00Z</time>
      </trkpt>
      <trkpt lat="29.170252" lon="-13.509042">
        <ele>492.659</ele>
        <time>2015-12-03T15:20:16Z</time>
      </trkpt>
      <trkpt lat="29.170165" lon="-13.509786">
        <ele>493.714</ele>
        <time>2015-12-03T15:21:13Z</time>
      </trkpt>
      <trkpt lat="29.169353" lon="-13.510825">
        <ele>497.408</ele>
        <time>2015-12-03T15:22:28Z</time>
      </trkpt>
      <trkpt lat="29.169106" lon="-13.512545">
        <ele>510.976</ele>
        <time>2015-12-03T15:24:05Z</time>
      </trkpt>
      <trkpt lat="29.168686" lon="-13.512907">
        <ele>513.896</ele>
        <time>2015-12-03T15:24:38Z</time>
      </trkpt>
      <trkpt lat="29.167298" lon="-13.513029">
        <ele>521.761</ele>
        <time>2015-12-03T15:25:55Z</time>
      </trkpt>
      <trkpt lat="29.166741" lon="-13.512515">
        <ele>521.178</ele>
        <time>2015-12-03T15:26:43Z</time>
      </trkpt>
      <trkpt lat="29.166535" lon="-13.512731">
        <ele>521.971</ele>
        <time>2015-12-03T15:28:42Z</time>
      </trkpt>
      <trkpt lat="29.166262" lon="-13.512689">
        <ele>525.186</ele>
        <time>2015-12-03T15:28:53Z</time>
      </trkpt>
      <trkpt lat="29.165653" lon="-13.512279">
        <ele>530.910</ele>
        <time>2015-12-03T15:30:55Z</time>
      </trkpt>
      <trkpt lat="29.165308" lon="-13.511744">
        <ele>533.029</ele>
        <time>2015-12-03T15:31:24Z</time>
      </trkpt>
      <trkpt lat="29.164881" lon="-13.510214">
        <ele>524.985</ele>
        <time>2015-12-03T15:32:19Z</time>
      </trkpt>
      <trkpt lat="29.164936" lon="-13.508717">
        <ele>513.089</ele>
        <time>2015-12-03T15:33:22Z</time>
      </trkpt>
      <trkpt lat="29.163238" lon="-13.506210">
        <ele>474.317</ele>
        <time>2015-12-03T15:34:12Z</time>
      </trkpt>
      <trkpt lat="29.162930" lon="-13.504896">
        <ele>461.508</ele>
        <time>2015-12-03T15:34:25Z</time>
      </trkpt>
      <trkpt lat="29.162477" lon="-13.504010">
        <ele>445.069</ele>
        <time>2015-12-03T15:34:44Z</time>
      </trkpt>
      <trkpt lat="29.162841" lon="-13.503982">
        <ele>441.389</ele>
        <time>2015-12-03T15:39:35Z</time>
      </trkpt>
      <trkpt lat="29.163895" lon="-13.505702">
        <ele>437.674</ele>
        <time>2015-12-03T15:40:30Z</time>
      </trkpt>
      <trkpt lat="29.162980" lon="-13.502145">
        <ele>408.091</ele>
        <time>2015-12-03T15:41:45Z</time>
      </trkpt>
      <trkpt lat="29.163315" lon="-13.500921">
        <ele>396.084</ele>
        <time>2015-12-03T15:42:01Z</time>
      </trkpt>
      <trkpt lat="29.163703" lon="-13.500579">
        <ele>395.049</ele>
        <time>2015-12-03T15:43:10Z</time>
      </trkpt>
      <trkpt lat="29.163966" lon="-13.499922">
        <ele>388.413</ele>
        <time>2015-12-03T15:44:40Z</time>
      </trkpt>
      <trkpt lat="29.164195" lon="-13.498793">
        <ele>363.272</ele>
        <time>2015-12-03T15:46:16Z</time>
      </trkpt>
      <trkpt lat="29.164511" lon="-13.498544">
        <ele>358.142</ele>
        <time>2015-12-03T15:46:51Z</time>
      </trkpt>
      <trkpt lat="29.164607" lon="-13.498138">
        <ele>346.022</ele>
        <time>2015-12-03T15:47:10Z</time>
      </trkpt>
      <trkpt lat="29.164490" lon="-13.497756">
        <ele>336.214</ele>
        <time>2015-12-03T15:47:21Z</time>
      </trkpt>
      <trkpt lat="29.164656" lon="-13.497301">
        <ele>326.208</ele>
        <time>2015-12-03T15:52:02Z</time>
      </trkpt>
      <trkpt lat="29.164274" lon="-13.496674">
        <ele>318.475</ele>
        <time>2015-12-03T15:52:23Z</time>
      </trkpt>
      <trkpt lat="29.163369" lon="-13.496268">
        <ele>299.075</ele>
        <time>2015-12-03T15:52:35Z</time>
      </trkpt>
      <trkpt lat="29.162859" lon="-13.495718">
        <ele>287.080</ele>
        <time>2015-12-03T15:52:45Z</time>
      </trkpt>
      <trkpt lat="29.162511" lon="-13.495611">
        <ele>283.517</ele>
        <time>2015-12-03T15:55:53Z</time>
      </trkpt>
      <trkpt lat="29.161843" lon="-13.495681">
        <ele>278.040</ele>
        <time>2015-12-03T15:56:05Z</time>
      </trkpt>
      <trkpt lat="29.161190" lon="-13.496004">
        <ele>274.245</ele>
        <time>2015-12-03T15:56:20Z</time>
      </trkpt>
      <trkpt lat="29.159278" lon="-13.496235">
        <ele>263.589</ele>
        <time>2015-12-03T15:56:58Z</time>
      </trkpt>
      <trkpt lat="29.159039" lon="-13.496300">
        <ele>262.818</ele>
        <time>2015-12-03T15:57:04Z</time>
      </trkpt>
      <trkpt lat="29.158984" lon="-13.496475">
        <ele>262.638</ele>
        <time>2015-12-03T15:57:21Z</time>
      </trkpt>
      <trkpt lat="29.158851" lon="-13.496371">
        <ele>261.770</ele>
        <time>2015-12-03T15:57:52Z</time>
      </trkpt>
      <trkpt lat="29.157622" lon="-13.496591">
        <ele>256.817</ele>
        <time>2015-12-03T15:58:31Z</time>
      </trkpt>
      <trkpt lat="29.154254" lon="-13.497404">
        <ele>268.108</ele>
        <time>2015-12-03T16:00:25Z</time>
      </trkpt>
      <trkpt lat="29.153583" lon="-13.497840">
        <ele>275.824</ele>
        <time>2015-12-03T16:01:20Z</time>
      </trkpt>
      <trkpt lat="29.152854" lon="-13.498983">
        <ele>289.314</ele>
        <time>2015-12-03T16:02:47Z</time>
      </trkpt>
      <trkpt lat="29.151214" lon="-13.500375">
        <ele>308.849</ele>
        <time>2015-12-03T16:05:10Z</time>
      </trkpt>
      <trkpt lat="29.151498" lon="-13.500179">
        <ele>305.626</ele>
        <time>2015-12-03T16:05:52Z</time>
      </trkpt>
      <trkpt lat="29.150204" lon="-13.500572">
        <ele>311.329</ele>
        <time>2015-12-03T16:07:28Z</time>
      </trkpt>
      <trkpt lat="29.149362" lon="-13.500527">
        <ele>311.044</ele>
        <time>2015-12-03T16:08:40Z</time>
      </trkpt>
      <trkpt lat="29.145830" lon="-13.501467">
        <ele>287.098</ele>
        <time>2015-12-03T16:10:26Z</time>
      </trkpt>
      <trkpt lat="29.145605" lon="-13.501236">
        <ele>286.697</ele>
        <time>2015-12-03T16:10:46Z</time>
      </trkpt>
      <trkpt lat="29.145709" lon="-13.501357">
        <ele>286.645</ele>
        <time>2015-12-03T16:10:52Z</time>
      </trkpt>
      <trkpt lat="29.145972" lon="-13.500173">
        <ele>286.347</ele>
        <time>2015-12-03T16:11:28Z</time>
      </trkpt>
      <trkpt lat="29.146222" lon="-13.500109">
        <ele>285.711</ele>
        <time>2015-12-03T16:14:08Z</time>
      </trkpt>
      <trkpt lat="29.146063" lon="-13.500158">
        <ele>285.708</ele>
        <time>2015-12-03T16:14:16Z</time>
      </trkpt>
      <trkpt lat="29.146014" lon="-13.499943">
        <ele>287.535</ele>
        <time>2015-12-03T16:14:29Z</time>
      </trkpt>
      <trkpt lat="29.146426" lon="-13.499631">
        <ele>287.445</ele>
        <time>2015-12-03T16:14:57Z</time>
      </trkpt>
      <trkpt lat="29.146790" lon="-13.498432">
        <ele>286.190</ele>
        <time>2015-12-03T16:16:43Z</time>
      </trkpt>
      <trkpt lat="29.146641" lon="-13.498562">
        <ele>285.547</ele>
        <time>2015-12-03T16:17:23Z</time>
      </trkpt>
      <trkpt lat="29.146519" lon="-13.498454">
        <ele>283.840</ele>
        <time>2015-12-03T16:19:58Z</time>
      </trkpt>
    </trkseg>
  </trk></gpx>