<?xml version="1.0" encoding="UTF-8"?>
<gpx creator="Wikiloc - https://www.wikiloc.com" version="1.1" xmlns="http://www.topografix.com/GPX/1/1" xmlns:xsi="http://www.w3.org/2001/XMLSchema-instance" xsi:schemaLocation="http://www.topografix.com/GPX/1/1 http://www.topografix.com/GPX/1/1/gpx.xsd">
  <metadata>
    <name>Wikiloc - Ruta 96 - Lanzarote (SB-Montañas del Fuego - 5 )</name>
    <link href="https://www.wikiloc.com/cycling-trails/ruta-96-lanzarote-sb-montanas-del-fuego-5-1584372">
      <text>Ruta 96 - Lanzarote (SB-Montañas del Fuego - 5 ) - Wikiloc on Wikiloc</text>
    </link>
    <time>2026-08-12T12:11:26.457Z</time>
  </metadata>
  <trk>
    <name>Ruta 96 - Lanzarote (SB-Montañas del Fuego - 5 ) - Wikiloc</name>
    <cmt></cmt>
    <desc></desc>
    <trkseg>
      <trkpt lat="29.001234" lon="-13.614163">
        <ele>281.463</ele>
        <time>2026-08-12T12:11:26.455Z</time>
      </trkpt>
      <trkpt lat="29.001220" lon="-13.614160">
        <ele>281.244</ele>
        <time>2026-08-12T12:11:46.455Z</time>
      </trkpt>
      <trkpt lat="29.001230" lon="-13.614360">
        <ele>280.718</ele>
        <time>2026-08-12T12:12:06.455Z</time>
      </trkpt>
      <trkpt lat="29.001740" lon="-13.614640">
        <ele>283.007</ele>
        <time>2026-08-12T12:12:26.455Z</time>
      </trkpt>
      <trkpt lat="29.001830" lon="-13.615030">
        <ele>283.777</ele>
        <time>2026-08-12T12:12:46.455Z</time>
      </trkpt>
      <trkpt lat="29.001980" lon="-13.615070">
        <ele>284.671</ele>
        <time>2026-08-12T12:13:06.455Z</time>
      </trkpt>
      <trkpt lat="29.002220" lon="-13.615150">
        <ele>286.114</ele>
        <time>2026-08-12T12:13:26.455Z</time>
      </trkpt>
      <trkpt lat="29.002610" lon="-13.615190">
        <ele>286.720</ele>
        <time>2026-08-12T12:13:46.455Z</time>
      </trkpt>
      <trkpt lat="29.002990" lon="-13.615230">
        <ele>288.239</ele>
        <time>2026-08-12T12:14:06.455Z</time>
      </trkpt>
      <trkpt lat="29.003060" lon="-13.615580">
        <ele>289.033</ele>
        <time>2026-08-12T12:14:26.455Z</time>
      </trkpt>
      <trkpt lat="29.003250" lon="-13.616080">
        <ele>289.768</ele>
        <time>2026-08-12T12:14:46.455Z</time>
      </trkpt>
      <trkpt lat="29.004030" lon="-13.617240">
        <ele>293.512</ele>
        <time>2026-08-12T12:15:06.455Z</time>
      </trkpt>
      <trkpt lat="29.004260" lon="-13.617490">
        <ele>294.332</ele>
        <time>2026-08-12T12:15:26.455Z</time>
      </trkpt>
      <trkpt lat="29.004510" lon="-13.617730">
        <ele>295.005</ele>
        <time>2026-08-12T12:15:46.455Z</time>
      </trkpt>
      <trkpt lat="29.005230" lon="-13.618670">
        <ele>292.507</ele>
        <time>2026-08-12T12:16:06.455Z</time>
      </trkpt>
      <trkpt lat="29.006500" lon="-13.620640">
        <ele>297.822</ele>
        <time>2026-08-12T12:16:26.455Z</time>
      </trkpt>
      <trkpt lat="29.007230" lon="-13.622020">
        <ele>299.256</ele>
        <time>2026-08-12T12:16:46.455Z</time>
      </trkpt>
      <trkpt lat="29.007530" lon="-13.622770">
        <ele>299.059</ele>
        <time>2026-08-12T12:17:06.455Z</time>
      </trkpt>
      <trkpt lat="29.007780" lon="-13.624000">
        <ele>301.875</ele>
        <time>2026-08-12T12:17:26.455Z</time>
      </trkpt>
      <trkpt lat="29.007970" lon="-13.625270">
        <ele>292.024</ele>
        <time>2026-08-12T12:17:46.455Z</time>
      </trkpt>
      <trkpt lat="29.008160" lon="-13.625470">
        <ele>289.268</ele>
        <time>2026-08-12T12:18:06.455Z</time>
      </trkpt>
      <trkpt lat="29.008080" lon="-13.625600">
        <ele>290.823</ele>
        <time>2026-08-12T12:18:26.455Z</time>
      </trkpt>
      <trkpt lat="29.007980" lon="-13.626000">
        <ele>296.225</ele>
        <time>2026-08-12T12:18:46.455Z</time>
      </trkpt>
      <trkpt lat="29.007930" lon="-13.629820">
        <ele>291.326</ele>
        <time>2026-08-12T12:19:06.455Z</time>
      </trkpt>
      <trkpt lat="29.008050" lon="-13.631280">
        <ele>287.408</ele>
        <time>2026-08-12T12:19:26.455Z</time>
      </trkpt>
      <trkpt lat="29.008230" lon="-13.631780">
        <ele>289.707</ele>
        <time>2026-08-12T12:19:46.455Z</time>
      </trkpt>
      <trkpt lat="29.008270" lon="-13.632360">
        <ele>290.883</ele>
        <time>2026-08-12T12:20:06.455Z</time>
      </trkpt>
      <trkpt lat="29.008070" lon="-13.633430">
        <ele>291.397</ele>
        <time>2026-08-12T12:20:26.455Z</time>
      </trkpt>
      <trkpt lat="29.007750" lon="-13.634390">
        <ele>295.540</ele>
        <time>2026-08-12T12:20:46.455Z</time>
      </trkpt>
      <trkpt lat="29.004740" lon="-13.637720">
        <ele>292.446</ele>
        <time>2026-08-12T12:21:06.455Z</time>
      </trkpt>
      <trkpt lat="29.003580" lon="-13.638740">
        <ele>300.095</ele>
        <time>2026-08-12T12:21:26.455Z</time>
      </trkpt>
      <trkpt lat="29.003140" lon="-13.639190">
        <ele>299.239</ele>
        <time>2026-08-12T12:21:46.455Z</time>
      </trkpt>
      <trkpt lat="29.001460" lon="-13.643910">
        <ele>313.534</ele>
        <time>2026-08-12T12:22:06.455Z</time>
      </trkpt>
      <trkpt lat="29.001170" lon="-13.644850">
        <ele>319.113</ele>
        <time>2026-08-12T12:22:26.455Z</time>
      </trkpt>
      <trkpt lat="29.000480" lon="-13.646660">
        <ele>320.743</ele>
        <time>2026-08-12T12:22:46.455Z</time>
      </trkpt>
      <trkpt lat="28.994500" lon="-13.661600">
        <ele>325.407</ele>
        <time>2026-08-12T12:23:06.455Z</time>
      </trkpt>
      <trkpt lat="28.989940" lon="-13.672780">
        <ele>338.007</ele>
        <time>2026-08-12T12:23:26.455Z</time>
      </trkpt>
      <trkpt lat="28.989380" lon="-13.673560">
        <ele>338.222</ele>
        <time>2026-08-12T12:23:46.455Z</time>
      </trkpt>
      <trkpt lat="28.984190" lon="-13.679830">
        <ele>334.696</ele>
        <time>2026-08-12T12:24:06.455Z</time>
      </trkpt>
      <trkpt lat="28.983950" lon="-13.680320">
        <ele>333.879</ele>
        <time>2026-08-12T12:24:26.455Z</time>
      </trkpt>
      <trkpt lat="28.982910" lon="-13.683330">
        <ele>334.545</ele>
        <time>2026-08-12T12:24:46.455Z</time>
      </trkpt>
      <trkpt lat="28.982210" lon="-13.685110">
        <ele>326.294</ele>
        <time>2026-08-12T12:25:06.455Z</time>
      </trkpt>
      <trkpt lat="28.981990" lon="-13.685440">
        <ele>323.878</ele>
        <time>2026-08-12T12:25:26.455Z</time>
      </trkpt>
      <trkpt lat="28.981380" lon="-13.686160">
        <ele>318.683</ele>
        <time>2026-08-12T12:25:46.455Z</time>
      </trkpt>
      <trkpt lat="28.981220" lon="-13.686440">
        <ele>316.311</ele>
        <time>2026-08-12T12:26:06.455Z</time>
      </trkpt>
      <trkpt lat="28.980550" lon="-13.689000">
        <ele>316.221</ele>
        <time>2026-08-12T12:26:26.455Z</time>
      </trkpt>
      <trkpt lat="28.980240" lon="-13.695080">
        <ele>330.703</ele>
        <time>2026-08-12T12:26:46.455Z</time>
      </trkpt>
      <trkpt lat="28.980080" lon="-13.700300">
        <ele>344.907</ele>
        <time>2026-08-12T12:27:06.455Z</time>
      </trkpt>
      <trkpt lat="28.979990" lon="-13.700970">
        <ele>348.012</ele>
        <time>2026-08-12T12:27:26.455Z</time>
      </trkpt>
      <trkpt lat="28.979830" lon="-13.701440">
        <ele>344.276</ele>
        <time>2026-08-12T12:27:46.455Z</time>
      </trkpt>
      <trkpt lat="28.979650" lon="-13.701720">
        <ele>340.019</ele>
        <time>2026-08-12T12:28:06.455Z</time>
      </trkpt>
      <trkpt lat="28.979380" lon="-13.702010">
        <ele>336.655</ele>
        <time>2026-08-12T12:28:26.455Z</time>
      </trkpt>
      <trkpt lat="28.977760" lon="-13.702830">
        <ele>333.374</ele>
        <time>2026-08-12T12:28:46.455Z</time>
      </trkpt>
      <trkpt lat="28.976480" lon="-13.703590">
        <ele>336.378</ele>
        <time>2026-08-12T12:29:06.455Z</time>
      </trkpt>
      <trkpt lat="28.975190" lon="-13.704180">
        <ele>334.283</ele>
        <time>2026-08-12T12:29:26.455Z</time>
      </trkpt>
      <trkpt lat="28.974940" lon="-13.704360">
        <ele>332.924</ele>
        <time>2026-08-12T12:29:46.455Z</time>
      </trkpt>
      <trkpt lat="28.974590" lon="-13.704840">
        <ele>337.104</ele>
        <time>2026-08-12T12:30:06.455Z</time>
      </trkpt>
      <trkpt lat="28.973910" lon="-13.706010">
        <ele>326.014</ele>
        <time>2026-08-12T12:30:26.455Z</time>
      </trkpt>
      <trkpt lat="28.972980" lon="-13.707900">
        <ele>315.607</ele>
        <time>2026-08-12T12:30:46.455Z</time>
      </trkpt>
      <trkpt lat="28.972730" lon="-13.708110">
        <ele>314.733</ele>
        <time>2026-08-12T12:31:06.455Z</time>
      </trkpt>
      <trkpt lat="28.971950" lon="-13.708570">
        <ele>314.827</ele>
        <time>2026-08-12T12:31:26.455Z</time>
      </trkpt>
      <trkpt lat="28.971020" lon="-13.709480">
        <ele>313.550</ele>
        <time>2026-08-12T12:31:46.455Z</time>
      </trkpt>
      <trkpt lat="28.970660" lon="-13.709950">
        <ele>313.276</ele>
        <time>2026-08-12T12:32:06.455Z</time>
      </trkpt>
      <trkpt lat="28.970410" lon="-13.710410">
        <ele>313.175</ele>
        <time>2026-08-12T12:32:26.455Z</time>
      </trkpt>
      <trkpt lat="28.969850" lon="-13.711810">
        <ele>310.679</ele>
        <time>2026-08-12T12:32:46.455Z</time>
      </trkpt>
      <trkpt lat="28.969670" lon="-13.713030">
        <ele>309.144</ele>
        <time>2026-08-12T12:33:06.455Z</time>
      </trkpt>
      <trkpt lat="28.969580" lon="-13.713310">
        <ele>310.459</ele>
        <time>2026-08-12T12:33:26.455Z</time>
      </trkpt>
      <trkpt lat="28.969000" lon="-13.714120">
        <ele>315.903</ele>
        <time>2026-08-12T12:33:46.455Z</time>
      </trkpt>
      <trkpt lat="28.968170" lon="-13.715500">
        <ele>306.723</ele>
        <time>2026-08-12T12:34:06.456Z</time>
      </trkpt>
      <trkpt lat="28.967750" lon="-13.716380">
        <ele>303.307</ele>
        <time>2026-08-12T12:34:26.456Z</time>
      </trkpt>
      <trkpt lat="28.967340" lon="-13.717500">
        <ele>300.946</ele>
        <time>2026-08-12T12:34:46.456Z</time>
      </trkpt>
      <trkpt lat="28.966990" lon="-13.719130">
        <ele>295.250</ele>
        <time>2026-08-12T12:35:06.456Z</time>
      </trkpt>
      <trkpt lat="28.966670" lon="-13.720030">
        <ele>289.993</ele>
        <time>2026-08-12T12:35:26.456Z</time>
      </trkpt>
      <trkpt lat="28.966270" lon="-13.720650">
        <ele>284.169</ele>
        <time>2026-08-12T12:35:46.456Z</time>
      </trkpt>
      <trkpt lat="28.965250" lon="-13.721780">
        <ele>281.578</ele>
        <time>2026-08-12T12:36:06.456Z</time>
      </trkpt>
      <trkpt lat="28.964730" lon="-13.722490">
        <ele>275.162</ele>
        <time>2026-08-12T12:36:26.456Z</time>
      </trkpt>
      <trkpt lat="28.964470" lon="-13.722930">
        <ele>274.487</ele>
        <time>2026-08-12T12:36:46.456Z</time>
      </trkpt>
      <trkpt lat="28.964250" lon="-13.723420">
        <ele>271.315</ele>
        <time>2026-08-12T12:37:06.456Z</time>
      </trkpt>
      <trkpt lat="28.963470" lon="-13.725450">
        <ele>252.765</ele>
        <time>2026-08-12T12:37:26.456Z</time>
      </trkpt>
      <trkpt lat="28.963130" lon="-13.726030">
        <ele>250.011</ele>
        <time>2026-08-12T12:37:46.456Z</time>
      </trkpt>
      <trkpt lat="28.962180" lon="-13.727400">
        <ele>238.207</ele>
        <time>2026-08-12T12:38:06.456Z</time>
      </trkpt>
      <trkpt lat="28.961760" lon="-13.727780">
        <ele>238.042</ele>
        <time>2026-08-12T12:38:26.456Z</time>
      </trkpt>
      <trkpt lat="28.961170" lon="-13.728160">
        <ele>239.256</ele>
        <time>2026-08-12T12:38:46.456Z</time>
      </trkpt>
      <trkpt lat="28.960790" lon="-13.728480">
        <ele>236.989</ele>
        <time>2026-08-12T12:39:06.456Z</time>
      </trkpt>
      <trkpt lat="28.960150" lon="-13.729440">
        <ele>239.125</ele>
        <time>2026-08-12T12:39:26.456Z</time>
      </trkpt>
      <trkpt lat="28.959130" lon="-13.730770">
        <ele>241.434</ele>
        <time>2026-08-12T12:39:46.456Z</time>
      </trkpt>
      <trkpt lat="28.955300" lon="-13.735330">
        <ele>249.258</ele>
        <time>2026-08-12T12:40:06.456Z</time>
      </trkpt>
      <trkpt lat="28.954450" lon="-13.736280">
        <ele>252.193</ele>
        <time>2026-08-12T12:40:26.456Z</time>
      </trkpt>
      <trkpt lat="28.951830" lon="-13.738560">
        <ele>241.556</ele>
        <time>2026-08-12T12:40:46.456Z</time>
      </trkpt>
      <trkpt lat="28.951600" lon="-13.738710">
        <ele>238.959</ele>
        <time>2026-08-12T12:41:06.456Z</time>
      </trkpt>
      <trkpt lat="28.950470" lon="-13.739000">
        <ele>234.914</ele>
        <time>2026-08-12T12:41:26.456Z</time>
      </trkpt>
      <trkpt lat="28.949590" lon="-13.738950">
        <ele>228.207</ele>
        <time>2026-08-12T12:41:46.456Z</time>
      </trkpt>
      <trkpt lat="28.948750" lon="-13.738680">
        <ele>230.956</ele>
        <time>2026-08-12T12:42:06.456Z</time>
      </trkpt>
      <trkpt lat="28.948530" lon="-13.738660">
        <ele>231.960</ele>
        <time>2026-08-12T12:42:26.456Z</time>
      </trkpt>
      <trkpt lat="28.947870" lon="-13.739060">
        <ele>218.583</ele>
        <time>2026-08-12T12:42:46.456Z</time>
      </trkpt>
      <trkpt lat="28.947460" lon="-13.739380">
        <ele>217.999</ele>
        <time>2026-08-12T12:43:06.456Z</time>
      </trkpt>
      <trkpt lat="28.947490" lon="-13.739520">
        <ele>216.278</ele>
        <time>2026-08-12T12:43:26.456Z</time>
      </trkpt>
      <trkpt lat="28.947420" lon="-13.739590">
        <ele>215.672</ele>
        <time>2026-08-12T12:43:46.456Z</time>
      </trkpt>
      <trkpt lat="28.947760" lon="-13.740130">
        <ele>212.517</ele>
        <time>2026-08-12T12:44:06.456Z</time>
      </trkpt>
      <trkpt lat="28.947930" lon="-13.740510">
        <ele>209.368</ele>
        <time>2026-08-12T12:44:26.456Z</time>
      </trkpt>
      <trkpt lat="28.948320" lon="-13.741610">
        <ele>200.642</ele>
        <time>2026-08-12T12:44:46.456Z</time>
      </trkpt>
      <trkpt lat="28.948550" lon="-13.742120">
        <ele>198.826</ele>
        <time>2026-08-12T12:45:06.456Z</time>
      </trkpt>
      <trkpt lat="28.948560" lon="-13.742280">
        <ele>199.607</ele>
        <time>2026-08-12T12:45:26.456Z</time>
      </trkpt>
      <trkpt lat="28.948380" lon="-13.742400">
        <ele>201.147</ele>
        <time>2026-08-12T12:45:46.456Z</time>
      </trkpt>
      <trkpt lat="28.948390" lon="-13.742920">
        <ele>202.881</ele>
        <time>2026-08-12T12:46:06.456Z</time>
      </trkpt>
      <trkpt lat="28.948460" lon="-13.743170">
        <ele>201.754</ele>
        <time>2026-08-12T12:46:26.456Z</time>
      </trkpt>
      <trkpt lat="28.949160" lon="-13.744020">
        <ele>199.470</ele>
        <time>2026-08-12T12:46:46.456Z</time>
      </trkpt>
      <trkpt lat="28.949120" lon="-13.744080">
        <ele>199.219</ele>
        <time>2026-08-12T12:47:06.456Z</time>
      </trkpt>
      <trkpt lat="28.949160" lon="-13.744020">
        <ele>199.433</ele>
        <time>2026-08-12T12:47:26.456Z</time>
      </trkpt>
      <trkpt lat="28.949300" lon="-13.744200">
        <ele>200.028</ele>
        <time>2026-08-12T12:47:46.456Z</time>
      </trkpt>
      <trkpt lat="28.949420" lon="-13.744530">
        <ele>200.016</ele>
        <time>2026-08-12T12:48:06.456Z</time>
      </trkpt>
      <trkpt lat="28.949500" lon="-13.744840">
        <ele>199.376</ele>
        <time>2026-08-12T12:48:26.456Z</time>
      </trkpt>
      <trkpt lat="28.949377" lon="-13.745677">
        <ele>197.713</ele>
        <time>2026-08-12T12:48:46.456Z</time>
      </trkpt>
      <trkpt lat="28.949105" lon="-13.746487">
        <ele>201.607</ele>
        <time>2026-08-12T12:49:06.456Z</time>
      </trkpt>
      <trkpt lat="28.949320" lon="-13.747350">
        <ele>205.852</ele>
        <time>2026-08-12T12:49:26.456Z</time>
      </trkpt>
      <trkpt lat="28.949660" lon="-13.748150">
        <ele>214.696</ele>
        <time>2026-08-12T12:49:46.456Z</time>
      </trkpt>
      <trkpt lat="28.949660" lon="-13.748760">
        <ele>219.449</ele>
        <time>2026-08-12T12:50:06.456Z</time>
      </trkpt>
      <trkpt lat="28.949660" lon="-13.748800">
        <ele>219.545</ele>
        <time>2026-08-12T12:50:26.456Z</time>
      </trkpt>
      <trkpt lat="28.949630" lon="-13.749060">
        <ele>218.964</ele>
        <time>2026-08-12T12:50:46.456Z</time>
      </trkpt>
      <trkpt lat="28.949790" lon="-13.749420">
        <ele>218.588</ele>
        <time>2026-08-12T12:51:06.456Z</time>
      </trkpt>
      <trkpt lat="28.950230" lon="-13.750740">
        <ele>208.983</ele>
        <time>2026-08-12T12:51:26.456Z</time>
      </trkpt>
      <trkpt lat="28.950570" lon="-13.751820">
        <ele>209.193</ele>
        <time>2026-08-12T12:51:46.456Z</time>
      </trkpt>
      <trkpt lat="28.950620" lon="-13.752170">
        <ele>209.365</ele>
        <time>2026-08-12T12:52:06.456Z</time>
      </trkpt>
      <trkpt lat="28.950620" lon="-13.752590">
        <ele>210.721</ele>
        <time>2026-08-12T12:52:26.456Z</time>
      </trkpt>
      <trkpt lat="28.950520" lon="-13.753080">
        <ele>213.607</ele>
        <time>2026-08-12T12:52:46.456Z</time>
      </trkpt>
      <trkpt lat="28.950180" lon="-13.754050">
        <ele>214.430</ele>
        <time>2026-08-12T12:53:06.456Z</time>
      </trkpt>
      <trkpt lat="28.950020" lon="-13.754710">
        <ele>212.994</ele>
        <time>2026-08-12T12:53:26.456Z</time>
      </trkpt>
      <trkpt lat="28.950040" lon="-13.755110">
        <ele>214.037</ele>
        <time>2026-08-12T12:53:46.456Z</time>
      </trkpt>
      <trkpt lat="28.950160" lon="-13.755630">
        <ele>213.453</ele>
        <time>2026-08-12T12:54:06.456Z</time>
      </trkpt>
      <trkpt lat="28.950650" lon="-13.756520">
        <ele>210.112</ele>
        <time>2026-08-12T12:54:26.456Z</time>
      </trkpt>
      <trkpt lat="28.951060" lon="-13.757400">
        <ele>209.356</ele>
        <time>2026-08-12T12:54:46.456Z</time>
      </trkpt>
      <trkpt lat="28.951410" lon="-13.757930">
        <ele>207.241</ele>
        <time>2026-08-12T12:55:06.456Z</time>
      </trkpt>
      <trkpt lat="28.951540" lon="-13.758050">
        <ele>209.264</ele>
        <time>2026-08-12T12:55:26.456Z</time>
      </trkpt>
      <trkpt lat="28.951860" lon="-13.758300">
        <ele>209.706</ele>
        <time>2026-08-12T12:55:46.456Z</time>
      </trkpt>
      <trkpt lat="28.952390" lon="-13.758520">
        <ele>205.816</ele>
        <time>2026-08-12T12:56:06.456Z</time>
      </trkpt>
      <trkpt lat="28.952960" lon="-13.758570">
        <ele>204.007</ele>
        <time>2026-08-12T12:56:26.456Z</time>
      </trkpt>
      <trkpt lat="28.953550" lon="-13.758490">
        <ele>201.777</ele>
        <time>2026-08-12T12:56:46.456Z</time>
      </trkpt>
      <trkpt lat="28.954610" lon="-13.758300">
        <ele>204.951</ele>
        <time>2026-08-12T12:57:06.456Z</time>
      </trkpt>
      <trkpt lat="28.955150" lon="-13.758260">
        <ele>198.064</ele>
        <time>2026-08-12T12:57:26.456Z</time>
      </trkpt>
      <trkpt lat="28.956970" lon="-13.758280">
        <ele>194.780</ele>
        <time>2026-08-12T12:57:46.456Z</time>
      </trkpt>
      <trkpt lat="28.957655" lon="-13.758246">
        <ele>193.459</ele>
        <time>2026-08-12T12:58:06.456Z</time>
      </trkpt>
      <trkpt lat="28.957843" lon="-13.758098">
        <ele>192.683</ele>
        <time>2026-08-12T12:58:26.456Z</time>
      </trkpt>
      <trkpt lat="28.958136" lon="-13.757765">
        <ele>191.558</ele>
        <time>2026-08-12T12:58:46.456Z</time>
      </trkpt>
      <trkpt lat="28.958331" lon="-13.757674">
        <ele>190.879</ele>
        <time>2026-08-12T12:59:06.456Z</time>
      </trkpt>
      <trkpt lat="28.958868" lon="-13.757510">
        <ele>191.905</ele>
        <time>2026-08-12T12:59:26.456Z</time>
      </trkpt>
      <trkpt lat="28.959957" lon="-13.756823">
        <ele>200.125</ele>
        <time>2026-08-12T12:59:46.456Z</time>
      </trkpt>
      <trkpt lat="28.959970" lon="-13.756848">
        <ele>200.107</ele>
        <time>2026-08-12T13:00:06.456Z</time>
      </trkpt>
      <trkpt lat="28.979440" lon="-13.745758">
        <ele>248.768</ele>
        <time>2026-08-12T13:00:26.456Z</time>
      </trkpt>
      <trkpt lat="28.981320" lon="-13.744778">
        <ele>256.892</ele>
        <time>2026-08-12T13:00:46.456Z</time>
      </trkpt>
      <trkpt lat="28.985840" lon="-13.742188">
        <ele>296.095</ele>
        <time>2026-08-12T13:01:06.456Z</time>
      </trkpt>
      <trkpt lat="28.987120" lon="-13.741538">
        <ele>304.291</ele>
        <time>2026-08-12T13:01:26.456Z</time>
      </trkpt>
      <trkpt lat="28.987590" lon="-13.741348">
        <ele>306.580</ele>
        <time>2026-08-12T13:01:46.456Z</time>
      </trkpt>
      <trkpt lat="28.988110" lon="-13.741288">
        <ele>311.654</ele>
        <time>2026-08-12T13:02:06.456Z</time>
      </trkpt>
      <trkpt lat="28.989910" lon="-13.741268">
        <ele>320.149</ele>
        <time>2026-08-12T13:02:26.456Z</time>
      </trkpt>
      <trkpt lat="28.993490" lon="-13.741948">
        <ele>334.527</ele>
        <time>2026-08-12T13:02:46.456Z</time>
      </trkpt>
      <trkpt lat="28.994270" lon="-13.741938">
        <ele>338.468</ele>
        <time>2026-08-12T13:03:06.456Z</time>
      </trkpt>
      <trkpt lat="28.994760" lon="-13.741818">
        <ele>343.814</ele>
        <time>2026-08-12T13:03:26.456Z</time>
      </trkpt>
      <trkpt lat="28.995260" lon="-13.741608">
        <ele>346.707</ele>
        <time>2026-08-12T13:03:46.456Z</time>
      </trkpt>
      <trkpt lat="28.995430" lon="-13.741398">
        <ele>347.063</ele>
        <time>2026-08-12T13:04:06.456Z</time>
      </trkpt>
      <trkpt lat="28.995910" lon="-13.740228">
        <ele>343.087</ele>
        <time>2026-08-12T13:04:26.456Z</time>
      </trkpt>
      <trkpt lat="28.996150" lon="-13.739838">
        <ele>343.170</ele>
        <time>2026-08-12T13:04:46.456Z</time>
      </trkpt>
      <trkpt lat="28.996630" lon="-13.739458">
        <ele>346.696</ele>
        <time>2026-08-12T13:05:06.456Z</time>
      </trkpt>
      <trkpt lat="28.996920" lon="-13.739318">
        <ele>347.155</ele>
        <time>2026-08-12T13:05:26.456Z</time>
      </trkpt>
      <trkpt lat="29.001040" lon="-13.739518">
        <ele>360.189</ele>
        <time>2026-08-12T13:05:46.456Z</time>
      </trkpt>
      <trkpt lat="29.003310" lon="-13.739318">
        <ele>358.584</ele>
        <time>2026-08-12T13:06:06.456Z</time>
      </trkpt>
      <trkpt lat="29.004140" lon="-13.739148">
        <ele>351.498</ele>
        <time>2026-08-12T13:06:26.456Z</time>
      </trkpt>
      <trkpt lat="29.004250" lon="-13.739048">
        <ele>350.315</ele>
        <time>2026-08-12T13:06:46.456Z</time>
      </trkpt>
      <trkpt lat="29.004340" lon="-13.738798">
        <ele>348.526</ele>
        <time>2026-08-12T13:07:06.456Z</time>
      </trkpt>
      <trkpt lat="29.004960" lon="-13.736088">
        <ele>333.807</ele>
        <time>2026-08-12T13:07:26.456Z</time>
      </trkpt>
      <trkpt lat="29.005140" lon="-13.735688">
        <ele>330.690</ele>
        <time>2026-08-12T13:07:46.456Z</time>
      </trkpt>
      <trkpt lat="29.005500" lon="-13.735218">
        <ele>327.794</ele>
        <time>2026-08-12T13:08:06.456Z</time>
      </trkpt>
      <trkpt lat="29.005880" lon="-13.735018">
        <ele>331.327</ele>
        <time>2026-08-12T13:08:26.456Z</time>
      </trkpt>
      <trkpt lat="29.007450" lon="-13.734938">
        <ele>323.393</ele>
        <time>2026-08-12T13:08:46.456Z</time>
      </trkpt>
      <trkpt lat="29.008090" lon="-13.734768">
        <ele>314.532</ele>
        <time>2026-08-12T13:09:06.456Z</time>
      </trkpt>
      <trkpt lat="29.012160" lon="-13.733008">
        <ele>295.246</ele>
        <time>2026-08-12T13:09:26.456Z</time>
      </trkpt>
      <trkpt lat="29.012490" lon="-13.732818">
        <ele>297.091</ele>
        <time>2026-08-12T13:09:46.456Z</time>
      </trkpt>
      <trkpt lat="29.012750" lon="-13.732578">
        <ele>297.262</ele>
        <time>2026-08-12T13:10:06.456Z</time>
      </trkpt>
      <trkpt lat="29.013830" lon="-13.731018">
        <ele>294.483</ele>
        <time>2026-08-12T13:10:26.456Z</time>
      </trkpt>
      <trkpt lat="29.014030" lon="-13.730578">
        <ele>295.011</ele>
        <time>2026-08-12T13:10:46.456Z</time>
      </trkpt>
      <trkpt lat="29.014400" lon="-13.728308">
        <ele>299.307</ele>
        <time>2026-08-12T13:11:06.456Z</time>
      </trkpt>
      <trkpt lat="29.014640" lon="-13.726118">
        <ele>311.337</ele>
        <time>2026-08-12T13:11:26.456Z</time>
      </trkpt>
      <trkpt lat="29.014740" lon="-13.725778">
        <ele>312.351</ele>
        <time>2026-08-12T13:11:46.456Z</time>
      </trkpt>
      <trkpt lat="29.019030" lon="-13.719968">
        <ele>309.464</ele>
        <time>2026-08-12T13:12:06.456Z</time>
      </trkpt>
      <trkpt lat="29.025640" lon="-13.711058">
        <ele>294.520</ele>
        <time>2026-08-12T13:12:26.456Z</time>
      </trkpt>
      <trkpt lat="29.026940" lon="-13.709588">
        <ele>293.019</ele>
        <time>2026-08-12T13:12:46.456Z</time>
      </trkpt>
      <trkpt lat="29.033640" lon="-13.702378">
        <ele>269.993</ele>
        <time>2026-08-12T13:13:06.456Z</time>
      </trkpt>
      <trkpt lat="29.034450" lon="-13.701568">
        <ele>259.958</ele>
        <time>2026-08-12T13:13:26.456Z</time>
      </trkpt>
      <trkpt lat="29.035070" lon="-13.701198">
        <ele>258.353</ele>
        <time>2026-08-12T13:13:46.456Z</time>
      </trkpt>
      <trkpt lat="29.035540" lon="-13.700708">
        <ele>253.304</ele>
        <time>2026-08-12T13:14:06.456Z</time>
      </trkpt>
      <trkpt lat="29.037050" lon="-13.699588">
        <ele>257.314</ele>
        <time>2026-08-12T13:14:26.456Z</time>
      </trkpt>
      <trkpt lat="29.037640" lon="-13.699078">
        <ele>248.007</ele>
        <time>2026-08-12T13:14:46.456Z</time>
      </trkpt>
      <trkpt lat="29.037970" lon="-13.698968">
        <ele>247.666</ele>
        <time>2026-08-12T13:15:06.456Z</time>
      </trkpt>
      <trkpt lat="29.039190" lon="-13.698228">
        <ele>249.870</ele>
        <time>2026-08-12T13:15:26.456Z</time>
      </trkpt>
      <trkpt lat="29.039930" lon="-13.697968">
        <ele>242.763</ele>
        <time>2026-08-12T13:15:46.456Z</time>
      </trkpt>
      <trkpt lat="29.040400" lon="-13.697428">
        <ele>239.699</ele>
        <time>2026-08-12T13:16:06.456Z</time>
      </trkpt>
      <trkpt lat="29.041030" lon="-13.696928">
        <ele>246.788</ele>
        <time>2026-08-12T13:16:26.456Z</time>
      </trkpt>
      <trkpt lat="29.041150" lon="-13.696708">
        <ele>246.152</ele>
        <time>2026-08-12T13:16:46.456Z</time>
      </trkpt>
      <trkpt lat="29.041370" lon="-13.695908">
        <ele>253.097</ele>
        <time>2026-08-12T13:17:06.456Z</time>
      </trkpt>
      <trkpt lat="29.041470" lon="-13.695818">
        <ele>253.577</ele>
        <time>2026-08-12T13:17:26.456Z</time>
      </trkpt>
      <trkpt lat="29.041820" lon="-13.695718">
        <ele>252.961</ele>
        <time>2026-08-12T13:17:46.456Z</time>
      </trkpt>
      <trkpt lat="29.041980" lon="-13.695618">
        <ele>253.227</ele>
        <time>2026-08-12T13:18:06.456Z</time>
      </trkpt>
      <trkpt lat="29.042710" lon="-13.694888">
        <ele>250.507</ele>
        <time>2026-08-12T13:18:26.456Z</time>
      </trkpt>
      <trkpt lat="29.043380" lon="-13.694308">
        <ele>246.998</ele>
        <time>2026-08-12T13:18:46.456Z</time>
      </trkpt>
      <trkpt lat="29.043430" lon="-13.694188">
        <ele>246.912</ele>
        <time>2026-08-12T13:19:06.456Z</time>
      </trkpt>
      <trkpt lat="29.043490" lon="-13.693358">
        <ele>250.795</ele>
        <time>2026-08-12T13:19:26.456Z</time>
      </trkpt>
      <trkpt lat="29.043920" lon="-13.692258">
        <ele>252.071</ele>
        <time>2026-08-12T13:19:46.456Z</time>
      </trkpt>
      <trkpt lat="29.043890" lon="-13.690838">
        <ele>260.030</ele>
        <time>2026-08-12T13:20:06.456Z</time>
      </trkpt>
      <trkpt lat="29.044300" lon="-13.689788">
        <ele>259.524</ele>
        <time>2026-08-12T13:20:26.456Z</time>
      </trkpt>
      <trkpt lat="29.044320" lon="-13.689618">
        <ele>259.399</ele>
        <time>2026-08-12T13:20:46.456Z</time>
      </trkpt>
      <trkpt lat="29.043810" lon="-13.688068">
        <ele>263.021</ele>
        <time>2026-08-12T13:21:06.456Z</time>
      </trkpt>
      <trkpt lat="29.043830" lon="-13.686588">
        <ele>270.041</ele>
        <time>2026-08-12T13:21:26.456Z</time>
      </trkpt>
      <trkpt lat="29.044440" lon="-13.686498">
        <ele>273.005</ele>
        <time>2026-08-12T13:21:46.456Z</time>
      </trkpt>
      <trkpt lat="29.044850" lon="-13.686318">
        <ele>274.007</ele>
        <time>2026-08-12T13:22:06.456Z</time>
      </trkpt>
      <trkpt lat="29.045050" lon="-13.686118">
        <ele>273.043</ele>
        <time>2026-08-12T13:22:26.456Z</time>
      </trkpt>
      <trkpt lat="29.045930" lon="-13.684978">
        <ele>275.957</ele>
        <time>2026-08-12T13:22:46.456Z</time>
      </trkpt>
      <trkpt lat="29.046190" lon="-13.684698">
        <ele>276.190</ele>
        <time>2026-08-12T13:23:06.456Z</time>
      </trkpt>
      <trkpt lat="29.046940" lon="-13.684078">
        <ele>274.396</ele>
        <time>2026-08-12T13:23:26.456Z</time>
      </trkpt>
      <trkpt lat="29.048330" lon="-13.683388">
        <ele>264.635</ele>
        <time>2026-08-12T13:23:46.456Z</time>
      </trkpt>
      <trkpt lat="29.048800" lon="-13.683338">
        <ele>265.869</ele>
        <time>2026-08-12T13:24:06.456Z</time>
      </trkpt>
      <trkpt lat="29.049730" lon="-13.683458">
        <ele>265.114</ele>
        <time>2026-08-12T13:24:26.456Z</time>
      </trkpt>
      <trkpt lat="29.050800" lon="-13.683448">
        <ele>248.091</ele>
        <time>2026-08-12T13:24:46.456Z</time>
      </trkpt>
      <trkpt lat="29.051290" lon="-13.683328">
        <ele>251.681</ele>
        <time>2026-08-12T13:25:06.456Z</time>
      </trkpt>
      <trkpt lat="29.051790" lon="-13.683128">
        <ele>247.119</ele>
        <time>2026-08-12T13:25:26.456Z</time>
      </trkpt>
      <trkpt lat="29.052310" lon="-13.683068">
        <ele>243.607</ele>
        <time>2026-08-12T13:25:46.456Z</time>
      </trkpt>
      <trkpt lat="29.052710" lon="-13.682918">
        <ele>244.380</ele>
        <time>2026-08-12T13:26:06.456Z</time>
      </trkpt>
      <trkpt lat="29.053490" lon="-13.682468">
        <ele>239.964</ele>
        <time>2026-08-12T13:26:26.456Z</time>
      </trkpt>
      <trkpt lat="29.053940" lon="-13.682038">
        <ele>237.317</ele>
        <time>2026-08-12T13:26:46.456Z</time>
      </trkpt>
      <trkpt lat="29.054140" lon="-13.681918">
        <ele>236.453</ele>
        <time>2026-08-12T13:27:06.456Z</time>
      </trkpt>
      <trkpt lat="29.055910" lon="-13.681238">
        <ele>232.892</ele>
        <time>2026-08-12T13:27:26.456Z</time>
      </trkpt>
      <trkpt lat="29.056150" lon="-13.681058">
        <ele>233.096</ele>
        <time>2026-08-12T13:27:46.456Z</time>
      </trkpt>
      <trkpt lat="29.056620" lon="-13.680378">
        <ele>230.141</ele>
        <time>2026-08-12T13:28:06.456Z</time>
      </trkpt>
      <trkpt lat="29.057180" lon="-13.680028">
        <ele>230.095</ele>
        <time>2026-08-12T13:28:26.456Z</time>
      </trkpt>
      <trkpt lat="29.058300" lon="-13.679818">
        <ele>226.049</ele>
        <time>2026-08-12T13:28:46.456Z</time>
      </trkpt>
      <trkpt lat="29.060040" lon="-13.679668">
        <ele>214.123</ele>
        <time>2026-08-12T13:29:06.456Z</time>
      </trkpt>
      <trkpt lat="29.061210" lon="-13.679338">
        <ele>208.907</ele>
        <time>2026-08-12T13:29:26.456Z</time>
      </trkpt>
      <trkpt lat="29.063610" lon="-13.678548">
        <ele>202.520</ele>
        <time>2026-08-12T13:29:46.456Z</time>
      </trkpt>
      <trkpt lat="29.063940" lon="-13.677358">
        <ele>201.814</ele>
        <time>2026-08-12T13:30:06.456Z</time>
      </trkpt>
      <trkpt lat="29.064280" lon="-13.676398">
        <ele>204.737</ele>
        <time>2026-08-12T13:30:26.456Z</time>
      </trkpt>
      <trkpt lat="29.064190" lon="-13.675398">
        <ele>202.633</ele>
        <time>2026-08-12T13:30:46.456Z</time>
      </trkpt>
      <trkpt lat="29.064190" lon="-13.674908">
        <ele>200.512</ele>
        <time>2026-08-12T13:31:06.456Z</time>
      </trkpt>
      <trkpt lat="29.064240" lon="-13.674128">
        <ele>200.276</ele>
        <time>2026-08-12T13:31:26.456Z</time>
      </trkpt>
      <trkpt lat="29.064060" lon="-13.673538">
        <ele>203.841</ele>
        <time>2026-08-12T13:31:46.456Z</time>
      </trkpt>
      <trkpt lat="29.064010" lon="-13.673018">
        <ele>201.381</ele>
        <time>2026-08-12T13:32:06.456Z</time>
      </trkpt>
      <trkpt lat="29.063170" lon="-13.671668">
        <ele>207.061</ele>
        <time>2026-08-12T13:32:26.456Z</time>
      </trkpt>
      <trkpt lat="29.062520" lon="-13.670638">
        <ele>201.017</ele>
        <time>2026-08-12T13:32:46.456Z</time>
      </trkpt>
      <trkpt lat="29.062000" lon="-13.669518">
        <ele>204.707</ele>
        <time>2026-08-12T13:33:06.456Z</time>
      </trkpt>
      <trkpt lat="29.061520" lon="-13.668738">
        <ele>202.539</ele>
        <time>2026-08-12T13:33:26.456Z</time>
      </trkpt>
      <trkpt lat="29.060990" lon="-13.667728">
        <ele>206.883</ele>
        <time>2026-08-12T13:33:46.456Z</time>
      </trkpt>
      <trkpt lat="29.060830" lon="-13.667368">
        <ele>207.026</ele>
        <time>2026-08-12T13:34:06.456Z</time>
      </trkpt>
      <trkpt lat="29.060300" lon="-13.665758">
        <ele>216.122</ele>
        <time>2026-08-12T13:34:26.456Z</time>
      </trkpt>
      <trkpt lat="29.059540" lon="-13.664258">
        <ele>220.481</ele>
        <time>2026-08-12T13:34:46.456Z</time>
      </trkpt>
      <trkpt lat="29.059340" lon="-13.663668">
        <ele>222.155</ele>
        <time>2026-08-12T13:35:06.456Z</time>
      </trkpt>
      <trkpt lat="29.058880" lon="-13.662808">
        <ele>221.160</ele>
        <time>2026-08-12T13:35:26.456Z</time>
      </trkpt>
      <trkpt lat="29.058650" lon="-13.662188">
        <ele>224.638</ele>
        <time>2026-08-12T13:35:46.456Z</time>
      </trkpt>
      <trkpt lat="29.058330" lon="-13.660388">
        <ele>225.570</ele>
        <time>2026-08-12T13:36:06.456Z</time>
      </trkpt>
      <trkpt lat="29.057740" lon="-13.657778">
        <ele>218.817</ele>
        <time>2026-08-12T13:36:26.456Z</time>
      </trkpt>
      <trkpt lat="29.057550" lon="-13.656628">
        <ele>230.207</ele>
        <time>2026-08-12T13:36:46.456Z</time>
      </trkpt>
      <trkpt lat="29.057250" lon="-13.655388">
        <ele>225.484</ele>
        <time>2026-08-12T13:37:06.456Z</time>
      </trkpt>
      <trkpt lat="29.057090" lon="-13.654468">
        <ele>223.348</ele>
        <time>2026-08-12T13:37:26.456Z</time>
      </trkpt>
      <trkpt lat="29.056620" lon="-13.653008">
        <ele>228.331</ele>
        <time>2026-08-12T13:37:46.456Z</time>
      </trkpt>
      <trkpt lat="29.056210" lon="-13.651388">
        <ele>223.737</ele>
        <time>2026-08-12T13:38:06.456Z</time>
      </trkpt>
      <trkpt lat="29.055850" lon="-13.649738">
        <ele>221.126</ele>
        <time>2026-08-12T13:38:26.456Z</time>
      </trkpt>
      <trkpt lat="29.055830" lon="-13.649248">
        <ele>220.730</ele>
        <time>2026-08-12T13:38:46.456Z</time>
      </trkpt>
      <trkpt lat="29.055760" lon="-13.648858">
        <ele>222.615</ele>
        <time>2026-08-12T13:39:06.456Z</time>
      </trkpt>
      <trkpt lat="29.055160" lon="-13.646728">
        <ele>222.495</ele>
        <time>2026-08-12T13:39:26.456Z</time>
      </trkpt>
      <trkpt lat="29.055190" lon="-13.646078">
        <ele>222.049</ele>
        <time>2026-08-12T13:39:46.456Z</time>
      </trkpt>
      <trkpt lat="29.055160" lon="-13.645678">
        <ele>220.023</ele>
        <time>2026-08-12T13:40:06.456Z</time>
      </trkpt>
      <trkpt lat="29.054890" lon="-13.644818">
        <ele>219.507</ele>
        <time>2026-08-12T13:40:26.456Z</time>
      </trkpt>
      <trkpt lat="29.054740" lon="-13.644068">
        <ele>227.750</ele>
        <time>2026-08-12T13:40:46.456Z</time>
      </trkpt>
      <trkpt lat="29.054590" lon="-13.643688">
        <ele>228.044</ele>
        <time>2026-08-12T13:41:06.456Z</time>
      </trkpt>
      <trkpt lat="29.054180" lon="-13.641868">
        <ele>221.217</ele>
        <time>2026-08-12T13:41:26.456Z</time>
      </trkpt>
      <trkpt lat="29.053970" lon="-13.640718">
        <ele>227.143</ele>
        <time>2026-08-12T13:41:46.456Z</time>
      </trkpt>
      <trkpt lat="29.053750" lon="-13.638888">
        <ele>221.582</ele>
        <time>2026-08-12T13:42:06.456Z</time>
      </trkpt>
      <trkpt lat="29.053760" lon="-13.635728">
        <ele>229.046</ele>
        <time>2026-08-12T13:42:26.456Z</time>
      </trkpt>
      <trkpt lat="29.053830" lon="-13.635598">
        <ele>229.061</ele>
        <time>2026-08-12T13:42:46.456Z</time>
      </trkpt>
      <trkpt lat="29.054030" lon="-13.635258">
        <ele>230.463</ele>
        <time>2026-08-12T13:43:06.456Z</time>
      </trkpt>
      <trkpt lat="29.053800" lon="-13.633878">
        <ele>236.744</ele>
        <time>2026-08-12T13:43:26.456Z</time>
      </trkpt>
      <trkpt lat="29.053790" lon="-13.633608">
        <ele>237.318</ele>
        <time>2026-08-12T13:43:46.456Z</time>
      </trkpt>
      <trkpt lat="29.053490" lon="-13.632868">
        <ele>239.607</ele>
        <time>2026-08-12T13:44:06.456Z</time>
      </trkpt>
      <trkpt lat="29.053360" lon="-13.631908">
        <ele>244.467</ele>
        <time>2026-08-12T13:44:26.456Z</time>
      </trkpt>
      <trkpt lat="29.053370" lon="-13.631578">
        <ele>248.751</ele>
        <time>2026-08-12T13:44:46.456Z</time>
      </trkpt>
      <trkpt lat="29.053560" lon="-13.630818">
        <ele>243.264</ele>
        <time>2026-08-12T13:45:06.456Z</time>
      </trkpt>
      <trkpt lat="29.053590" lon="-13.630538">
        <ele>244.130</ele>
        <time>2026-08-12T13:45:26.456Z</time>
      </trkpt>
      <trkpt lat="29.053510" lon="-13.630178">
        <ele>245.729</ele>
        <time>2026-08-12T13:45:46.456Z</time>
      </trkpt>
      <trkpt lat="29.053250" lon="-13.629718">
        <ele>248.383</ele>
        <time>2026-08-12T13:46:06.456Z</time>
      </trkpt>
      <trkpt lat="29.052740" lon="-13.629038">
        <ele>250.258</ele>
        <time>2026-08-12T13:46:26.456Z</time>
      </trkpt>
      <trkpt lat="29.049850" lon="-13.625868">
        <ele>268.072</ele>
        <time>2026-08-12T13:46:46.456Z</time>
      </trkpt>
      <trkpt lat="29.049450" lon="-13.625448">
        <ele>273.413</ele>
        <time>2026-08-12T13:47:06.456Z</time>
      </trkpt>
      <trkpt lat="29.049250" lon="-13.625358">
        <ele>275.714</ele>
        <time>2026-08-12T13:47:26.456Z</time>
      </trkpt>
      <trkpt lat="29.047500" lon="-13.625008">
        <ele>280.907</ele>
        <time>2026-08-12T13:47:46.456Z</time>
      </trkpt>
      <trkpt lat="29.046910" lon="-13.625048">
        <ele>284.868</ele>
        <time>2026-08-12T13:48:06.456Z</time>
      </trkpt>
      <trkpt lat="29.041030" lon="-13.626058">
        <ele>310.292</ele>
        <time>2026-08-12T13:48:26.456Z</time>
      </trkpt>
      <trkpt lat="29.040730" lon="-13.626268">
        <ele>312.855</ele>
        <time>2026-08-12T13:48:46.456Z</time>
      </trkpt>
      <trkpt lat="29.040370" lon="-13.626918">
        <ele>318.221</ele>
        <time>2026-08-12T13:49:06.456Z</time>
      </trkpt>
      <trkpt lat="29.040120" lon="-13.627058">
        <ele>318.030</ele>
        <time>2026-08-12T13:49:26.456Z</time>
      </trkpt>
      <trkpt lat="29.039930" lon="-13.627058">
        <ele>316.524</ele>
        <time>2026-08-12T13:49:46.456Z</time>
      </trkpt>
      <trkpt lat="29.024610" lon="-13.617358">
        <ele>275.559</ele>
        <time>2026-08-12T13:50:06.456Z</time>
      </trkpt>
      <trkpt lat="29.024100" lon="-13.616978">
        <ele>265.583</ele>
        <time>2026-08-12T13:50:26.456Z</time>
      </trkpt>
      <trkpt lat="29.023150" lon="-13.616378">
        <ele>268.025</ele>
        <time>2026-08-12T13:50:46.456Z</time>
      </trkpt>
      <trkpt lat="29.022860" lon="-13.616168">
        <ele>266.217</ele>
        <time>2026-08-12T13:51:06.456Z</time>
      </trkpt>
      <trkpt lat="29.022810" lon="-13.616078">
        <ele>266.207</ele>
        <time>2026-08-12T13:51:26.456Z</time>
      </trkpt>
      <trkpt lat="29.022390" lon="-13.616088">
        <ele>267.589</ele>
        <time>2026-08-12T13:51:46.456Z</time>
      </trkpt>
      <trkpt lat="29.020740" lon="-13.615848">
        <ele>267.623</ele>
        <time>2026-08-12T13:52:06.456Z</time>
      </trkpt>
      <trkpt lat="29.020180" lon="-13.615888">
        <ele>271.536</ele>
        <time>2026-08-12T13:52:26.456Z</time>
      </trkpt>
      <trkpt lat="29.020010" lon="-13.615858">
        <ele>271.052</ele>
        <time>2026-08-12T13:52:46.456Z</time>
      </trkpt>
      <trkpt lat="29.019720" lon="-13.615718">
        <ele>268.041</ele>
        <time>2026-08-12T13:53:06.456Z</time>
      </trkpt>
      <trkpt lat="29.019410" lon="-13.615288">
        <ele>269.185</ele>
        <time>2026-08-12T13:53:26.456Z</time>
      </trkpt>
      <trkpt lat="29.016710" lon="-13.614928">
        <ele>269.590</ele>
        <time>2026-08-12T13:53:46.456Z</time>
      </trkpt>
      <trkpt lat="29.015740" lon="-13.614758">
        <ele>268.879</ele>
        <time>2026-08-12T13:54:06.456Z</time>
      </trkpt>
      <trkpt lat="29.015310" lon="-13.614748">
        <ele>267.205</ele>
        <time>2026-08-12T13:54:26.456Z</time>
      </trkpt>
      <trkpt lat="29.015190" lon="-13.614778">
        <ele>267.525</ele>
        <time>2026-08-12T13:54:46.456Z</time>
      </trkpt>
      <trkpt lat="29.014640" lon="-13.615268">
        <ele>273.107</ele>
        <time>2026-08-12T13:55:06.456Z</time>
      </trkpt>
      <trkpt lat="29.013730" lon="-13.615158">
        <ele>274.718</ele>
        <time>2026-08-12T13:55:26.456Z</time>
      </trkpt>
      <trkpt lat="29.012030" lon="-13.614958">
        <ele>275.622</ele>
        <time>2026-08-12T13:55:46.456Z</time>
      </trkpt>
      <trkpt lat="29.011780" lon="-13.614878">
        <ele>274.485</ele>
        <time>2026-08-12T13:56:06.456Z</time>
      </trkpt>
      <trkpt lat="29.009080" lon="-13.612918">
        <ele>280.051</ele>
        <time>2026-08-12T13:56:26.456Z</time>
      </trkpt>
      <trkpt lat="29.008570" lon="-13.612638">
        <ele>280.210</ele>
        <time>2026-08-12T13:56:46.456Z</time>
      </trkpt>
      <trkpt lat="29.008000" lon="-13.612508">
        <ele>280.814</ele>
        <time>2026-08-12T13:57:06.456Z</time>
      </trkpt>
      <trkpt lat="29.007990" lon="-13.612768">
        <ele>280.579</ele>
        <time>2026-08-12T13:57:26.456Z</time>
      </trkpt>
      <trkpt lat="29.007970" lon="-13.613818">
        <ele>283.687</ele>
        <time>2026-08-12T13:57:46.456Z</time>
      </trkpt>
      <trkpt lat="29.007860" lon="-13.614438">
        <ele>280.142</ele>
        <time>2026-08-12T13:58:06.456Z</time>
      </trkpt>
      <trkpt lat="29.007830" lon="-13.615338">
        <ele>284.026</ele>
        <time>2026-08-12T13:58:26.456Z</time>
      </trkpt>
      <trkpt lat="29.007420" lon="-13.618168">
        <ele>286.607</ele>
        <time>2026-08-12T13:58:46.456Z</time>
      </trkpt>
      <trkpt lat="29.007150" lon="-13.619578">
        <ele>292.119</ele>
        <time>2026-08-12T13:59:06.456Z</time>
      </trkpt>
      <trkpt lat="29.007200" lon="-13.620478">
        <ele>296.563</ele>
        <time>2026-08-12T13:59:26.456Z</time>
      </trkpt>
      <trkpt lat="29.007330" lon="-13.620938">
        <ele>298.886</ele>
        <time>2026-08-12T13:59:46.456Z</time>
      </trkpt>
      <trkpt lat="29.007310" lon="-13.621628">
        <ele>298.892</ele>
        <time>2026-08-12T14:00:06.456Z</time>
      </trkpt>
      <trkpt lat="29.007190" lon="-13.621948">
        <ele>299.071</ele>
        <time>2026-08-12T14:00:26.456Z</time>
      </trkpt>
      <trkpt lat="29.006500" lon="-13.620638">
        <ele>297.895</ele>
        <time>2026-08-12T14:00:46.456Z</time>
      </trkpt>
      <trkpt lat="29.005230" lon="-13.618668">
        <ele>292.570</ele>
        <time>2026-08-12T14:01:06.456Z</time>
      </trkpt>
      <trkpt lat="29.004510" lon="-13.617728">
        <ele>295.086</ele>
        <time>2026-08-12T14:01:26.456Z</time>
      </trkpt>
      <trkpt lat="29.004170" lon="-13.617398">
        <ele>293.660</ele>
        <time>2026-08-12T14:01:46.456Z</time>
      </trkpt>
      <trkpt lat="29.003920" lon="-13.617068">
        <ele>292.726</ele>
        <time>2026-08-12T14:02:06.456Z</time>
      </trkpt>
      <trkpt lat="29.004050" lon="-13.616678">
        <ele>288.807</ele>
        <time>2026-08-12T14:02:26.456Z</time>
      </trkpt>
      <trkpt lat="29.004100" lon="-13.616198">
        <ele>288.689</ele>
        <time>2026-08-12T14:02:46.456Z</time>
      </trkpt>
      <trkpt lat="29.004030" lon="-13.615868">
        <ele>289.593</ele>
        <time>2026-08-12T14:03:06.456Z</time>
      </trkpt>
      <trkpt lat="29.004110" lon="-13.615838">
        <ele>288.066</ele>
        <time>2026-08-12T14:03:26.456Z</time>
      </trkpt>
      <trkpt lat="29.003930" lon="-13.615108">
        <ele>281.452</ele>
        <time>2026-08-12T14:03:46.456Z</time>
      </trkpt>
      <trkpt lat="29.003720" lon="-13.614488">
        <ele>285.151</ele>
        <time>2026-08-12T14:04:06.456Z</time>
      </trkpt>
      <trkpt lat="29.002930" lon="-13.614528">
        <ele>286.955</ele>
        <time>2026-08-12T14:04:26.456Z</time>
      </trkpt>
      <trkpt lat="29.002590" lon="-13.614618">
        <ele>285.430</ele>
        <time>2026-08-12T14:04:46.456Z</time>
      </trkpt>
      <trkpt lat="29.002250" lon="-13.614778">
        <ele>285.083</ele>
        <time>2026-08-12T14:05:06.456Z</time>
      </trkpt>
      <trkpt lat="29.001820" lon="-13.614868">
        <ele>283.625</ele>
        <time>2026-08-12T14:05:26.456Z</time>
      </trkpt>
      <trkpt lat="29.001740" lon="-13.614638">
        <ele>283.017</ele>
        <time>2026-08-12T14:05:46.456Z</time>
      </trkpt>
      <trkpt lat="29.001230" lon="-13.614358">
        <ele>280.707</ele>
        <time>2026-08-12T14:06:06.456Z</time>
      </trkpt>
      <trkpt lat="29.001220" lon="-13.614048">
        <ele>282.439</ele>
        <time>2026-08-12T14:06:26.456Z</time>
      </trkpt>
    </trkseg>
  </trk></gpx>