<?xml version="1.0" encoding="UTF-8"?>
<gpx creator="Wikiloc - https://www.wikiloc.com" version="1.1" xmlns="http://www.topografix.com/GPX/1/1" xmlns:xsi="http://www.w3.org/2001/XMLSchema-instance" xsi:schemaLocation="http://www.topografix.com/GPX/1/1 http://www.topografix.com/GPX/1/1/gpx.xsd">
  <metadata>
    <name>Wikiloc - GRAN CANARIA: Subida al Pico de las Nieves por la costa nort...</name>
    <link href="https://www.wikiloc.com/cycling-trails/gran-canaria-subida-al-pico-de-las-nieves-por-la-costa-norte-15124805">
      <text>GRAN CANARIA: Subida al Pico de las Nieves por la costa nort... on Wikiloc</text>
    </link>
    <time>2016-10-15T13:03:42Z</time>
  </metadata>
  <trk>
    <name>GRAN CANARIA: Subida al Pico de las Nieves por la costa nort... - Wikiloc</name>
    <cmt></cmt>
    <desc></desc>
    <trkseg>
      <trkpt lat="28.127325" lon="-15.454437">
        <ele>24.254</ele>
        <time>2016-10-15T07:09:19Z</time>
      </trkpt>
      <trkpt lat="28.127919" lon="-15.456040">
        <ele>21.856</ele>
        <time>2016-10-15T07:09:27Z</time>
      </trkpt>
      <trkpt lat="28.127866" lon="-15.457335">
        <ele>19.811</ele>
        <time>2016-10-15T07:09:33Z</time>
      </trkpt>
      <trkpt lat="28.127385" lon="-15.459233">
        <ele>17.008</ele>
        <time>2016-10-15T07:09:42Z</time>
      </trkpt>
      <trkpt lat="28.127752" lon="-15.462338">
        <ele>18.436</ele>
        <time>2016-10-15T07:17:20Z</time>
      </trkpt>
      <trkpt lat="28.126164" lon="-15.465564">
        <ele>17.460</ele>
        <time>2016-10-15T07:17:50Z</time>
      </trkpt>
      <trkpt lat="28.125840" lon="-15.467452">
        <ele>16.516</ele>
        <time>2016-10-15T07:18:00Z</time>
      </trkpt>
      <trkpt lat="28.126003" lon="-15.468601">
        <ele>13.697</ele>
        <time>2016-10-15T07:18:07Z</time>
      </trkpt>
      <trkpt lat="28.126561" lon="-15.469638">
        <ele>14.649</ele>
        <time>2016-10-15T07:18:14Z</time>
      </trkpt>
      <trkpt lat="28.130566" lon="-15.474678">
        <ele>36.763</ele>
        <time>2016-10-15T07:18:51Z</time>
      </trkpt>
      <trkpt lat="28.134357" lon="-15.477352">
        <ele>52.575</ele>
        <time>2016-10-15T07:19:18Z</time>
      </trkpt>
      <trkpt lat="28.134950" lon="-15.478288">
        <ele>51.150</ele>
        <time>2016-10-15T07:19:24Z</time>
      </trkpt>
      <trkpt lat="28.135083" lon="-15.478839">
        <ele>51.199</ele>
        <time>2016-10-15T07:19:27Z</time>
      </trkpt>
      <trkpt lat="28.134919" lon="-15.480148">
        <ele>52.507</ele>
        <time>2016-10-15T07:19:34Z</time>
      </trkpt>
      <trkpt lat="28.133783" lon="-15.483063">
        <ele>47.727</ele>
        <time>2016-10-15T07:19:50Z</time>
      </trkpt>
      <trkpt lat="28.133746" lon="-15.484271">
        <ele>42.408</ele>
        <time>2016-10-15T07:19:56Z</time>
      </trkpt>
      <trkpt lat="28.134300" lon="-15.485726">
        <ele>39.140</ele>
        <time>2016-10-15T07:20:04Z</time>
      </trkpt>
      <trkpt lat="28.136233" lon="-15.488378">
        <ele>48.744</ele>
        <time>2016-10-15T07:20:21Z</time>
      </trkpt>
      <trkpt lat="28.140158" lon="-15.493147">
        <ele>78.060</ele>
        <time>2016-10-15T07:20:55Z</time>
      </trkpt>
      <trkpt lat="28.140728" lon="-15.494739">
        <ele>77.551</ele>
        <time>2016-10-15T07:21:04Z</time>
      </trkpt>
      <trkpt lat="28.141713" lon="-15.501755">
        <ele>86.793</ele>
        <time>2016-10-15T07:21:39Z</time>
      </trkpt>
      <trkpt lat="28.143818" lon="-15.510900">
        <ele>95.847</ele>
        <time>2016-10-15T07:38:55Z</time>
      </trkpt>
      <trkpt lat="28.145243" lon="-15.516065">
        <ele>84.789</ele>
        <time>2016-10-15T07:39:19Z</time>
      </trkpt>
      <trkpt lat="28.148025" lon="-15.520525">
        <ele>56.914</ele>
        <time>2016-10-15T07:39:42Z</time>
      </trkpt>
      <trkpt lat="28.149511" lon="-15.521739">
        <ele>51.631</ele>
        <time>2016-10-15T07:39:51Z</time>
      </trkpt>
      <trkpt lat="28.150755" lon="-15.523120">
        <ele>48.261</ele>
        <time>2016-10-15T07:40:00Z</time>
      </trkpt>
      <trkpt lat="28.151884" lon="-15.525231">
        <ele>46.807</ele>
        <time>2016-10-15T07:40:12Z</time>
      </trkpt>
      <trkpt lat="28.152130" lon="-15.526826">
        <ele>44.808</ele>
        <time>2016-10-15T07:40:20Z</time>
      </trkpt>
      <trkpt lat="28.151861" lon="-15.528443">
        <ele>42.474</ele>
        <time>2016-10-15T07:40:28Z</time>
      </trkpt>
      <trkpt lat="28.149734" lon="-15.532946">
        <ele>25.128</ele>
        <time>2016-10-15T07:40:53Z</time>
      </trkpt>
      <trkpt lat="28.149204" lon="-15.535055">
        <ele>18.964</ele>
        <time>2016-10-15T07:41:04Z</time>
      </trkpt>
      <trkpt lat="28.148720" lon="-15.539574">
        <ele>22.715</ele>
        <time>2016-10-15T07:41:31Z</time>
      </trkpt>
      <trkpt lat="28.147299" lon="-15.541776">
        <ele>18.457</ele>
        <time>2016-10-15T07:41:48Z</time>
      </trkpt>
      <trkpt lat="28.146014" lon="-15.545589">
        <ele>9.351</ele>
        <time>2016-10-15T07:42:13Z</time>
      </trkpt>
      <trkpt lat="28.146189" lon="-15.548537">
        <ele>9.383</ele>
        <time>2016-10-15T07:42:33Z</time>
      </trkpt>
      <trkpt lat="28.145508" lon="-15.552608">
        <ele>13.188</ele>
        <time>2016-10-15T07:43:01Z</time>
      </trkpt>
      <trkpt lat="28.145177" lon="-15.557390">
        <ele>23.742</ele>
        <time>2016-10-15T07:43:33Z</time>
      </trkpt>
      <trkpt lat="28.145246" lon="-15.559248">
        <ele>23.722</ele>
        <time>2016-10-15T07:43:49Z</time>
      </trkpt>
      <trkpt lat="28.145480" lon="-15.559712">
        <ele>22.714</ele>
        <time>2016-10-15T07:43:55Z</time>
      </trkpt>
      <trkpt lat="28.145323" lon="-15.561700">
        <ele>21.808</ele>
        <time>2016-10-15T07:44:12Z</time>
      </trkpt>
      <trkpt lat="28.144325" lon="-15.567901">
        <ele>30.935</ele>
        <time>2016-10-15T07:44:56Z</time>
      </trkpt>
      <trkpt lat="28.142511" lon="-15.571774">
        <ele>24.279</ele>
        <time>2016-10-15T07:45:26Z</time>
      </trkpt>
      <trkpt lat="28.142616" lon="-15.572305">
        <ele>22.725</ele>
        <time>2016-10-15T07:45:32Z</time>
      </trkpt>
      <trkpt lat="28.142996" lon="-15.572442">
        <ele>20.326</ele>
        <time>2016-10-15T07:45:36Z</time>
      </trkpt>
      <trkpt lat="28.143263" lon="-15.572769">
        <ele>17.968</ele>
        <time>2016-10-15T07:45:42Z</time>
      </trkpt>
      <trkpt lat="28.143134" lon="-15.573224">
        <ele>15.082</ele>
        <time>2016-10-15T07:45:47Z</time>
      </trkpt>
      <trkpt lat="28.142814" lon="-15.573785">
        <ele>21.894</ele>
        <time>2016-10-15T08:06:20Z</time>
      </trkpt>
      <trkpt lat="28.139990" lon="-15.573907">
        <ele>39.179</ele>
        <time>2016-10-15T08:07:10Z</time>
      </trkpt>
      <trkpt lat="28.138478" lon="-15.574793">
        <ele>53.063</ele>
        <time>2016-10-15T08:07:33Z</time>
      </trkpt>
      <trkpt lat="28.137072" lon="-15.577042">
        <ele>78.544</ele>
        <time>2016-10-15T08:08:05Z</time>
      </trkpt>
      <trkpt lat="28.137290" lon="-15.578086">
        <ele>82.818</ele>
        <time>2016-10-15T08:08:15Z</time>
      </trkpt>
      <trkpt lat="28.137112" lon="-15.578623">
        <ele>87.108</ele>
        <time>2016-10-15T08:08:21Z</time>
      </trkpt>
      <trkpt lat="28.136783" lon="-15.578609">
        <ele>89.557</ele>
        <time>2016-10-15T08:08:25Z</time>
      </trkpt>
      <trkpt lat="28.136384" lon="-15.578264">
        <ele>90.561</ele>
        <time>2016-10-15T08:08:30Z</time>
      </trkpt>
      <trkpt lat="28.135690" lon="-15.577182">
        <ele>101.127</ele>
        <time>2016-10-15T08:08:41Z</time>
      </trkpt>
      <trkpt lat="28.135233" lon="-15.576962">
        <ele>104.968</ele>
        <time>2016-10-15T08:08:46Z</time>
      </trkpt>
      <trkpt lat="28.134670" lon="-15.577106">
        <ele>108.390</ele>
        <time>2016-10-15T08:08:53Z</time>
      </trkpt>
      <trkpt lat="28.134358" lon="-15.577545">
        <ele>113.624</ele>
        <time>2016-10-15T08:09:00Z</time>
      </trkpt>
      <trkpt lat="28.134960" lon="-15.577113">
        <ele>116.596</ele>
        <time>2016-10-15T08:09:11Z</time>
      </trkpt>
      <trkpt lat="28.135510" lon="-15.577467">
        <ele>119.371</ele>
        <time>2016-10-15T08:09:19Z</time>
      </trkpt>
      <trkpt lat="28.136136" lon="-15.579197">
        <ele>129.424</ele>
        <time>2016-10-15T08:09:37Z</time>
      </trkpt>
      <trkpt lat="28.136329" lon="-15.580158">
        <ele>134.704</ele>
        <time>2016-10-15T08:09:47Z</time>
      </trkpt>
      <trkpt lat="28.136237" lon="-15.580473">
        <ele>135.714</ele>
        <time>2016-10-15T08:09:52Z</time>
      </trkpt>
      <trkpt lat="28.136034" lon="-15.580296">
        <ele>137.108</ele>
        <time>2016-10-15T08:09:57Z</time>
      </trkpt>
      <trkpt lat="28.135865" lon="-15.579331">
        <ele>141.023</ele>
        <time>2016-10-15T08:10:07Z</time>
      </trkpt>
      <trkpt lat="28.135072" lon="-15.578145">
        <ele>149.667</ele>
        <time>2016-10-15T08:10:20Z</time>
      </trkpt>
      <trkpt lat="28.132469" lon="-15.578768">
        <ele>154.483</ele>
        <time>2016-10-15T08:10:51Z</time>
      </trkpt>
      <trkpt lat="28.131565" lon="-15.578608">
        <ele>161.634</ele>
        <time>2016-10-15T08:11:02Z</time>
      </trkpt>
      <trkpt lat="28.131040" lon="-15.578317">
        <ele>171.776</ele>
        <time>2016-10-15T08:11:12Z</time>
      </trkpt>
      <trkpt lat="28.132437" lon="-15.576801">
        <ele>183.330</ele>
        <time>2016-10-15T08:11:39Z</time>
      </trkpt>
      <trkpt lat="28.132518" lon="-15.576306">
        <ele>183.362</ele>
        <time>2016-10-15T08:11:46Z</time>
      </trkpt>
      <trkpt lat="28.131750" lon="-15.575024">
        <ele>196.327</ele>
        <time>2016-10-15T08:12:02Z</time>
      </trkpt>
      <trkpt lat="28.131078" lon="-15.571586">
        <ele>218.416</ele>
        <time>2016-10-15T08:12:36Z</time>
      </trkpt>
      <trkpt lat="28.130548" lon="-15.570708">
        <ele>227.076</ele>
        <time>2016-10-15T08:12:53Z</time>
      </trkpt>
      <trkpt lat="28.130686" lon="-15.570846">
        <ele>227.013</ele>
        <time>2016-10-15T08:27:27Z</time>
      </trkpt>
      <trkpt lat="28.129627" lon="-15.570130">
        <ele>235.208</ele>
        <time>2016-10-15T08:27:44Z</time>
      </trkpt>
      <trkpt lat="28.126662" lon="-15.569654">
        <ele>254.952</ele>
        <time>2016-10-15T08:28:17Z</time>
      </trkpt>
      <trkpt lat="28.126372" lon="-15.569171">
        <ele>255.466</ele>
        <time>2016-10-15T08:28:24Z</time>
      </trkpt>
      <trkpt lat="28.126257" lon="-15.568316">
        <ele>256.892</ele>
        <time>2016-10-15T08:28:33Z</time>
      </trkpt>
      <trkpt lat="28.126053" lon="-15.568188">
        <ele>257.393</ele>
        <time>2016-10-15T08:28:37Z</time>
      </trkpt>
      <trkpt lat="28.125529" lon="-15.568217">
        <ele>262.685</ele>
        <time>2016-10-15T08:28:43Z</time>
      </trkpt>
      <trkpt lat="28.124386" lon="-15.568640">
        <ele>271.749</ele>
        <time>2016-10-15T08:28:55Z</time>
      </trkpt>
      <trkpt lat="28.121420" lon="-15.570837">
        <ele>294.891</ele>
        <time>2016-10-15T08:29:25Z</time>
      </trkpt>
      <trkpt lat="28.120986" lon="-15.570921">
        <ele>307.386</ele>
        <time>2016-10-15T08:29:40Z</time>
      </trkpt>
      <trkpt lat="28.120695" lon="-15.571332">
        <ele>314.599</ele>
        <time>2016-10-15T08:29:55Z</time>
      </trkpt>
      <trkpt lat="28.120662" lon="-15.571857">
        <ele>319.807</ele>
        <time>2016-10-15T08:30:10Z</time>
      </trkpt>
      <trkpt lat="28.120320" lon="-15.572324">
        <ele>324.127</ele>
        <time>2016-10-15T08:30:22Z</time>
      </trkpt>
      <trkpt lat="28.120001" lon="-15.572357">
        <ele>323.608</ele>
        <time>2016-10-15T08:30:29Z</time>
      </trkpt>
      <trkpt lat="28.119692" lon="-15.570944">
        <ele>324.120</ele>
        <time>2016-10-15T08:30:50Z</time>
      </trkpt>
      <trkpt lat="28.119919" lon="-15.570185">
        <ele>328.084</ele>
        <time>2016-10-15T08:30:59Z</time>
      </trkpt>
      <trkpt lat="28.121045" lon="-15.568660">
        <ele>339.590</ele>
        <time>2016-10-15T08:31:17Z</time>
      </trkpt>
      <trkpt lat="28.121345" lon="-15.567272">
        <ele>352.931</ele>
        <time>2016-10-15T08:31:33Z</time>
      </trkpt>
      <trkpt lat="28.121027" lon="-15.566841">
        <ele>356.363</ele>
        <time>2016-10-15T08:31:40Z</time>
      </trkpt>
      <trkpt lat="28.120747" lon="-15.567942">
        <ele>368.857</ele>
        <time>2016-10-15T08:31:57Z</time>
      </trkpt>
      <trkpt lat="28.120264" lon="-15.567875">
        <ele>372.299</ele>
        <time>2016-10-15T08:32:03Z</time>
      </trkpt>
      <trkpt lat="28.119987" lon="-15.568018">
        <ele>375.574</ele>
        <time>2016-10-15T08:32:07Z</time>
      </trkpt>
      <trkpt lat="28.118989" lon="-15.569477">
        <ele>395.218</ele>
        <time>2016-10-15T08:44:13Z</time>
      </trkpt>
      <trkpt lat="28.119199" lon="-15.570573">
        <ele>395.798</ele>
        <time>2016-10-15T08:44:51Z</time>
      </trkpt>
      <trkpt lat="28.119038" lon="-15.571505">
        <ele>396.717</ele>
        <time>2016-10-15T08:45:22Z</time>
      </trkpt>
      <trkpt lat="28.119215" lon="-15.572340">
        <ele>399.108</ele>
        <time>2016-10-15T08:45:45Z</time>
      </trkpt>
      <trkpt lat="28.119153" lon="-15.572931">
        <ele>399.632</ele>
        <time>2016-10-15T08:46:00Z</time>
      </trkpt>
      <trkpt lat="28.115918" lon="-15.575214">
        <ele>423.676</ele>
        <time>2016-10-15T08:46:33Z</time>
      </trkpt>
      <trkpt lat="28.114629" lon="-15.575618">
        <ele>431.322</ele>
        <time>2016-10-15T08:46:44Z</time>
      </trkpt>
      <trkpt lat="28.113405" lon="-15.576550">
        <ele>435.193</ele>
        <time>2016-10-15T08:46:56Z</time>
      </trkpt>
      <trkpt lat="28.110516" lon="-15.579366">
        <ele>449.115</ele>
        <time>2016-10-15T08:47:25Z</time>
      </trkpt>
      <trkpt lat="28.108234" lon="-15.581225">
        <ele>464.569</ele>
        <time>2016-10-15T08:47:49Z</time>
      </trkpt>
      <trkpt lat="28.107290" lon="-15.582526">
        <ele>470.261</ele>
        <time>2016-10-15T08:48:02Z</time>
      </trkpt>
      <trkpt lat="28.107273" lon="-15.582918">
        <ele>465.426</ele>
        <time>2016-10-15T08:48:07Z</time>
      </trkpt>
      <trkpt lat="28.107691" lon="-15.583062">
        <ele>471.735</ele>
        <time>2016-10-15T08:48:12Z</time>
      </trkpt>
      <trkpt lat="28.108939" lon="-15.582729">
        <ele>484.686</ele>
        <time>2016-10-15T08:48:35Z</time>
      </trkpt>
      <trkpt lat="28.110229" lon="-15.582606">
        <ele>490.414</ele>
        <time>2016-10-15T08:49:23Z</time>
      </trkpt>
      <trkpt lat="28.110261" lon="-15.583702">
        <ele>490.408</ele>
        <time>2016-10-15T08:49:49Z</time>
      </trkpt>
      <trkpt lat="28.109557" lon="-15.583578">
        <ele>497.194</ele>
        <time>2016-10-15T08:50:08Z</time>
      </trkpt>
      <trkpt lat="28.107620" lon="-15.583860">
        <ele>511.118</ele>
        <time>2016-10-15T09:16:18Z</time>
      </trkpt>
      <trkpt lat="28.104757" lon="-15.585014">
        <ele>509.624</ele>
        <time>2016-10-15T09:16:56Z</time>
      </trkpt>
      <trkpt lat="28.104456" lon="-15.584943">
        <ele>510.685</ele>
        <time>2016-10-15T09:17:03Z</time>
      </trkpt>
      <trkpt lat="28.103789" lon="-15.584097">
        <ele>514.067</ele>
        <time>2016-10-15T09:17:18Z</time>
      </trkpt>
      <trkpt lat="28.102035" lon="-15.583735">
        <ele>523.151</ele>
        <time>2016-10-15T09:17:40Z</time>
      </trkpt>
      <trkpt lat="28.101215" lon="-15.583842">
        <ele>526.543</ele>
        <time>2016-10-15T09:17:50Z</time>
      </trkpt>
      <trkpt lat="28.100949" lon="-15.583662">
        <ele>526.958</ele>
        <time>2016-10-15T09:17:56Z</time>
      </trkpt>
      <trkpt lat="28.101162" lon="-15.583483">
        <ele>528.987</ele>
        <time>2016-10-15T09:18:00Z</time>
      </trkpt>
      <trkpt lat="28.101904" lon="-15.583253">
        <ele>530.342</ele>
        <time>2016-10-15T09:18:08Z</time>
      </trkpt>
      <trkpt lat="28.102996" lon="-15.583238">
        <ele>534.226</ele>
        <time>2016-10-15T09:18:20Z</time>
      </trkpt>
      <trkpt lat="28.103046" lon="-15.582994">
        <ele>536.108</ele>
        <time>2016-10-15T09:18:26Z</time>
      </trkpt>
      <trkpt lat="28.102064" lon="-15.582632">
        <ele>542.849</ele>
        <time>2016-10-15T09:18:41Z</time>
      </trkpt>
      <trkpt lat="28.101838" lon="-15.582308">
        <ele>544.713</ele>
        <time>2016-10-15T09:18:46Z</time>
      </trkpt>
      <trkpt lat="28.101911" lon="-15.581778">
        <ele>545.229</ele>
        <time>2016-10-15T09:18:53Z</time>
      </trkpt>
      <trkpt lat="28.103801" lon="-15.582199">
        <ele>551.940</ele>
        <time>2016-10-15T09:19:15Z</time>
      </trkpt>
      <trkpt lat="28.104179" lon="-15.582198">
        <ele>556.712</ele>
        <time>2016-10-15T09:19:19Z</time>
      </trkpt>
      <trkpt lat="28.104443" lon="-15.581851">
        <ele>560.136</ele>
        <time>2016-10-15T09:19:26Z</time>
      </trkpt>
      <trkpt lat="28.103000" lon="-15.581386">
        <ele>564.478</ele>
        <time>2016-10-15T09:19:41Z</time>
      </trkpt>
      <trkpt lat="28.102207" lon="-15.580778">
        <ele>568.893</ele>
        <time>2016-10-15T09:19:49Z</time>
      </trkpt>
      <trkpt lat="28.101328" lon="-15.580398">
        <ele>573.685</ele>
        <time>2016-10-15T09:19:56Z</time>
      </trkpt>
      <trkpt lat="28.100621" lon="-15.579614">
        <ele>581.389</ele>
        <time>2016-10-15T09:20:04Z</time>
      </trkpt>
      <trkpt lat="28.100234" lon="-15.579610">
        <ele>584.617</ele>
        <time>2016-10-15T09:20:09Z</time>
      </trkpt>
      <trkpt lat="28.099798" lon="-15.580058">
        <ele>588.008</ele>
        <time>2016-10-15T09:20:15Z</time>
      </trkpt>
      <trkpt lat="28.099261" lon="-15.580228">
        <ele>592.839</ele>
        <time>2016-10-15T09:20:21Z</time>
      </trkpt>
      <trkpt lat="28.098727" lon="-15.580134">
        <ele>595.733</ele>
        <time>2016-10-15T09:20:26Z</time>
      </trkpt>
      <trkpt lat="28.098092" lon="-15.580454">
        <ele>599.569</ele>
        <time>2016-10-15T09:20:33Z</time>
      </trkpt>
      <trkpt lat="28.097456" lon="-15.581594">
        <ele>604.370</ele>
        <time>2016-10-15T09:20:43Z</time>
      </trkpt>
      <trkpt lat="28.096561" lon="-15.582400">
        <ele>612.552</ele>
        <time>2016-10-15T09:20:54Z</time>
      </trkpt>
      <trkpt lat="28.094585" lon="-15.583028">
        <ele>630.876</ele>
        <time>2016-10-15T09:21:14Z</time>
      </trkpt>
      <trkpt lat="28.093924" lon="-15.582918">
        <ele>635.618</ele>
        <time>2016-10-15T09:21:21Z</time>
      </trkpt>
      <trkpt lat="28.094008" lon="-15.582015">
        <ele>640.983</ele>
        <time>2016-10-15T09:21:31Z</time>
      </trkpt>
      <trkpt lat="28.093848" lon="-15.581710">
        <ele>643.374</ele>
        <time>2016-10-15T09:21:37Z</time>
      </trkpt>
      <trkpt lat="28.093358" lon="-15.582003">
        <ele>648.156</ele>
        <time>2016-10-15T09:21:45Z</time>
      </trkpt>
      <trkpt lat="28.092282" lon="-15.583775">
        <ele>665.421</ele>
        <time>2016-10-15T09:22:17Z</time>
      </trkpt>
      <trkpt lat="28.091252" lon="-15.584262">
        <ele>672.108</ele>
        <time>2016-10-15T09:22:31Z</time>
      </trkpt>
      <trkpt lat="28.089238" lon="-15.584370">
        <ele>692.848</ele>
        <time>2016-10-15T09:22:51Z</time>
      </trkpt>
      <trkpt lat="28.087807" lon="-15.585457">
        <ele>701.942</ele>
        <time>2016-10-15T09:23:09Z</time>
      </trkpt>
      <trkpt lat="28.087175" lon="-15.585520">
        <ele>705.848</ele>
        <time>2016-10-15T09:23:16Z</time>
      </trkpt>
      <trkpt lat="28.086443" lon="-15.585888">
        <ele>709.139</ele>
        <time>2016-10-15T09:23:24Z</time>
      </trkpt>
      <trkpt lat="28.086180" lon="-15.586628">
        <ele>705.311</ele>
        <time>2016-10-15T09:23:37Z</time>
      </trkpt>
      <trkpt lat="28.085778" lon="-15.586924">
        <ele>702.945</ele>
        <time>2016-10-15T09:23:46Z</time>
      </trkpt>
      <trkpt lat="28.084488" lon="-15.587313">
        <ele>708.617</ele>
        <time>2016-10-15T09:24:02Z</time>
      </trkpt>
      <trkpt lat="28.083920" lon="-15.587751">
        <ele>711.512</ele>
        <time>2016-10-15T09:24:10Z</time>
      </trkpt>
      <trkpt lat="28.083926" lon="-15.588354">
        <ele>709.621</ele>
        <time>2016-10-15T09:24:16Z</time>
      </trkpt>
      <trkpt lat="28.083569" lon="-15.588826">
        <ele>710.141</ele>
        <time>2016-10-15T09:24:23Z</time>
      </trkpt>
      <trkpt lat="28.083698" lon="-15.589051">
        <ele>707.705</ele>
        <time>2016-10-15T09:24:28Z</time>
      </trkpt>
      <trkpt lat="28.084324" lon="-15.588556">
        <ele>705.308</ele>
        <time>2016-10-15T09:24:37Z</time>
      </trkpt>
      <trkpt lat="28.085178" lon="-15.588529">
        <ele>711.063</ele>
        <time>2016-10-15T09:25:00Z</time>
      </trkpt>
      <trkpt lat="28.085595" lon="-15.589119">
        <ele>720.227</ele>
        <time>2016-10-15T09:25:25Z</time>
      </trkpt>
      <trkpt lat="28.086225" lon="-15.588969">
        <ele>726.473</ele>
        <time>2016-10-15T09:25:45Z</time>
      </trkpt>
      <trkpt lat="28.086309" lon="-15.589267">
        <ele>731.744</ele>
        <time>2016-10-15T09:25:55Z</time>
      </trkpt>
      <trkpt lat="28.085761" lon="-15.589444">
        <ele>735.636</ele>
        <time>2016-10-15T09:26:04Z</time>
      </trkpt>
      <trkpt lat="28.085127" lon="-15.589285">
        <ele>741.340</ele>
        <time>2016-10-15T09:26:12Z</time>
      </trkpt>
      <trkpt lat="28.084660" lon="-15.589429">
        <ele>744.732</ele>
        <time>2016-10-15T09:26:18Z</time>
      </trkpt>
      <trkpt lat="28.083938" lon="-15.590379">
        <ele>752.957</ele>
        <time>2016-10-15T09:26:28Z</time>
      </trkpt>
      <trkpt lat="28.082532" lon="-15.591658">
        <ele>767.356</ele>
        <time>2016-10-15T09:26:41Z</time>
      </trkpt>
      <trkpt lat="28.082009" lon="-15.591936">
        <ele>773.059</ele>
        <time>2016-10-15T09:26:46Z</time>
      </trkpt>
      <trkpt lat="28.081141" lon="-15.592958">
        <ele>798.514</ele>
        <time>2016-10-15T09:30:20Z</time>
      </trkpt>
      <trkpt lat="28.080463" lon="-15.593229">
        <ele>798.008</ele>
        <time>2016-10-15T09:30:30Z</time>
      </trkpt>
      <trkpt lat="28.078874" lon="-15.593366">
        <ele>798.556</ele>
        <time>2016-10-15T09:30:49Z</time>
      </trkpt>
      <trkpt lat="28.078520" lon="-15.592496">
        <ele>798.020</ele>
        <time>2016-10-15T09:31:03Z</time>
      </trkpt>
      <trkpt lat="28.077713" lon="-15.592297">
        <ele>801.436</ele>
        <time>2016-10-15T09:31:17Z</time>
      </trkpt>
      <trkpt lat="28.077670" lon="-15.591659">
        <ele>801.487</ele>
        <time>2016-10-15T09:31:24Z</time>
      </trkpt>
      <trkpt lat="28.077191" lon="-15.591050">
        <ele>805.239</ele>
        <time>2016-10-15T09:31:32Z</time>
      </trkpt>
      <trkpt lat="28.076984" lon="-15.590417">
        <ele>811.573</ele>
        <time>2016-10-15T09:31:42Z</time>
      </trkpt>
      <trkpt lat="28.076165" lon="-15.590948">
        <ele>818.755</ele>
        <time>2016-10-15T09:31:55Z</time>
      </trkpt>
      <trkpt lat="28.075061" lon="-15.592324">
        <ele>827.440</ele>
        <time>2016-10-15T09:32:12Z</time>
      </trkpt>
      <trkpt lat="28.074669" lon="-15.592451">
        <ele>831.789</ele>
        <time>2016-10-15T09:32:17Z</time>
      </trkpt>
      <trkpt lat="28.073953" lon="-15.592563">
        <ele>839.906</ele>
        <time>2016-10-15T09:32:24Z</time>
      </trkpt>
      <trkpt lat="28.072287" lon="-15.592390">
        <ele>860.526</ele>
        <time>2016-10-15T09:32:38Z</time>
      </trkpt>
      <trkpt lat="28.071324" lon="-15.592471">
        <ele>871.608</ele>
        <time>2016-10-15T09:32:47Z</time>
      </trkpt>
      <trkpt lat="28.070896" lon="-15.592085">
        <ele>874.929</ele>
        <time>2016-10-15T09:32:54Z</time>
      </trkpt>
      <trkpt lat="28.071480" lon="-15.591615">
        <ele>866.333</ele>
        <time>2016-10-15T09:52:40Z</time>
      </trkpt>
      <trkpt lat="28.070839" lon="-15.591627">
        <ele>872.189</ele>
        <time>2016-10-15T09:52:53Z</time>
      </trkpt>
      <trkpt lat="28.069726" lon="-15.592503">
        <ele>883.180</ele>
        <time>2016-10-15T09:53:14Z</time>
      </trkpt>
      <trkpt lat="28.069634" lon="-15.593609">
        <ele>892.282</ele>
        <time>2016-10-15T09:53:29Z</time>
      </trkpt>
      <trkpt lat="28.069186" lon="-15.594253">
        <ele>899.976</ele>
        <time>2016-10-15T09:53:38Z</time>
      </trkpt>
      <trkpt lat="28.068720" lon="-15.594439">
        <ele>908.198</ele>
        <time>2016-10-15T09:53:44Z</time>
      </trkpt>
      <trkpt lat="28.067524" lon="-15.594424">
        <ele>923.013</ele>
        <time>2016-10-15T09:53:59Z</time>
      </trkpt>
      <trkpt lat="28.066896" lon="-15.594615">
        <ele>931.246</ele>
        <time>2016-10-15T09:54:06Z</time>
      </trkpt>
      <trkpt lat="28.066749" lon="-15.595015">
        <ele>935.588</ele>
        <time>2016-10-15T09:54:10Z</time>
      </trkpt>
      <trkpt lat="28.066204" lon="-15.595286">
        <ele>939.416</ele>
        <time>2016-10-15T09:54:16Z</time>
      </trkpt>
      <trkpt lat="28.065628" lon="-15.596023">
        <ele>943.708</ele>
        <time>2016-10-15T09:54:23Z</time>
      </trkpt>
      <trkpt lat="28.065591" lon="-15.596706">
        <ele>940.875</ele>
        <time>2016-10-15T09:54:28Z</time>
      </trkpt>
      <trkpt lat="28.065127" lon="-15.597148">
        <ele>943.299</ele>
        <time>2016-10-15T09:54:34Z</time>
      </trkpt>
      <trkpt lat="28.064862" lon="-15.597710">
        <ele>949.035</ele>
        <time>2016-10-15T09:54:39Z</time>
      </trkpt>
      <trkpt lat="28.064244" lon="-15.598118">
        <ele>961.026</ele>
        <time>2016-10-15T09:54:46Z</time>
      </trkpt>
      <trkpt lat="28.063822" lon="-15.597915">
        <ele>962.468</ele>
        <time>2016-10-15T09:54:50Z</time>
      </trkpt>
      <trkpt lat="28.063349" lon="-15.598069">
        <ele>961.552</ele>
        <time>2016-10-15T09:54:55Z</time>
      </trkpt>
      <trkpt lat="28.062402" lon="-15.597978">
        <ele>965.814</ele>
        <time>2016-10-15T09:55:03Z</time>
      </trkpt>
      <trkpt lat="28.062005" lon="-15.598150">
        <ele>968.719</ele>
        <time>2016-10-15T09:55:07Z</time>
      </trkpt>
      <trkpt lat="28.059927" lon="-15.600306">
        <ele>980.788</ele>
        <time>2016-10-15T09:55:33Z</time>
      </trkpt>
      <trkpt lat="28.059762" lon="-15.600700">
        <ele>985.024</ele>
        <time>2016-10-15T09:55:38Z</time>
      </trkpt>
      <trkpt lat="28.060775" lon="-15.601228">
        <ele>991.326</ele>
        <time>2016-10-15T09:55:50Z</time>
      </trkpt>
      <trkpt lat="28.062166" lon="-15.601372">
        <ele>999.008</ele>
        <time>2016-10-15T09:56:04Z</time>
      </trkpt>
      <trkpt lat="28.062584" lon="-15.602243">
        <ele>999.029</ele>
        <time>2016-10-15T09:56:13Z</time>
      </trkpt>
      <trkpt lat="28.062391" lon="-15.602727">
        <ele>1000.483</ele>
        <time>2016-10-15T09:56:18Z</time>
      </trkpt>
      <trkpt lat="28.061532" lon="-15.603680">
        <ele>1002.399</ele>
        <time>2016-10-15T09:56:29Z</time>
      </trkpt>
      <trkpt lat="28.060712" lon="-15.603922">
        <ele>999.020</ele>
        <time>2016-10-15T09:56:36Z</time>
      </trkpt>
      <trkpt lat="28.059972" lon="-15.604557">
        <ele>993.792</ele>
        <time>2016-10-15T09:56:44Z</time>
      </trkpt>
      <trkpt lat="28.059144" lon="-15.604430">
        <ele>988.966</ele>
        <time>2016-10-15T09:56:52Z</time>
      </trkpt>
      <trkpt lat="28.057891" lon="-15.604694">
        <ele>984.188</ele>
        <time>2016-10-15T09:57:03Z</time>
      </trkpt>
      <trkpt lat="28.057392" lon="-15.605084">
        <ele>981.683</ele>
        <time>2016-10-15T09:57:10Z</time>
      </trkpt>
      <trkpt lat="28.057482" lon="-15.605677">
        <ele>984.548</ele>
        <time>2016-10-15T09:57:15Z</time>
      </trkpt>
      <trkpt lat="28.057808" lon="-15.606221">
        <ele>988.961</ele>
        <time>2016-10-15T09:57:20Z</time>
      </trkpt>
      <trkpt lat="28.058870" lon="-15.606679">
        <ele>994.117</ele>
        <time>2016-10-15T09:57:31Z</time>
      </trkpt>
      <trkpt lat="28.059051" lon="-15.606972">
        <ele>994.608</ele>
        <time>2016-10-15T09:57:37Z</time>
      </trkpt>
      <trkpt lat="28.058708" lon="-15.607063">
        <ele>998.555</ele>
        <time>2016-10-15T10:10:13Z</time>
      </trkpt>
      <trkpt lat="28.058146" lon="-15.606822">
        <ele>1004.759</ele>
        <time>2016-10-15T10:10:21Z</time>
      </trkpt>
      <trkpt lat="28.057550" lon="-15.606914">
        <ele>1012.955</ele>
        <time>2016-10-15T10:10:30Z</time>
      </trkpt>
      <trkpt lat="28.057301" lon="-15.606625">
        <ele>1028.856</ele>
        <time>2016-10-15T10:32:00Z</time>
      </trkpt>
      <trkpt lat="28.057286" lon="-15.606937">
        <ele>1033.678</ele>
        <time>2016-10-15T10:44:26Z</time>
      </trkpt>
      <trkpt lat="28.056824" lon="-15.606964">
        <ele>1032.682</ele>
        <time>2016-10-15T10:44:36Z</time>
      </trkpt>
      <trkpt lat="28.056647" lon="-15.607302">
        <ele>1035.524</ele>
        <time>2016-10-15T10:44:43Z</time>
      </trkpt>
      <trkpt lat="28.056825" lon="-15.607781">
        <ele>1036.939</ele>
        <time>2016-10-15T10:44:51Z</time>
      </trkpt>
      <trkpt lat="28.056332" lon="-15.608936">
        <ele>1036.499</ele>
        <time>2016-10-15T10:45:10Z</time>
      </trkpt>
      <trkpt lat="28.056587" lon="-15.610152">
        <ele>1037.907</ele>
        <time>2016-10-15T10:45:21Z</time>
      </trkpt>
      <trkpt lat="28.056959" lon="-15.610570">
        <ele>1039.827</ele>
        <time>2016-10-15T10:45:27Z</time>
      </trkpt>
      <trkpt lat="28.057744" lon="-15.610009">
        <ele>1037.408</ele>
        <time>2016-10-15T10:45:34Z</time>
      </trkpt>
      <trkpt lat="28.059025" lon="-15.609589">
        <ele>1032.620</ele>
        <time>2016-10-15T10:45:43Z</time>
      </trkpt>
      <trkpt lat="28.060363" lon="-15.608834">
        <ele>1025.914</ele>
        <time>2016-10-15T10:45:55Z</time>
      </trkpt>
      <trkpt lat="28.060808" lon="-15.608919">
        <ele>1027.330</ele>
        <time>2016-10-15T10:46:01Z</time>
      </trkpt>
      <trkpt lat="28.060827" lon="-15.609356">
        <ele>1029.791</ele>
        <time>2016-10-15T10:46:08Z</time>
      </trkpt>
      <trkpt lat="28.060239" lon="-15.609806">
        <ele>1030.723</ele>
        <time>2016-10-15T10:46:20Z</time>
      </trkpt>
      <trkpt lat="28.060151" lon="-15.610347">
        <ele>1031.287</ele>
        <time>2016-10-15T10:46:28Z</time>
      </trkpt>
      <trkpt lat="28.060362" lon="-15.610740">
        <ele>1031.639</ele>
        <time>2016-10-15T10:46:33Z</time>
      </trkpt>
      <trkpt lat="28.061124" lon="-15.611027">
        <ele>1036.084</ele>
        <time>2016-10-15T10:46:42Z</time>
      </trkpt>
      <trkpt lat="28.061305" lon="-15.611435">
        <ele>1038.858</ele>
        <time>2016-10-15T10:46:48Z</time>
      </trkpt>
      <trkpt lat="28.060131" lon="-15.611469">
        <ele>1046.152</ele>
        <time>2016-10-15T10:46:59Z</time>
      </trkpt>
      <trkpt lat="28.059215" lon="-15.612036">
        <ele>1054.217</ele>
        <time>2016-10-15T10:47:08Z</time>
      </trkpt>
      <trkpt lat="28.058136" lon="-15.612060">
        <ele>1063.408</ele>
        <time>2016-10-15T10:47:17Z</time>
      </trkpt>
      <trkpt lat="28.056767" lon="-15.612574">
        <ele>1075.416</ele>
        <time>2016-10-15T10:47:27Z</time>
      </trkpt>
      <trkpt lat="28.056421" lon="-15.613031">
        <ele>1082.110</ele>
        <time>2016-10-15T10:47:33Z</time>
      </trkpt>
      <trkpt lat="28.056839" lon="-15.613316">
        <ele>1085.586</ele>
        <time>2016-10-15T10:47:38Z</time>
      </trkpt>
      <trkpt lat="28.057061" lon="-15.613743">
        <ele>1087.967</ele>
        <time>2016-10-15T10:47:43Z</time>
      </trkpt>
      <trkpt lat="28.056552" lon="-15.614156">
        <ele>1089.359</ele>
        <time>2016-10-15T10:47:49Z</time>
      </trkpt>
      <trkpt lat="28.056509" lon="-15.614607">
        <ele>1092.233</ele>
        <time>2016-10-15T10:47:55Z</time>
      </trkpt>
      <trkpt lat="28.057109" lon="-15.615121">
        <ele>1089.885</ele>
        <time>2016-10-15T10:48:02Z</time>
      </trkpt>
      <trkpt lat="28.057864" lon="-15.615309">
        <ele>1092.290</ele>
        <time>2016-10-15T10:48:08Z</time>
      </trkpt>
      <trkpt lat="28.058501" lon="-15.615751">
        <ele>1093.661</ele>
        <time>2016-10-15T10:48:14Z</time>
      </trkpt>
      <trkpt lat="28.058636" lon="-15.616554">
        <ele>1098.921</ele>
        <time>2016-10-15T10:48:20Z</time>
      </trkpt>
      <trkpt lat="28.059127" lon="-15.617472">
        <ele>1102.813</ele>
        <time>2016-10-15T10:48:30Z</time>
      </trkpt>
      <trkpt lat="28.059615" lon="-15.617547">
        <ele>1104.208</ele>
        <time>2016-10-15T10:48:36Z</time>
      </trkpt>
      <trkpt lat="28.059764" lon="-15.617795">
        <ele>1100.417</ele>
        <time>2016-10-15T10:48:41Z</time>
      </trkpt>
      <trkpt lat="28.058998" lon="-15.618222">
        <ele>1104.731</ele>
        <time>2016-10-15T10:48:50Z</time>
      </trkpt>
      <trkpt lat="28.058782" lon="-15.618769">
        <ele>1104.797</ele>
        <time>2016-10-15T10:48:56Z</time>
      </trkpt>
      <trkpt lat="28.059350" lon="-15.618963">
        <ele>1103.328</ele>
        <time>2016-10-15T10:49:02Z</time>
      </trkpt>
      <trkpt lat="28.060273" lon="-15.619763">
        <ele>1105.710</ele>
        <time>2016-10-15T10:49:13Z</time>
      </trkpt>
      <trkpt lat="28.060382" lon="-15.620101">
        <ele>1109.034</ele>
        <time>2016-10-15T10:49:20Z</time>
      </trkpt>
      <trkpt lat="28.059958" lon="-15.620146">
        <ele>1111.446</ele>
        <time>2016-10-15T10:49:27Z</time>
      </trkpt>
      <trkpt lat="28.058203" lon="-15.619295">
        <ele>1123.481</ele>
        <time>2016-10-15T10:49:46Z</time>
      </trkpt>
      <trkpt lat="28.057741" lon="-15.618742">
        <ele>1132.623</ele>
        <time>2016-10-15T10:49:53Z</time>
      </trkpt>
      <trkpt lat="28.057791" lon="-15.618422">
        <ele>1135.583</ele>
        <time>2016-10-15T10:49:56Z</time>
      </trkpt>
      <trkpt lat="28.057353" lon="-15.618200">
        <ele>1141.711</ele>
        <time>2016-10-15T10:50:03Z</time>
      </trkpt>
      <trkpt lat="28.056727" lon="-15.617461">
        <ele>1150.808</ele>
        <time>2016-10-15T10:50:13Z</time>
      </trkpt>
      <trkpt lat="28.056060" lon="-15.617092">
        <ele>1160.013</ele>
        <time>2016-10-15T10:50:20Z</time>
      </trkpt>
      <trkpt lat="28.055016" lon="-15.616924">
        <ele>1173.097</ele>
        <time>2016-10-15T10:50:30Z</time>
      </trkpt>
      <trkpt lat="28.054675" lon="-15.617265">
        <ele>1182.643</ele>
        <time>2016-10-15T10:50:38Z</time>
      </trkpt>
      <trkpt lat="28.054796" lon="-15.618030">
        <ele>1194.184</ele>
        <time>2016-10-15T10:50:50Z</time>
      </trkpt>
      <trkpt lat="28.054653" lon="-15.618369">
        <ele>1199.966</ele>
        <time>2016-10-15T10:50:57Z</time>
      </trkpt>
      <trkpt lat="28.054862" lon="-15.618679">
        <ele>1202.820</ele>
        <time>2016-10-15T10:51:05Z</time>
      </trkpt>
      <trkpt lat="28.055257" lon="-15.618649">
        <ele>1207.192</ele>
        <time>2016-10-15T10:51:11Z</time>
      </trkpt>
      <trkpt lat="28.055413" lon="-15.618824">
        <ele>1210.097</ele>
        <time>2016-10-15T10:51:17Z</time>
      </trkpt>
      <trkpt lat="28.054744" lon="-15.619161">
        <ele>1222.525</ele>
        <time>2016-10-15T10:51:29Z</time>
      </trkpt>
      <trkpt lat="28.054031" lon="-15.618989">
        <ele>1227.726</ele>
        <time>2016-10-15T10:53:46Z</time>
      </trkpt>
      <trkpt lat="28.053821" lon="-15.618521">
        <ele>1231.608</ele>
        <time>2016-10-15T10:53:55Z</time>
      </trkpt>
      <trkpt lat="28.053712" lon="-15.618634">
        <ele>1239.308</ele>
        <time>2016-10-15T10:54:01Z</time>
      </trkpt>
      <trkpt lat="28.053889" lon="-15.619258">
        <ele>1245.543</ele>
        <time>2016-10-15T10:54:11Z</time>
      </trkpt>
      <trkpt lat="28.053679" lon="-15.619589">
        <ele>1248.457</ele>
        <time>2016-10-15T10:54:18Z</time>
      </trkpt>
      <trkpt lat="28.053255" lon="-15.619567">
        <ele>1250.813</ele>
        <time>2016-10-15T10:54:23Z</time>
      </trkpt>
      <trkpt lat="28.052963" lon="-15.619352">
        <ele>1252.784</ele>
        <time>2016-10-15T10:54:28Z</time>
      </trkpt>
      <trkpt lat="28.052524" lon="-15.618324">
        <ele>1255.156</ele>
        <time>2016-10-15T10:54:44Z</time>
      </trkpt>
      <trkpt lat="28.049480" lon="-15.619400">
        <ele>1283.550</ele>
        <time>2016-10-15T10:59:23Z</time>
      </trkpt>
      <trkpt lat="28.048631" lon="-15.620147">
        <ele>1290.222</ele>
        <time>2016-10-15T10:59:34Z</time>
      </trkpt>
      <trkpt lat="28.047468" lon="-15.620448">
        <ele>1297.437</ele>
        <time>2016-10-15T10:59:45Z</time>
      </trkpt>
      <trkpt lat="28.047067" lon="-15.620316">
        <ele>1302.256</ele>
        <time>2016-10-15T10:59:49Z</time>
      </trkpt>
      <trkpt lat="28.045425" lon="-15.618980">
        <ele>1316.259</ele>
        <time>2016-10-15T11:00:14Z</time>
      </trkpt>
      <trkpt lat="28.045127" lon="-15.617727">
        <ele>1319.614</ele>
        <time>2016-10-15T11:00:29Z</time>
      </trkpt>
      <trkpt lat="28.044742" lon="-15.617593">
        <ele>1327.708</ele>
        <time>2016-10-15T11:00:36Z</time>
      </trkpt>
      <trkpt lat="28.044549" lon="-15.617951">
        <ele>1330.656</ele>
        <time>2016-10-15T11:00:41Z</time>
      </trkpt>
      <trkpt lat="28.044183" lon="-15.618074">
        <ele>1335.430</ele>
        <time>2016-10-15T11:04:38Z</time>
      </trkpt>
      <trkpt lat="28.043355" lon="-15.616652">
        <ele>1346.516</ele>
        <time>2016-10-15T11:09:01Z</time>
      </trkpt>
      <trkpt lat="28.043239" lon="-15.616746">
        <ele>1348.927</ele>
        <time>2016-10-15T11:09:08Z</time>
      </trkpt>
      <trkpt lat="28.043567" lon="-15.618540">
        <ele>1362.389</ele>
        <time>2016-10-15T11:09:36Z</time>
      </trkpt>
      <trkpt lat="28.044489" lon="-15.619620">
        <ele>1375.893</ele>
        <time>2016-10-15T11:09:57Z</time>
      </trkpt>
      <trkpt lat="28.043413" lon="-15.619140">
        <ele>1384.015</ele>
        <time>2016-10-15T11:12:17Z</time>
      </trkpt>
      <trkpt lat="28.041516" lon="-15.615480">
        <ele>1432.570</ele>
        <time>2016-10-15T11:13:02Z</time>
      </trkpt>
      <trkpt lat="28.041203" lon="-15.615277">
        <ele>1440.741</ele>
        <time>2016-10-15T11:13:07Z</time>
      </trkpt>
      <trkpt lat="28.037664" lon="-15.616324">
        <ele>1490.281</ele>
        <time>2016-10-15T11:13:42Z</time>
      </trkpt>
      <trkpt lat="28.036299" lon="-15.615863">
        <ele>1501.709</ele>
        <time>2016-10-15T11:13:57Z</time>
      </trkpt>
      <trkpt lat="28.035418" lon="-15.616188">
        <ele>1509.908</ele>
        <time>2016-10-15T11:14:06Z</time>
      </trkpt>
      <trkpt lat="28.034651" lon="-15.616043">
        <ele>1518.575</ele>
        <time>2016-10-15T11:14:13Z</time>
      </trkpt>
      <trkpt lat="28.033930" lon="-15.615144">
        <ele>1519.599</ele>
        <time>2016-10-15T11:14:31Z</time>
      </trkpt>
      <trkpt lat="28.034221" lon="-15.616022">
        <ele>1524.345</ele>
        <time>2016-10-15T11:14:49Z</time>
      </trkpt>
      <trkpt lat="28.034511" lon="-15.616331">
        <ele>1523.856</ele>
        <time>2016-10-15T11:14:54Z</time>
      </trkpt>
      <trkpt lat="28.035830" lon="-15.616854">
        <ele>1526.748</ele>
        <time>2016-10-15T11:15:09Z</time>
      </trkpt>
      <trkpt lat="28.038352" lon="-15.617407">
        <ele>1548.862</ele>
        <time>2016-10-15T11:15:37Z</time>
      </trkpt>
      <trkpt lat="28.038668" lon="-15.617731">
        <ele>1554.674</ele>
        <time>2016-10-15T11:15:43Z</time>
      </trkpt>
      <trkpt lat="28.038760" lon="-15.618309">
        <ele>1562.389</ele>
        <time>2016-10-15T11:15:52Z</time>
      </trkpt>
      <trkpt lat="28.038753" lon="-15.618537">
        <ele>1566.651</ele>
        <time>2016-10-15T11:17:37Z</time>
      </trkpt>
      <trkpt lat="28.037358" lon="-15.618344">
        <ele>1569.501</ele>
        <time>2016-10-15T11:41:22Z</time>
      </trkpt>
      <trkpt lat="28.035918" lon="-15.618849">
        <ele>1580.511</ele>
        <time>2016-10-15T11:41:40Z</time>
      </trkpt>
      <trkpt lat="28.035069" lon="-15.621071">
        <ele>1585.408</ele>
        <time>2016-10-15T11:42:02Z</time>
      </trkpt>
      <trkpt lat="28.034571" lon="-15.621459">
        <ele>1586.826</ele>
        <time>2016-10-15T11:42:08Z</time>
      </trkpt>
      <trkpt lat="28.034130" lon="-15.621076">
        <ele>1585.410</ele>
        <time>2016-10-15T11:42:13Z</time>
      </trkpt>
      <trkpt lat="28.033733" lon="-15.619689">
        <ele>1588.246</ele>
        <time>2016-10-15T11:42:23Z</time>
      </trkpt>
      <trkpt lat="28.033134" lon="-15.618997">
        <ele>1590.677</ele>
        <time>2016-10-15T11:42:31Z</time>
      </trkpt>
      <trkpt lat="28.032456" lon="-15.618546">
        <ele>1591.629</ele>
        <time>2016-10-15T11:42:38Z</time>
      </trkpt>
      <trkpt lat="28.031197" lon="-15.618111">
        <ele>1592.163</ele>
        <time>2016-10-15T11:42:49Z</time>
      </trkpt>
      <trkpt lat="28.028212" lon="-15.616029">
        <ele>1595.975</ele>
        <time>2016-10-15T11:47:54Z</time>
      </trkpt>
      <trkpt lat="28.026622" lon="-15.615241">
        <ele>1600.720</ele>
        <time>2016-10-15T11:48:09Z</time>
      </trkpt>
      <trkpt lat="28.025640" lon="-15.613931">
        <ele>1604.197</ele>
        <time>2016-10-15T11:48:22Z</time>
      </trkpt>
      <trkpt lat="28.024952" lon="-15.613455">
        <ele>1605.123</ele>
        <time>2016-10-15T11:48:29Z</time>
      </trkpt>
      <trkpt lat="28.024099" lon="-15.613368">
        <ele>1607.925</ele>
        <time>2016-10-15T11:48:36Z</time>
      </trkpt>
      <trkpt lat="28.023766" lon="-15.612954">
        <ele>1609.408</ele>
        <time>2016-10-15T11:48:42Z</time>
      </trkpt>
      <trkpt lat="28.024052" lon="-15.612669">
        <ele>1608.910</ele>
        <time>2016-10-15T11:48:46Z</time>
      </trkpt>
      <trkpt lat="28.025449" lon="-15.612306">
        <ele>1607.994</ele>
        <time>2016-10-15T11:48:59Z</time>
      </trkpt>
      <trkpt lat="28.025652" lon="-15.611983">
        <ele>1604.670</ele>
        <time>2016-10-15T11:49:05Z</time>
      </trkpt>
      <trkpt lat="28.024997" lon="-15.611240">
        <ele>1601.751</ele>
        <time>2016-10-15T11:49:14Z</time>
      </trkpt>
      <trkpt lat="28.024672" lon="-15.610274">
        <ele>1598.873</ele>
        <time>2016-10-15T11:49:23Z</time>
      </trkpt>
      <trkpt lat="28.024317" lon="-15.609949">
        <ele>1598.317</ele>
        <time>2016-10-15T11:49:29Z</time>
      </trkpt>
      <trkpt lat="28.022694" lon="-15.609992">
        <ele>1593.099</ele>
        <time>2016-10-15T11:49:42Z</time>
      </trkpt>
      <trkpt lat="28.022393" lon="-15.609762">
        <ele>1594.014</ele>
        <time>2016-10-15T11:49:47Z</time>
      </trkpt>
      <trkpt lat="28.022607" lon="-15.608287">
        <ele>1593.036</ele>
        <time>2016-10-15T11:50:00Z</time>
      </trkpt>
      <trkpt lat="28.022227" lon="-15.607890">
        <ele>1595.017</ele>
        <time>2016-10-15T11:50:07Z</time>
      </trkpt>
      <trkpt lat="28.020963" lon="-15.607625">
        <ele>1593.518</ele>
        <time>2016-10-15T11:50:19Z</time>
      </trkpt>
      <trkpt lat="28.020831" lon="-15.607232">
        <ele>1591.108</ele>
        <time>2016-10-15T11:50:24Z</time>
      </trkpt>
      <trkpt lat="28.021087" lon="-15.606901">
        <ele>1590.264</ele>
        <time>2016-10-15T11:50:28Z</time>
      </trkpt>
      <trkpt lat="28.021098" lon="-15.606432">
        <ele>1590.638</ele>
        <time>2016-10-15T11:50:34Z</time>
      </trkpt>
      <trkpt lat="28.020496" lon="-15.606465">
        <ele>1591.694</ele>
        <time>2016-10-15T11:50:41Z</time>
      </trkpt>
      <trkpt lat="28.020226" lon="-15.606252">
        <ele>1590.295</ele>
        <time>2016-10-15T11:50:46Z</time>
      </trkpt>
      <trkpt lat="28.020366" lon="-15.605109">
        <ele>1592.657</ele>
        <time>2016-10-15T11:50:56Z</time>
      </trkpt>
      <trkpt lat="28.020186" lon="-15.604812">
        <ele>1595.581</ele>
        <time>2016-10-15T11:51:01Z</time>
      </trkpt>
      <trkpt lat="28.019335" lon="-15.604682">
        <ele>1600.733</ele>
        <time>2016-10-15T11:51:11Z</time>
      </trkpt>
      <trkpt lat="28.018622" lon="-15.604122">
        <ele>1605.578</ele>
        <time>2016-10-15T11:51:24Z</time>
      </trkpt>
      <trkpt lat="28.018374" lon="-15.603254">
        <ele>1608.987</ele>
        <time>2016-10-15T11:51:36Z</time>
      </trkpt>
      <trkpt lat="28.017079" lon="-15.603122">
        <ele>1617.142</ele>
        <time>2016-10-15T11:51:49Z</time>
      </trkpt>
      <trkpt lat="28.016066" lon="-15.603295">
        <ele>1626.226</ele>
        <time>2016-10-15T11:52:30Z</time>
      </trkpt>
      <trkpt lat="28.015796" lon="-15.602838">
        <ele>1627.708</ele>
        <time>2016-10-15T12:09:40Z</time>
      </trkpt>
      <trkpt lat="28.016173" lon="-15.601043">
        <ele>1633.479</ele>
        <time>2016-10-15T12:09:57Z</time>
      </trkpt>
      <trkpt lat="28.016085" lon="-15.600651">
        <ele>1634.993</ele>
        <time>2016-10-15T12:10:01Z</time>
      </trkpt>
      <trkpt lat="28.014999" lon="-15.599095">
        <ele>1642.639</ele>
        <time>2016-10-15T12:10:16Z</time>
      </trkpt>
      <trkpt lat="28.013905" lon="-15.599020">
        <ele>1637.380</ele>
        <time>2016-10-15T12:10:27Z</time>
      </trkpt>
      <trkpt lat="28.013331" lon="-15.598835">
        <ele>1632.922</ele>
        <time>2016-10-15T12:10:32Z</time>
      </trkpt>
      <trkpt lat="28.013111" lon="-15.598505">
        <ele>1630.156</ele>
        <time>2016-10-15T12:10:36Z</time>
      </trkpt>
      <trkpt lat="28.013020" lon="-15.597268">
        <ele>1628.118</ele>
        <time>2016-10-15T12:10:46Z</time>
      </trkpt>
      <trkpt lat="28.013368" lon="-15.594717">
        <ele>1613.763</ele>
        <time>2016-10-15T12:11:05Z</time>
      </trkpt>
      <trkpt lat="28.014228" lon="-15.592949">
        <ele>1605.155</ele>
        <time>2016-10-15T12:11:20Z</time>
      </trkpt>
      <trkpt lat="28.014319" lon="-15.592365">
        <ele>1604.107</ele>
        <time>2016-10-15T12:11:26Z</time>
      </trkpt>
      <trkpt lat="28.013811" lon="-15.591585">
        <ele>1601.717</ele>
        <time>2016-10-15T12:11:36Z</time>
      </trkpt>
      <trkpt lat="28.014111" lon="-15.590952">
        <ele>1600.308</ele>
        <time>2016-10-15T12:11:42Z</time>
      </trkpt>
      <trkpt lat="28.015219" lon="-15.590349">
        <ele>1602.756</ele>
        <time>2016-10-15T12:11:55Z</time>
      </trkpt>
      <trkpt lat="28.014929" lon="-15.589719">
        <ele>1602.220</ele>
        <time>2016-10-15T12:12:02Z</time>
      </trkpt>
      <trkpt lat="28.013777" lon="-15.588904">
        <ele>1593.596</ele>
        <time>2016-10-15T12:12:14Z</time>
      </trkpt>
      <trkpt lat="28.013145" lon="-15.588795">
        <ele>1582.517</ele>
        <time>2016-10-15T12:12:21Z</time>
      </trkpt>
      <trkpt lat="28.012195" lon="-15.588956">
        <ele>1573.359</ele>
        <time>2016-10-15T12:12:29Z</time>
      </trkpt>
      <trkpt lat="28.011753" lon="-15.588796">
        <ele>1570.023</ele>
        <time>2016-10-15T12:12:33Z</time>
      </trkpt>
      <trkpt lat="28.011443" lon="-15.588918">
        <ele>1568.175</ele>
        <time>2016-10-15T12:12:38Z</time>
      </trkpt>
      <trkpt lat="28.011438" lon="-15.590082">
        <ele>1563.760</ele>
        <time>2016-10-15T12:12:48Z</time>
      </trkpt>
      <trkpt lat="28.011637" lon="-15.590532">
        <ele>1559.973</ele>
        <time>2016-10-15T12:12:53Z</time>
      </trkpt>
      <trkpt lat="28.011311" lon="-15.591267">
        <ele>1556.085</ele>
        <time>2016-10-15T12:13:01Z</time>
      </trkpt>
      <trkpt lat="28.011282" lon="-15.592714">
        <ele>1551.213</ele>
        <time>2016-10-15T12:13:15Z</time>
      </trkpt>
      <trkpt lat="28.010760" lon="-15.593139">
        <ele>1549.808</ele>
        <time>2016-10-15T12:13:21Z</time>
      </trkpt>
      <trkpt lat="28.010710" lon="-15.593572">
        <ele>1550.388</ele>
        <time>2016-10-15T12:13:27Z</time>
      </trkpt>
      <trkpt lat="28.011635" lon="-15.594160">
        <ele>1552.272</ele>
        <time>2016-10-15T12:13:40Z</time>
      </trkpt>
      <trkpt lat="28.011910" lon="-15.595694">
        <ele>1552.768</ele>
        <time>2016-10-15T12:13:53Z</time>
      </trkpt>
      <trkpt lat="28.011621" lon="-15.596027">
        <ele>1552.229</ele>
        <time>2016-10-15T12:13:58Z</time>
      </trkpt>
      <trkpt lat="28.011055" lon="-15.596090">
        <ele>1548.371</ele>
        <time>2016-10-15T12:14:03Z</time>
      </trkpt>
      <trkpt lat="28.010445" lon="-15.596731">
        <ele>1543.555</ele>
        <time>2016-10-15T12:14:11Z</time>
      </trkpt>
      <trkpt lat="28.010074" lon="-15.596845">
        <ele>1543.137</ele>
        <time>2016-10-15T12:14:16Z</time>
      </trkpt>
      <trkpt lat="28.009809" lon="-15.596349">
        <ele>1541.132</ele>
        <time>2016-10-15T12:14:22Z</time>
      </trkpt>
      <trkpt lat="28.009443" lon="-15.596297">
        <ele>1538.771</ele>
        <time>2016-10-15T12:14:28Z</time>
      </trkpt>
      <trkpt lat="28.009134" lon="-15.596575">
        <ele>1535.841</ele>
        <time>2016-10-15T12:14:33Z</time>
      </trkpt>
      <trkpt lat="28.008791" lon="-15.597543">
        <ele>1531.515</ele>
        <time>2016-10-15T12:14:44Z</time>
      </trkpt>
      <trkpt lat="28.007784" lon="-15.598235">
        <ele>1527.208</ele>
        <time>2016-10-15T12:15:00Z</time>
      </trkpt>
      <trkpt lat="28.007559" lon="-15.599063">
        <ele>1526.748</ele>
        <time>2016-10-15T12:15:11Z</time>
      </trkpt>
      <trkpt lat="28.007172" lon="-15.599632">
        <ele>1525.382</ele>
        <time>2016-10-15T12:15:24Z</time>
      </trkpt>
      <trkpt lat="28.006660" lon="-15.599698">
        <ele>1524.818</ele>
        <time>2016-10-15T12:15:46Z</time>
      </trkpt>
      <trkpt lat="28.005563" lon="-15.599213">
        <ele>1524.829</ele>
        <time>2016-10-15T12:16:32Z</time>
      </trkpt>
      <trkpt lat="28.004838" lon="-15.598565">
        <ele>1532.551</ele>
        <time>2016-10-15T12:16:51Z</time>
      </trkpt>
      <trkpt lat="28.004224" lon="-15.596506">
        <ele>1550.715</ele>
        <time>2016-10-15T12:17:22Z</time>
      </trkpt>
      <trkpt lat="28.003358" lon="-15.595770">
        <ele>1553.677</ele>
        <time>2016-10-15T12:17:35Z</time>
      </trkpt>
      <trkpt lat="28.002693" lon="-15.594081">
        <ele>1561.332</ele>
        <time>2016-10-15T12:17:52Z</time>
      </trkpt>
      <trkpt lat="28.001399" lon="-15.594022">
        <ele>1570.541</ele>
        <time>2016-10-15T12:18:17Z</time>
      </trkpt>
      <trkpt lat="28.001143" lon="-15.594204">
        <ele>1572.981</ele>
        <time>2016-10-15T12:18:22Z</time>
      </trkpt>
      <trkpt lat="28.000492" lon="-15.594253">
        <ele>1568.109</ele>
        <time>2016-10-15T12:18:29Z</time>
      </trkpt>
      <trkpt lat="27.999093" lon="-15.595341">
        <ele>1577.208</ele>
        <time>2016-10-15T12:18:50Z</time>
      </trkpt>
      <trkpt lat="27.997630" lon="-15.595448">
        <ele>1570.025</ele>
        <time>2016-10-15T12:19:04Z</time>
      </trkpt>
      <trkpt lat="27.996808" lon="-15.595262">
        <ele>1566.689</ele>
        <time>2016-10-15T12:19:12Z</time>
      </trkpt>
      <trkpt lat="27.995677" lon="-15.594473">
        <ele>1566.645</ele>
        <time>2016-10-15T12:19:24Z</time>
      </trkpt>
      <trkpt lat="27.995174" lon="-15.594648">
        <ele>1563.226</ele>
        <time>2016-10-15T12:19:31Z</time>
      </trkpt>
      <trkpt lat="27.994649" lon="-15.594565">
        <ele>1561.368</ele>
        <time>2016-10-15T12:19:36Z</time>
      </trkpt>
      <trkpt lat="27.993312" lon="-15.593800">
        <ele>1549.872</ele>
        <time>2016-10-15T12:19:50Z</time>
      </trkpt>
      <trkpt lat="27.992424" lon="-15.593605">
        <ele>1542.644</ele>
        <time>2016-10-15T12:19:59Z</time>
      </trkpt>
      <trkpt lat="27.991324" lon="-15.592194">
        <ele>1554.669</ele>
        <time>2016-10-15T12:20:14Z</time>
      </trkpt>
      <trkpt lat="27.990864" lon="-15.591967">
        <ele>1561.331</ele>
        <time>2016-10-15T12:20:20Z</time>
      </trkpt>
      <trkpt lat="27.989779" lon="-15.592394">
        <ele>1562.361</ele>
        <time>2016-10-15T12:20:29Z</time>
      </trkpt>
      <trkpt lat="27.988890" lon="-15.593351">
        <ele>1557.007</ele>
        <time>2016-10-15T12:25:31Z</time>
      </trkpt>
      <trkpt lat="27.987722" lon="-15.592592">
        <ele>1565.608</ele>
        <time>2016-10-15T12:38:04Z</time>
      </trkpt>
      <trkpt lat="27.986582" lon="-15.592234">
        <ele>1572.944</ele>
        <time>2016-10-15T12:38:16Z</time>
      </trkpt>
      <trkpt lat="27.985643" lon="-15.592142">
        <ele>1575.798</ele>
        <time>2016-10-15T12:38:26Z</time>
      </trkpt>
      <trkpt lat="27.985363" lon="-15.591825">
        <ele>1578.114</ele>
        <time>2016-10-15T12:38:32Z</time>
      </trkpt>
      <trkpt lat="27.985557" lon="-15.591458">
        <ele>1582.575</ele>
        <time>2016-10-15T12:38:37Z</time>
      </trkpt>
      <trkpt lat="27.985552" lon="-15.590870">
        <ele>1586.337</ele>
        <time>2016-10-15T12:38:44Z</time>
      </trkpt>
      <trkpt lat="27.985197" lon="-15.590397">
        <ele>1586.311</ele>
        <time>2016-10-15T12:38:50Z</time>
      </trkpt>
      <trkpt lat="27.985169" lon="-15.589956">
        <ele>1590.673</ele>
        <time>2016-10-15T12:38:56Z</time>
      </trkpt>
      <trkpt lat="27.985506" lon="-15.589713">
        <ele>1594.598</ele>
        <time>2016-10-15T12:39:01Z</time>
      </trkpt>
      <trkpt lat="27.985759" lon="-15.589194">
        <ele>1600.731</ele>
        <time>2016-10-15T12:39:08Z</time>
      </trkpt>
      <trkpt lat="27.985934" lon="-15.587630">
        <ele>1617.161</ele>
        <time>2016-10-15T12:39:27Z</time>
      </trkpt>
      <trkpt lat="27.985793" lon="-15.587179">
        <ele>1621.407</ele>
        <time>2016-10-15T12:39:33Z</time>
      </trkpt>
      <trkpt lat="27.985360" lon="-15.586655">
        <ele>1626.208</ele>
        <time>2016-10-15T12:39:41Z</time>
      </trkpt>
      <trkpt lat="27.984948" lon="-15.586472">
        <ele>1631.544</ele>
        <time>2016-10-15T12:39:47Z</time>
      </trkpt>
      <trkpt lat="27.984709" lon="-15.586001">
        <ele>1637.358</ele>
        <time>2016-10-15T12:39:55Z</time>
      </trkpt>
      <trkpt lat="27.984940" lon="-15.585289">
        <ele>1643.094</ele>
        <time>2016-10-15T12:40:04Z</time>
      </trkpt>
      <trkpt lat="27.984867" lon="-15.584665">
        <ele>1649.385</ele>
        <time>2016-10-15T12:40:11Z</time>
      </trkpt>
      <trkpt lat="27.983035" lon="-15.583486">
        <ele>1678.167</ele>
        <time>2016-10-15T12:40:40Z</time>
      </trkpt>
      <trkpt lat="27.982297" lon="-15.583567">
        <ele>1686.331</ele>
        <time>2016-10-15T12:40:51Z</time>
      </trkpt>
      <trkpt lat="27.982106" lon="-15.583354">
        <ele>1690.183</ele>
        <time>2016-10-15T12:40:57Z</time>
      </trkpt>
      <trkpt lat="27.981936" lon="-15.581846">
        <ele>1706.518</ele>
        <time>2016-10-15T12:41:16Z</time>
      </trkpt>
      <trkpt lat="27.981725" lon="-15.581385">
        <ele>1711.859</ele>
        <time>2016-10-15T12:41:23Z</time>
      </trkpt>
      <trkpt lat="27.980538" lon="-15.580888">
        <ele>1714.203</ele>
        <time>2016-10-15T12:41:38Z</time>
      </trkpt>
      <trkpt lat="27.979265" lon="-15.579909">
        <ele>1724.323</ele>
        <time>2016-10-15T12:41:56Z</time>
      </trkpt>
      <trkpt lat="27.978895" lon="-15.579943">
        <ele>1725.208</ele>
        <time>2016-10-15T12:42:01Z</time>
      </trkpt>
      <trkpt lat="27.978407" lon="-15.580363">
        <ele>1727.696</ele>
        <time>2016-10-15T12:42:09Z</time>
      </trkpt>
      <trkpt lat="27.977643" lon="-15.580384">
        <ele>1729.140</ele>
        <time>2016-10-15T12:42:19Z</time>
      </trkpt>
      <trkpt lat="27.976361" lon="-15.578785">
        <ele>1733.476</ele>
        <time>2016-10-15T12:42:48Z</time>
      </trkpt>
      <trkpt lat="27.975525" lon="-15.578670">
        <ele>1740.627</ele>
        <time>2016-10-15T12:43:01Z</time>
      </trkpt>
      <trkpt lat="27.974923" lon="-15.577910">
        <ele>1746.979</ele>
        <time>2016-10-15T12:43:18Z</time>
      </trkpt>
      <trkpt lat="27.974443" lon="-15.578155">
        <ele>1752.133</ele>
        <time>2016-10-15T12:43:27Z</time>
      </trkpt>
      <trkpt lat="27.974086" lon="-15.578960">
        <ele>1761.315</ele>
        <time>2016-10-15T12:43:39Z</time>
      </trkpt>
      <trkpt lat="27.973831" lon="-15.579065">
        <ele>1763.750</ele>
        <time>2016-10-15T12:43:45Z</time>
      </trkpt>
      <trkpt lat="27.973621" lon="-15.577825">
        <ele>1778.192</ele>
        <time>2016-10-15T12:44:16Z</time>
      </trkpt>
      <trkpt lat="27.973894" lon="-15.577572">
        <ele>1780.573</ele>
        <time>2016-10-15T12:58:26Z</time>
      </trkpt>
      <trkpt lat="27.974022" lon="-15.577107">
        <ele>1781.020</ele>
        <time>2016-10-15T12:58:33Z</time>
      </trkpt>
      <trkpt lat="27.973274" lon="-15.575391">
        <ele>1792.008</ele>
        <time>2016-10-15T12:58:54Z</time>
      </trkpt>
      <trkpt lat="27.973267" lon="-15.573958">
        <ele>1791.130</ele>
        <time>2016-10-15T12:59:07Z</time>
      </trkpt>
      <trkpt lat="27.973023" lon="-15.573632">
        <ele>1789.254</ele>
        <time>2016-10-15T12:59:11Z</time>
      </trkpt>
      <trkpt lat="27.972077" lon="-15.573392">
        <ele>1784.340</ele>
        <time>2016-10-15T12:59:19Z</time>
      </trkpt>
      <trkpt lat="27.971514" lon="-15.572951">
        <ele>1790.171</ele>
        <time>2016-10-15T12:59:26Z</time>
      </trkpt>
      <trkpt lat="27.970632" lon="-15.572060">
        <ele>1800.283</ele>
        <time>2016-10-15T12:59:38Z</time>
      </trkpt>
      <trkpt lat="27.970271" lon="-15.571440">
        <ele>1806.917</ele>
        <time>2016-10-15T12:59:45Z</time>
      </trkpt>
      <trkpt lat="27.970002" lon="-15.569213">
        <ele>1829.559</ele>
        <time>2016-10-15T13:00:10Z</time>
      </trkpt>
      <trkpt lat="27.968558" lon="-15.567504">
        <ele>1847.824</ele>
        <time>2016-10-15T13:00:36Z</time>
      </trkpt>
      <trkpt lat="27.968667" lon="-15.565607">
        <ele>1859.813</ele>
        <time>2016-10-15T13:00:59Z</time>
      </trkpt>
      <trkpt lat="27.968305" lon="-15.565235">
        <ele>1863.243</ele>
        <time>2016-10-15T13:01:06Z</time>
      </trkpt>
      <trkpt lat="27.967193" lon="-15.564891">
        <ele>1867.507</ele>
        <time>2016-10-15T13:01:19Z</time>
      </trkpt>
      <trkpt lat="27.966067" lon="-15.566017">
        <ele>1876.208</ele>
        <time>2016-10-15T13:01:40Z</time>
      </trkpt>
      <trkpt lat="27.965355" lon="-15.566408">
        <ele>1879.042</ele>
        <time>2016-10-15T13:01:49Z</time>
      </trkpt>
      <trkpt lat="27.964783" lon="-15.566457">
        <ele>1881.476</ele>
        <time>2016-10-15T13:01:56Z</time>
      </trkpt>
      <trkpt lat="27.964518" lon="-15.566708">
        <ele>1883.832</ele>
        <time>2016-10-15T13:02:02Z</time>
      </trkpt>
      <trkpt lat="27.964500" lon="-15.567417">
        <ele>1888.773</ele>
        <time>2016-10-15T13:02:11Z</time>
      </trkpt>
      <trkpt lat="27.964174" lon="-15.568396">
        <ele>1895.475</ele>
        <time>2016-10-15T13:02:24Z</time>
      </trkpt>
      <trkpt lat="27.963569" lon="-15.569162">
        <ele>1906.439</ele>
        <time>2016-10-15T13:02:36Z</time>
      </trkpt>
      <trkpt lat="27.963502" lon="-15.569582">
        <ele>1913.681</ele>
        <time>2016-10-15T13:02:43Z</time>
      </trkpt>
      <trkpt lat="27.964261" lon="-15.571315">
        <ele>1918.576</ele>
        <time>2016-10-15T13:03:02Z</time>
      </trkpt>
      <trkpt lat="27.964322" lon="-15.571794">
        <ele>1918.982</ele>
        <time>2016-10-15T13:03:07Z</time>
      </trkpt>
      <trkpt lat="27.963718" lon="-15.572299">
        <ele>1923.343</ele>
        <time>2016-10-15T13:03:17Z</time>
      </trkpt>
      <trkpt lat="27.962451" lon="-15.571971">
        <ele>1933.417</ele>
        <time>2016-10-15T13:03:34Z</time>
      </trkpt>
      <trkpt lat="27.962060" lon="-15.572027">
        <ele>1940.108</ele>
        <time>2016-10-15T13:03:42Z</time>
      </trkpt>
    </trkseg>
  </trk></gpx>