<?xml version="1.0" encoding="UTF-8"?>
<gpx creator="Wikiloc - https://www.wikiloc.com" version="1.1" xmlns="http://www.topografix.com/GPX/1/1" xmlns:xsi="http://www.w3.org/2001/XMLSchema-instance" xsi:schemaLocation="http://www.topografix.com/GPX/1/1 http://www.topografix.com/GPX/1/1/gpx.xsd">
  <metadata>
    <name>Wikiloc - 20170629 Subida al Teide desde Costa Adeje (Tenerife) - Wiki...</name>
    <link href="https://www.wikiloc.com/cycling-trails/20170629-subida-al-teide-desde-costa-adeje-tenerife-18500821">
      <text>20170629 Subida al Teide desde Costa Adeje (Tenerife) - Wiki... on Wikiloc</text>
    </link>
    <time>2017-06-29T12:36:25Z</time>
  </metadata>
  <trk>
    <name>20170629 Subida al Teide desde Costa Adeje (Tenerife) - Wiki... - Wikiloc</name>
    <cmt></cmt>
    <desc></desc>
    <trkseg>
      <trkpt lat="28.079541" lon="-16.731270">
        <ele>50.858</ele>
        <time>2017-06-29T06:26:33Z</time>
      </trkpt>
      <trkpt lat="28.078030" lon="-16.732402">
        <ele>50.652</ele>
        <time>2017-06-29T06:27:11Z</time>
      </trkpt>
      <trkpt lat="28.074686" lon="-16.731381">
        <ele>49.617</ele>
        <time>2017-06-29T06:28:09Z</time>
      </trkpt>
      <trkpt lat="28.073652" lon="-16.729085">
        <ele>45.208</ele>
        <time>2017-06-29T06:28:44Z</time>
      </trkpt>
      <trkpt lat="28.068433" lon="-16.727368">
        <ele>47.476</ele>
        <time>2017-06-29T06:30:08Z</time>
      </trkpt>
      <trkpt lat="28.067292" lon="-16.725867">
        <ele>47.223</ele>
        <time>2017-06-29T06:30:41Z</time>
      </trkpt>
      <trkpt lat="28.066298" lon="-16.726449">
        <ele>36.490</ele>
        <time>2017-06-29T06:30:57Z</time>
      </trkpt>
      <trkpt lat="28.066014" lon="-16.727872">
        <ele>34.045</ele>
        <time>2017-06-29T06:31:16Z</time>
      </trkpt>
      <trkpt lat="28.062717" lon="-16.726526">
        <ele>46.835</ele>
        <time>2017-06-29T06:32:41Z</time>
      </trkpt>
      <trkpt lat="28.056643" lon="-16.728285">
        <ele>31.243</ele>
        <time>2017-06-29T06:34:07Z</time>
      </trkpt>
      <trkpt lat="28.056186" lon="-16.725443">
        <ele>35.627</ele>
        <time>2017-06-29T06:34:50Z</time>
      </trkpt>
      <trkpt lat="28.057811" lon="-16.721666">
        <ele>46.216</ele>
        <time>2017-06-29T06:36:00Z</time>
      </trkpt>
      <trkpt lat="28.057696" lon="-16.721184">
        <ele>49.456</ele>
        <time>2017-06-29T06:36:12Z</time>
      </trkpt>
      <trkpt lat="28.057231" lon="-16.721049">
        <ele>52.859</ele>
        <time>2017-06-29T06:36:26Z</time>
      </trkpt>
      <trkpt lat="28.057384" lon="-16.720135">
        <ele>51.814</ele>
        <time>2017-06-29T06:36:43Z</time>
      </trkpt>
      <trkpt lat="28.056835" lon="-16.717496">
        <ele>43.008</ele>
        <time>2017-06-29T06:37:11Z</time>
      </trkpt>
      <trkpt lat="28.055647" lon="-16.712419">
        <ele>42.886</ele>
        <time>2017-06-29T06:38:12Z</time>
      </trkpt>
      <trkpt lat="28.055212" lon="-16.711964">
        <ele>43.683</ele>
        <time>2017-06-29T06:38:23Z</time>
      </trkpt>
      <trkpt lat="28.055484" lon="-16.711597">
        <ele>43.850</ele>
        <time>2017-06-29T06:38:31Z</time>
      </trkpt>
      <trkpt lat="28.056020" lon="-16.711774">
        <ele>44.485</ele>
        <time>2017-06-29T06:38:40Z</time>
      </trkpt>
      <trkpt lat="28.059349" lon="-16.710833">
        <ele>64.445</ele>
        <time>2017-06-29T06:40:01Z</time>
      </trkpt>
      <trkpt lat="28.061170" lon="-16.711047">
        <ele>78.043</ele>
        <time>2017-06-29T06:40:56Z</time>
      </trkpt>
      <trkpt lat="28.064182" lon="-16.710674">
        <ele>98.877</ele>
        <time>2017-06-29T06:42:20Z</time>
      </trkpt>
      <trkpt lat="28.064929" lon="-16.710957">
        <ele>104.286</ele>
        <time>2017-06-29T06:42:44Z</time>
      </trkpt>
      <trkpt lat="28.066114" lon="-16.712457">
        <ele>117.448</ele>
        <time>2017-06-29T06:43:40Z</time>
      </trkpt>
      <trkpt lat="28.066986" lon="-16.712926">
        <ele>124.861</ele>
        <time>2017-06-29T06:44:12Z</time>
      </trkpt>
      <trkpt lat="28.068318" lon="-16.712890">
        <ele>134.817</ele>
        <time>2017-06-29T06:44:56Z</time>
      </trkpt>
      <trkpt lat="28.069452" lon="-16.712115">
        <ele>145.008</ele>
        <time>2017-06-29T06:45:39Z</time>
      </trkpt>
      <trkpt lat="28.070029" lon="-16.710883">
        <ele>154.065</ele>
        <time>2017-06-29T06:46:19Z</time>
      </trkpt>
      <trkpt lat="28.070151" lon="-16.707529">
        <ele>172.882</ele>
        <time>2017-06-29T06:47:47Z</time>
      </trkpt>
      <trkpt lat="28.070702" lon="-16.705461">
        <ele>184.819</ele>
        <time>2017-06-29T06:48:41Z</time>
      </trkpt>
      <trkpt lat="28.070285" lon="-16.700538">
        <ele>213.484</ele>
        <time>2017-06-29T06:50:46Z</time>
      </trkpt>
      <trkpt lat="28.072338" lon="-16.696397">
        <ele>242.264</ele>
        <time>2017-06-29T06:52:51Z</time>
      </trkpt>
      <trkpt lat="28.071932" lon="-16.692741">
        <ele>263.452</ele>
        <time>2017-06-29T06:54:28Z</time>
      </trkpt>
      <trkpt lat="28.073658" lon="-16.691220">
        <ele>277.696</ele>
        <time>2017-06-29T06:55:34Z</time>
      </trkpt>
      <trkpt lat="28.074225" lon="-16.688983">
        <ele>292.875</ele>
        <time>2017-06-29T06:56:35Z</time>
      </trkpt>
      <trkpt lat="28.075838" lon="-16.687961">
        <ele>304.618</ele>
        <time>2017-06-29T06:57:29Z</time>
      </trkpt>
      <trkpt lat="28.078685" lon="-16.684317">
        <ele>333.298</ele>
        <time>2017-06-29T06:59:40Z</time>
      </trkpt>
      <trkpt lat="28.078941" lon="-16.683454">
        <ele>339.017</ele>
        <time>2017-06-29T07:00:05Z</time>
      </trkpt>
      <trkpt lat="28.078728" lon="-16.682455">
        <ele>344.808</ele>
        <time>2017-06-29T07:00:37Z</time>
      </trkpt>
      <trkpt lat="28.079758" lon="-16.682259">
        <ele>354.052</ele>
        <time>2017-06-29T07:01:14Z</time>
      </trkpt>
      <trkpt lat="28.080712" lon="-16.683485">
        <ele>365.279</ele>
        <time>2017-06-29T07:02:04Z</time>
      </trkpt>
      <trkpt lat="28.082518" lon="-16.683939">
        <ele>377.436</ele>
        <time>2017-06-29T07:03:10Z</time>
      </trkpt>
      <trkpt lat="28.082571" lon="-16.686597">
        <ele>397.851</ele>
        <time>2017-06-29T07:04:40Z</time>
      </trkpt>
      <trkpt lat="28.085099" lon="-16.690896">
        <ele>427.291</ele>
        <time>2017-06-29T07:07:19Z</time>
      </trkpt>
      <trkpt lat="28.087202" lon="-16.690154">
        <ele>445.269</ele>
        <time>2017-06-29T07:08:41Z</time>
      </trkpt>
      <trkpt lat="28.088403" lon="-16.691874">
        <ele>461.033</ele>
        <time>2017-06-29T07:09:48Z</time>
      </trkpt>
      <trkpt lat="28.089050" lon="-16.691212">
        <ele>468.042</ele>
        <time>2017-06-29T07:10:19Z</time>
      </trkpt>
      <trkpt lat="28.088356" lon="-16.689022">
        <ele>482.478</ele>
        <time>2017-06-29T07:11:27Z</time>
      </trkpt>
      <trkpt lat="28.088572" lon="-16.688310">
        <ele>487.033</ele>
        <time>2017-06-29T07:11:50Z</time>
      </trkpt>
      <trkpt lat="28.088958" lon="-16.688284">
        <ele>490.626</ele>
        <time>2017-06-29T07:12:05Z</time>
      </trkpt>
      <trkpt lat="28.089855" lon="-16.689358">
        <ele>499.608</ele>
        <time>2017-06-29T07:12:51Z</time>
      </trkpt>
      <trkpt lat="28.092021" lon="-16.689795">
        <ele>517.288</ele>
        <time>2017-06-29T07:14:09Z</time>
      </trkpt>
      <trkpt lat="28.092181" lon="-16.688077">
        <ele>531.695</ele>
        <time>2017-06-29T07:15:14Z</time>
      </trkpt>
      <trkpt lat="28.093398" lon="-16.685597">
        <ele>547.682</ele>
        <time>2017-06-29T07:16:43Z</time>
      </trkpt>
      <trkpt lat="28.095141" lon="-16.684568">
        <ele>564.617</ele>
        <time>2017-06-29T07:17:57Z</time>
      </trkpt>
      <trkpt lat="28.095721" lon="-16.683378">
        <ele>576.087</ele>
        <time>2017-06-29T07:18:43Z</time>
      </trkpt>
      <trkpt lat="28.097770" lon="-16.681714">
        <ele>599.215</ele>
        <time>2017-06-29T07:20:22Z</time>
      </trkpt>
      <trkpt lat="28.100501" lon="-16.682714">
        <ele>623.279</ele>
        <time>2017-06-29T07:21:59Z</time>
      </trkpt>
      <trkpt lat="28.101437" lon="-16.681310">
        <ele>638.688</ele>
        <time>2017-06-29T07:23:00Z</time>
      </trkpt>
      <trkpt lat="28.103964" lon="-16.684121">
        <ele>671.825</ele>
        <time>2017-06-29T07:25:18Z</time>
      </trkpt>
      <trkpt lat="28.105809" lon="-16.684535">
        <ele>684.626</ele>
        <time>2017-06-29T07:26:18Z</time>
      </trkpt>
      <trkpt lat="28.108316" lon="-16.686416">
        <ele>699.608</ele>
        <time>2017-06-29T07:27:33Z</time>
      </trkpt>
      <trkpt lat="28.108526" lon="-16.684608">
        <ele>712.808</ele>
        <time>2017-06-29T07:28:28Z</time>
      </trkpt>
      <trkpt lat="28.110169" lon="-16.685619">
        <ele>724.683</ele>
        <time>2017-06-29T07:29:21Z</time>
      </trkpt>
      <trkpt lat="28.111452" lon="-16.683733">
        <ele>742.630</ele>
        <time>2017-06-29T07:30:33Z</time>
      </trkpt>
      <trkpt lat="28.111726" lon="-16.683846">
        <ele>744.867</ele>
        <time>2017-06-29T07:30:43Z</time>
      </trkpt>
      <trkpt lat="28.111832" lon="-16.685025">
        <ele>751.662</ele>
        <time>2017-06-29T07:31:13Z</time>
      </trkpt>
      <trkpt lat="28.112263" lon="-16.685188">
        <ele>756.052</ele>
        <time>2017-06-29T07:31:28Z</time>
      </trkpt>
      <trkpt lat="28.112777" lon="-16.682158">
        <ele>776.870</ele>
        <time>2017-06-29T07:32:50Z</time>
      </trkpt>
      <trkpt lat="28.113282" lon="-16.682068">
        <ele>781.424</ele>
        <time>2017-06-29T07:33:07Z</time>
      </trkpt>
      <trkpt lat="28.113877" lon="-16.682991">
        <ele>790.433</ele>
        <time>2017-06-29T07:33:49Z</time>
      </trkpt>
      <trkpt lat="28.114480" lon="-16.681512">
        <ele>800.418</ele>
        <time>2017-06-29T07:34:41Z</time>
      </trkpt>
      <trkpt lat="28.113901" lon="-16.677891">
        <ele>822.698</ele>
        <time>2017-06-29T07:36:20Z</time>
      </trkpt>
      <trkpt lat="28.115546" lon="-16.679340">
        <ele>837.617</ele>
        <time>2017-06-29T07:37:33Z</time>
      </trkpt>
      <trkpt lat="28.115770" lon="-16.679116">
        <ele>841.208</ele>
        <time>2017-06-29T07:37:47Z</time>
      </trkpt>
      <trkpt lat="28.115156" lon="-16.678549">
        <ele>846.612</ele>
        <time>2017-06-29T07:38:15Z</time>
      </trkpt>
      <trkpt lat="28.115022" lon="-16.677739">
        <ele>851.239</ele>
        <time>2017-06-29T07:38:41Z</time>
      </trkpt>
      <trkpt lat="28.115610" lon="-16.678493">
        <ele>857.096</ele>
        <time>2017-06-29T07:39:10Z</time>
      </trkpt>
      <trkpt lat="28.116852" lon="-16.678935">
        <ele>866.241</ele>
        <time>2017-06-29T07:39:51Z</time>
      </trkpt>
      <trkpt lat="28.116190" lon="-16.678435">
        <ele>873.221</ele>
        <time>2017-06-29T07:40:21Z</time>
      </trkpt>
      <trkpt lat="28.115941" lon="-16.677488">
        <ele>879.819</ele>
        <time>2017-06-29T07:40:49Z</time>
      </trkpt>
      <trkpt lat="28.116670" lon="-16.678100">
        <ele>888.883</ele>
        <time>2017-06-29T07:41:26Z</time>
      </trkpt>
      <trkpt lat="28.117544" lon="-16.678136">
        <ele>895.872</ele>
        <time>2017-06-29T07:41:56Z</time>
      </trkpt>
      <trkpt lat="28.116889" lon="-16.676523">
        <ele>908.096</ele>
        <time>2017-06-29T07:42:54Z</time>
      </trkpt>
      <trkpt lat="28.117938" lon="-16.677130">
        <ele>919.031</ele>
        <time>2017-06-29T07:43:37Z</time>
      </trkpt>
      <trkpt lat="28.118325" lon="-16.675753">
        <ele>925.824</ele>
        <time>2017-06-29T07:44:15Z</time>
      </trkpt>
      <trkpt lat="28.117999" lon="-16.675384">
        <ele>927.008</ele>
        <time>2017-06-29T07:44:26Z</time>
      </trkpt>
      <trkpt lat="28.116438" lon="-16.675672">
        <ele>939.220</ele>
        <time>2017-06-29T07:45:16Z</time>
      </trkpt>
      <trkpt lat="28.116488" lon="-16.674888">
        <ele>945.477</ele>
        <time>2017-06-29T07:45:40Z</time>
      </trkpt>
      <trkpt lat="28.117095" lon="-16.674039">
        <ele>953.274</ele>
        <time>2017-06-29T07:46:13Z</time>
      </trkpt>
      <trkpt lat="28.116736" lon="-16.673250">
        <ele>960.049</ele>
        <time>2017-06-29T07:46:43Z</time>
      </trkpt>
      <trkpt lat="28.118035" lon="-16.672678">
        <ele>967.889</ele>
        <time>2017-06-29T07:47:27Z</time>
      </trkpt>
      <trkpt lat="28.119327" lon="-16.672841">
        <ele>972.287</ele>
        <time>2017-06-29T07:48:01Z</time>
      </trkpt>
      <trkpt lat="28.119624" lon="-16.672592">
        <ele>974.651</ele>
        <time>2017-06-29T07:48:11Z</time>
      </trkpt>
      <trkpt lat="28.119211" lon="-16.669908">
        <ele>987.840</ele>
        <time>2017-06-29T07:49:19Z</time>
      </trkpt>
      <trkpt lat="28.118413" lon="-16.668375">
        <ele>991.667</ele>
        <time>2017-06-29T07:49:55Z</time>
      </trkpt>
      <trkpt lat="28.118589" lon="-16.665394">
        <ele>1007.681</ele>
        <time>2017-06-29T07:51:13Z</time>
      </trkpt>
      <trkpt lat="28.119042" lon="-16.665284">
        <ele>1011.019</ele>
        <time>2017-06-29T07:51:29Z</time>
      </trkpt>
      <trkpt lat="28.121547" lon="-16.666872">
        <ele>1028.408</ele>
        <time>2017-06-29T07:52:57Z</time>
      </trkpt>
      <trkpt lat="28.123170" lon="-16.666331">
        <ele>1036.827</ele>
        <time>2017-06-29T07:53:48Z</time>
      </trkpt>
      <trkpt lat="28.125131" lon="-16.668681">
        <ele>1052.864</ele>
        <time>2017-06-29T07:55:08Z</time>
      </trkpt>
      <trkpt lat="28.125527" lon="-16.668726">
        <ele>1056.091</ele>
        <time>2017-06-29T07:55:22Z</time>
      </trkpt>
      <trkpt lat="28.125039" lon="-16.667750">
        <ele>1061.496</ele>
        <time>2017-06-29T07:55:52Z</time>
      </trkpt>
      <trkpt lat="28.125506" lon="-16.666588">
        <ele>1068.096</ele>
        <time>2017-06-29T07:56:27Z</time>
      </trkpt>
      <trkpt lat="28.125386" lon="-16.665643">
        <ele>1072.494</ele>
        <time>2017-06-29T07:56:55Z</time>
      </trkpt>
      <trkpt lat="28.124589" lon="-16.664231">
        <ele>1082.658</ele>
        <time>2017-06-29T07:57:46Z</time>
      </trkpt>
      <trkpt lat="28.125678" lon="-16.659960">
        <ele>1116.687</ele>
        <time>2017-06-29T08:00:07Z</time>
      </trkpt>
      <trkpt lat="28.125094" lon="-16.659247">
        <ele>1126.063</ele>
        <time>2017-06-29T08:00:43Z</time>
      </trkpt>
      <trkpt lat="28.125169" lon="-16.657807">
        <ele>1137.444</ele>
        <time>2017-06-29T08:01:33Z</time>
      </trkpt>
      <trkpt lat="28.128266" lon="-16.656291">
        <ele>1155.618</ele>
        <time>2017-06-29T08:03:12Z</time>
      </trkpt>
      <trkpt lat="28.129920" lon="-16.653809">
        <ele>1168.808</ele>
        <time>2017-06-29T08:04:26Z</time>
      </trkpt>
      <trkpt lat="28.134257" lon="-16.650992">
        <ele>1185.057</ele>
        <time>2017-06-29T08:06:28Z</time>
      </trkpt>
      <trkpt lat="28.136021" lon="-16.651250">
        <ele>1192.024</ele>
        <time>2017-06-29T08:07:08Z</time>
      </trkpt>
      <trkpt lat="28.139601" lon="-16.653330">
        <ele>1208.881</ele>
        <time>2017-06-29T08:08:44Z</time>
      </trkpt>
      <trkpt lat="28.142198" lon="-16.653623">
        <ele>1217.656</ele>
        <time>2017-06-29T08:09:46Z</time>
      </trkpt>
      <trkpt lat="28.143077" lon="-16.651947">
        <ele>1228.416</ele>
        <time>2017-06-29T08:10:36Z</time>
      </trkpt>
      <trkpt lat="28.142062" lon="-16.647153">
        <ele>1255.274</ele>
        <time>2017-06-29T08:12:59Z</time>
      </trkpt>
      <trkpt lat="28.142611" lon="-16.645599">
        <ele>1263.278</ele>
        <time>2017-06-29T08:13:48Z</time>
      </trkpt>
      <trkpt lat="28.147744" lon="-16.643023">
        <ele>1298.487</ele>
        <time>2017-06-29T08:16:44Z</time>
      </trkpt>
      <trkpt lat="28.149713" lon="-16.641410">
        <ele>1314.065</ele>
        <time>2017-06-29T08:18:05Z</time>
      </trkpt>
      <trkpt lat="28.152257" lon="-16.640041">
        <ele>1321.068</ele>
        <time>2017-06-29T08:19:06Z</time>
      </trkpt>
      <trkpt lat="28.153600" lon="-16.640021">
        <ele>1331.614</ele>
        <time>2017-06-29T08:19:52Z</time>
      </trkpt>
      <trkpt lat="28.154502" lon="-16.638999">
        <ele>1341.408</ele>
        <time>2017-06-29T08:20:38Z</time>
      </trkpt>
      <trkpt lat="28.155405" lon="-16.638610">
        <ele>1348.227</ele>
        <time>2017-06-29T08:21:09Z</time>
      </trkpt>
      <trkpt lat="28.157308" lon="-16.638076">
        <ele>1360.624</ele>
        <time>2017-06-29T08:22:10Z</time>
      </trkpt>
      <trkpt lat="28.159550" lon="-16.638195">
        <ele>1377.291</ele>
        <time>2017-06-29T08:23:27Z</time>
      </trkpt>
      <trkpt lat="28.160365" lon="-16.638781">
        <ele>1384.066</ele>
        <time>2017-06-29T08:23:59Z</time>
      </trkpt>
      <trkpt lat="28.160461" lon="-16.640154">
        <ele>1392.076</ele>
        <time>2017-06-29T08:24:37Z</time>
      </trkpt>
      <trkpt lat="28.160762" lon="-16.640344">
        <ele>1394.284</ele>
        <time>2017-06-29T08:24:48Z</time>
      </trkpt>
      <trkpt lat="28.161323" lon="-16.639264">
        <ele>1402.078</ele>
        <time>2017-06-29T08:25:25Z</time>
      </trkpt>
      <trkpt lat="28.163477" lon="-16.639002">
        <ele>1414.437</ele>
        <time>2017-06-29T08:26:32Z</time>
      </trkpt>
      <trkpt lat="28.164718" lon="-16.637787">
        <ele>1424.474</ele>
        <time>2017-06-29T08:27:23Z</time>
      </trkpt>
      <trkpt lat="28.166265" lon="-16.637818">
        <ele>1429.856</ele>
        <time>2017-06-29T08:28:08Z</time>
      </trkpt>
      <trkpt lat="28.165923" lon="-16.637034">
        <ele>1434.221</ele>
        <time>2017-06-29T08:28:34Z</time>
      </trkpt>
      <trkpt lat="28.163509" lon="-16.635015">
        <ele>1458.408</ele>
        <time>2017-06-29T08:31:25Z</time>
      </trkpt>
      <trkpt lat="28.163730" lon="-16.634758">
        <ele>1461.458</ele>
        <time>2017-06-29T08:31:43Z</time>
      </trkpt>
      <trkpt lat="28.164426" lon="-16.635310">
        <ele>1468.075</ele>
        <time>2017-06-29T08:32:13Z</time>
      </trkpt>
      <trkpt lat="28.167982" lon="-16.636617">
        <ele>1496.262</ele>
        <time>2017-06-29T08:34:19Z</time>
      </trkpt>
      <trkpt lat="28.167414" lon="-16.635820">
        <ele>1505.437</ele>
        <time>2017-06-29T08:34:57Z</time>
      </trkpt>
      <trkpt lat="28.165277" lon="-16.634737">
        <ele>1522.457</ele>
        <time>2017-06-29T08:36:12Z</time>
      </trkpt>
      <trkpt lat="28.165509" lon="-16.634330">
        <ele>1527.065</ele>
        <time>2017-06-29T08:36:33Z</time>
      </trkpt>
      <trkpt lat="28.172545" lon="-16.637147">
        <ele>1582.679</ele>
        <time>2017-06-29T08:40:42Z</time>
      </trkpt>
      <trkpt lat="28.175121" lon="-16.639187">
        <ele>1610.638</ele>
        <time>2017-06-29T08:42:38Z</time>
      </trkpt>
      <trkpt lat="28.175658" lon="-16.642267">
        <ele>1635.426</ele>
        <time>2017-06-29T08:44:22Z</time>
      </trkpt>
      <trkpt lat="28.176212" lon="-16.643365">
        <ele>1647.047</ele>
        <time>2017-06-29T08:45:10Z</time>
      </trkpt>
      <trkpt lat="28.177528" lon="-16.643622">
        <ele>1659.411</ele>
        <time>2017-06-29T08:46:07Z</time>
      </trkpt>
      <trkpt lat="28.177327" lon="-16.644714">
        <ele>1668.608</ele>
        <time>2017-06-29T08:46:46Z</time>
      </trkpt>
      <trkpt lat="28.176745" lon="-16.644990">
        <ele>1674.493</ele>
        <time>2017-06-29T08:47:12Z</time>
      </trkpt>
      <trkpt lat="28.173067" lon="-16.644221">
        <ele>1703.460</ele>
        <time>2017-06-29T08:49:29Z</time>
      </trkpt>
      <trkpt lat="28.172015" lon="-16.644675">
        <ele>1710.877</ele>
        <time>2017-06-29T08:50:07Z</time>
      </trkpt>
      <trkpt lat="28.171617" lon="-16.645522">
        <ele>1717.872</ele>
        <time>2017-06-29T08:50:44Z</time>
      </trkpt>
      <trkpt lat="28.172260" lon="-16.646611">
        <ele>1727.032</ele>
        <time>2017-06-29T08:51:58Z</time>
      </trkpt>
      <trkpt lat="28.174244" lon="-16.647033">
        <ele>1745.670</ele>
        <time>2017-06-29T08:53:12Z</time>
      </trkpt>
      <trkpt lat="28.174585" lon="-16.648553">
        <ele>1756.694</ele>
        <time>2017-06-29T08:54:03Z</time>
      </trkpt>
      <trkpt lat="28.175917" lon="-16.649526">
        <ele>1770.033</ele>
        <time>2017-06-29T08:55:02Z</time>
      </trkpt>
      <trkpt lat="28.175913" lon="-16.650096">
        <ele>1771.076</ele>
        <time>2017-06-29T08:55:18Z</time>
      </trkpt>
      <trkpt lat="28.174373" lon="-16.650546">
        <ele>1776.890</ele>
        <time>2017-06-29T08:55:57Z</time>
      </trkpt>
      <trkpt lat="28.174025" lon="-16.651554">
        <ele>1782.619</ele>
        <time>2017-06-29T08:56:27Z</time>
      </trkpt>
      <trkpt lat="28.174749" lon="-16.652570">
        <ele>1789.208</ele>
        <time>2017-06-29T08:57:02Z</time>
      </trkpt>
      <trkpt lat="28.174974" lon="-16.651152">
        <ele>1798.258</ele>
        <time>2017-06-29T08:57:46Z</time>
      </trkpt>
      <trkpt lat="28.175537" lon="-16.650791">
        <ele>1803.895</ele>
        <time>2017-06-29T08:58:11Z</time>
      </trkpt>
      <trkpt lat="28.177521" lon="-16.654149">
        <ele>1829.222</ele>
        <time>2017-06-29T09:00:10Z</time>
      </trkpt>
      <trkpt lat="28.176928" lon="-16.655330">
        <ele>1839.067</ele>
        <time>2017-06-29T09:01:02Z</time>
      </trkpt>
      <trkpt lat="28.178390" lon="-16.657231">
        <ele>1856.477</ele>
        <time>2017-06-29T09:02:24Z</time>
      </trkpt>
      <trkpt lat="28.179301" lon="-16.657442">
        <ele>1862.835</ele>
        <time>2017-06-29T09:02:59Z</time>
      </trkpt>
      <trkpt lat="28.180336" lon="-16.658739">
        <ele>1874.069</ele>
        <time>2017-06-29T09:03:55Z</time>
      </trkpt>
      <trkpt lat="28.182206" lon="-16.659105">
        <ele>1888.288</ele>
        <time>2017-06-29T09:05:03Z</time>
      </trkpt>
      <trkpt lat="28.184538" lon="-16.657635">
        <ele>1908.861</ele>
        <time>2017-06-29T09:06:39Z</time>
      </trkpt>
      <trkpt lat="28.186884" lon="-16.656724">
        <ele>1924.821</ele>
        <time>2017-06-29T09:08:04Z</time>
      </trkpt>
      <trkpt lat="28.188793" lon="-16.657011">
        <ele>1942.013</ele>
        <time>2017-06-29T09:09:18Z</time>
      </trkpt>
      <trkpt lat="28.189168" lon="-16.658725">
        <ele>1955.608</ele>
        <time>2017-06-29T09:10:18Z</time>
      </trkpt>
      <trkpt lat="28.188215" lon="-16.659629">
        <ele>1964.467</ele>
        <time>2017-06-29T09:11:04Z</time>
      </trkpt>
      <trkpt lat="28.187585" lon="-16.661053">
        <ele>1973.214</ele>
        <time>2017-06-29T09:11:55Z</time>
      </trkpt>
      <trkpt lat="28.188284" lon="-16.661760">
        <ele>1981.061</ele>
        <time>2017-06-29T09:12:31Z</time>
      </trkpt>
      <trkpt lat="28.189548" lon="-16.661493">
        <ele>1991.416</ele>
        <time>2017-06-29T09:13:19Z</time>
      </trkpt>
      <trkpt lat="28.190902" lon="-16.662619">
        <ele>1999.096</ele>
        <time>2017-06-29T09:14:12Z</time>
      </trkpt>
      <trkpt lat="28.191658" lon="-16.665666">
        <ele>2016.644</ele>
        <time>2017-06-29T09:15:52Z</time>
      </trkpt>
      <trkpt lat="28.191463" lon="-16.667399">
        <ele>2026.098</ele>
        <time>2017-06-29T09:16:46Z</time>
      </trkpt>
      <trkpt lat="28.195258" lon="-16.666284">
        <ele>2053.827</ele>
        <time>2017-06-29T09:19:11Z</time>
      </trkpt>
      <trkpt lat="28.196283" lon="-16.666384">
        <ele>2060.626</ele>
        <time>2017-06-29T09:19:48Z</time>
      </trkpt>
      <trkpt lat="28.196403" lon="-16.666965">
        <ele>2064.047</ele>
        <time>2017-06-29T09:20:07Z</time>
      </trkpt>
      <trkpt lat="28.195563" lon="-16.668649">
        <ele>2076.411</ele>
        <time>2017-06-29T09:21:12Z</time>
      </trkpt>
      <trkpt lat="28.195607" lon="-16.670879">
        <ele>2090.008</ele>
        <time>2017-06-29T09:22:23Z</time>
      </trkpt>
      <trkpt lat="28.195884" lon="-16.671186">
        <ele>2092.453</ele>
        <time>2017-06-29T09:22:37Z</time>
      </trkpt>
      <trkpt lat="28.197071" lon="-16.671044">
        <ele>2095.610</ele>
        <time>2017-06-29T09:23:12Z</time>
      </trkpt>
      <trkpt lat="28.198008" lon="-16.672921">
        <ele>2100.697</ele>
        <time>2017-06-29T09:24:14Z</time>
      </trkpt>
      <trkpt lat="28.198867" lon="-16.673313">
        <ele>2095.252</ele>
        <time>2017-06-29T09:32:03Z</time>
      </trkpt>
      <trkpt lat="28.199448" lon="-16.673217">
        <ele>2093.872</ele>
        <time>2017-06-29T09:32:17Z</time>
      </trkpt>
      <trkpt lat="28.200120" lon="-16.671848">
        <ele>2094.630</ele>
        <time>2017-06-29T09:32:41Z</time>
      </trkpt>
      <trkpt lat="28.201468" lon="-16.670440">
        <ele>2093.024</ele>
        <time>2017-06-29T09:33:06Z</time>
      </trkpt>
      <trkpt lat="28.202349" lon="-16.670076">
        <ele>2093.283</ele>
        <time>2017-06-29T09:33:20Z</time>
      </trkpt>
      <trkpt lat="28.202348" lon="-16.672599">
        <ele>2084.899</ele>
        <time>2017-06-29T09:33:47Z</time>
      </trkpt>
      <trkpt lat="28.203546" lon="-16.673689">
        <ele>2075.807</ele>
        <time>2017-06-29T09:34:02Z</time>
      </trkpt>
      <trkpt lat="28.204321" lon="-16.673600">
        <ele>2071.027</ele>
        <time>2017-06-29T09:34:09Z</time>
      </trkpt>
      <trkpt lat="28.205656" lon="-16.674291">
        <ele>2060.608</ele>
        <time>2017-06-29T09:34:21Z</time>
      </trkpt>
      <trkpt lat="28.206164" lon="-16.675053">
        <ele>2055.840</ele>
        <time>2017-06-29T09:34:28Z</time>
      </trkpt>
      <trkpt lat="28.203715" lon="-16.678663">
        <ele>2029.617</ele>
        <time>2017-06-29T09:34:59Z</time>
      </trkpt>
      <trkpt lat="28.203710" lon="-16.679365">
        <ele>2025.474</ele>
        <time>2017-06-29T09:35:06Z</time>
      </trkpt>
      <trkpt lat="28.204996" lon="-16.679281">
        <ele>2019.099</ele>
        <time>2017-06-29T09:35:20Z</time>
      </trkpt>
      <trkpt lat="28.205997" lon="-16.679720">
        <ele>2010.859</ele>
        <time>2017-06-29T09:35:30Z</time>
      </trkpt>
      <trkpt lat="28.206377" lon="-16.681531">
        <ele>1995.857</ele>
        <time>2017-06-29T09:35:46Z</time>
      </trkpt>
      <trkpt lat="28.206941" lon="-16.680402">
        <ele>1988.631</ele>
        <time>2017-06-29T09:35:58Z</time>
      </trkpt>
      <trkpt lat="28.208099" lon="-16.679772">
        <ele>1983.250</ele>
        <time>2017-06-29T09:36:11Z</time>
      </trkpt>
      <trkpt lat="28.208884" lon="-16.680177">
        <ele>1979.814</ele>
        <time>2017-06-29T09:36:20Z</time>
      </trkpt>
      <trkpt lat="28.211454" lon="-16.680505">
        <ele>1964.854</ele>
        <time>2017-06-29T09:36:43Z</time>
      </trkpt>
      <trkpt lat="28.212691" lon="-16.680995">
        <ele>1956.609</ele>
        <time>2017-06-29T09:36:59Z</time>
      </trkpt>
      <trkpt lat="28.212691" lon="-16.681432">
        <ele>1957.008</ele>
        <time>2017-06-29T09:37:21Z</time>
      </trkpt>
      <trkpt lat="28.212736" lon="-16.681038">
        <ele>1955.272</ele>
        <time>2017-06-29T09:45:21Z</time>
      </trkpt>
      <trkpt lat="28.213383" lon="-16.680852">
        <ele>1949.449</ele>
        <time>2017-06-29T09:45:32Z</time>
      </trkpt>
      <trkpt lat="28.213977" lon="-16.679982">
        <ele>1948.256</ele>
        <time>2017-06-29T09:45:42Z</time>
      </trkpt>
      <trkpt lat="28.214744" lon="-16.672853">
        <ele>1945.291</ele>
        <time>2017-06-29T09:47:53Z</time>
      </trkpt>
      <trkpt lat="28.216010" lon="-16.670023">
        <ele>1939.861</ele>
        <time>2017-06-29T09:48:26Z</time>
      </trkpt>
      <trkpt lat="28.212891" lon="-16.660922">
        <ele>1951.289</ele>
        <time>2017-06-29T09:50:45Z</time>
      </trkpt>
      <trkpt lat="28.210733" lon="-16.656534">
        <ele>1945.683</ele>
        <time>2017-06-29T09:51:49Z</time>
      </trkpt>
      <trkpt lat="28.210951" lon="-16.653702">
        <ele>1939.072</ele>
        <time>2017-06-29T09:52:15Z</time>
      </trkpt>
      <trkpt lat="28.209994" lon="-16.642659">
        <ele>1925.675</ele>
        <time>2017-06-29T09:54:04Z</time>
      </trkpt>
      <trkpt lat="28.212467" lon="-16.629133">
        <ele>1963.828</ele>
        <time>2017-06-29T10:05:49Z</time>
      </trkpt>
      <trkpt lat="28.213376" lon="-16.628140">
        <ele>1973.820</ele>
        <time>2017-06-29T10:06:37Z</time>
      </trkpt>
      <trkpt lat="28.217139" lon="-16.626021">
        <ele>2008.208</ele>
        <time>2017-06-29T10:09:10Z</time>
      </trkpt>
      <trkpt lat="28.218237" lon="-16.627652">
        <ele>2018.418</ele>
        <time>2017-06-29T10:10:02Z</time>
      </trkpt>
      <trkpt lat="28.222960" lon="-16.628531">
        <ele>2044.435</ele>
        <time>2017-06-29T10:12:28Z</time>
      </trkpt>
      <trkpt lat="28.244040" lon="-16.630350">
        <ele>2123.412</ele>
        <time>2017-06-29T10:21:05Z</time>
      </trkpt>
      <trkpt lat="28.247137" lon="-16.627948">
        <ele>2156.057</ele>
        <time>2017-06-29T10:23:43Z</time>
      </trkpt>
      <trkpt lat="28.250719" lon="-16.627098">
        <ele>2177.087</ele>
        <time>2017-06-29T10:25:46Z</time>
      </trkpt>
      <trkpt lat="28.253521" lon="-16.625182">
        <ele>2187.215</ele>
        <time>2017-06-29T10:27:04Z</time>
      </trkpt>
      <trkpt lat="28.255321" lon="-16.619971">
        <ele>2205.269</ele>
        <time>2017-06-29T10:40:12Z</time>
      </trkpt>
      <trkpt lat="28.256117" lon="-16.618734">
        <ele>2205.458</ele>
        <time>2017-06-29T10:40:45Z</time>
      </trkpt>
      <trkpt lat="28.254665" lon="-16.622109">
        <ele>2197.484</ele>
        <time>2017-06-29T10:41:53Z</time>
      </trkpt>
      <trkpt lat="28.256328" lon="-16.623440">
        <ele>2218.807</ele>
        <time>2017-06-29T10:43:38Z</time>
      </trkpt>
      <trkpt lat="28.255123" lon="-16.625666">
        <ele>2239.817</ele>
        <time>2017-06-29T10:45:33Z</time>
      </trkpt>
      <trkpt lat="28.256336" lon="-16.623462">
        <ele>2218.408</ele>
        <time>2017-06-29T10:48:36Z</time>
      </trkpt>
      <trkpt lat="28.256083" lon="-16.623025">
        <ele>2213.449</ele>
        <time>2017-06-29T10:48:47Z</time>
      </trkpt>
      <trkpt lat="28.254574" lon="-16.622338">
        <ele>2196.836</ele>
        <time>2017-06-29T10:49:07Z</time>
      </trkpt>
      <trkpt lat="28.253569" lon="-16.625129">
        <ele>2184.213</ele>
        <time>2017-06-29T10:59:11Z</time>
      </trkpt>
      <trkpt lat="28.250541" lon="-16.627196">
        <ele>2173.278</ele>
        <time>2017-06-29T10:59:54Z</time>
      </trkpt>
      <trkpt lat="28.247222" lon="-16.627835">
        <ele>2154.098</ele>
        <time>2017-06-29T11:00:30Z</time>
      </trkpt>
      <trkpt lat="28.243795" lon="-16.630386">
        <ele>2123.876</ele>
        <time>2017-06-29T11:01:00Z</time>
      </trkpt>
      <trkpt lat="28.223643" lon="-16.628639">
        <ele>2045.680</ele>
        <time>2017-06-29T11:04:12Z</time>
      </trkpt>
      <trkpt lat="28.218203" lon="-16.627653">
        <ele>2015.479</ele>
        <time>2017-06-29T11:05:05Z</time>
      </trkpt>
      <trkpt lat="28.216986" lon="-16.625954">
        <ele>2005.888</ele>
        <time>2017-06-29T11:05:25Z</time>
      </trkpt>
      <trkpt lat="28.213086" lon="-16.628277">
        <ele>1966.824</ele>
        <time>2017-06-29T11:05:59Z</time>
      </trkpt>
      <trkpt lat="28.212250" lon="-16.629293">
        <ele>1961.026</ele>
        <time>2017-06-29T11:06:07Z</time>
      </trkpt>
      <trkpt lat="28.212096" lon="-16.631685">
        <ele>1946.208</ele>
        <time>2017-06-29T11:06:22Z</time>
      </trkpt>
      <trkpt lat="28.211485" lon="-16.632999">
        <ele>1936.069</ele>
        <time>2017-06-29T11:06:31Z</time>
      </trkpt>
      <trkpt lat="28.209975" lon="-16.642680">
        <ele>1921.016</ele>
        <time>2017-06-29T11:07:56Z</time>
      </trkpt>
      <trkpt lat="28.211000" lon="-16.653928">
        <ele>1936.023</ele>
        <time>2017-06-29T11:10:26Z</time>
      </trkpt>
      <trkpt lat="28.210836" lon="-16.657016">
        <ele>1942.498</ele>
        <time>2017-06-29T11:11:33Z</time>
      </trkpt>
      <trkpt lat="28.212873" lon="-16.660779">
        <ele>1948.048</ele>
        <time>2017-06-29T11:12:41Z</time>
      </trkpt>
      <trkpt lat="28.216024" lon="-16.670027">
        <ele>1939.086</ele>
        <time>2017-06-29T11:15:00Z</time>
      </trkpt>
      <trkpt lat="28.214744" lon="-16.672905">
        <ele>1945.480</ele>
        <time>2017-06-29T11:16:06Z</time>
      </trkpt>
      <trkpt lat="28.213960" lon="-16.680056">
        <ele>1944.849</ele>
        <time>2017-06-29T11:18:10Z</time>
      </trkpt>
      <trkpt lat="28.213019" lon="-16.681035">
        <ele>1952.857</ele>
        <time>2017-06-29T11:18:46Z</time>
      </trkpt>
      <trkpt lat="28.207870" lon="-16.679820">
        <ele>1981.800</ele>
        <time>2017-06-29T11:21:48Z</time>
      </trkpt>
      <trkpt lat="28.206835" lon="-16.680504">
        <ele>1986.220</ele>
        <time>2017-06-29T11:22:20Z</time>
      </trkpt>
      <trkpt lat="28.206254" lon="-16.681517">
        <ele>1994.408</ele>
        <time>2017-06-29T11:23:02Z</time>
      </trkpt>
      <trkpt lat="28.205900" lon="-16.679722">
        <ele>2007.286</ele>
        <time>2017-06-29T11:24:25Z</time>
      </trkpt>
      <trkpt lat="28.204875" lon="-16.679300">
        <ele>2015.843</ele>
        <time>2017-06-29T11:25:08Z</time>
      </trkpt>
      <trkpt lat="28.203906" lon="-16.679496">
        <ele>2020.290</ele>
        <time>2017-06-29T11:25:48Z</time>
      </trkpt>
      <trkpt lat="28.203586" lon="-16.679067">
        <ele>2023.455</ele>
        <time>2017-06-29T11:26:06Z</time>
      </trkpt>
      <trkpt lat="28.204845" lon="-16.676672">
        <ele>2041.295</ele>
        <time>2017-06-29T11:27:29Z</time>
      </trkpt>
      <trkpt lat="28.205924" lon="-16.675514">
        <ele>2051.073</ele>
        <time>2017-06-29T11:28:22Z</time>
      </trkpt>
      <trkpt lat="28.206020" lon="-16.674884">
        <ele>2054.287</ele>
        <time>2017-06-29T11:28:42Z</time>
      </trkpt>
      <trkpt lat="28.204389" lon="-16.673680">
        <ele>2065.456</ele>
        <time>2017-06-29T11:29:48Z</time>
      </trkpt>
      <trkpt lat="28.203455" lon="-16.673709">
        <ele>2072.217</ele>
        <time>2017-06-29T11:30:20Z</time>
      </trkpt>
      <trkpt lat="28.202335" lon="-16.672696">
        <ele>2081.487</ele>
        <time>2017-06-29T11:31:08Z</time>
      </trkpt>
      <trkpt lat="28.202234" lon="-16.670114">
        <ele>2089.415</ele>
        <time>2017-06-29T11:32:12Z</time>
      </trkpt>
      <trkpt lat="28.201701" lon="-16.670234">
        <ele>2090.208</ele>
        <time>2017-06-29T11:32:24Z</time>
      </trkpt>
      <trkpt lat="28.200008" lon="-16.672041">
        <ele>2091.062</ele>
        <time>2017-06-29T11:33:08Z</time>
      </trkpt>
      <trkpt lat="28.199425" lon="-16.673313">
        <ele>2091.269</ele>
        <time>2017-06-29T11:33:31Z</time>
      </trkpt>
      <trkpt lat="28.198934" lon="-16.673438">
        <ele>2092.046</ele>
        <time>2017-06-29T11:33:41Z</time>
      </trkpt>
      <trkpt lat="28.197768" lon="-16.672840">
        <ele>2096.231</ele>
        <time>2017-06-29T11:34:08Z</time>
      </trkpt>
      <trkpt lat="28.197178" lon="-16.671133">
        <ele>2090.291</ele>
        <time>2017-06-29T11:34:30Z</time>
      </trkpt>
      <trkpt lat="28.195909" lon="-16.671226">
        <ele>2087.089</ele>
        <time>2017-06-29T11:34:44Z</time>
      </trkpt>
      <trkpt lat="28.195521" lon="-16.670909">
        <ele>2086.033</ele>
        <time>2017-06-29T11:34:50Z</time>
      </trkpt>
      <trkpt lat="28.195440" lon="-16.668713">
        <ele>2074.092</ele>
        <time>2017-06-29T11:35:07Z</time>
      </trkpt>
      <trkpt lat="28.196333" lon="-16.666927">
        <ele>2060.078</ele>
        <time>2017-06-29T11:35:20Z</time>
      </trkpt>
      <trkpt lat="28.196175" lon="-16.666174">
        <ele>2054.833</ele>
        <time>2017-06-29T11:35:25Z</time>
      </trkpt>
      <trkpt lat="28.194788" lon="-16.666204">
        <ele>2046.426</ele>
        <time>2017-06-29T11:35:35Z</time>
      </trkpt>
      <trkpt lat="28.191448" lon="-16.667539">
        <ele>2024.408</ele>
        <time>2017-06-29T11:36:01Z</time>
      </trkpt>
      <trkpt lat="28.191217" lon="-16.667080">
        <ele>2021.458</ele>
        <time>2017-06-29T11:36:05Z</time>
      </trkpt>
      <trkpt lat="28.191548" lon="-16.665700">
        <ele>2013.445</ele>
        <time>2017-06-29T11:36:15Z</time>
      </trkpt>
      <trkpt lat="28.190816" lon="-16.662456">
        <ele>1996.452</ele>
        <time>2017-06-29T11:36:38Z</time>
      </trkpt>
      <trkpt lat="28.189506" lon="-16.661449">
        <ele>1987.297</ele>
        <time>2017-06-29T11:36:50Z</time>
      </trkpt>
      <trkpt lat="28.188122" lon="-16.661694">
        <ele>1977.297</ele>
        <time>2017-06-29T11:37:01Z</time>
      </trkpt>
      <trkpt lat="28.187503" lon="-16.660996">
        <ele>1969.445</ele>
        <time>2017-06-29T11:37:08Z</time>
      </trkpt>
      <trkpt lat="28.188188" lon="-16.659418">
        <ele>1960.029</ele>
        <time>2017-06-29T11:37:20Z</time>
      </trkpt>
      <trkpt lat="28.189108" lon="-16.658467">
        <ele>1949.488</ele>
        <time>2017-06-29T11:37:30Z</time>
      </trkpt>
      <trkpt lat="28.188558" lon="-16.656606">
        <ele>1934.683</ele>
        <time>2017-06-29T11:37:44Z</time>
      </trkpt>
      <trkpt lat="28.186674" lon="-16.656721">
        <ele>1922.225</ele>
        <time>2017-06-29T11:37:56Z</time>
      </trkpt>
      <trkpt lat="28.184403" lon="-16.657687">
        <ele>1905.817</ele>
        <time>2017-06-29T11:38:12Z</time>
      </trkpt>
      <trkpt lat="28.182169" lon="-16.659196">
        <ele>1886.208</ele>
        <time>2017-06-29T11:38:31Z</time>
      </trkpt>
      <trkpt lat="28.180332" lon="-16.658867">
        <ele>1869.429</ele>
        <time>2017-06-29T11:38:46Z</time>
      </trkpt>
      <trkpt lat="28.179261" lon="-16.657472">
        <ele>1859.486</ele>
        <time>2017-06-29T11:38:58Z</time>
      </trkpt>
      <trkpt lat="28.178292" lon="-16.657228">
        <ele>1853.423</ele>
        <time>2017-06-29T11:39:06Z</time>
      </trkpt>
      <trkpt lat="28.176821" lon="-16.655262">
        <ele>1835.648</ele>
        <time>2017-06-29T11:39:24Z</time>
      </trkpt>
      <trkpt lat="28.177448" lon="-16.654114">
        <ele>1825.098</ele>
        <time>2017-06-29T11:39:35Z</time>
      </trkpt>
      <trkpt lat="28.175543" lon="-16.650916">
        <ele>1800.876</ele>
        <time>2017-06-29T11:40:02Z</time>
      </trkpt>
      <trkpt lat="28.175004" lon="-16.650963">
        <ele>1793.410</ele>
        <time>2017-06-29T11:40:08Z</time>
      </trkpt>
      <trkpt lat="28.174643" lon="-16.652672">
        <ele>1785.859</ele>
        <time>2017-06-29T11:40:23Z</time>
      </trkpt>
      <trkpt lat="28.173937" lon="-16.651530">
        <ele>1779.629</ele>
        <time>2017-06-29T11:40:34Z</time>
      </trkpt>
      <trkpt lat="28.174345" lon="-16.650500">
        <ele>1774.200</ele>
        <time>2017-06-29T11:40:43Z</time>
      </trkpt>
      <trkpt lat="28.176058" lon="-16.649979">
        <ele>1766.220</ele>
        <time>2017-06-29T11:40:57Z</time>
      </trkpt>
      <trkpt lat="28.175980" lon="-16.649415">
        <ele>1766.408</ele>
        <time>2017-06-29T11:41:01Z</time>
      </trkpt>
      <trkpt lat="28.174501" lon="-16.648369">
        <ele>1753.043</ele>
        <time>2017-06-29T11:41:15Z</time>
      </trkpt>
      <trkpt lat="28.174225" lon="-16.647016">
        <ele>1742.230</ele>
        <time>2017-06-29T11:41:24Z</time>
      </trkpt>
      <trkpt lat="28.172176" lon="-16.646626">
        <ele>1725.297</ele>
        <time>2017-06-29T11:41:39Z</time>
      </trkpt>
      <trkpt lat="28.171563" lon="-16.645614">
        <ele>1715.422</ele>
        <time>2017-06-29T11:41:47Z</time>
      </trkpt>
      <trkpt lat="28.171838" lon="-16.644653">
        <ele>1708.452</ele>
        <time>2017-06-29T11:41:53Z</time>
      </trkpt>
      <trkpt lat="28.172969" lon="-16.644106">
        <ele>1701.070</ele>
        <time>2017-06-29T11:42:01Z</time>
      </trkpt>
      <trkpt lat="28.177000" lon="-16.644963">
        <ele>1670.084</ele>
        <time>2017-06-29T11:42:29Z</time>
      </trkpt>
      <trkpt lat="28.177509" lon="-16.644561">
        <ele>1663.223</ele>
        <time>2017-06-29T11:42:34Z</time>
      </trkpt>
      <trkpt lat="28.177495" lon="-16.643515">
        <ele>1654.484</ele>
        <time>2017-06-29T11:42:41Z</time>
      </trkpt>
      <trkpt lat="28.176253" lon="-16.643322">
        <ele>1644.607</ele>
        <time>2017-06-29T11:42:50Z</time>
      </trkpt>
      <trkpt lat="28.175568" lon="-16.642268">
        <ele>1632.017</ele>
        <time>2017-06-29T11:42:58Z</time>
      </trkpt>
      <trkpt lat="28.174905" lon="-16.638709">
        <ele>1601.408</ele>
        <time>2017-06-29T11:43:19Z</time>
      </trkpt>
      <trkpt lat="28.172554" lon="-16.637191">
        <ele>1579.429</ele>
        <time>2017-06-29T11:43:36Z</time>
      </trkpt>
      <trkpt lat="28.165293" lon="-16.634471">
        <ele>1522.816</ele>
        <time>2017-06-29T11:44:28Z</time>
      </trkpt>
      <trkpt lat="28.165184" lon="-16.634767">
        <ele>1517.613</ele>
        <time>2017-06-29T11:44:33Z</time>
      </trkpt>
      <trkpt lat="28.167957" lon="-16.636087">
        <ele>1497.888</ele>
        <time>2017-06-29T11:44:58Z</time>
      </trkpt>
      <trkpt lat="28.168264" lon="-16.636550">
        <ele>1492.838</ele>
        <time>2017-06-29T11:45:04Z</time>
      </trkpt>
      <trkpt lat="28.167802" lon="-16.636666">
        <ele>1489.216</ele>
        <time>2017-06-29T11:45:08Z</time>
      </trkpt>
      <trkpt lat="28.163502" lon="-16.634920">
        <ele>1455.490</ele>
        <time>2017-06-29T11:45:42Z</time>
      </trkpt>
      <trkpt lat="28.166446" lon="-16.637845">
        <ele>1426.259</ele>
        <time>2017-06-29T11:46:17Z</time>
      </trkpt>
      <trkpt lat="28.166004" lon="-16.638106">
        <ele>1421.832</ele>
        <time>2017-06-29T11:46:22Z</time>
      </trkpt>
      <trkpt lat="28.164722" lon="-16.637895">
        <ele>1417.892</ele>
        <time>2017-06-29T11:46:32Z</time>
      </trkpt>
      <trkpt lat="28.163405" lon="-16.639111">
        <ele>1409.211</ele>
        <time>2017-06-29T11:46:47Z</time>
      </trkpt>
      <trkpt lat="28.161393" lon="-16.639295">
        <ele>1398.408</ele>
        <time>2017-06-29T11:47:04Z</time>
      </trkpt>
      <trkpt lat="28.160649" lon="-16.640525">
        <ele>1389.494</ele>
        <time>2017-06-29T11:47:17Z</time>
      </trkpt>
      <trkpt lat="28.160189" lon="-16.638834">
        <ele>1378.881</ele>
        <time>2017-06-29T11:47:30Z</time>
      </trkpt>
      <trkpt lat="28.159372" lon="-16.638222">
        <ele>1373.048</ele>
        <time>2017-06-29T11:47:38Z</time>
      </trkpt>
      <trkpt lat="28.157303" lon="-16.638158">
        <ele>1356.643</ele>
        <time>2017-06-29T11:47:57Z</time>
      </trkpt>
      <trkpt lat="28.155420" lon="-16.638710">
        <ele>1344.423</ele>
        <time>2017-06-29T11:48:16Z</time>
      </trkpt>
      <trkpt lat="28.154418" lon="-16.639135">
        <ele>1337.621</ele>
        <time>2017-06-29T11:48:25Z</time>
      </trkpt>
      <trkpt lat="28.153452" lon="-16.640221">
        <ele>1327.245</ele>
        <time>2017-06-29T11:48:37Z</time>
      </trkpt>
      <trkpt lat="28.152284" lon="-16.640114">
        <ele>1316.894</ele>
        <time>2017-06-29T11:48:56Z</time>
      </trkpt>
      <trkpt lat="28.149888" lon="-16.641370">
        <ele>1307.268</ele>
        <time>2017-06-29T11:49:25Z</time>
      </trkpt>
      <trkpt lat="28.147402" lon="-16.643275">
        <ele>1288.042</ele>
        <time>2017-06-29T11:49:56Z</time>
      </trkpt>
      <trkpt lat="28.142617" lon="-16.645699">
        <ele>1257.026</ele>
        <time>2017-06-29T11:50:37Z</time>
      </trkpt>
      <trkpt lat="28.142058" lon="-16.647029">
        <ele>1248.608</ele>
        <time>2017-06-29T11:50:49Z</time>
      </trkpt>
      <trkpt lat="28.143104" lon="-16.652100">
        <ele>1223.067</ele>
        <time>2017-06-29T11:51:30Z</time>
      </trkpt>
      <trkpt lat="28.142295" lon="-16.653712">
        <ele>1209.654</ele>
        <time>2017-06-29T11:51:45Z</time>
      </trkpt>
      <trkpt lat="28.139647" lon="-16.653446">
        <ele>1202.261</ele>
        <time>2017-06-29T11:52:16Z</time>
      </trkpt>
      <trkpt lat="28.136069" lon="-16.651319">
        <ele>1185.646</ele>
        <time>2017-06-29T11:52:58Z</time>
      </trkpt>
      <trkpt lat="28.134207" lon="-16.651043">
        <ele>1175.416</ele>
        <time>2017-06-29T11:53:17Z</time>
      </trkpt>
      <trkpt lat="28.129963" lon="-16.653875">
        <ele>1157.654</ele>
        <time>2017-06-29T11:54:10Z</time>
      </trkpt>
      <trkpt lat="28.128314" lon="-16.656354">
        <ele>1143.848</ele>
        <time>2017-06-29T11:54:35Z</time>
      </trkpt>
      <trkpt lat="28.125228" lon="-16.657865">
        <ele>1129.657</ele>
        <time>2017-06-29T11:55:06Z</time>
      </trkpt>
      <trkpt lat="28.125111" lon="-16.659272">
        <ele>1118.038</ele>
        <time>2017-06-29T11:55:19Z</time>
      </trkpt>
      <trkpt lat="28.125787" lon="-16.659910">
        <ele>1109.070</ele>
        <time>2017-06-29T11:55:28Z</time>
      </trkpt>
      <trkpt lat="28.124615" lon="-16.664294">
        <ele>1073.617</ele>
        <time>2017-06-29T11:55:57Z</time>
      </trkpt>
      <trkpt lat="28.125386" lon="-16.665699">
        <ele>1064.808</ele>
        <time>2017-06-29T11:56:08Z</time>
      </trkpt>
      <trkpt lat="28.125529" lon="-16.666731">
        <ele>1059.244</ele>
        <time>2017-06-29T11:56:15Z</time>
      </trkpt>
      <trkpt lat="28.125078" lon="-16.667913">
        <ele>1052.421</ele>
        <time>2017-06-29T11:56:24Z</time>
      </trkpt>
      <trkpt lat="28.125574" lon="-16.668773">
        <ele>1046.468</ele>
        <time>2017-06-29T11:56:32Z</time>
      </trkpt>
      <trkpt lat="28.125115" lon="-16.668799">
        <ele>1044.253</ele>
        <time>2017-06-29T11:56:38Z</time>
      </trkpt>
      <trkpt lat="28.123149" lon="-16.666355">
        <ele>1027.483</ele>
        <time>2017-06-29T11:57:03Z</time>
      </trkpt>
      <trkpt lat="28.121476" lon="-16.666901">
        <ele>1017.491</ele>
        <time>2017-06-29T11:57:19Z</time>
      </trkpt>
      <trkpt lat="28.118581" lon="-16.665322">
        <ele>1000.085</ele>
        <time>2017-06-29T11:57:49Z</time>
      </trkpt>
      <trkpt lat="28.118437" lon="-16.668350">
        <ele>981.874</ele>
        <time>2017-06-29T11:58:13Z</time>
      </trkpt>
      <trkpt lat="28.119319" lon="-16.670114">
        <ele>977.234</ele>
        <time>2017-06-29T11:58:30Z</time>
      </trkpt>
      <trkpt lat="28.119671" lon="-16.672640">
        <ele>964.455</ele>
        <time>2017-06-29T11:58:51Z</time>
      </trkpt>
      <trkpt lat="28.119327" lon="-16.672957">
        <ele>960.810</ele>
        <time>2017-06-29T11:58:55Z</time>
      </trkpt>
      <trkpt lat="28.118014" lon="-16.672764">
        <ele>956.408</ele>
        <time>2017-06-29T11:59:07Z</time>
      </trkpt>
      <trkpt lat="28.116797" lon="-16.673181">
        <ele>951.434</ele>
        <time>2017-06-29T11:59:19Z</time>
      </trkpt>
      <trkpt lat="28.117114" lon="-16.674159">
        <ele>943.841</ele>
        <time>2017-06-29T11:59:28Z</time>
      </trkpt>
      <trkpt lat="28.116399" lon="-16.675689">
        <ele>931.898</ele>
        <time>2017-06-29T11:59:42Z</time>
      </trkpt>
      <trkpt lat="28.117979" lon="-16.675424">
        <ele>917.253</ele>
        <time>2017-06-29T11:59:57Z</time>
      </trkpt>
      <trkpt lat="28.118369" lon="-16.675831">
        <ele>914.893</ele>
        <time>2017-06-29T12:00:02Z</time>
      </trkpt>
      <trkpt lat="28.117866" lon="-16.677260">
        <ele>911.061</ele>
        <time>2017-06-29T12:00:15Z</time>
      </trkpt>
      <trkpt lat="28.116815" lon="-16.676629">
        <ele>899.635</ele>
        <time>2017-06-29T12:00:28Z</time>
      </trkpt>
      <trkpt lat="28.117584" lon="-16.678185">
        <ele>888.854</ele>
        <time>2017-06-29T12:00:46Z</time>
      </trkpt>
      <trkpt lat="28.116759" lon="-16.678198">
        <ele>880.425</ele>
        <time>2017-06-29T12:00:54Z</time>
      </trkpt>
      <trkpt lat="28.116142" lon="-16.677488">
        <ele>874.826</ele>
        <time>2017-06-29T12:01:02Z</time>
      </trkpt>
      <trkpt lat="28.115844" lon="-16.677560">
        <ele>870.608</ele>
        <time>2017-06-29T12:01:06Z</time>
      </trkpt>
      <trkpt lat="28.116835" lon="-16.679032">
        <ele>858.208</ele>
        <time>2017-06-29T12:01:23Z</time>
      </trkpt>
      <trkpt lat="28.115602" lon="-16.678517">
        <ele>848.893</ele>
        <time>2017-06-29T12:01:36Z</time>
      </trkpt>
      <trkpt lat="28.115046" lon="-16.677708">
        <ele>842.640</ele>
        <time>2017-06-29T12:01:45Z</time>
      </trkpt>
      <trkpt lat="28.115173" lon="-16.678488">
        <ele>837.097</ele>
        <time>2017-06-29T12:01:53Z</time>
      </trkpt>
      <trkpt lat="28.115822" lon="-16.679135">
        <ele>832.812</ele>
        <time>2017-06-29T12:02:01Z</time>
      </trkpt>
      <trkpt lat="28.115549" lon="-16.679399">
        <ele>830.052</ele>
        <time>2017-06-29T12:02:06Z</time>
      </trkpt>
      <trkpt lat="28.113845" lon="-16.677907">
        <ele>813.270</ele>
        <time>2017-06-29T12:02:27Z</time>
      </trkpt>
      <trkpt lat="28.114537" lon="-16.681562">
        <ele>790.894</ele>
        <time>2017-06-29T12:02:54Z</time>
      </trkpt>
      <trkpt lat="28.113858" lon="-16.683097">
        <ele>784.083</ele>
        <time>2017-06-29T12:03:07Z</time>
      </trkpt>
      <trkpt lat="28.113257" lon="-16.682108">
        <ele>773.283</ele>
        <time>2017-06-29T12:03:17Z</time>
      </trkpt>
      <trkpt lat="28.112826" lon="-16.682197">
        <ele>769.225</ele>
        <time>2017-06-29T12:03:21Z</time>
      </trkpt>
      <trkpt lat="28.112221" lon="-16.685309">
        <ele>750.017</ele>
        <time>2017-06-29T12:03:45Z</time>
      </trkpt>
      <trkpt lat="28.111734" lon="-16.685005">
        <ele>745.008</ele>
        <time>2017-06-29T12:03:50Z</time>
      </trkpt>
      <trkpt lat="28.111749" lon="-16.684061">
        <ele>739.289</ele>
        <time>2017-06-29T12:03:56Z</time>
      </trkpt>
      <trkpt lat="28.111429" lon="-16.683786">
        <ele>735.636</ele>
        <time>2017-06-29T12:04:00Z</time>
      </trkpt>
      <trkpt lat="28.110159" lon="-16.685707">
        <ele>719.063</ele>
        <time>2017-06-29T12:04:18Z</time>
      </trkpt>
      <trkpt lat="28.108494" lon="-16.684660">
        <ele>705.258</ele>
        <time>2017-06-29T12:04:33Z</time>
      </trkpt>
      <trkpt lat="28.108570" lon="-16.686212">
        <ele>696.488</ele>
        <time>2017-06-29T12:04:45Z</time>
      </trkpt>
      <trkpt lat="28.108156" lon="-16.686465">
        <ele>692.616</ele>
        <time>2017-06-29T12:04:50Z</time>
      </trkpt>
      <trkpt lat="28.105667" lon="-16.684507">
        <ele>676.430</ele>
        <time>2017-06-29T12:05:16Z</time>
      </trkpt>
      <trkpt lat="28.103869" lon="-16.684072">
        <ele>663.679</ele>
        <time>2017-06-29T12:05:33Z</time>
      </trkpt>
      <trkpt lat="28.101460" lon="-16.681313">
        <ele>633.444</ele>
        <time>2017-06-29T12:05:57Z</time>
      </trkpt>
      <trkpt lat="28.101111" lon="-16.681477">
        <ele>629.605</ele>
        <time>2017-06-29T12:06:01Z</time>
      </trkpt>
      <trkpt lat="28.100842" lon="-16.682521">
        <ele>619.015</ele>
        <time>2017-06-29T12:06:10Z</time>
      </trkpt>
      <trkpt lat="28.100353" lon="-16.682757">
        <ele>616.208</ele>
        <time>2017-06-29T12:06:15Z</time>
      </trkpt>
      <trkpt lat="28.097631" lon="-16.681761">
        <ele>593.075</ele>
        <time>2017-06-29T12:06:40Z</time>
      </trkpt>
      <trkpt lat="28.095743" lon="-16.683402">
        <ele>572.072</ele>
        <time>2017-06-29T12:07:02Z</time>
      </trkpt>
      <trkpt lat="28.095075" lon="-16.684730">
        <ele>559.819</ele>
        <time>2017-06-29T12:07:12Z</time>
      </trkpt>
      <trkpt lat="28.093439" lon="-16.685638">
        <ele>543.624</ele>
        <time>2017-06-29T12:07:25Z</time>
      </trkpt>
      <trkpt lat="28.092224" lon="-16.688170">
        <ele>525.694</ele>
        <time>2017-06-29T12:07:47Z</time>
      </trkpt>
      <trkpt lat="28.092105" lon="-16.689878">
        <ele>510.892</ele>
        <time>2017-06-29T12:08:00Z</time>
      </trkpt>
      <trkpt lat="28.089885" lon="-16.689461">
        <ele>495.496</ele>
        <time>2017-06-29T12:08:19Z</time>
      </trkpt>
      <trkpt lat="28.089038" lon="-16.688421">
        <ele>485.845</ele>
        <time>2017-06-29T12:08:30Z</time>
      </trkpt>
      <trkpt lat="28.088539" lon="-16.688412">
        <ele>481.243</ele>
        <time>2017-06-29T12:08:36Z</time>
      </trkpt>
      <trkpt lat="28.088380" lon="-16.689075">
        <ele>477.064</ele>
        <time>2017-06-29T12:08:42Z</time>
      </trkpt>
      <trkpt lat="28.089101" lon="-16.691184">
        <ele>463.410</ele>
        <time>2017-06-29T12:09:00Z</time>
      </trkpt>
      <trkpt lat="28.088488" lon="-16.691971">
        <ele>457.008</ele>
        <time>2017-06-29T12:09:10Z</time>
      </trkpt>
      <trkpt lat="28.087210" lon="-16.690187">
        <ele>442.095</ele>
        <time>2017-06-29T12:09:28Z</time>
      </trkpt>
      <trkpt lat="28.085093" lon="-16.690972">
        <ele>423.412</ele>
        <time>2017-06-29T12:09:48Z</time>
      </trkpt>
      <trkpt lat="28.082585" lon="-16.686697">
        <ele>394.659</ele>
        <time>2017-06-29T12:10:25Z</time>
      </trkpt>
      <trkpt lat="28.082559" lon="-16.683994">
        <ele>375.024</ele>
        <time>2017-06-29T12:10:45Z</time>
      </trkpt>
      <trkpt lat="28.080620" lon="-16.683480">
        <ele>360.254</ele>
        <time>2017-06-29T12:11:02Z</time>
      </trkpt>
      <trkpt lat="28.079733" lon="-16.682261">
        <ele>350.222</ele>
        <time>2017-06-29T12:11:15Z</time>
      </trkpt>
      <trkpt lat="28.078896" lon="-16.682399">
        <ele>341.826</ele>
        <time>2017-06-29T12:11:25Z</time>
      </trkpt>
      <trkpt lat="28.078657" lon="-16.684488">
        <ele>324.415</ele>
        <time>2017-06-29T12:11:50Z</time>
      </trkpt>
      <trkpt lat="28.075927" lon="-16.688009">
        <ele>296.843</ele>
        <time>2017-06-29T12:12:27Z</time>
      </trkpt>
      <trkpt lat="28.074239" lon="-16.689119">
        <ele>285.064</ele>
        <time>2017-06-29T12:12:43Z</time>
      </trkpt>
      <trkpt lat="28.073627" lon="-16.691387">
        <ele>267.810</ele>
        <time>2017-06-29T12:13:01Z</time>
      </trkpt>
      <trkpt lat="28.071964" lon="-16.692868">
        <ele>256.408</ele>
        <time>2017-06-29T12:13:19Z</time>
      </trkpt>
      <trkpt lat="28.072387" lon="-16.696450">
        <ele>235.295</ele>
        <time>2017-06-29T12:13:45Z</time>
      </trkpt>
      <trkpt lat="28.070348" lon="-16.700631">
        <ele>208.682</ele>
        <time>2017-06-29T12:14:17Z</time>
      </trkpt>
      <trkpt lat="28.070787" lon="-16.705414">
        <ele>178.049</ele>
        <time>2017-06-29T12:14:51Z</time>
      </trkpt>
      <trkpt lat="28.070195" lon="-16.707711">
        <ele>165.624</ele>
        <time>2017-06-29T12:15:08Z</time>
      </trkpt>
      <trkpt lat="28.070101" lon="-16.710926">
        <ele>147.644</ele>
        <time>2017-06-29T12:15:31Z</time>
      </trkpt>
      <trkpt lat="28.069512" lon="-16.712215">
        <ele>139.032</ele>
        <time>2017-06-29T12:15:41Z</time>
      </trkpt>
      <trkpt lat="28.068398" lon="-16.713038">
        <ele>129.266</ele>
        <time>2017-06-29T12:15:51Z</time>
      </trkpt>
      <trkpt lat="28.067040" lon="-16.713094">
        <ele>120.485</ele>
        <time>2017-06-29T12:16:01Z</time>
      </trkpt>
      <trkpt lat="28.064397" lon="-16.710838">
        <ele>93.088</ele>
        <time>2017-06-29T12:16:59Z</time>
      </trkpt>
      <trkpt lat="28.063488" lon="-16.711317">
        <ele>86.624</ele>
        <time>2017-06-29T12:17:12Z</time>
      </trkpt>
      <trkpt lat="28.059249" lon="-16.711041">
        <ele>56.226</ele>
        <time>2017-06-29T12:17:52Z</time>
      </trkpt>
      <trkpt lat="28.056561" lon="-16.711809">
        <ele>40.608</ele>
        <time>2017-06-29T12:18:25Z</time>
      </trkpt>
      <trkpt lat="28.055856" lon="-16.712400">
        <ele>36.889</ele>
        <time>2017-06-29T12:18:55Z</time>
      </trkpt>
      <trkpt lat="28.058080" lon="-16.722245">
        <ele>35.286</ele>
        <time>2017-06-29T12:21:30Z</time>
      </trkpt>
      <trkpt lat="28.061038" lon="-16.725498">
        <ele>39.883</ele>
        <time>2017-06-29T12:22:44Z</time>
      </trkpt>
      <trkpt lat="28.061397" lon="-16.726729">
        <ele>37.278</ele>
        <time>2017-06-29T12:23:16Z</time>
      </trkpt>
      <trkpt lat="28.063022" lon="-16.726497">
        <ele>41.238</ele>
        <time>2017-06-29T12:23:49Z</time>
      </trkpt>
      <trkpt lat="28.064313" lon="-16.727151">
        <ele>38.466</ele>
        <time>2017-06-29T12:24:15Z</time>
      </trkpt>
      <trkpt lat="28.064725" lon="-16.726842">
        <ele>40.450</ele>
        <time>2017-06-29T12:24:24Z</time>
      </trkpt>
      <trkpt lat="28.065884" lon="-16.723199">
        <ele>54.239</ele>
        <time>2017-06-29T12:25:42Z</time>
      </trkpt>
      <trkpt lat="28.065294" lon="-16.721589">
        <ele>63.681</ele>
        <time>2017-06-29T12:26:14Z</time>
      </trkpt>
      <trkpt lat="28.065434" lon="-16.720693">
        <ele>68.461</ele>
        <time>2017-06-29T12:26:35Z</time>
      </trkpt>
      <trkpt lat="28.066059" lon="-16.720390">
        <ele>67.417</ele>
        <time>2017-06-29T12:26:51Z</time>
      </trkpt>
      <trkpt lat="28.065463" lon="-16.720950">
        <ele>67.608</ele>
        <time>2017-06-29T12:29:14Z</time>
      </trkpt>
      <trkpt lat="28.065461" lon="-16.720079">
        <ele>69.099</ele>
        <time>2017-06-29T12:29:33Z</time>
      </trkpt>
      <trkpt lat="28.065566" lon="-16.722288">
        <ele>56.816</ele>
        <time>2017-06-29T12:31:02Z</time>
      </trkpt>
      <trkpt lat="28.068781" lon="-16.727367">
        <ele>39.473</ele>
        <time>2017-06-29T12:32:17Z</time>
      </trkpt>
      <trkpt lat="28.070470" lon="-16.727900">
        <ele>38.448</ele>
        <time>2017-06-29T12:32:45Z</time>
      </trkpt>
      <trkpt lat="28.071330" lon="-16.727544">
        <ele>38.448</ele>
        <time>2017-06-29T12:32:59Z</time>
      </trkpt>
      <trkpt lat="28.072146" lon="-16.727956">
        <ele>39.276</ele>
        <time>2017-06-29T12:33:13Z</time>
      </trkpt>
      <trkpt lat="28.073999" lon="-16.729292">
        <ele>40.810</ele>
        <time>2017-06-29T12:33:52Z</time>
      </trkpt>
      <trkpt lat="28.074735" lon="-16.731211">
        <ele>41.889</ele>
        <time>2017-06-29T12:34:24Z</time>
      </trkpt>
      <trkpt lat="28.075201" lon="-16.731485">
        <ele>43.271</ele>
        <time>2017-06-29T12:34:33Z</time>
      </trkpt>
      <trkpt lat="28.078090" lon="-16.732281">
        <ele>43.841</ele>
        <time>2017-06-29T12:35:32Z</time>
      </trkpt>
      <trkpt lat="28.079684" lon="-16.730875">
        <ele>45.615</ele>
        <time>2017-06-29T12:36:25Z</time>
      </trkpt>
    </trkseg>
  </trk></gpx>