<?xml version="1.0" encoding="UTF-8"?>
<gpx creator="Wikiloc - https://www.wikiloc.com" version="1.1" xmlns="http://www.topografix.com/GPX/1/1" xmlns:xsi="http://www.w3.org/2001/XMLSchema-instance" xsi:schemaLocation="http://www.topografix.com/GPX/1/1 http://www.topografix.com/GPX/1/1/gpx.xsd">
  <metadata>
    <name>Wikiloc - Norte de Lanzarote</name>
    <link href="https://www.wikiloc.com/cycling-trails/norte-de-lanzarote-11771832">
      <text>Norte de Lanzarote - Wikiloc on Wikiloc</text>
    </link>
    <time>2015-12-26T18:20:06Z</time>
  </metadata>
  <trk>
    <name>Norte de Lanzarote - Wikiloc</name>
    <cmt></cmt>
    <desc></desc>
    <trkseg>
      <trkpt lat="28.927511" lon="-13.641785">
        <ele>54.616</ele>
        <time>2015-12-26T10:30:27Z</time>
      </trkpt>
      <trkpt lat="28.927498" lon="-13.642065">
        <ele>56.076</ele>
        <time>2015-12-26T10:34:10Z</time>
      </trkpt>
      <trkpt lat="28.926125" lon="-13.642908">
        <ele>69.013</ele>
        <time>2015-12-26T10:34:49Z</time>
      </trkpt>
      <trkpt lat="28.926958" lon="-13.643349">
        <ele>69.408</ele>
        <time>2015-12-26T10:35:07Z</time>
      </trkpt>
      <trkpt lat="28.928137" lon="-13.643122">
        <ele>67.032</ele>
        <time>2015-12-26T10:35:32Z</time>
      </trkpt>
      <trkpt lat="28.928867" lon="-13.643302">
        <ele>62.642</ele>
        <time>2015-12-26T10:35:48Z</time>
      </trkpt>
      <trkpt lat="28.929345" lon="-13.643798">
        <ele>63.438</ele>
        <time>2015-12-26T10:36:04Z</time>
      </trkpt>
      <trkpt lat="28.930130" lon="-13.643949">
        <ele>65.958</ele>
        <time>2015-12-26T10:36:24Z</time>
      </trkpt>
      <trkpt lat="28.930316" lon="-13.644152">
        <ele>65.482</ele>
        <time>2015-12-26T10:36:31Z</time>
      </trkpt>
      <trkpt lat="28.929566" lon="-13.644726">
        <ele>69.829</ele>
        <time>2015-12-26T10:36:51Z</time>
      </trkpt>
      <trkpt lat="28.928864" lon="-13.646414">
        <ele>102.444</ele>
        <time>2015-12-26T10:37:32Z</time>
      </trkpt>
      <trkpt lat="28.928447" lon="-13.648295">
        <ele>111.363</ele>
        <time>2015-12-26T10:38:09Z</time>
      </trkpt>
      <trkpt lat="28.928165" lon="-13.651700">
        <ele>115.185</ele>
        <time>2015-12-26T10:39:07Z</time>
      </trkpt>
      <trkpt lat="28.928553" lon="-13.656158">
        <ele>117.289</ele>
        <time>2015-12-26T10:40:09Z</time>
      </trkpt>
      <trkpt lat="28.929279" lon="-13.658914">
        <ele>118.617</ele>
        <time>2015-12-26T10:41:07Z</time>
      </trkpt>
      <trkpt lat="28.930063" lon="-13.660567">
        <ele>123.908</ele>
        <time>2015-12-26T10:41:52Z</time>
      </trkpt>
      <trkpt lat="28.930251" lon="-13.660666">
        <ele>121.779</ele>
        <time>2015-12-26T10:41:57Z</time>
      </trkpt>
      <trkpt lat="28.929859" lon="-13.660142">
        <ele>107.499</ele>
        <time>2015-12-26T10:42:55Z</time>
      </trkpt>
      <trkpt lat="28.930097" lon="-13.660559">
        <ele>110.295</ele>
        <time>2015-12-26T10:44:05Z</time>
      </trkpt>
      <trkpt lat="28.930636" lon="-13.660745">
        <ele>111.075</ele>
        <time>2015-12-26T10:44:15Z</time>
      </trkpt>
      <trkpt lat="28.933081" lon="-13.660136">
        <ele>131.359</ele>
        <time>2015-12-26T10:45:05Z</time>
      </trkpt>
      <trkpt lat="28.935959" lon="-13.657881">
        <ele>144.946</ele>
        <time>2015-12-26T10:46:04Z</time>
      </trkpt>
      <trkpt lat="28.937989" lon="-13.657077">
        <ele>148.811</ele>
        <time>2015-12-26T10:46:47Z</time>
      </trkpt>
      <trkpt lat="28.940632" lon="-13.655009">
        <ele>161.790</ele>
        <time>2015-12-26T10:48:06Z</time>
      </trkpt>
      <trkpt lat="28.943384" lon="-13.654240">
        <ele>181.583</ele>
        <time>2015-12-26T10:49:32Z</time>
      </trkpt>
      <trkpt lat="28.944700" lon="-13.652638">
        <ele>200.425</ele>
        <time>2015-12-26T10:50:30Z</time>
      </trkpt>
      <trkpt lat="28.945644" lon="-13.652033">
        <ele>214.017</ele>
        <time>2015-12-26T10:51:06Z</time>
      </trkpt>
      <trkpt lat="28.947101" lon="-13.651843">
        <ele>222.708</ele>
        <time>2015-12-26T10:51:55Z</time>
      </trkpt>
      <trkpt lat="28.948772" lon="-13.651958">
        <ele>230.189</ele>
        <time>2015-12-26T10:54:41Z</time>
      </trkpt>
      <trkpt lat="28.948949" lon="-13.652116">
        <ele>230.149</ele>
        <time>2015-12-26T10:54:47Z</time>
      </trkpt>
      <trkpt lat="28.948791" lon="-13.652647">
        <ele>231.955</ele>
        <time>2015-12-26T10:55:02Z</time>
      </trkpt>
      <trkpt lat="28.948941" lon="-13.653166">
        <ele>235.295</ele>
        <time>2015-12-26T10:55:17Z</time>
      </trkpt>
      <trkpt lat="28.951094" lon="-13.653741">
        <ele>247.899</ele>
        <time>2015-12-26T10:56:13Z</time>
      </trkpt>
      <trkpt lat="28.950543" lon="-13.656693">
        <ele>251.116</ele>
        <time>2015-12-26T10:57:07Z</time>
      </trkpt>
      <trkpt lat="28.950661" lon="-13.657576">
        <ele>248.861</ele>
        <time>2015-12-26T10:57:16Z</time>
      </trkpt>
      <trkpt lat="28.952042" lon="-13.658416">
        <ele>252.750</ele>
        <time>2015-12-26T10:57:42Z</time>
      </trkpt>
      <trkpt lat="28.952778" lon="-13.659228">
        <ele>254.119</ele>
        <time>2015-12-26T10:58:02Z</time>
      </trkpt>
      <trkpt lat="28.953266" lon="-13.659462">
        <ele>256.509</ele>
        <time>2015-12-26T10:58:15Z</time>
      </trkpt>
      <trkpt lat="28.953668" lon="-13.660261">
        <ele>261.919</ele>
        <time>2015-12-26T10:58:33Z</time>
      </trkpt>
      <trkpt lat="28.954150" lon="-13.660406">
        <ele>265.808</ele>
        <time>2015-12-26T10:58:58Z</time>
      </trkpt>
      <trkpt lat="28.953408" lon="-13.662758">
        <ele>255.812</ele>
        <time>2015-12-26T11:00:28Z</time>
      </trkpt>
      <trkpt lat="28.953785" lon="-13.663831">
        <ele>257.962</ele>
        <time>2015-12-26T11:00:41Z</time>
      </trkpt>
      <trkpt lat="28.954868" lon="-13.663945">
        <ele>263.698</ele>
        <time>2015-12-26T11:01:08Z</time>
      </trkpt>
      <trkpt lat="28.955429" lon="-13.663673">
        <ele>266.248</ele>
        <time>2015-12-26T11:01:26Z</time>
      </trkpt>
      <trkpt lat="28.955810" lon="-13.663106">
        <ele>265.622</ele>
        <time>2015-12-26T11:01:46Z</time>
      </trkpt>
      <trkpt lat="28.956086" lon="-13.661874">
        <ele>254.729</ele>
        <time>2015-12-26T11:02:15Z</time>
      </trkpt>
      <trkpt lat="28.956393" lon="-13.661394">
        <ele>255.654</ele>
        <time>2015-12-26T11:02:33Z</time>
      </trkpt>
      <trkpt lat="28.957739" lon="-13.662056">
        <ele>261.363</ele>
        <time>2015-12-26T11:04:25Z</time>
      </trkpt>
      <trkpt lat="28.959428" lon="-13.662451">
        <ele>264.974</ele>
        <time>2015-12-26T11:05:02Z</time>
      </trkpt>
      <trkpt lat="28.963081" lon="-13.664018">
        <ele>288.256</ele>
        <time>2015-12-26T11:06:42Z</time>
      </trkpt>
      <trkpt lat="28.965646" lon="-13.665515">
        <ele>324.421</ele>
        <time>2015-12-26T11:08:02Z</time>
      </trkpt>
      <trkpt lat="28.966766" lon="-13.666504">
        <ele>339.908</ele>
        <time>2015-12-26T11:08:48Z</time>
      </trkpt>
      <trkpt lat="28.968082" lon="-13.666725">
        <ele>350.058</ele>
        <time>2015-12-26T11:09:32Z</time>
      </trkpt>
      <trkpt lat="28.968304" lon="-13.667233">
        <ele>355.328</ele>
        <time>2015-12-26T11:09:50Z</time>
      </trkpt>
      <trkpt lat="28.968383" lon="-13.668663">
        <ele>357.424</ele>
        <time>2015-12-26T11:10:24Z</time>
      </trkpt>
      <trkpt lat="28.968002" lon="-13.672319">
        <ele>358.474</ele>
        <time>2015-12-26T11:11:34Z</time>
      </trkpt>
      <trkpt lat="28.969310" lon="-13.671909">
        <ele>360.348</ele>
        <time>2015-12-26T11:12:13Z</time>
      </trkpt>
      <trkpt lat="28.970729" lon="-13.671732">
        <ele>359.845</ele>
        <time>2015-12-26T11:12:48Z</time>
      </trkpt>
      <trkpt lat="28.972008" lon="-13.671268">
        <ele>356.610</ele>
        <time>2015-12-26T11:13:12Z</time>
      </trkpt>
      <trkpt lat="28.975331" lon="-13.669524">
        <ele>366.839</ele>
        <time>2015-12-26T11:14:23Z</time>
      </trkpt>
      <trkpt lat="28.978901" lon="-13.668089">
        <ele>365.095</ele>
        <time>2015-12-26T11:15:34Z</time>
      </trkpt>
      <trkpt lat="28.981017" lon="-13.666112">
        <ele>362.649</ele>
        <time>2015-12-26T11:16:20Z</time>
      </trkpt>
      <trkpt lat="28.983105" lon="-13.664792">
        <ele>358.523</ele>
        <time>2015-12-26T11:17:03Z</time>
      </trkpt>
      <trkpt lat="28.984308" lon="-13.664727">
        <ele>360.608</ele>
        <time>2015-12-26T11:17:25Z</time>
      </trkpt>
      <trkpt lat="28.985739" lon="-13.664371">
        <ele>364.560</ele>
        <time>2015-12-26T11:17:47Z</time>
      </trkpt>
      <trkpt lat="28.991699" lon="-13.661722">
        <ele>368.660</ele>
        <time>2015-12-26T11:19:25Z</time>
      </trkpt>
      <trkpt lat="28.994266" lon="-13.662154">
        <ele>375.366</ele>
        <time>2015-12-26T11:20:03Z</time>
      </trkpt>
      <trkpt lat="29.000790" lon="-13.645998">
        <ele>351.356</ele>
        <time>2015-12-26T11:26:17Z</time>
      </trkpt>
      <trkpt lat="29.003123" lon="-13.639239">
        <ele>328.890</ele>
        <time>2015-12-26T11:27:50Z</time>
      </trkpt>
      <trkpt lat="29.007641" lon="-13.634453">
        <ele>320.627</ele>
        <time>2015-12-26T11:29:16Z</time>
      </trkpt>
      <trkpt lat="29.007947" lon="-13.633868">
        <ele>317.812</ele>
        <time>2015-12-26T11:29:24Z</time>
      </trkpt>
      <trkpt lat="29.008337" lon="-13.632224">
        <ele>319.431</ele>
        <time>2015-12-26T11:29:48Z</time>
      </trkpt>
      <trkpt lat="29.007958" lon="-13.629988">
        <ele>321.611</ele>
        <time>2015-12-26T11:30:32Z</time>
      </trkpt>
      <trkpt lat="29.008132" lon="-13.625533">
        <ele>322.621</ele>
        <time>2015-12-26T11:32:00Z</time>
      </trkpt>
      <trkpt lat="29.010121" lon="-13.622738">
        <ele>328.603</ele>
        <time>2015-12-26T11:33:05Z</time>
      </trkpt>
      <trkpt lat="29.011336" lon="-13.620648">
        <ele>320.108</ele>
        <time>2015-12-26T11:33:37Z</time>
      </trkpt>
      <trkpt lat="29.012623" lon="-13.619080">
        <ele>315.112</ele>
        <time>2015-12-26T11:33:58Z</time>
      </trkpt>
      <trkpt lat="29.015188" lon="-13.614304">
        <ele>302.772</ele>
        <time>2015-12-26T11:35:20Z</time>
      </trkpt>
      <trkpt lat="29.015684" lon="-13.613973">
        <ele>303.958</ele>
        <time>2015-12-26T11:35:30Z</time>
      </trkpt>
      <trkpt lat="29.018285" lon="-13.610585">
        <ele>298.318</ele>
        <time>2015-12-26T11:36:30Z</time>
      </trkpt>
      <trkpt lat="29.019910" lon="-13.607349">
        <ele>285.522</ele>
        <time>2015-12-26T11:37:12Z</time>
      </trkpt>
      <trkpt lat="29.020715" lon="-13.606369">
        <ele>281.919</ele>
        <time>2015-12-26T11:37:30Z</time>
      </trkpt>
      <trkpt lat="29.023419" lon="-13.604942">
        <ele>268.124</ele>
        <time>2015-12-26T11:37:59Z</time>
      </trkpt>
      <trkpt lat="29.025758" lon="-13.603121">
        <ele>257.363</ele>
        <time>2015-12-26T11:38:29Z</time>
      </trkpt>
      <trkpt lat="29.028101" lon="-13.601605">
        <ele>248.568</ele>
        <time>2015-12-26T11:38:56Z</time>
      </trkpt>
      <trkpt lat="29.029527" lon="-13.600973">
        <ele>244.742</ele>
        <time>2015-12-26T11:39:10Z</time>
      </trkpt>
      <trkpt lat="29.032222" lon="-13.600185">
        <ele>245.226</ele>
        <time>2015-12-26T11:39:37Z</time>
      </trkpt>
      <trkpt lat="29.033215" lon="-13.599599">
        <ele>242.608</ele>
        <time>2015-12-26T11:39:48Z</time>
      </trkpt>
      <trkpt lat="29.034234" lon="-13.598638">
        <ele>241.687</ele>
        <time>2015-12-26T11:40:03Z</time>
      </trkpt>
      <trkpt lat="29.044074" lon="-13.584970">
        <ele>237.727</ele>
        <time>2015-12-26T11:44:27Z</time>
      </trkpt>
      <trkpt lat="29.044544" lon="-13.584278">
        <ele>246.953</ele>
        <time>2015-12-26T11:45:59Z</time>
      </trkpt>
      <trkpt lat="29.044605" lon="-13.583772">
        <ele>247.493</ele>
        <time>2015-12-26T11:46:12Z</time>
      </trkpt>
      <trkpt lat="29.045073" lon="-13.583539">
        <ele>248.677</ele>
        <time>2015-12-26T11:46:23Z</time>
      </trkpt>
      <trkpt lat="29.045717" lon="-13.582692">
        <ele>245.344</ele>
        <time>2015-12-26T11:46:44Z</time>
      </trkpt>
      <trkpt lat="29.055972" lon="-13.568458">
        <ele>306.569</ele>
        <time>2015-12-26T11:53:07Z</time>
      </trkpt>
      <trkpt lat="29.056677" lon="-13.566835">
        <ele>312.198</ele>
        <time>2015-12-26T11:53:47Z</time>
      </trkpt>
      <trkpt lat="29.057295" lon="-13.563933">
        <ele>324.959</ele>
        <time>2015-12-26T11:55:06Z</time>
      </trkpt>
      <trkpt lat="29.058283" lon="-13.562026">
        <ele>339.803</ele>
        <time>2015-12-26T11:56:08Z</time>
      </trkpt>
      <trkpt lat="29.058417" lon="-13.561352">
        <ele>341.723</ele>
        <time>2015-12-26T11:56:31Z</time>
      </trkpt>
      <trkpt lat="29.058559" lon="-13.559762">
        <ele>350.408</ele>
        <time>2015-12-26T11:57:18Z</time>
      </trkpt>
      <trkpt lat="29.058171" lon="-13.559437">
        <ele>349.716</ele>
        <time>2015-12-26T11:57:33Z</time>
      </trkpt>
      <trkpt lat="29.057487" lon="-13.559270">
        <ele>352.876</ele>
        <time>2015-12-26T11:57:56Z</time>
      </trkpt>
      <trkpt lat="29.057417" lon="-13.559070">
        <ele>354.972</ele>
        <time>2015-12-26T11:58:02Z</time>
      </trkpt>
      <trkpt lat="29.058401" lon="-13.558337">
        <ele>360.052</ele>
        <time>2015-12-26T11:58:35Z</time>
      </trkpt>
      <trkpt lat="29.063318" lon="-13.552176">
        <ele>376.146</ele>
        <time>2015-12-26T12:01:31Z</time>
      </trkpt>
      <trkpt lat="29.065834" lon="-13.542389">
        <ele>347.813</ele>
        <time>2015-12-26T12:04:07Z</time>
      </trkpt>
      <trkpt lat="29.066409" lon="-13.538300">
        <ele>347.588</ele>
        <time>2015-12-26T12:05:25Z</time>
      </trkpt>
      <trkpt lat="29.066999" lon="-13.536414">
        <ele>340.597</ele>
        <time>2015-12-26T12:05:51Z</time>
      </trkpt>
      <trkpt lat="29.070338" lon="-13.532026">
        <ele>317.946</ele>
        <time>2015-12-26T12:06:41Z</time>
      </trkpt>
      <trkpt lat="29.070856" lon="-13.528709">
        <ele>315.188</ele>
        <time>2015-12-26T12:07:34Z</time>
      </trkpt>
      <trkpt lat="29.070549" lon="-13.525940">
        <ele>315.516</ele>
        <time>2015-12-26T12:08:35Z</time>
      </trkpt>
      <trkpt lat="29.070917" lon="-13.525067">
        <ele>324.608</ele>
        <time>2015-12-26T12:09:03Z</time>
      </trkpt>
      <trkpt lat="29.071540" lon="-13.525021">
        <ele>330.835</ele>
        <time>2015-12-26T12:09:26Z</time>
      </trkpt>
      <trkpt lat="29.072155" lon="-13.525832">
        <ele>338.995</ele>
        <time>2015-12-26T12:09:54Z</time>
      </trkpt>
      <trkpt lat="29.073284" lon="-13.526241">
        <ele>342.551</ele>
        <time>2015-12-26T12:10:28Z</time>
      </trkpt>
      <trkpt lat="29.078813" lon="-13.525780">
        <ele>362.361</ele>
        <time>2015-12-26T12:12:35Z</time>
      </trkpt>
      <trkpt lat="29.081797" lon="-13.524706">
        <ele>370.065</ele>
        <time>2015-12-26T12:13:42Z</time>
      </trkpt>
      <trkpt lat="29.083359" lon="-13.523262">
        <ele>375.152</ele>
        <time>2015-12-26T12:14:27Z</time>
      </trkpt>
      <trkpt lat="29.083161" lon="-13.522150">
        <ele>378.267</ele>
        <time>2015-12-26T12:14:52Z</time>
      </trkpt>
      <trkpt lat="29.083246" lon="-13.520946">
        <ele>372.986</ele>
        <time>2015-12-26T12:15:15Z</time>
      </trkpt>
      <trkpt lat="29.083704" lon="-13.517340">
        <ele>382.752</ele>
        <time>2015-12-26T12:16:29Z</time>
      </trkpt>
      <trkpt lat="29.084144" lon="-13.516183">
        <ele>391.053</ele>
        <time>2015-12-26T12:16:59Z</time>
      </trkpt>
      <trkpt lat="29.084652" lon="-13.515962">
        <ele>392.508</ele>
        <time>2015-12-26T12:17:13Z</time>
      </trkpt>
      <trkpt lat="29.086540" lon="-13.515852">
        <ele>398.008</ele>
        <time>2015-12-26T12:18:02Z</time>
      </trkpt>
      <trkpt lat="29.088229" lon="-13.516182">
        <ele>407.766</ele>
        <time>2015-12-26T12:18:50Z</time>
      </trkpt>
      <trkpt lat="29.089457" lon="-13.516167">
        <ele>416.216</ele>
        <time>2015-12-26T12:19:26Z</time>
      </trkpt>
      <trkpt lat="29.091629" lon="-13.515248">
        <ele>443.752</ele>
        <time>2015-12-26T12:20:36Z</time>
      </trkpt>
      <trkpt lat="29.093372" lon="-13.514043">
        <ele>457.622</ele>
        <time>2015-12-26T12:21:37Z</time>
      </trkpt>
      <trkpt lat="29.096865" lon="-13.513219">
        <ele>472.746</ele>
        <time>2015-12-26T12:23:30Z</time>
      </trkpt>
      <trkpt lat="29.096827" lon="-13.513011">
        <ele>476.773</ele>
        <time>2015-12-26T12:23:38Z</time>
      </trkpt>
      <trkpt lat="29.095812" lon="-13.512836">
        <ele>492.668</ele>
        <time>2015-12-26T12:24:15Z</time>
      </trkpt>
      <trkpt lat="29.094797" lon="-13.512309">
        <ele>498.647</ele>
        <time>2015-12-26T12:26:55Z</time>
      </trkpt>
      <trkpt lat="29.094742" lon="-13.511912">
        <ele>499.524</ele>
        <time>2015-12-26T12:27:09Z</time>
      </trkpt>
      <trkpt lat="29.095226" lon="-13.511731">
        <ele>506.304</ele>
        <time>2015-12-26T12:27:28Z</time>
      </trkpt>
      <trkpt lat="29.099249" lon="-13.511505">
        <ele>546.814</ele>
        <time>2015-12-26T12:30:04Z</time>
      </trkpt>
      <trkpt lat="29.100575" lon="-13.511773">
        <ele>558.308</ele>
        <time>2015-12-26T12:30:54Z</time>
      </trkpt>
      <trkpt lat="29.103158" lon="-13.511889">
        <ele>572.063</ele>
        <time>2015-12-26T12:32:20Z</time>
      </trkpt>
      <trkpt lat="29.106454" lon="-13.513870">
        <ele>594.073</ele>
        <time>2015-12-26T12:34:13Z</time>
      </trkpt>
      <trkpt lat="29.108324" lon="-13.513409">
        <ele>600.389</ele>
        <time>2015-12-26T12:35:11Z</time>
      </trkpt>
      <trkpt lat="29.122397" lon="-13.515638">
        <ele>645.419</ele>
        <time>2015-12-26T12:41:53Z</time>
      </trkpt>
      <trkpt lat="29.123517" lon="-13.515570">
        <ele>644.393</ele>
        <time>2015-12-26T12:44:02Z</time>
      </trkpt>
      <trkpt lat="29.127427" lon="-13.514367">
        <ele>620.740</ele>
        <time>2015-12-26T12:45:00Z</time>
      </trkpt>
      <trkpt lat="29.128511" lon="-13.515594">
        <ele>612.115</ele>
        <time>2015-12-26T12:45:23Z</time>
      </trkpt>
      <trkpt lat="29.129644" lon="-13.515274">
        <ele>606.394</ele>
        <time>2015-12-26T12:45:38Z</time>
      </trkpt>
      <trkpt lat="29.130609" lon="-13.515244">
        <ele>595.945</ele>
        <time>2015-12-26T12:46:52Z</time>
      </trkpt>
      <trkpt lat="29.131186" lon="-13.516987">
        <ele>592.547</ele>
        <time>2015-12-26T12:47:23Z</time>
      </trkpt>
      <trkpt lat="29.131374" lon="-13.516761">
        <ele>590.211</ele>
        <time>2015-12-26T12:47:27Z</time>
      </trkpt>
      <trkpt lat="29.131175" lon="-13.515279">
        <ele>579.808</ele>
        <time>2015-12-26T12:48:53Z</time>
      </trkpt>
      <trkpt lat="29.131490" lon="-13.513776">
        <ele>577.395</ele>
        <time>2015-12-26T12:49:11Z</time>
      </trkpt>
      <trkpt lat="29.131673" lon="-13.513663">
        <ele>575.245</ele>
        <time>2015-12-26T12:49:15Z</time>
      </trkpt>
      <trkpt lat="29.131771" lon="-13.513932">
        <ele>564.211</ele>
        <time>2015-12-26T12:49:20Z</time>
      </trkpt>
      <trkpt lat="29.131314" lon="-13.515308">
        <ele>563.841</ele>
        <time>2015-12-26T12:49:38Z</time>
      </trkpt>
      <trkpt lat="29.131516" lon="-13.515550">
        <ele>562.675</ele>
        <time>2015-12-26T12:49:45Z</time>
      </trkpt>
      <trkpt lat="29.133003" lon="-13.510875">
        <ele>533.652</ele>
        <time>2015-12-26T12:50:34Z</time>
      </trkpt>
      <trkpt lat="29.133205" lon="-13.511191">
        <ele>522.627</ele>
        <time>2015-12-26T12:50:40Z</time>
      </trkpt>
      <trkpt lat="29.132760" lon="-13.512958">
        <ele>515.866</ele>
        <time>2015-12-26T12:50:59Z</time>
      </trkpt>
      <trkpt lat="29.132670" lon="-13.514245">
        <ele>511.062</ele>
        <time>2015-12-26T12:51:10Z</time>
      </trkpt>
      <trkpt lat="29.132641" lon="-13.516832">
        <ele>493.483</ele>
        <time>2015-12-26T12:51:34Z</time>
      </trkpt>
      <trkpt lat="29.132808" lon="-13.516995">
        <ele>493.711</ele>
        <time>2015-12-26T12:51:39Z</time>
      </trkpt>
      <trkpt lat="29.133025" lon="-13.516779">
        <ele>491.708</ele>
        <time>2015-12-26T12:51:43Z</time>
      </trkpt>
      <trkpt lat="29.133024" lon="-13.515595">
        <ele>483.117</ele>
        <time>2015-12-26T12:51:54Z</time>
      </trkpt>
      <trkpt lat="29.133407" lon="-13.514243">
        <ele>476.737</ele>
        <time>2015-12-26T12:52:06Z</time>
      </trkpt>
      <trkpt lat="29.135128" lon="-13.509895">
        <ele>444.413</ele>
        <time>2015-12-26T12:52:51Z</time>
      </trkpt>
      <trkpt lat="29.135406" lon="-13.508144">
        <ele>433.343</ele>
        <time>2015-12-26T12:53:13Z</time>
      </trkpt>
      <trkpt lat="29.135155" lon="-13.506930">
        <ele>422.827</ele>
        <time>2015-12-26T12:53:31Z</time>
      </trkpt>
      <trkpt lat="29.135318" lon="-13.506175">
        <ele>406.234</ele>
        <time>2015-12-26T12:53:43Z</time>
      </trkpt>
      <trkpt lat="29.136441" lon="-13.504940">
        <ele>400.559</ele>
        <time>2015-12-26T12:54:05Z</time>
      </trkpt>
      <trkpt lat="29.137474" lon="-13.504789">
        <ele>394.568</ele>
        <time>2015-12-26T12:54:17Z</time>
      </trkpt>
      <trkpt lat="29.140188" lon="-13.502951">
        <ele>376.539</ele>
        <time>2015-12-26T12:54:51Z</time>
      </trkpt>
      <trkpt lat="29.142061" lon="-13.501144">
        <ele>362.801</ele>
        <time>2015-12-26T12:55:19Z</time>
      </trkpt>
      <trkpt lat="29.144097" lon="-13.499975">
        <ele>348.621</ele>
        <time>2015-12-26T12:55:48Z</time>
      </trkpt>
      <trkpt lat="29.146115" lon="-13.500095">
        <ele>340.108</ele>
        <time>2015-12-26T12:56:16Z</time>
      </trkpt>
      <trkpt lat="29.146306" lon="-13.499867">
        <ele>340.914</ele>
        <time>2015-12-26T12:56:26Z</time>
      </trkpt>
      <trkpt lat="29.149615" lon="-13.500546">
        <ele>370.074</ele>
        <time>2015-12-26T12:58:33Z</time>
      </trkpt>
      <trkpt lat="29.150837" lon="-13.500512">
        <ele>373.240</ele>
        <time>2015-12-26T12:59:21Z</time>
      </trkpt>
      <trkpt lat="29.151991" lon="-13.499929">
        <ele>371.830</ele>
        <time>2015-12-26T13:00:08Z</time>
      </trkpt>
      <trkpt lat="29.152799" lon="-13.499104">
        <ele>367.194</ele>
        <time>2015-12-26T13:00:23Z</time>
      </trkpt>
      <trkpt lat="29.153611" lon="-13.497797">
        <ele>354.451</ele>
        <time>2015-12-26T13:00:45Z</time>
      </trkpt>
      <trkpt lat="29.154672" lon="-13.497266">
        <ele>332.376</ele>
        <time>2015-12-26T13:01:10Z</time>
      </trkpt>
      <trkpt lat="29.163538" lon="-13.495379">
        <ele>339.685</ele>
        <time>2015-12-26T13:06:52Z</time>
      </trkpt>
      <trkpt lat="29.168809" lon="-13.493454">
        <ele>356.642</ele>
        <time>2015-12-26T13:09:32Z</time>
      </trkpt>
      <trkpt lat="29.174351" lon="-13.492060">
        <ele>381.122</ele>
        <time>2015-12-26T13:12:07Z</time>
      </trkpt>
      <trkpt lat="29.175647" lon="-13.491318">
        <ele>388.714</ele>
        <time>2015-12-26T13:12:46Z</time>
      </trkpt>
      <trkpt lat="29.179517" lon="-13.490375">
        <ele>408.108</ele>
        <time>2015-12-26T13:14:14Z</time>
      </trkpt>
      <trkpt lat="29.181496" lon="-13.490246">
        <ele>421.745</ele>
        <time>2015-12-26T13:15:13Z</time>
      </trkpt>
      <trkpt lat="29.184065" lon="-13.491327">
        <ele>455.655</ele>
        <time>2015-12-26T13:17:02Z</time>
      </trkpt>
      <trkpt lat="29.186986" lon="-13.491246">
        <ele>443.391</ele>
        <time>2015-12-26T13:17:51Z</time>
      </trkpt>
      <trkpt lat="29.188716" lon="-13.490381">
        <ele>432.381</ele>
        <time>2015-12-26T13:18:06Z</time>
      </trkpt>
      <trkpt lat="29.190571" lon="-13.488838">
        <ele>426.535</ele>
        <time>2015-12-26T13:18:24Z</time>
      </trkpt>
      <trkpt lat="29.194176" lon="-13.488069">
        <ele>425.932</ele>
        <time>2015-12-26T13:19:40Z</time>
      </trkpt>
      <trkpt lat="29.195135" lon="-13.486807">
        <ele>416.897</ele>
        <time>2015-12-26T13:20:05Z</time>
      </trkpt>
      <trkpt lat="29.195702" lon="-13.484656">
        <ele>414.796</ele>
        <time>2015-12-26T13:20:41Z</time>
      </trkpt>
      <trkpt lat="29.195695" lon="-13.481917">
        <ele>409.168</ele>
        <time>2015-12-26T13:21:34Z</time>
      </trkpt>
      <trkpt lat="29.196250" lon="-13.478201">
        <ele>415.442</ele>
        <time>2015-12-26T13:24:41Z</time>
      </trkpt>
      <trkpt lat="29.198983" lon="-13.479989">
        <ele>440.026</ele>
        <time>2015-12-26T13:26:08Z</time>
      </trkpt>
      <trkpt lat="29.201312" lon="-13.479853">
        <ele>456.108</ele>
        <time>2015-12-26T13:27:13Z</time>
      </trkpt>
      <trkpt lat="29.207647" lon="-13.481874">
        <ele>484.767</ele>
        <time>2015-12-26T13:29:52Z</time>
      </trkpt>
      <trkpt lat="29.209080" lon="-13.482039">
        <ele>497.127</ele>
        <time>2015-12-26T13:30:31Z</time>
      </trkpt>
      <trkpt lat="29.211612" lon="-13.481224">
        <ele>518.353</ele>
        <time>2015-12-26T13:31:32Z</time>
      </trkpt>
      <trkpt lat="29.214203" lon="-13.481242">
        <ele>531.083</ele>
        <time>2015-12-26T13:33:11Z</time>
      </trkpt>
      <trkpt lat="29.213808" lon="-13.481144">
        <ele>526.917</ele>
        <time>2015-12-26T13:33:31Z</time>
      </trkpt>
      <trkpt lat="29.213318" lon="-13.481591">
        <ele>523.594</ele>
        <time>2015-12-26T13:33:54Z</time>
      </trkpt>
      <trkpt lat="29.212711" lon="-13.482933">
        <ele>504.779</ele>
        <time>2015-12-26T13:36:21Z</time>
      </trkpt>
      <trkpt lat="29.213581" lon="-13.481449">
        <ele>513.218</ele>
        <time>2015-12-26T13:37:39Z</time>
      </trkpt>
      <trkpt lat="29.213543" lon="-13.481222">
        <ele>511.546</ele>
        <time>2015-12-26T13:37:46Z</time>
      </trkpt>
      <trkpt lat="29.211700" lon="-13.481163">
        <ele>497.488</ele>
        <time>2015-12-26T13:38:13Z</time>
      </trkpt>
      <trkpt lat="29.209315" lon="-13.482026">
        <ele>484.716</ele>
        <time>2015-12-26T13:38:53Z</time>
      </trkpt>
      <trkpt lat="29.208609" lon="-13.482062">
        <ele>485.908</ele>
        <time>2015-12-26T13:39:07Z</time>
      </trkpt>
      <trkpt lat="29.201195" lon="-13.479772">
        <ele>445.215</ele>
        <time>2015-12-26T13:40:56Z</time>
      </trkpt>
      <trkpt lat="29.198831" lon="-13.479881">
        <ele>439.295</ele>
        <time>2015-12-26T13:41:34Z</time>
      </trkpt>
      <trkpt lat="29.196170" lon="-13.478075">
        <ele>418.011</ele>
        <time>2015-12-26T13:42:13Z</time>
      </trkpt>
      <trkpt lat="29.195662" lon="-13.476549">
        <ele>416.191</ele>
        <time>2015-12-26T13:42:43Z</time>
      </trkpt>
      <trkpt lat="29.193258" lon="-13.473784">
        <ele>412.785</ele>
        <time>2015-12-26T13:43:41Z</time>
      </trkpt>
      <trkpt lat="29.192091" lon="-13.473457">
        <ele>403.692</ele>
        <time>2015-12-26T13:43:59Z</time>
      </trkpt>
      <trkpt lat="29.191151" lon="-13.472388">
        <ele>394.887</ele>
        <time>2015-12-26T13:44:17Z</time>
      </trkpt>
      <trkpt lat="29.188648" lon="-13.471030">
        <ele>372.426</ele>
        <time>2015-12-26T13:44:48Z</time>
      </trkpt>
      <trkpt lat="29.187750" lon="-13.471464">
        <ele>369.258</ele>
        <time>2015-12-26T13:45:04Z</time>
      </trkpt>
      <trkpt lat="29.184739" lon="-13.473562">
        <ele>351.852</ele>
        <time>2015-12-26T13:45:54Z</time>
      </trkpt>
      <trkpt lat="29.182892" lon="-13.472406">
        <ele>344.717</ele>
        <time>2015-12-26T13:46:20Z</time>
      </trkpt>
      <trkpt lat="29.182219" lon="-13.471303">
        <ele>338.108</ele>
        <time>2015-12-26T13:46:36Z</time>
      </trkpt>
      <trkpt lat="29.181117" lon="-13.470642">
        <ele>333.176</ele>
        <time>2015-12-26T13:46:52Z</time>
      </trkpt>
      <trkpt lat="29.178580" lon="-13.469656">
        <ele>318.426</ele>
        <time>2015-12-26T13:47:39Z</time>
      </trkpt>
      <trkpt lat="29.176816" lon="-13.469695">
        <ele>299.072</ele>
        <time>2015-12-26T13:47:58Z</time>
      </trkpt>
      <trkpt lat="29.176298" lon="-13.470179">
        <ele>291.142</ele>
        <time>2015-12-26T13:48:06Z</time>
      </trkpt>
      <trkpt lat="29.176634" lon="-13.471766">
        <ele>279.136</ele>
        <time>2015-12-26T13:48:21Z</time>
      </trkpt>
      <trkpt lat="29.176341" lon="-13.473172">
        <ele>269.843</ele>
        <time>2015-12-26T13:48:33Z</time>
      </trkpt>
      <trkpt lat="29.176556" lon="-13.474057">
        <ele>266.058</ele>
        <time>2015-12-26T13:48:43Z</time>
      </trkpt>
      <trkpt lat="29.176468" lon="-13.474424">
        <ele>264.647</ele>
        <time>2015-12-26T13:48:47Z</time>
      </trkpt>
      <trkpt lat="29.174083" lon="-13.473955">
        <ele>254.176</ele>
        <time>2015-12-26T13:49:22Z</time>
      </trkpt>
      <trkpt lat="29.173363" lon="-13.472930">
        <ele>245.790</ele>
        <time>2015-12-26T13:49:40Z</time>
      </trkpt>
      <trkpt lat="29.171756" lon="-13.467926">
        <ele>226.119</ele>
        <time>2015-12-26T13:50:39Z</time>
      </trkpt>
      <trkpt lat="29.171170" lon="-13.467493">
        <ele>223.208</ele>
        <time>2015-12-26T13:50:49Z</time>
      </trkpt>
      <trkpt lat="29.169562" lon="-13.467095">
        <ele>220.078</ele>
        <time>2015-12-26T13:51:15Z</time>
      </trkpt>
      <trkpt lat="29.162659" lon="-13.459907">
        <ele>202.568</ele>
        <time>2015-12-26T13:53:41Z</time>
      </trkpt>
      <trkpt lat="29.161474" lon="-13.458370">
        <ele>191.774</ele>
        <time>2015-12-26T13:54:07Z</time>
      </trkpt>
      <trkpt lat="29.160314" lon="-13.457441">
        <ele>181.014</ele>
        <time>2015-12-26T13:54:27Z</time>
      </trkpt>
      <trkpt lat="29.163335" lon="-13.451219">
        <ele>138.528</ele>
        <time>2015-12-26T13:56:01Z</time>
      </trkpt>
      <trkpt lat="29.163459" lon="-13.450008">
        <ele>129.745</ele>
        <time>2015-12-26T13:56:17Z</time>
      </trkpt>
      <trkpt lat="29.160632" lon="-13.440164">
        <ele>101.840</ele>
        <time>2015-12-26T13:58:28Z</time>
      </trkpt>
      <trkpt lat="29.160873" lon="-13.439208">
        <ele>99.929</ele>
        <time>2015-12-26T13:58:48Z</time>
      </trkpt>
      <trkpt lat="29.160393" lon="-13.438584">
        <ele>98.745</ele>
        <time>2015-12-26T13:59:22Z</time>
      </trkpt>
      <trkpt lat="29.160845" lon="-13.439172">
        <ele>105.447</ele>
        <time>2015-12-26T14:01:01Z</time>
      </trkpt>
      <trkpt lat="29.157430" lon="-13.430323">
        <ele>55.511</ele>
        <time>2015-12-26T14:14:39Z</time>
      </trkpt>
      <trkpt lat="29.157988" lon="-13.431173">
        <ele>54.508</ele>
        <time>2015-12-26T14:15:36Z</time>
      </trkpt>
      <trkpt lat="29.158051" lon="-13.432175">
        <ele>63.785</ele>
        <time>2015-12-26T14:15:57Z</time>
      </trkpt>
      <trkpt lat="29.158510" lon="-13.432421">
        <ele>66.265</ele>
        <time>2015-12-26T14:16:12Z</time>
      </trkpt>
      <trkpt lat="29.158222" lon="-13.433452">
        <ele>66.341</ele>
        <time>2015-12-26T14:16:31Z</time>
      </trkpt>
      <trkpt lat="29.158306" lon="-13.433783">
        <ele>66.461</ele>
        <time>2015-12-26T14:16:51Z</time>
      </trkpt>
      <trkpt lat="29.157072" lon="-13.434552">
        <ele>76.035</ele>
        <time>2015-12-26T14:17:27Z</time>
      </trkpt>
      <trkpt lat="29.156548" lon="-13.435118">
        <ele>77.642</ele>
        <time>2015-12-26T14:17:44Z</time>
      </trkpt>
      <trkpt lat="29.155876" lon="-13.436733">
        <ele>75.617</ele>
        <time>2015-12-26T14:18:10Z</time>
      </trkpt>
      <trkpt lat="29.153185" lon="-13.440093">
        <ele>64.676</ele>
        <time>2015-12-26T14:18:59Z</time>
      </trkpt>
      <trkpt lat="29.147243" lon="-13.449639">
        <ele>63.194</ele>
        <time>2015-12-26T14:21:46Z</time>
      </trkpt>
      <trkpt lat="29.145279" lon="-13.451944">
        <ele>67.657</ele>
        <time>2015-12-26T14:22:38Z</time>
      </trkpt>
      <trkpt lat="29.137459" lon="-13.458492">
        <ele>66.922</ele>
        <time>2015-12-26T14:25:29Z</time>
      </trkpt>
      <trkpt lat="29.136815" lon="-13.459568">
        <ele>69.408</ele>
        <time>2015-12-26T14:25:51Z</time>
      </trkpt>
      <trkpt lat="29.136108" lon="-13.462542">
        <ele>67.790</ele>
        <time>2015-12-26T14:26:41Z</time>
      </trkpt>
      <trkpt lat="29.133791" lon="-13.464181">
        <ele>66.190</ele>
        <time>2015-12-26T14:27:25Z</time>
      </trkpt>
      <trkpt lat="29.133524" lon="-13.464573">
        <ele>66.186</ele>
        <time>2015-12-26T14:27:33Z</time>
      </trkpt>
      <trkpt lat="29.133277" lon="-13.464428">
        <ele>63.836</ele>
        <time>2015-12-26T14:27:39Z</time>
      </trkpt>
      <trkpt lat="29.133258" lon="-13.463962">
        <ele>62.810</ele>
        <time>2015-12-26T14:27:47Z</time>
      </trkpt>
      <trkpt lat="29.131148" lon="-13.461512">
        <ele>61.987</ele>
        <time>2015-12-26T14:28:51Z</time>
      </trkpt>
      <trkpt lat="29.129702" lon="-13.463273">
        <ele>67.482</ele>
        <time>2015-12-26T14:30:10Z</time>
      </trkpt>
      <trkpt lat="29.130118" lon="-13.463678">
        <ele>66.551</ele>
        <time>2015-12-26T14:30:46Z</time>
      </trkpt>
      <trkpt lat="29.129825" lon="-13.464076">
        <ele>68.244</ele>
        <time>2015-12-26T14:30:59Z</time>
      </trkpt>
      <trkpt lat="29.128680" lon="-13.464510">
        <ele>66.605</ele>
        <time>2015-12-26T14:32:19Z</time>
      </trkpt>
      <trkpt lat="29.130377" lon="-13.463683">
        <ele>51.615</ele>
        <time>2015-12-26T15:26:50Z</time>
      </trkpt>
      <trkpt lat="29.130742" lon="-13.464512">
        <ele>52.208</ele>
        <time>2015-12-26T15:27:14Z</time>
      </trkpt>
      <trkpt lat="29.131353" lon="-13.464616">
        <ele>51.365</ele>
        <time>2015-12-26T15:27:27Z</time>
      </trkpt>
      <trkpt lat="29.132160" lon="-13.464051">
        <ele>50.925</ele>
        <time>2015-12-26T15:27:47Z</time>
      </trkpt>
      <trkpt lat="29.132516" lon="-13.464320">
        <ele>51.641</ele>
        <time>2015-12-26T15:27:57Z</time>
      </trkpt>
      <trkpt lat="29.132453" lon="-13.464523">
        <ele>51.811</ele>
        <time>2015-12-26T15:28:04Z</time>
      </trkpt>
      <trkpt lat="29.131999" lon="-13.465065">
        <ele>48.165</ele>
        <time>2015-12-26T15:28:31Z</time>
      </trkpt>
      <trkpt lat="29.131708" lon="-13.464976">
        <ele>47.212</ele>
        <time>2015-12-26T15:28:39Z</time>
      </trkpt>
      <trkpt lat="29.129710" lon="-13.465849">
        <ele>41.977</ele>
        <time>2015-12-26T15:29:20Z</time>
      </trkpt>
      <trkpt lat="29.128892" lon="-13.466451">
        <ele>48.526</ele>
        <time>2015-12-26T15:29:38Z</time>
      </trkpt>
      <trkpt lat="29.128073" lon="-13.466590">
        <ele>48.885</ele>
        <time>2015-12-26T15:29:54Z</time>
      </trkpt>
      <trkpt lat="29.127522" lon="-13.466926">
        <ele>44.689</ele>
        <time>2015-12-26T15:30:07Z</time>
      </trkpt>
      <trkpt lat="29.126922" lon="-13.466669">
        <ele>50.817</ele>
        <time>2015-12-26T15:30:18Z</time>
      </trkpt>
      <trkpt lat="29.125640" lon="-13.466831">
        <ele>50.408</ele>
        <time>2015-12-26T15:30:44Z</time>
      </trkpt>
      <trkpt lat="29.124956" lon="-13.467127">
        <ele>54.439</ele>
        <time>2015-12-26T15:31:02Z</time>
      </trkpt>
      <trkpt lat="29.124196" lon="-13.466834">
        <ele>53.139</ele>
        <time>2015-12-26T15:31:14Z</time>
      </trkpt>
      <trkpt lat="29.123916" lon="-13.467266">
        <ele>53.695</ele>
        <time>2015-12-26T15:31:27Z</time>
      </trkpt>
      <trkpt lat="29.122492" lon="-13.466797">
        <ele>56.615</ele>
        <time>2015-12-26T15:31:56Z</time>
      </trkpt>
      <trkpt lat="29.121716" lon="-13.466051">
        <ele>52.389</ele>
        <time>2015-12-26T15:32:15Z</time>
      </trkpt>
      <trkpt lat="29.120009" lon="-13.465614">
        <ele>23.656</ele>
        <time>2015-12-26T15:33:01Z</time>
      </trkpt>
      <trkpt lat="29.118450" lon="-13.465994">
        <ele>37.131</ele>
        <time>2015-12-26T15:33:41Z</time>
      </trkpt>
      <trkpt lat="29.117732" lon="-13.465973">
        <ele>37.910</ele>
        <time>2015-12-26T15:33:56Z</time>
      </trkpt>
      <trkpt lat="29.112849" lon="-13.467366">
        <ele>54.282</ele>
        <time>2015-12-26T15:36:00Z</time>
      </trkpt>
      <trkpt lat="29.111308" lon="-13.467414">
        <ele>114.143</ele>
        <time>2015-12-26T15:36:43Z</time>
      </trkpt>
      <trkpt lat="29.109804" lon="-13.468493">
        <ele>90.217</ele>
        <time>2015-12-26T15:39:17Z</time>
      </trkpt>
      <trkpt lat="29.109112" lon="-13.469491">
        <ele>87.608</ele>
        <time>2015-12-26T15:39:38Z</time>
      </trkpt>
      <trkpt lat="29.108555" lon="-13.468695">
        <ele>86.669</ele>
        <time>2015-12-26T15:39:54Z</time>
      </trkpt>
      <trkpt lat="29.107734" lon="-13.468467">
        <ele>90.589</ele>
        <time>2015-12-26T15:40:13Z</time>
      </trkpt>
      <trkpt lat="29.102953" lon="-13.469469">
        <ele>91.565</ele>
        <time>2015-12-26T15:41:53Z</time>
      </trkpt>
      <trkpt lat="29.096851" lon="-13.469730">
        <ele>92.055</ele>
        <time>2015-12-26T15:44:03Z</time>
      </trkpt>
      <trkpt lat="29.092680" lon="-13.470812">
        <ele>106.389</ele>
        <time>2015-12-26T15:45:49Z</time>
      </trkpt>
      <trkpt lat="29.091305" lon="-13.471501">
        <ele>117.256</ele>
        <time>2015-12-26T15:46:37Z</time>
      </trkpt>
      <trkpt lat="29.087414" lon="-13.471677">
        <ele>129.341</ele>
        <time>2015-12-26T15:48:11Z</time>
      </trkpt>
      <trkpt lat="29.082522" lon="-13.473897">
        <ele>142.620</ele>
        <time>2015-12-26T15:50:20Z</time>
      </trkpt>
      <trkpt lat="29.081957" lon="-13.474527">
        <ele>145.732</ele>
        <time>2015-12-26T15:50:46Z</time>
      </trkpt>
      <trkpt lat="29.081522" lon="-13.476342">
        <ele>147.092</ele>
        <time>2015-12-26T15:51:33Z</time>
      </trkpt>
      <trkpt lat="29.081076" lon="-13.476771">
        <ele>141.311</ele>
        <time>2015-12-26T15:51:51Z</time>
      </trkpt>
      <trkpt lat="29.076620" lon="-13.478951">
        <ele>155.108</ele>
        <time>2015-12-26T15:55:27Z</time>
      </trkpt>
      <trkpt lat="29.072718" lon="-13.481983">
        <ele>152.444</ele>
        <time>2015-12-26T15:56:58Z</time>
      </trkpt>
      <trkpt lat="29.067068" lon="-13.485599">
        <ele>149.764</ele>
        <time>2015-12-26T15:59:05Z</time>
      </trkpt>
      <trkpt lat="29.065882" lon="-13.486778">
        <ele>156.660</ele>
        <time>2015-12-26T15:59:45Z</time>
      </trkpt>
      <trkpt lat="29.064548" lon="-13.487704">
        <ele>157.690</ele>
        <time>2015-12-26T16:00:28Z</time>
      </trkpt>
      <trkpt lat="29.062857" lon="-13.488556">
        <ele>161.744</ele>
        <time>2015-12-26T16:01:20Z</time>
      </trkpt>
      <trkpt lat="29.061816" lon="-13.489335">
        <ele>158.481</ele>
        <time>2015-12-26T16:01:53Z</time>
      </trkpt>
      <trkpt lat="29.060761" lon="-13.489416">
        <ele>160.096</ele>
        <time>2015-12-26T16:02:25Z</time>
      </trkpt>
      <trkpt lat="29.060588" lon="-13.489876">
        <ele>156.765</ele>
        <time>2015-12-26T16:02:34Z</time>
      </trkpt>
      <trkpt lat="29.061481" lon="-13.490682">
        <ele>158.359</ele>
        <time>2015-12-26T16:02:55Z</time>
      </trkpt>
      <trkpt lat="29.061434" lon="-13.491061">
        <ele>160.403</ele>
        <time>2015-12-26T16:06:53Z</time>
      </trkpt>
      <trkpt lat="29.061084" lon="-13.491029">
        <ele>164.323</ele>
        <time>2015-12-26T16:07:04Z</time>
      </trkpt>
      <trkpt lat="29.059217" lon="-13.492492">
        <ele>168.408</ele>
        <time>2015-12-26T16:08:01Z</time>
      </trkpt>
      <trkpt lat="29.052189" lon="-13.500756">
        <ele>192.976</ele>
        <time>2015-12-26T16:11:25Z</time>
      </trkpt>
      <trkpt lat="29.045620" lon="-13.507876">
        <ele>196.896</ele>
        <time>2015-12-26T16:14:15Z</time>
      </trkpt>
      <trkpt lat="29.040581" lon="-13.512087">
        <ele>195.142</ele>
        <time>2015-12-26T16:15:57Z</time>
      </trkpt>
      <trkpt lat="29.039496" lon="-13.513432">
        <ele>200.442</ele>
        <time>2015-12-26T16:16:27Z</time>
      </trkpt>
      <trkpt lat="29.038169" lon="-13.516137">
        <ele>206.116</ele>
        <time>2015-12-26T16:17:23Z</time>
      </trkpt>
      <trkpt lat="29.037220" lon="-13.517445">
        <ele>209.773</ele>
        <time>2015-12-26T16:17:53Z</time>
      </trkpt>
      <trkpt lat="29.033599" lon="-13.520289">
        <ele>205.468</ele>
        <time>2015-12-26T16:20:57Z</time>
      </trkpt>
      <trkpt lat="29.032631" lon="-13.521290">
        <ele>201.787</ele>
        <time>2015-12-26T16:21:14Z</time>
      </trkpt>
      <trkpt lat="29.032463" lon="-13.521875">
        <ele>199.952</ele>
        <time>2015-12-26T16:21:21Z</time>
      </trkpt>
      <trkpt lat="29.031558" lon="-13.522333">
        <ele>202.353</ele>
        <time>2015-12-26T16:21:37Z</time>
      </trkpt>
      <trkpt lat="29.029122" lon="-13.525186">
        <ele>204.008</ele>
        <time>2015-12-26T16:22:38Z</time>
      </trkpt>
      <trkpt lat="29.028070" lon="-13.526134">
        <ele>202.208</ele>
        <time>2015-12-26T16:22:59Z</time>
      </trkpt>
      <trkpt lat="29.027224" lon="-13.527261">
        <ele>203.466</ele>
        <time>2015-12-26T16:23:21Z</time>
      </trkpt>
      <trkpt lat="29.026834" lon="-13.528137">
        <ele>200.176</ele>
        <time>2015-12-26T16:23:33Z</time>
      </trkpt>
      <trkpt lat="29.025994" lon="-13.528869">
        <ele>198.952</ele>
        <time>2015-12-26T16:23:47Z</time>
      </trkpt>
      <trkpt lat="29.024708" lon="-13.530626">
        <ele>193.462</ele>
        <time>2015-12-26T16:24:15Z</time>
      </trkpt>
      <trkpt lat="29.021792" lon="-13.535664">
        <ele>197.756</ele>
        <time>2015-12-26T16:25:33Z</time>
      </trkpt>
      <trkpt lat="29.019304" lon="-13.539289">
        <ele>203.173</ele>
        <time>2015-12-26T16:26:46Z</time>
      </trkpt>
      <trkpt lat="29.018704" lon="-13.539630">
        <ele>202.618</ele>
        <time>2015-12-26T16:26:58Z</time>
      </trkpt>
      <trkpt lat="29.014108" lon="-13.545152">
        <ele>187.137</ele>
        <time>2015-12-26T16:28:23Z</time>
      </trkpt>
      <trkpt lat="29.014209" lon="-13.545892">
        <ele>187.089</ele>
        <time>2015-12-26T16:28:35Z</time>
      </trkpt>
      <trkpt lat="29.014499" lon="-13.546237">
        <ele>186.106</ele>
        <time>2015-12-26T16:28:41Z</time>
      </trkpt>
      <trkpt lat="29.027330" lon="-13.553087">
        <ele>218.126</ele>
        <time>2015-12-26T16:32:21Z</time>
      </trkpt>
      <trkpt lat="29.030581" lon="-13.555854">
        <ele>237.308</ele>
        <time>2015-12-26T16:34:01Z</time>
      </trkpt>
      <trkpt lat="29.037656" lon="-13.559664">
        <ele>261.269</ele>
        <time>2015-12-26T16:37:10Z</time>
      </trkpt>
      <trkpt lat="29.037457" lon="-13.559653">
        <ele>262.339</ele>
        <time>2015-12-26T16:40:20Z</time>
      </trkpt>
      <trkpt lat="29.037316" lon="-13.561548">
        <ele>246.775</ele>
        <time>2015-12-26T16:40:56Z</time>
      </trkpt>
      <trkpt lat="29.034861" lon="-13.565410">
        <ele>229.135</ele>
        <time>2015-12-26T16:41:49Z</time>
      </trkpt>
      <trkpt lat="29.034574" lon="-13.569872">
        <ele>204.659</ele>
        <time>2015-12-26T16:42:29Z</time>
      </trkpt>
      <trkpt lat="29.035125" lon="-13.573688">
        <ele>181.746</ele>
        <time>2015-12-26T16:43:19Z</time>
      </trkpt>
      <trkpt lat="29.034768" lon="-13.578036">
        <ele>184.391</ele>
        <time>2015-12-26T16:44:17Z</time>
      </trkpt>
      <trkpt lat="29.036008" lon="-13.582920">
        <ele>194.660</ele>
        <time>2015-12-26T16:45:31Z</time>
      </trkpt>
      <trkpt lat="29.039447" lon="-13.591642">
        <ele>216.682</ele>
        <time>2015-12-26T16:48:15Z</time>
      </trkpt>
      <trkpt lat="29.036924" lon="-13.595480">
        <ele>197.443</ele>
        <time>2015-12-26T16:49:26Z</time>
      </trkpt>
      <trkpt lat="29.033651" lon="-13.599841">
        <ele>202.317</ele>
        <time>2015-12-26T16:51:00Z</time>
      </trkpt>
      <trkpt lat="29.031315" lon="-13.600907">
        <ele>227.708</ele>
        <time>2015-12-26T16:51:56Z</time>
      </trkpt>
      <trkpt lat="29.029585" lon="-13.601038">
        <ele>248.999</ele>
        <time>2015-12-26T16:52:41Z</time>
      </trkpt>
      <trkpt lat="29.028070" lon="-13.601740">
        <ele>259.039</ele>
        <time>2015-12-26T16:53:19Z</time>
      </trkpt>
      <trkpt lat="29.027568" lon="-13.602281">
        <ele>253.085</ele>
        <time>2015-12-26T16:53:36Z</time>
      </trkpt>
      <trkpt lat="29.026393" lon="-13.602791">
        <ele>256.225</ele>
        <time>2015-12-26T16:54:07Z</time>
      </trkpt>
      <trkpt lat="29.023861" lon="-13.604873">
        <ele>262.719</ele>
        <time>2015-12-26T16:55:32Z</time>
      </trkpt>
      <trkpt lat="29.020272" lon="-13.606776">
        <ele>285.176</ele>
        <time>2015-12-26T16:57:30Z</time>
      </trkpt>
      <trkpt lat="29.018551" lon="-13.610631">
        <ele>282.811</ele>
        <time>2015-12-26T16:58:56Z</time>
      </trkpt>
      <trkpt lat="29.016700" lon="-13.612724">
        <ele>301.470</ele>
        <time>2015-12-26T17:00:03Z</time>
      </trkpt>
      <trkpt lat="29.015564" lon="-13.614225">
        <ele>311.318</ele>
        <time>2015-12-26T17:00:53Z</time>
      </trkpt>
      <trkpt lat="29.015345" lon="-13.614841">
        <ele>316.198</ele>
        <time>2015-12-26T17:02:20Z</time>
      </trkpt>
      <trkpt lat="29.014748" lon="-13.615354">
        <ele>312.417</ele>
        <time>2015-12-26T17:06:38Z</time>
      </trkpt>
      <trkpt lat="29.012807" lon="-13.618891">
        <ele>321.408</ele>
        <time>2015-12-26T17:07:57Z</time>
      </trkpt>
      <trkpt lat="29.011419" lon="-13.620612">
        <ele>329.642</ele>
        <time>2015-12-26T17:08:40Z</time>
      </trkpt>
      <trkpt lat="29.010149" lon="-13.622831">
        <ele>341.872</ele>
        <time>2015-12-26T17:09:34Z</time>
      </trkpt>
      <trkpt lat="29.008376" lon="-13.625281">
        <ele>344.828</ele>
        <time>2015-12-26T17:10:26Z</time>
      </trkpt>
      <trkpt lat="29.008077" lon="-13.626225">
        <ele>345.298</ele>
        <time>2015-12-26T17:10:40Z</time>
      </trkpt>
      <trkpt lat="29.007997" lon="-13.629101">
        <ele>339.792</ele>
        <time>2015-12-26T17:11:14Z</time>
      </trkpt>
      <trkpt lat="29.008345" lon="-13.632339">
        <ele>344.629</ele>
        <time>2015-12-26T17:11:56Z</time>
      </trkpt>
      <trkpt lat="29.007800" lon="-13.634345">
        <ele>352.844</ele>
        <time>2015-12-26T17:12:29Z</time>
      </trkpt>
      <trkpt lat="29.005124" lon="-13.637452">
        <ele>351.383</ele>
        <time>2015-12-26T17:13:42Z</time>
      </trkpt>
      <trkpt lat="29.003572" lon="-13.638785">
        <ele>345.661</ele>
        <time>2015-12-26T17:14:18Z</time>
      </trkpt>
      <trkpt lat="29.003135" lon="-13.639409">
        <ele>342.021</ele>
        <time>2015-12-26T17:14:30Z</time>
      </trkpt>
      <trkpt lat="29.000101" lon="-13.647906">
        <ele>350.013</ele>
        <time>2015-12-26T17:17:29Z</time>
      </trkpt>
      <trkpt lat="28.990114" lon="-13.672513">
        <ele>374.708</ele>
        <time>2015-12-26T17:27:19Z</time>
      </trkpt>
      <trkpt lat="28.984246" lon="-13.679860">
        <ele>367.267</ele>
        <time>2015-12-26T17:29:34Z</time>
      </trkpt>
      <trkpt lat="28.982511" lon="-13.684585">
        <ele>372.357</ele>
        <time>2015-12-26T17:30:44Z</time>
      </trkpt>
      <trkpt lat="28.981226" lon="-13.686470">
        <ele>365.753</ele>
        <time>2015-12-26T17:31:05Z</time>
      </trkpt>
      <trkpt lat="28.980636" lon="-13.689036">
        <ele>354.763</ele>
        <time>2015-12-26T17:31:30Z</time>
      </trkpt>
      <trkpt lat="28.980378" lon="-13.691729">
        <ele>355.717</ele>
        <time>2015-12-26T17:32:07Z</time>
      </trkpt>
      <trkpt lat="28.979558" lon="-13.691656">
        <ele>354.794</ele>
        <time>2015-12-26T17:32:25Z</time>
      </trkpt>
      <trkpt lat="28.978031" lon="-13.691903">
        <ele>352.259</ele>
        <time>2015-12-26T17:33:06Z</time>
      </trkpt>
      <trkpt lat="28.975919" lon="-13.690882">
        <ele>356.578</ele>
        <time>2015-12-26T17:34:06Z</time>
      </trkpt>
      <trkpt lat="28.973943" lon="-13.691038">
        <ele>377.152</ele>
        <time>2015-12-26T17:35:15Z</time>
      </trkpt>
      <trkpt lat="28.973220" lon="-13.690417">
        <ele>383.353</ele>
        <time>2015-12-26T17:37:32Z</time>
      </trkpt>
      <trkpt lat="28.973140" lon="-13.688594">
        <ele>389.308</ele>
        <time>2015-12-26T17:38:10Z</time>
      </trkpt>
      <trkpt lat="28.972517" lon="-13.684981">
        <ele>378.108</ele>
        <time>2015-12-26T17:38:50Z</time>
      </trkpt>
      <trkpt lat="28.972682" lon="-13.681281">
        <ele>368.486</ele>
        <time>2015-12-26T17:39:26Z</time>
      </trkpt>
      <trkpt lat="28.971524" lon="-13.680334">
        <ele>362.386</ele>
        <time>2015-12-26T17:39:48Z</time>
      </trkpt>
      <trkpt lat="28.970408" lon="-13.678336">
        <ele>349.212</ele>
        <time>2015-12-26T17:40:26Z</time>
      </trkpt>
      <trkpt lat="28.968523" lon="-13.676375">
        <ele>338.742</ele>
        <time>2015-12-26T17:41:20Z</time>
      </trkpt>
      <trkpt lat="28.967977" lon="-13.673746">
        <ele>330.996</ele>
        <time>2015-12-26T17:41:58Z</time>
      </trkpt>
      <trkpt lat="28.968426" lon="-13.668597">
        <ele>331.773</ele>
        <time>2015-12-26T17:43:24Z</time>
      </trkpt>
      <trkpt lat="28.968235" lon="-13.666872">
        <ele>329.898</ele>
        <time>2015-12-26T17:43:50Z</time>
      </trkpt>
      <trkpt lat="28.966876" lon="-13.666686">
        <ele>323.717</ele>
        <time>2015-12-26T17:44:06Z</time>
      </trkpt>
      <trkpt lat="28.965666" lon="-13.665654">
        <ele>312.124</ele>
        <time>2015-12-26T17:44:22Z</time>
      </trkpt>
      <trkpt lat="28.962918" lon="-13.663957">
        <ele>290.604</ele>
        <time>2015-12-26T17:44:55Z</time>
      </trkpt>
      <trkpt lat="28.960415" lon="-13.663050">
        <ele>276.014</ele>
        <time>2015-12-26T17:45:27Z</time>
      </trkpt>
      <trkpt lat="28.959254" lon="-13.662419">
        <ele>268.508</ele>
        <time>2015-12-26T17:45:41Z</time>
      </trkpt>
      <trkpt lat="28.957808" lon="-13.662078">
        <ele>260.763</ele>
        <time>2015-12-26T17:45:58Z</time>
      </trkpt>
      <trkpt lat="28.956443" lon="-13.661474">
        <ele>256.673</ele>
        <time>2015-12-26T17:46:21Z</time>
      </trkpt>
      <trkpt lat="28.955895" lon="-13.663260">
        <ele>255.659</ele>
        <time>2015-12-26T17:48:04Z</time>
      </trkpt>
      <trkpt lat="28.955307" lon="-13.663869">
        <ele>253.949</ele>
        <time>2015-12-26T17:48:13Z</time>
      </trkpt>
      <trkpt lat="28.954750" lon="-13.664062">
        <ele>250.333</ele>
        <time>2015-12-26T17:48:20Z</time>
      </trkpt>
      <trkpt lat="28.953805" lon="-13.663791">
        <ele>241.250</ele>
        <time>2015-12-26T17:49:32Z</time>
      </trkpt>
      <trkpt lat="28.953431" lon="-13.662526">
        <ele>237.245</ele>
        <time>2015-12-26T17:51:29Z</time>
      </trkpt>
      <trkpt lat="28.953835" lon="-13.661758">
        <ele>243.734</ele>
        <time>2015-12-26T17:52:08Z</time>
      </trkpt>
      <trkpt lat="28.953288" lon="-13.662603">
        <ele>243.265</ele>
        <time>2015-12-26T17:53:16Z</time>
      </trkpt>
      <trkpt lat="28.952563" lon="-13.663162">
        <ele>239.868</ele>
        <time>2015-12-26T17:53:28Z</time>
      </trkpt>
      <trkpt lat="28.950561" lon="-13.663755">
        <ele>224.914</ele>
        <time>2015-12-26T17:53:54Z</time>
      </trkpt>
      <trkpt lat="28.949771" lon="-13.664323">
        <ele>222.008</ele>
        <time>2015-12-26T17:54:05Z</time>
      </trkpt>
      <trkpt lat="28.948603" lon="-13.665742">
        <ele>217.247</ele>
        <time>2015-12-26T17:54:24Z</time>
      </trkpt>
      <trkpt lat="28.948045" lon="-13.665763">
        <ele>216.547</ele>
        <time>2015-12-26T17:54:31Z</time>
      </trkpt>
      <trkpt lat="28.946743" lon="-13.666808">
        <ele>213.953</ele>
        <time>2015-12-26T17:54:52Z</time>
      </trkpt>
      <trkpt lat="28.945631" lon="-13.666972">
        <ele>207.773</ele>
        <time>2015-12-26T17:55:05Z</time>
      </trkpt>
      <trkpt lat="28.944654" lon="-13.667702">
        <ele>199.467</ele>
        <time>2015-12-26T17:55:16Z</time>
      </trkpt>
      <trkpt lat="28.943926" lon="-13.667897">
        <ele>192.864</ele>
        <time>2015-12-26T17:55:24Z</time>
      </trkpt>
      <trkpt lat="28.942398" lon="-13.669728">
        <ele>182.469</ele>
        <time>2015-12-26T17:55:48Z</time>
      </trkpt>
      <trkpt lat="28.941304" lon="-13.670470">
        <ele>183.248</ele>
        <time>2015-12-26T17:56:04Z</time>
      </trkpt>
      <trkpt lat="28.938144" lon="-13.672085">
        <ele>168.913</ele>
        <time>2015-12-26T17:56:45Z</time>
      </trkpt>
      <trkpt lat="28.935909" lon="-13.672892">
        <ele>158.243</ele>
        <time>2015-12-26T17:57:10Z</time>
      </trkpt>
      <trkpt lat="28.935512" lon="-13.673281">
        <ele>157.207</ele>
        <time>2015-12-26T17:57:16Z</time>
      </trkpt>
      <trkpt lat="28.932274" lon="-13.674646">
        <ele>138.508</ele>
        <time>2015-12-26T17:57:55Z</time>
      </trkpt>
      <trkpt lat="28.930772" lon="-13.675904">
        <ele>125.832</ele>
        <time>2015-12-26T17:58:14Z</time>
      </trkpt>
      <trkpt lat="28.929936" lon="-13.677124">
        <ele>120.212</ele>
        <time>2015-12-26T17:58:33Z</time>
      </trkpt>
      <trkpt lat="28.929626" lon="-13.678142">
        <ele>124.268</ele>
        <time>2015-12-26T18:00:08Z</time>
      </trkpt>
      <trkpt lat="28.926941" lon="-13.675813">
        <ele>106.318</ele>
        <time>2015-12-26T18:01:03Z</time>
      </trkpt>
      <trkpt lat="28.925670" lon="-13.675421">
        <ele>99.382</ele>
        <time>2015-12-26T18:01:23Z</time>
      </trkpt>
      <trkpt lat="28.924911" lon="-13.674083">
        <ele>90.859</ele>
        <time>2015-12-26T18:01:41Z</time>
      </trkpt>
      <trkpt lat="28.924622" lon="-13.673132">
        <ele>88.164</ele>
        <time>2015-12-26T18:01:55Z</time>
      </trkpt>
      <trkpt lat="28.924658" lon="-13.671112">
        <ele>92.143</ele>
        <time>2015-12-26T18:02:36Z</time>
      </trkpt>
      <trkpt lat="28.925316" lon="-13.670714">
        <ele>98.674</ele>
        <time>2015-12-26T18:02:57Z</time>
      </trkpt>
      <trkpt lat="28.925395" lon="-13.669147">
        <ele>102.856</ele>
        <time>2015-12-26T18:03:25Z</time>
      </trkpt>
      <trkpt lat="28.926270" lon="-13.665167">
        <ele>96.421</ele>
        <time>2015-12-26T18:04:33Z</time>
      </trkpt>
      <trkpt lat="28.927374" lon="-13.664778">
        <ele>92.108</ele>
        <time>2015-12-26T18:05:09Z</time>
      </trkpt>
      <trkpt lat="28.924397" lon="-13.665473">
        <ele>81.388</ele>
        <time>2015-12-26T18:06:46Z</time>
      </trkpt>
      <trkpt lat="28.922936" lon="-13.668166">
        <ele>75.128</ele>
        <time>2015-12-26T18:07:32Z</time>
      </trkpt>
      <trkpt lat="28.922465" lon="-13.666813">
        <ele>71.634</ele>
        <time>2015-12-26T18:07:54Z</time>
      </trkpt>
      <trkpt lat="28.921571" lon="-13.666698">
        <ele>69.794</ele>
        <time>2015-12-26T18:08:08Z</time>
      </trkpt>
      <trkpt lat="28.920438" lon="-13.666954">
        <ele>64.018</ele>
        <time>2015-12-26T18:08:33Z</time>
      </trkpt>
      <trkpt lat="28.920311" lon="-13.666062">
        <ele>63.315</ele>
        <time>2015-12-26T18:08:51Z</time>
      </trkpt>
      <trkpt lat="28.921057" lon="-13.665623">
        <ele>61.140</ele>
        <time>2015-12-26T18:09:17Z</time>
      </trkpt>
      <trkpt lat="28.920987" lon="-13.663441">
        <ele>60.949</ele>
        <time>2015-12-26T18:09:49Z</time>
      </trkpt>
      <trkpt lat="28.920438" lon="-13.660200">
        <ele>55.889</ele>
        <time>2015-12-26T18:10:35Z</time>
      </trkpt>
      <trkpt lat="28.920606" lon="-13.656547">
        <ele>58.506</ele>
        <time>2015-12-26T18:11:32Z</time>
      </trkpt>
      <trkpt lat="28.920481" lon="-13.655918">
        <ele>53.426</ele>
        <time>2015-12-26T18:11:40Z</time>
      </trkpt>
      <trkpt lat="28.919286" lon="-13.653571">
        <ele>45.808</ele>
        <time>2015-12-26T18:12:16Z</time>
      </trkpt>
      <trkpt lat="28.919589" lon="-13.652301">
        <ele>44.839</ele>
        <time>2015-12-26T18:12:35Z</time>
      </trkpt>
      <trkpt lat="28.920425" lon="-13.650389">
        <ele>48.129</ele>
        <time>2015-12-26T18:13:16Z</time>
      </trkpt>
      <trkpt lat="28.920322" lon="-13.648972">
        <ele>53.475</ele>
        <time>2015-12-26T18:13:36Z</time>
      </trkpt>
      <trkpt lat="28.920570" lon="-13.647583">
        <ele>48.355</ele>
        <time>2015-12-26T18:13:53Z</time>
      </trkpt>
      <trkpt lat="28.920045" lon="-13.645727">
        <ele>54.349</ele>
        <time>2015-12-26T18:14:21Z</time>
      </trkpt>
      <trkpt lat="28.920231" lon="-13.643928">
        <ele>55.616</ele>
        <time>2015-12-26T18:14:55Z</time>
      </trkpt>
      <trkpt lat="28.921775" lon="-13.641507">
        <ele>58.751</ele>
        <time>2015-12-26T18:15:42Z</time>
      </trkpt>
      <trkpt lat="28.924080" lon="-13.640547">
        <ele>51.810</ele>
        <time>2015-12-26T18:16:34Z</time>
      </trkpt>
      <trkpt lat="28.924276" lon="-13.641554">
        <ele>52.795</ele>
        <time>2015-12-26T18:16:49Z</time>
      </trkpt>
      <trkpt lat="28.924902" lon="-13.642159">
        <ele>54.049</ele>
        <time>2015-12-26T18:16:59Z</time>
      </trkpt>
      <trkpt lat="28.925321" lon="-13.641755">
        <ele>52.823</ele>
        <time>2015-12-26T18:17:07Z</time>
      </trkpt>
      <trkpt lat="28.926067" lon="-13.641462">
        <ele>53.508</ele>
        <time>2015-12-26T18:17:24Z</time>
      </trkpt>
      <trkpt lat="28.927333" lon="-13.642314">
        <ele>54.250</ele>
        <time>2015-12-26T18:17:51Z</time>
      </trkpt>
      <trkpt lat="28.928240" lon="-13.642325">
        <ele>52.570</ele>
        <time>2015-12-26T18:19:46Z</time>
      </trkpt>
      <trkpt lat="28.928121" lon="-13.642141">
        <ele>52.576</ele>
        <time>2015-12-26T18:20:06Z</time>
      </trkpt>
    </trkseg>
  </trk></gpx>