<?xml version="1.0" encoding="UTF-8"?>
<gpx creator="Wikiloc - https://www.wikiloc.com" version="1.1" xmlns="http://www.topografix.com/GPX/1/1" xmlns:xsi="http://www.w3.org/2001/XMLSchema-instance" xsi:schemaLocation="http://www.topografix.com/GPX/1/1 http://www.topografix.com/GPX/1/1/gpx.xsd">
  <metadata>
    <name>Wikiloc - La vuelta Ruta de los Volcanes en la Palma Llanos del Jable,...</name>
    <link href="https://www.wikiloc.com/mountain-biking-trails/la-vuelta-ruta-de-los-volcanes-en-la-palma-llanos-del-jable-hoyo-la-sima-y-mirador-del-camino-de-la-238847760">
      <text>La vuelta Ruta de los Volcanes en la Palma Llanos del Jable,... on Wikiloc</text>
    </link>
    <time>2025-11-10T17:21:29Z</time>
  </metadata>
  <trk>
    <name>La vuelta Ruta de los Volcanes en la Palma Llanos del Jable,... - Wikiloc</name>
    <cmt></cmt>
    <desc></desc>
    <trkseg>
      <trkpt lat="28.614098" lon="-17.835936">
        <ele>1457.448</ele>
        <time>2025-11-03T13:11:29Z</time>
      </trkpt>
      <trkpt lat="28.614020" lon="-17.835841">
        <ele>1458.461</ele>
        <time>2025-11-03T13:12:05Z</time>
      </trkpt>
      <trkpt lat="28.614208" lon="-17.836075">
        <ele>1459.217</ele>
        <time>2025-11-03T13:12:25Z</time>
      </trkpt>
      <trkpt lat="28.614098" lon="-17.837297">
        <ele>1453.809</ele>
        <time>2025-11-03T13:12:50Z</time>
      </trkpt>
      <trkpt lat="28.613702" lon="-17.838791">
        <ele>1452.676</ele>
        <time>2025-11-03T13:13:16Z</time>
      </trkpt>
      <trkpt lat="28.613292" lon="-17.839541">
        <ele>1446.627</ele>
        <time>2025-11-03T13:13:28Z</time>
      </trkpt>
      <trkpt lat="28.613532" lon="-17.840117">
        <ele>1439.212</ele>
        <time>2025-11-03T13:13:36Z</time>
      </trkpt>
      <trkpt lat="28.613335" lon="-17.840480">
        <ele>1439.012</ele>
        <time>2025-11-03T13:13:40Z</time>
      </trkpt>
      <trkpt lat="28.613793" lon="-17.841011">
        <ele>1438.478</ele>
        <time>2025-11-03T13:13:51Z</time>
      </trkpt>
      <trkpt lat="28.614334" lon="-17.843066">
        <ele>1419.661</ele>
        <time>2025-11-03T13:14:16Z</time>
      </trkpt>
      <trkpt lat="28.614873" lon="-17.843577">
        <ele>1413.811</ele>
        <time>2025-11-03T13:14:23Z</time>
      </trkpt>
      <trkpt lat="28.615619" lon="-17.843813">
        <ele>1411.030</ele>
        <time>2025-11-03T13:14:32Z</time>
      </trkpt>
      <trkpt lat="28.615866" lon="-17.844233">
        <ele>1405.464</ele>
        <time>2025-11-03T13:14:37Z</time>
      </trkpt>
      <trkpt lat="28.615870" lon="-17.844829">
        <ele>1401.291</ele>
        <time>2025-11-03T13:14:43Z</time>
      </trkpt>
      <trkpt lat="28.616465" lon="-17.845355">
        <ele>1394.281</ele>
        <time>2025-11-03T13:14:51Z</time>
      </trkpt>
      <trkpt lat="28.616754" lon="-17.845929">
        <ele>1387.419</ele>
        <time>2025-11-03T13:14:57Z</time>
      </trkpt>
      <trkpt lat="28.617532" lon="-17.845955">
        <ele>1381.609</ele>
        <time>2025-11-03T13:15:05Z</time>
      </trkpt>
      <trkpt lat="28.617668" lon="-17.846072">
        <ele>1381.471</ele>
        <time>2025-11-03T13:15:07Z</time>
      </trkpt>
      <trkpt lat="28.617706" lon="-17.847244">
        <ele>1372.472</ele>
        <time>2025-11-03T13:15:18Z</time>
      </trkpt>
      <trkpt lat="28.617320" lon="-17.848459">
        <ele>1366.657</ele>
        <time>2025-11-03T13:15:34Z</time>
      </trkpt>
      <trkpt lat="28.616694" lon="-17.848993">
        <ele>1363.477</ele>
        <time>2025-11-03T13:16:49Z</time>
      </trkpt>
      <trkpt lat="28.616122" lon="-17.848902">
        <ele>1360.453</ele>
        <time>2025-11-03T13:17:29Z</time>
      </trkpt>
      <trkpt lat="28.615494" lon="-17.850032">
        <ele>1358.896</ele>
        <time>2025-11-03T13:18:13Z</time>
      </trkpt>
      <trkpt lat="28.615075" lon="-17.850234">
        <ele>1359.216</ele>
        <time>2025-11-03T13:18:31Z</time>
      </trkpt>
      <trkpt lat="28.614752" lon="-17.850634">
        <ele>1359.065</ele>
        <time>2025-11-03T13:18:50Z</time>
      </trkpt>
      <trkpt lat="28.613872" lon="-17.850805">
        <ele>1357.869</ele>
        <time>2025-11-03T13:19:26Z</time>
      </trkpt>
      <trkpt lat="28.613596" lon="-17.851282">
        <ele>1356.474</ele>
        <time>2025-11-03T13:19:43Z</time>
      </trkpt>
      <trkpt lat="28.612608" lon="-17.851855">
        <ele>1358.656</ele>
        <time>2025-11-03T13:20:25Z</time>
      </trkpt>
      <trkpt lat="28.612207" lon="-17.852352">
        <ele>1359.021</ele>
        <time>2025-11-03T13:20:46Z</time>
      </trkpt>
      <trkpt lat="28.611868" lon="-17.852422">
        <ele>1359.809</ele>
        <time>2025-11-03T13:20:57Z</time>
      </trkpt>
      <trkpt lat="28.610975" lon="-17.852272">
        <ele>1364.039</ele>
        <time>2025-11-03T13:21:45Z</time>
      </trkpt>
      <trkpt lat="28.610466" lon="-17.851573">
        <ele>1370.240</ele>
        <time>2025-11-03T13:22:38Z</time>
      </trkpt>
      <trkpt lat="28.610195" lon="-17.851547">
        <ele>1370.415</ele>
        <time>2025-11-03T13:22:50Z</time>
      </trkpt>
      <trkpt lat="28.609091" lon="-17.853651">
        <ele>1366.495</ele>
        <time>2025-11-03T13:23:37Z</time>
      </trkpt>
      <trkpt lat="28.608341" lon="-17.853903">
        <ele>1368.641</ele>
        <time>2025-11-03T13:23:53Z</time>
      </trkpt>
      <trkpt lat="28.606554" lon="-17.854307">
        <ele>1366.484</ele>
        <time>2025-11-03T13:24:32Z</time>
      </trkpt>
      <trkpt lat="28.605702" lon="-17.854303">
        <ele>1367.424</ele>
        <time>2025-11-03T13:25:03Z</time>
      </trkpt>
      <trkpt lat="28.604324" lon="-17.853908">
        <ele>1365.423</ele>
        <time>2025-11-03T13:25:45Z</time>
      </trkpt>
      <trkpt lat="28.603347" lon="-17.853288">
        <ele>1363.227</ele>
        <time>2025-11-03T13:26:14Z</time>
      </trkpt>
      <trkpt lat="28.603063" lon="-17.853404">
        <ele>1362.418</ele>
        <time>2025-11-03T13:26:20Z</time>
      </trkpt>
      <trkpt lat="28.602350" lon="-17.853350">
        <ele>1358.498</ele>
        <time>2025-11-03T13:29:43Z</time>
      </trkpt>
      <trkpt lat="28.601727" lon="-17.853112">
        <ele>1358.417</ele>
        <time>2025-11-03T13:30:13Z</time>
      </trkpt>
      <trkpt lat="28.600782" lon="-17.853429">
        <ele>1351.609</ele>
        <time>2025-11-03T13:30:33Z</time>
      </trkpt>
      <trkpt lat="28.600326" lon="-17.853274">
        <ele>1350.293</ele>
        <time>2025-11-03T13:30:42Z</time>
      </trkpt>
      <trkpt lat="28.598998" lon="-17.853386">
        <ele>1340.894</ele>
        <time>2025-11-03T13:31:01Z</time>
      </trkpt>
      <trkpt lat="28.598351" lon="-17.852769">
        <ele>1336.069</ele>
        <time>2025-11-03T13:31:15Z</time>
      </trkpt>
      <trkpt lat="28.598214" lon="-17.852790">
        <ele>1335.489</ele>
        <time>2025-11-03T13:31:18Z</time>
      </trkpt>
      <trkpt lat="28.597927" lon="-17.853874">
        <ele>1332.085</ele>
        <time>2025-11-03T13:31:34Z</time>
      </trkpt>
      <trkpt lat="28.597132" lon="-17.854563">
        <ele>1322.838</ele>
        <time>2025-11-03T13:31:46Z</time>
      </trkpt>
      <trkpt lat="28.596712" lon="-17.855619">
        <ele>1317.848</ele>
        <time>2025-11-03T13:31:58Z</time>
      </trkpt>
      <trkpt lat="28.596532" lon="-17.855737">
        <ele>1317.247</ele>
        <time>2025-11-03T13:32:02Z</time>
      </trkpt>
      <trkpt lat="28.596050" lon="-17.855593">
        <ele>1312.461</ele>
        <time>2025-11-03T13:32:10Z</time>
      </trkpt>
      <trkpt lat="28.595572" lon="-17.856313">
        <ele>1307.628</ele>
        <time>2025-11-03T13:32:19Z</time>
      </trkpt>
      <trkpt lat="28.595578" lon="-17.856809">
        <ele>1307.689</ele>
        <time>2025-11-03T13:32:26Z</time>
      </trkpt>
      <trkpt lat="28.596115" lon="-17.857574">
        <ele>1302.617</ele>
        <time>2025-11-03T13:32:44Z</time>
      </trkpt>
      <trkpt lat="28.596323" lon="-17.857064">
        <ele>1301.209</ele>
        <time>2025-11-03T13:33:04Z</time>
      </trkpt>
      <trkpt lat="28.596678" lon="-17.856891">
        <ele>1290.614</ele>
        <time>2025-11-03T13:35:38Z</time>
      </trkpt>
      <trkpt lat="28.596577" lon="-17.856232">
        <ele>1285.425</ele>
        <time>2025-11-03T13:38:43Z</time>
      </trkpt>
      <trkpt lat="28.597663" lon="-17.855140">
        <ele>1277.620</ele>
        <time>2025-11-03T13:39:08Z</time>
      </trkpt>
      <trkpt lat="28.598045" lon="-17.855009">
        <ele>1277.070</ele>
        <time>2025-11-03T13:39:15Z</time>
      </trkpt>
      <trkpt lat="28.598366" lon="-17.855175">
        <ele>1274.846</ele>
        <time>2025-11-03T13:39:21Z</time>
      </trkpt>
      <trkpt lat="28.598284" lon="-17.855338">
        <ele>1274.499</ele>
        <time>2025-11-03T13:39:25Z</time>
      </trkpt>
      <trkpt lat="28.597985" lon="-17.855265">
        <ele>1272.099</ele>
        <time>2025-11-03T13:39:31Z</time>
      </trkpt>
      <trkpt lat="28.597769" lon="-17.855407">
        <ele>1271.038</ele>
        <time>2025-11-03T13:39:35Z</time>
      </trkpt>
      <trkpt lat="28.597239" lon="-17.856304">
        <ele>1264.642</ele>
        <time>2025-11-03T13:39:48Z</time>
      </trkpt>
      <trkpt lat="28.597164" lon="-17.856678">
        <ele>1261.417</ele>
        <time>2025-11-03T13:39:52Z</time>
      </trkpt>
      <trkpt lat="28.597454" lon="-17.857542">
        <ele>1255.487</ele>
        <time>2025-11-03T13:40:02Z</time>
      </trkpt>
      <trkpt lat="28.597432" lon="-17.857851">
        <ele>1252.415</ele>
        <time>2025-11-03T13:40:06Z</time>
      </trkpt>
      <trkpt lat="28.596984" lon="-17.858199">
        <ele>1248.409</ele>
        <time>2025-11-03T13:40:15Z</time>
      </trkpt>
      <trkpt lat="28.597139" lon="-17.858722">
        <ele>1246.013</ele>
        <time>2025-11-03T13:40:23Z</time>
      </trkpt>
      <trkpt lat="28.596493" lon="-17.859175">
        <ele>1241.284</ele>
        <time>2025-11-03T13:40:37Z</time>
      </trkpt>
      <trkpt lat="28.596150" lon="-17.858913">
        <ele>1238.419</ele>
        <time>2025-11-03T13:40:44Z</time>
      </trkpt>
      <trkpt lat="28.595717" lon="-17.858812">
        <ele>1235.289</ele>
        <time>2025-11-03T13:40:50Z</time>
      </trkpt>
      <trkpt lat="28.594981" lon="-17.858894">
        <ele>1228.025</ele>
        <time>2025-11-03T13:41:24Z</time>
      </trkpt>
      <trkpt lat="28.594874" lon="-17.858517">
        <ele>1224.468</ele>
        <time>2025-11-03T13:41:35Z</time>
      </trkpt>
      <trkpt lat="28.594571" lon="-17.858501">
        <ele>1223.818</ele>
        <time>2025-11-03T13:41:43Z</time>
      </trkpt>
      <trkpt lat="28.594474" lon="-17.858203">
        <ele>1223.237</ele>
        <time>2025-11-03T13:41:50Z</time>
      </trkpt>
      <trkpt lat="28.594279" lon="-17.858197">
        <ele>1222.021</ele>
        <time>2025-11-03T13:41:55Z</time>
      </trkpt>
      <trkpt lat="28.594098" lon="-17.857942">
        <ele>1219.689</ele>
        <time>2025-11-03T13:42:03Z</time>
      </trkpt>
      <trkpt lat="28.593791" lon="-17.857991">
        <ele>1218.406</ele>
        <time>2025-11-03T13:42:13Z</time>
      </trkpt>
      <trkpt lat="28.592899" lon="-17.858620">
        <ele>1223.026</ele>
        <time>2025-11-03T13:43:22Z</time>
      </trkpt>
      <trkpt lat="28.592656" lon="-17.858591">
        <ele>1224.809</ele>
        <time>2025-11-03T13:43:39Z</time>
      </trkpt>
      <trkpt lat="28.591814" lon="-17.858987">
        <ele>1231.480</ele>
        <time>2025-11-03T13:44:43Z</time>
      </trkpt>
      <trkpt lat="28.591059" lon="-17.858914">
        <ele>1238.261</ele>
        <time>2025-11-03T13:45:43Z</time>
      </trkpt>
      <trkpt lat="28.590620" lon="-17.859207">
        <ele>1241.626</ele>
        <time>2025-11-03T13:46:12Z</time>
      </trkpt>
      <trkpt lat="28.589982" lon="-17.858467">
        <ele>1245.856</ele>
        <time>2025-11-03T13:52:18Z</time>
      </trkpt>
      <trkpt lat="28.589464" lon="-17.858462">
        <ele>1253.662</ele>
        <time>2025-11-03T13:52:51Z</time>
      </trkpt>
      <trkpt lat="28.588839" lon="-17.858068">
        <ele>1259.235</ele>
        <time>2025-11-03T13:53:37Z</time>
      </trkpt>
      <trkpt lat="28.588318" lon="-17.858018">
        <ele>1263.275</ele>
        <time>2025-11-03T13:54:10Z</time>
      </trkpt>
      <trkpt lat="28.588007" lon="-17.858407">
        <ele>1266.664</ele>
        <time>2025-11-03T13:54:34Z</time>
      </trkpt>
      <trkpt lat="28.587769" lon="-17.858315">
        <ele>1268.648</ele>
        <time>2025-11-03T13:54:47Z</time>
      </trkpt>
      <trkpt lat="28.587572" lon="-17.858467">
        <ele>1272.099</ele>
        <time>2025-11-03T13:55:00Z</time>
      </trkpt>
      <trkpt lat="28.587364" lon="-17.858331">
        <ele>1274.407</ele>
        <time>2025-11-03T13:55:15Z</time>
      </trkpt>
      <trkpt lat="28.587159" lon="-17.858583">
        <ele>1280.827</ele>
        <time>2025-11-03T13:55:33Z</time>
      </trkpt>
      <trkpt lat="28.586604" lon="-17.858306">
        <ele>1282.009</ele>
        <time>2025-11-03T13:56:10Z</time>
      </trkpt>
      <trkpt lat="28.586285" lon="-17.857886">
        <ele>1285.211</ele>
        <time>2025-11-03T13:56:36Z</time>
      </trkpt>
      <trkpt lat="28.586074" lon="-17.857872">
        <ele>1287.442</ele>
        <time>2025-11-03T13:56:48Z</time>
      </trkpt>
      <trkpt lat="28.585625" lon="-17.857314">
        <ele>1289.237</ele>
        <time>2025-11-03T13:57:18Z</time>
      </trkpt>
      <trkpt lat="28.585138" lon="-17.857265">
        <ele>1295.887</ele>
        <time>2025-11-03T13:57:40Z</time>
      </trkpt>
      <trkpt lat="28.584772" lon="-17.857001">
        <ele>1296.043</ele>
        <time>2025-11-03T13:58:00Z</time>
      </trkpt>
      <trkpt lat="28.584125" lon="-17.857256">
        <ele>1299.646</ele>
        <time>2025-11-03T13:58:29Z</time>
      </trkpt>
      <trkpt lat="28.583866" lon="-17.857129">
        <ele>1300.836</ele>
        <time>2025-11-03T13:58:43Z</time>
      </trkpt>
      <trkpt lat="28.583437" lon="-17.857166">
        <ele>1304.825</ele>
        <time>2025-11-03T13:59:06Z</time>
      </trkpt>
      <trkpt lat="28.583080" lon="-17.856879">
        <ele>1310.259</ele>
        <time>2025-11-03T13:59:35Z</time>
      </trkpt>
      <trkpt lat="28.582754" lon="-17.857641">
        <ele>1312.813</ele>
        <time>2025-11-03T14:00:13Z</time>
      </trkpt>
      <trkpt lat="28.582415" lon="-17.857140">
        <ele>1313.843</ele>
        <time>2025-11-03T14:00:41Z</time>
      </trkpt>
      <trkpt lat="28.581797" lon="-17.856743">
        <ele>1319.407</ele>
        <time>2025-11-03T14:01:23Z</time>
      </trkpt>
      <trkpt lat="28.581468" lon="-17.857272">
        <ele>1322.609</ele>
        <time>2025-11-03T14:01:56Z</time>
      </trkpt>
      <trkpt lat="28.580890" lon="-17.857368">
        <ele>1324.873</ele>
        <time>2025-11-03T14:02:30Z</time>
      </trkpt>
      <trkpt lat="28.580525" lon="-17.857241">
        <ele>1325.634</ele>
        <time>2025-11-03T14:02:55Z</time>
      </trkpt>
      <trkpt lat="28.580342" lon="-17.857362">
        <ele>1328.279</ele>
        <time>2025-11-03T14:03:08Z</time>
      </trkpt>
      <trkpt lat="28.580108" lon="-17.857258">
        <ele>1330.689</ele>
        <time>2025-11-03T14:03:24Z</time>
      </trkpt>
      <trkpt lat="28.579863" lon="-17.857341">
        <ele>1333.865</ele>
        <time>2025-11-03T14:03:39Z</time>
      </trkpt>
      <trkpt lat="28.579304" lon="-17.857053">
        <ele>1336.618</ele>
        <time>2025-11-03T14:03:59Z</time>
      </trkpt>
      <trkpt lat="28.578969" lon="-17.857548">
        <ele>1338.628</ele>
        <time>2025-11-03T14:04:15Z</time>
      </trkpt>
      <trkpt lat="28.578558" lon="-17.857344">
        <ele>1336.027</ele>
        <time>2025-11-03T14:04:25Z</time>
      </trkpt>
      <trkpt lat="28.578022" lon="-17.857631">
        <ele>1335.461</ele>
        <time>2025-11-03T14:04:38Z</time>
      </trkpt>
      <trkpt lat="28.577199" lon="-17.856988">
        <ele>1333.837</ele>
        <time>2025-11-03T14:04:58Z</time>
      </trkpt>
      <trkpt lat="28.576768" lon="-17.857323">
        <ele>1333.849</ele>
        <time>2025-11-03T14:05:12Z</time>
      </trkpt>
      <trkpt lat="28.576568" lon="-17.857230">
        <ele>1333.613</ele>
        <time>2025-11-03T14:05:18Z</time>
      </trkpt>
      <trkpt lat="28.576227" lon="-17.857385">
        <ele>1334.409</ele>
        <time>2025-11-03T14:05:26Z</time>
      </trkpt>
      <trkpt lat="28.575880" lon="-17.857334">
        <ele>1333.855</ele>
        <time>2025-11-03T14:05:34Z</time>
      </trkpt>
      <trkpt lat="28.575514" lon="-17.857742">
        <ele>1327.016</ele>
        <time>2025-11-03T14:05:42Z</time>
      </trkpt>
      <trkpt lat="28.575060" lon="-17.857670">
        <ele>1324.681</ele>
        <time>2025-11-03T14:05:48Z</time>
      </trkpt>
      <trkpt lat="28.574610" lon="-17.857822">
        <ele>1327.231</ele>
        <time>2025-11-03T14:05:55Z</time>
      </trkpt>
      <trkpt lat="28.573727" lon="-17.856998">
        <ele>1323.227</ele>
        <time>2025-11-03T14:06:14Z</time>
      </trkpt>
      <trkpt lat="28.573112" lon="-17.857568">
        <ele>1321.890</ele>
        <time>2025-11-03T14:06:28Z</time>
      </trkpt>
      <trkpt lat="28.572633" lon="-17.857575">
        <ele>1320.240</ele>
        <time>2025-11-03T14:06:36Z</time>
      </trkpt>
      <trkpt lat="28.572083" lon="-17.857954">
        <ele>1314.469</ele>
        <time>2025-11-03T14:06:47Z</time>
      </trkpt>
      <trkpt lat="28.571623" lon="-17.857732">
        <ele>1310.633</ele>
        <time>2025-11-03T14:06:56Z</time>
      </trkpt>
      <trkpt lat="28.571469" lon="-17.858090">
        <ele>1310.085</ele>
        <time>2025-11-03T14:07:03Z</time>
      </trkpt>
      <trkpt lat="28.571040" lon="-17.858158">
        <ele>1308.689</ele>
        <time>2025-11-03T14:07:12Z</time>
      </trkpt>
      <trkpt lat="28.570868" lon="-17.858104">
        <ele>1308.017</ele>
        <time>2025-11-03T14:07:16Z</time>
      </trkpt>
      <trkpt lat="28.569964" lon="-17.856787">
        <ele>1301.009</ele>
        <time>2025-11-03T14:07:43Z</time>
      </trkpt>
      <trkpt lat="28.569581" lon="-17.856845">
        <ele>1301.440</ele>
        <time>2025-11-03T14:07:52Z</time>
      </trkpt>
      <trkpt lat="28.569219" lon="-17.856622">
        <ele>1299.621</ele>
        <time>2025-11-03T14:08:02Z</time>
      </trkpt>
      <trkpt lat="28.568830" lon="-17.856113">
        <ele>1299.816</ele>
        <time>2025-11-03T14:08:20Z</time>
      </trkpt>
      <trkpt lat="28.568703" lon="-17.855615">
        <ele>1299.456</ele>
        <time>2025-11-03T14:08:39Z</time>
      </trkpt>
      <trkpt lat="28.568287" lon="-17.855617">
        <ele>1301.872</ele>
        <time>2025-11-03T14:08:56Z</time>
      </trkpt>
      <trkpt lat="28.567820" lon="-17.855140">
        <ele>1302.865</ele>
        <time>2025-11-03T14:09:18Z</time>
      </trkpt>
      <trkpt lat="28.567722" lon="-17.854763">
        <ele>1303.075</ele>
        <time>2025-11-03T14:09:32Z</time>
      </trkpt>
      <trkpt lat="28.566907" lon="-17.854801">
        <ele>1300.224</ele>
        <time>2025-11-03T14:09:54Z</time>
      </trkpt>
      <trkpt lat="28.566649" lon="-17.854290">
        <ele>1299.058</ele>
        <time>2025-11-03T14:10:04Z</time>
      </trkpt>
      <trkpt lat="28.566335" lon="-17.854344">
        <ele>1297.446</ele>
        <time>2025-11-03T14:10:10Z</time>
      </trkpt>
      <trkpt lat="28.565681" lon="-17.853874">
        <ele>1298.888</ele>
        <time>2025-11-03T14:10:28Z</time>
      </trkpt>
      <trkpt lat="28.565167" lon="-17.853746">
        <ele>1297.416</ele>
        <time>2025-11-03T14:10:38Z</time>
      </trkpt>
      <trkpt lat="28.563489" lon="-17.854094">
        <ele>1289.009</ele>
        <time>2025-11-03T14:11:07Z</time>
      </trkpt>
      <trkpt lat="28.562707" lon="-17.853607">
        <ele>1288.826</ele>
        <time>2025-11-03T14:11:29Z</time>
      </trkpt>
      <trkpt lat="28.562247" lon="-17.853816">
        <ele>1284.857</ele>
        <time>2025-11-03T14:11:42Z</time>
      </trkpt>
      <trkpt lat="28.561830" lon="-17.854273">
        <ele>1283.092</ele>
        <time>2025-11-03T14:12:03Z</time>
      </trkpt>
      <trkpt lat="28.561145" lon="-17.854381">
        <ele>1279.812</ele>
        <time>2025-11-03T14:12:19Z</time>
      </trkpt>
      <trkpt lat="28.560710" lon="-17.854172">
        <ele>1277.028</ele>
        <time>2025-11-03T14:12:28Z</time>
      </trkpt>
      <trkpt lat="28.560154" lon="-17.853606">
        <ele>1274.441</ele>
        <time>2025-11-03T14:12:45Z</time>
      </trkpt>
      <trkpt lat="28.559604" lon="-17.853731">
        <ele>1271.821</ele>
        <time>2025-11-03T14:12:55Z</time>
      </trkpt>
      <trkpt lat="28.559396" lon="-17.853532">
        <ele>1269.420</ele>
        <time>2025-11-03T14:13:01Z</time>
      </trkpt>
      <trkpt lat="28.558668" lon="-17.853446">
        <ele>1268.634</ele>
        <time>2025-11-03T14:13:19Z</time>
      </trkpt>
      <trkpt lat="28.558063" lon="-17.852948">
        <ele>1269.041</ele>
        <time>2025-11-03T14:13:42Z</time>
      </trkpt>
      <trkpt lat="28.557571" lon="-17.852970">
        <ele>1268.081</ele>
        <time>2025-11-03T14:13:59Z</time>
      </trkpt>
      <trkpt lat="28.557330" lon="-17.852727">
        <ele>1267.609</ele>
        <time>2025-11-03T14:14:08Z</time>
      </trkpt>
      <trkpt lat="28.557083" lon="-17.852833">
        <ele>1268.609</ele>
        <time>2025-11-03T14:14:15Z</time>
      </trkpt>
      <trkpt lat="28.556558" lon="-17.852418">
        <ele>1268.646</ele>
        <time>2025-11-03T14:14:32Z</time>
      </trkpt>
      <trkpt lat="28.556004" lon="-17.852681">
        <ele>1268.277</ele>
        <time>2025-11-03T14:14:48Z</time>
      </trkpt>
      <trkpt lat="28.555931" lon="-17.852176">
        <ele>1267.442</ele>
        <time>2025-11-03T14:15:04Z</time>
      </trkpt>
      <trkpt lat="28.555395" lon="-17.851963">
        <ele>1266.832</ele>
        <time>2025-11-03T14:15:21Z</time>
      </trkpt>
      <trkpt lat="28.553714" lon="-17.851734">
        <ele>1265.818</ele>
        <time>2025-11-03T14:16:18Z</time>
      </trkpt>
      <trkpt lat="28.553341" lon="-17.851758">
        <ele>1268.621</ele>
        <time>2025-11-03T14:16:37Z</time>
      </trkpt>
      <trkpt lat="28.552628" lon="-17.852141">
        <ele>1265.041</ele>
        <time>2025-11-03T14:17:02Z</time>
      </trkpt>
      <trkpt lat="28.551735" lon="-17.851930">
        <ele>1257.610</ele>
        <time>2025-11-03T14:20:26Z</time>
      </trkpt>
      <trkpt lat="28.550240" lon="-17.852169">
        <ele>1257.864</ele>
        <time>2025-11-03T14:21:18Z</time>
      </trkpt>
      <trkpt lat="28.549360" lon="-17.852784">
        <ele>1258.633</ele>
        <time>2025-11-03T14:21:41Z</time>
      </trkpt>
      <trkpt lat="28.548582" lon="-17.852831">
        <ele>1257.223</ele>
        <time>2025-11-03T14:21:58Z</time>
      </trkpt>
      <trkpt lat="28.547836" lon="-17.853401">
        <ele>1253.815</ele>
        <time>2025-11-03T14:22:14Z</time>
      </trkpt>
      <trkpt lat="28.547504" lon="-17.853131">
        <ele>1252.209</ele>
        <time>2025-11-03T14:22:25Z</time>
      </trkpt>
      <trkpt lat="28.547218" lon="-17.853329">
        <ele>1252.685</ele>
        <time>2025-11-03T14:22:37Z</time>
      </trkpt>
      <trkpt lat="28.546856" lon="-17.852705">
        <ele>1255.296</ele>
        <time>2025-11-03T14:23:00Z</time>
      </trkpt>
      <trkpt lat="28.546390" lon="-17.852802">
        <ele>1256.271</ele>
        <time>2025-11-03T14:23:15Z</time>
      </trkpt>
      <trkpt lat="28.545982" lon="-17.853207">
        <ele>1254.451</ele>
        <time>2025-11-03T14:23:31Z</time>
      </trkpt>
      <trkpt lat="28.545641" lon="-17.852919">
        <ele>1253.637</ele>
        <time>2025-11-03T14:23:43Z</time>
      </trkpt>
      <trkpt lat="28.545187" lon="-17.853042">
        <ele>1256.630</ele>
        <time>2025-11-03T14:23:57Z</time>
      </trkpt>
      <trkpt lat="28.544188" lon="-17.852930">
        <ele>1255.850</ele>
        <time>2025-11-03T14:24:26Z</time>
      </trkpt>
      <trkpt lat="28.543263" lon="-17.852514">
        <ele>1259.479</ele>
        <time>2025-11-03T14:24:58Z</time>
      </trkpt>
      <trkpt lat="28.542653" lon="-17.851285">
        <ele>1255.423</ele>
        <time>2025-11-03T14:25:41Z</time>
      </trkpt>
      <trkpt lat="28.542407" lon="-17.851065">
        <ele>1255.618</ele>
        <time>2025-11-03T14:25:57Z</time>
      </trkpt>
      <trkpt lat="28.541924" lon="-17.850943">
        <ele>1256.298</ele>
        <time>2025-11-03T14:26:18Z</time>
      </trkpt>
      <trkpt lat="28.540802" lon="-17.851076">
        <ele>1262.417</ele>
        <time>2025-11-03T14:27:03Z</time>
      </trkpt>
      <trkpt lat="28.540075" lon="-17.850723">
        <ele>1264.009</ele>
        <time>2025-11-03T14:27:36Z</time>
      </trkpt>
      <trkpt lat="28.539300" lon="-17.850581">
        <ele>1268.263</ele>
        <time>2025-11-03T14:28:07Z</time>
      </trkpt>
      <trkpt lat="28.537761" lon="-17.850890">
        <ele>1269.074</ele>
        <time>2025-11-03T14:29:07Z</time>
      </trkpt>
      <trkpt lat="28.536847" lon="-17.850752">
        <ele>1273.659</ele>
        <time>2025-11-03T14:29:51Z</time>
      </trkpt>
      <trkpt lat="28.536275" lon="-17.850854">
        <ele>1277.819</ele>
        <time>2025-11-03T14:30:17Z</time>
      </trkpt>
      <trkpt lat="28.535519" lon="-17.850603">
        <ele>1279.855</ele>
        <time>2025-11-03T14:30:54Z</time>
      </trkpt>
      <trkpt lat="28.534968" lon="-17.850726">
        <ele>1279.058</ele>
        <time>2025-11-03T14:31:14Z</time>
      </trkpt>
      <trkpt lat="28.534741" lon="-17.850612">
        <ele>1278.698</ele>
        <time>2025-11-03T14:31:24Z</time>
      </trkpt>
      <trkpt lat="28.534699" lon="-17.850155">
        <ele>1276.017</ele>
        <time>2025-11-03T14:31:37Z</time>
      </trkpt>
      <trkpt lat="28.534473" lon="-17.850114">
        <ele>1275.231</ele>
        <time>2025-11-03T14:31:42Z</time>
      </trkpt>
      <trkpt lat="28.533933" lon="-17.850447">
        <ele>1272.027</ele>
        <time>2025-11-03T14:31:54Z</time>
      </trkpt>
      <trkpt lat="28.533419" lon="-17.850218">
        <ele>1270.468</ele>
        <time>2025-11-03T14:32:05Z</time>
      </trkpt>
      <trkpt lat="28.532828" lon="-17.850275">
        <ele>1269.014</ele>
        <time>2025-11-03T14:32:18Z</time>
      </trkpt>
      <trkpt lat="28.531659" lon="-17.851203">
        <ele>1262.609</ele>
        <time>2025-11-03T14:32:48Z</time>
      </trkpt>
      <trkpt lat="28.530270" lon="-17.850678">
        <ele>1253.614</ele>
        <time>2025-11-03T14:33:08Z</time>
      </trkpt>
      <trkpt lat="28.528870" lon="-17.850476">
        <ele>1242.675</ele>
        <time>2025-11-03T14:33:28Z</time>
      </trkpt>
      <trkpt lat="28.527450" lon="-17.848859">
        <ele>1228.680</ele>
        <time>2025-11-03T14:33:52Z</time>
      </trkpt>
      <trkpt lat="28.527084" lon="-17.848635">
        <ele>1224.690</ele>
        <time>2025-11-03T14:33:57Z</time>
      </trkpt>
      <trkpt lat="28.526184" lon="-17.848661">
        <ele>1216.646</ele>
        <time>2025-11-03T14:34:07Z</time>
      </trkpt>
      <trkpt lat="28.524883" lon="-17.849103">
        <ele>1203.649</ele>
        <time>2025-11-03T14:34:24Z</time>
      </trkpt>
      <trkpt lat="28.524605" lon="-17.848959">
        <ele>1199.249</ele>
        <time>2025-11-03T14:34:33Z</time>
      </trkpt>
      <trkpt lat="28.524350" lon="-17.849089">
        <ele>1182.248</ele>
        <time>2025-11-03T14:37:34Z</time>
      </trkpt>
      <trkpt lat="28.523994" lon="-17.849003">
        <ele>1182.212</ele>
        <time>2025-11-03T14:37:44Z</time>
      </trkpt>
      <trkpt lat="28.523572" lon="-17.849278">
        <ele>1179.878</ele>
        <time>2025-11-03T14:37:55Z</time>
      </trkpt>
      <trkpt lat="28.522439" lon="-17.849629">
        <ele>1172.633</ele>
        <time>2025-11-03T14:38:15Z</time>
      </trkpt>
      <trkpt lat="28.521869" lon="-17.849510">
        <ele>1167.426</ele>
        <time>2025-11-03T14:38:25Z</time>
      </trkpt>
      <trkpt lat="28.521379" lon="-17.849593">
        <ele>1162.009</ele>
        <time>2025-11-03T14:38:33Z</time>
      </trkpt>
      <trkpt lat="28.520535" lon="-17.850420">
        <ele>1153.099</ele>
        <time>2025-11-03T14:38:50Z</time>
      </trkpt>
      <trkpt lat="28.520271" lon="-17.850873">
        <ele>1149.450</ele>
        <time>2025-11-03T14:38:59Z</time>
      </trkpt>
      <trkpt lat="28.519864" lon="-17.850886">
        <ele>1146.495</ele>
        <time>2025-11-03T14:39:07Z</time>
      </trkpt>
      <trkpt lat="28.519490" lon="-17.850739">
        <ele>1144.015</ele>
        <time>2025-11-03T14:39:13Z</time>
      </trkpt>
      <trkpt lat="28.519053" lon="-17.850293">
        <ele>1138.651</ele>
        <time>2025-11-03T14:39:22Z</time>
      </trkpt>
      <trkpt lat="28.518468" lon="-17.850269">
        <ele>1134.624</ele>
        <time>2025-11-03T14:39:31Z</time>
      </trkpt>
      <trkpt lat="28.518003" lon="-17.849427">
        <ele>1127.414</ele>
        <time>2025-11-03T14:39:48Z</time>
      </trkpt>
      <trkpt lat="28.517044" lon="-17.849069">
        <ele>1119.883</ele>
        <time>2025-11-03T14:40:04Z</time>
      </trkpt>
      <trkpt lat="28.516943" lon="-17.848089">
        <ele>1112.017</ele>
        <time>2025-11-03T14:40:26Z</time>
      </trkpt>
      <trkpt lat="28.517586" lon="-17.847391">
        <ele>1106.857</ele>
        <time>2025-11-03T14:40:42Z</time>
      </trkpt>
      <trkpt lat="28.517705" lon="-17.846875">
        <ele>1104.400</ele>
        <time>2025-11-03T14:40:50Z</time>
      </trkpt>
      <trkpt lat="28.517601" lon="-17.846312">
        <ele>1100.620</ele>
        <time>2025-11-03T14:40:58Z</time>
      </trkpt>
      <trkpt lat="28.517158" lon="-17.845409">
        <ele>1094.609</ele>
        <time>2025-11-03T14:41:10Z</time>
      </trkpt>
      <trkpt lat="28.516494" lon="-17.844744">
        <ele>1088.417</ele>
        <time>2025-11-03T14:41:23Z</time>
      </trkpt>
      <trkpt lat="28.516198" lon="-17.844625">
        <ele>1084.018</ele>
        <time>2025-11-03T14:41:28Z</time>
      </trkpt>
      <trkpt lat="28.515986" lon="-17.844857">
        <ele>1081.693</ele>
        <time>2025-11-03T14:41:33Z</time>
      </trkpt>
      <trkpt lat="28.516104" lon="-17.845707">
        <ele>1074.813</ele>
        <time>2025-11-03T14:41:44Z</time>
      </trkpt>
      <trkpt lat="28.515450" lon="-17.847336">
        <ele>1060.879</ele>
        <time>2025-11-03T14:42:06Z</time>
      </trkpt>
      <trkpt lat="28.515505" lon="-17.848219">
        <ele>1052.682</ele>
        <time>2025-11-03T14:42:17Z</time>
      </trkpt>
      <trkpt lat="28.515382" lon="-17.848367">
        <ele>1050.842</ele>
        <time>2025-11-03T14:42:21Z</time>
      </trkpt>
      <trkpt lat="28.514495" lon="-17.847959">
        <ele>1042.421</ele>
        <time>2025-11-03T14:42:38Z</time>
      </trkpt>
      <trkpt lat="28.512198" lon="-17.845645">
        <ele>1024.055</ele>
        <time>2025-11-03T14:49:09Z</time>
      </trkpt>
      <trkpt lat="28.511531" lon="-17.843035">
        <ele>1024.679</ele>
        <time>2025-11-03T14:52:12Z</time>
      </trkpt>
      <trkpt lat="28.510914" lon="-17.842637">
        <ele>1028.605</ele>
        <time>2025-11-03T14:52:36Z</time>
      </trkpt>
      <trkpt lat="28.510538" lon="-17.841983">
        <ele>1028.825</ele>
        <time>2025-11-03T14:52:56Z</time>
      </trkpt>
      <trkpt lat="28.510726" lon="-17.841447">
        <ele>1029.009</ele>
        <time>2025-11-03T14:53:14Z</time>
      </trkpt>
      <trkpt lat="28.510378" lon="-17.840523">
        <ele>1025.819</ele>
        <time>2025-11-03T14:53:39Z</time>
      </trkpt>
      <trkpt lat="28.510449" lon="-17.840108">
        <ele>1021.220</ele>
        <time>2025-11-03T14:53:59Z</time>
      </trkpt>
      <trkpt lat="28.510323" lon="-17.839677">
        <ele>1019.455</ele>
        <time>2025-11-03T14:54:09Z</time>
      </trkpt>
      <trkpt lat="28.509827" lon="-17.838524">
        <ele>1016.895</ele>
        <time>2025-11-03T14:55:28Z</time>
      </trkpt>
      <trkpt lat="28.509911" lon="-17.837933">
        <ele>1017.461</ele>
        <time>2025-11-03T14:55:51Z</time>
      </trkpt>
      <trkpt lat="28.510749" lon="-17.836884">
        <ele>1011.274</ele>
        <time>2025-11-03T14:56:35Z</time>
      </trkpt>
      <trkpt lat="28.510935" lon="-17.836359">
        <ele>1009.664</ele>
        <time>2025-11-03T14:56:52Z</time>
      </trkpt>
      <trkpt lat="28.511385" lon="-17.836182">
        <ele>1006.463</ele>
        <time>2025-11-03T14:57:32Z</time>
      </trkpt>
      <trkpt lat="28.511644" lon="-17.835847">
        <ele>1006.647</ele>
        <time>2025-11-03T14:57:47Z</time>
      </trkpt>
      <trkpt lat="28.512015" lon="-17.835896">
        <ele>1005.096</ele>
        <time>2025-11-03T14:57:59Z</time>
      </trkpt>
      <trkpt lat="28.512720" lon="-17.835149">
        <ele>1005.831</ele>
        <time>2025-11-03T14:58:50Z</time>
      </trkpt>
      <trkpt lat="28.513664" lon="-17.834457">
        <ele>1012.624</ele>
        <time>2025-11-03T15:00:21Z</time>
      </trkpt>
      <trkpt lat="28.514284" lon="-17.833596">
        <ele>1017.009</ele>
        <time>2025-11-03T15:01:29Z</time>
      </trkpt>
      <trkpt lat="28.515184" lon="-17.833106">
        <ele>1022.251</ele>
        <time>2025-11-03T15:02:28Z</time>
      </trkpt>
      <trkpt lat="28.516949" lon="-17.832977">
        <ele>1032.272</ele>
        <time>2025-11-03T15:03:59Z</time>
      </trkpt>
      <trkpt lat="28.517994" lon="-17.832351">
        <ele>1042.227</ele>
        <time>2025-11-03T15:05:23Z</time>
      </trkpt>
      <trkpt lat="28.519157" lon="-17.830958">
        <ele>1055.447</ele>
        <time>2025-11-03T15:07:21Z</time>
      </trkpt>
      <trkpt lat="28.520938" lon="-17.830233">
        <ele>1072.423</ele>
        <time>2025-11-03T15:09:35Z</time>
      </trkpt>
      <trkpt lat="28.521660" lon="-17.830275">
        <ele>1078.826</ele>
        <time>2025-11-03T15:10:25Z</time>
      </trkpt>
      <trkpt lat="28.521923" lon="-17.830038">
        <ele>1081.836</ele>
        <time>2025-11-03T15:10:48Z</time>
      </trkpt>
      <trkpt lat="28.522315" lon="-17.830247">
        <ele>1086.655</ele>
        <time>2025-11-03T15:11:19Z</time>
      </trkpt>
      <trkpt lat="28.522741" lon="-17.830134">
        <ele>1089.439</ele>
        <time>2025-11-03T15:11:51Z</time>
      </trkpt>
      <trkpt lat="28.523099" lon="-17.830279">
        <ele>1093.057</ele>
        <time>2025-11-03T15:12:22Z</time>
      </trkpt>
      <trkpt lat="28.523376" lon="-17.830143">
        <ele>1096.600</ele>
        <time>2025-11-03T15:12:45Z</time>
      </trkpt>
      <trkpt lat="28.524564" lon="-17.830364">
        <ele>1103.620</ele>
        <time>2025-11-03T15:14:06Z</time>
      </trkpt>
      <trkpt lat="28.525040" lon="-17.830179">
        <ele>1110.009</ele>
        <time>2025-11-03T15:14:46Z</time>
      </trkpt>
      <trkpt lat="28.525959" lon="-17.830340">
        <ele>1113.857</ele>
        <time>2025-11-03T15:15:46Z</time>
      </trkpt>
      <trkpt lat="28.526506" lon="-17.830104">
        <ele>1119.638</ele>
        <time>2025-11-03T15:16:26Z</time>
      </trkpt>
      <trkpt lat="28.527418" lon="-17.830733">
        <ele>1130.663</ele>
        <time>2025-11-03T15:17:41Z</time>
      </trkpt>
      <trkpt lat="28.527715" lon="-17.830651">
        <ele>1133.493</ele>
        <time>2025-11-03T15:18:01Z</time>
      </trkpt>
      <trkpt lat="28.528342" lon="-17.830817">
        <ele>1139.099</ele>
        <time>2025-11-03T15:18:50Z</time>
      </trkpt>
      <trkpt lat="28.528721" lon="-17.831377">
        <ele>1141.032</ele>
        <time>2025-11-03T15:19:34Z</time>
      </trkpt>
      <trkpt lat="28.529037" lon="-17.831512">
        <ele>1143.692</ele>
        <time>2025-11-03T15:20:01Z</time>
      </trkpt>
      <trkpt lat="28.529870" lon="-17.830566">
        <ele>1155.071</ele>
        <time>2025-11-03T15:21:26Z</time>
      </trkpt>
      <trkpt lat="28.530175" lon="-17.830717">
        <ele>1157.085</ele>
        <time>2025-11-03T15:21:49Z</time>
      </trkpt>
      <trkpt lat="28.530420" lon="-17.830649">
        <ele>1157.447</ele>
        <time>2025-11-03T15:22:02Z</time>
      </trkpt>
      <trkpt lat="28.532027" lon="-17.829255">
        <ele>1170.429</ele>
        <time>2025-11-10T15:24:09Z</time>
      </trkpt>
      <trkpt lat="28.532401" lon="-17.829162">
        <ele>1173.421</ele>
        <time>2025-11-10T15:24:34Z</time>
      </trkpt>
      <trkpt lat="28.532747" lon="-17.829243">
        <ele>1175.809</ele>
        <time>2025-11-10T15:24:59Z</time>
      </trkpt>
      <trkpt lat="28.533099" lon="-17.829677">
        <ele>1179.656</ele>
        <time>2025-11-10T15:25:31Z</time>
      </trkpt>
      <trkpt lat="28.533414" lon="-17.829644">
        <ele>1178.877</ele>
        <time>2025-11-10T15:36:27Z</time>
      </trkpt>
      <trkpt lat="28.533892" lon="-17.830590">
        <ele>1200.682</ele>
        <time>2025-11-10T15:42:51Z</time>
      </trkpt>
      <trkpt lat="28.534185" lon="-17.830763">
        <ele>1204.412</ele>
        <time>2025-11-10T15:43:20Z</time>
      </trkpt>
      <trkpt lat="28.534578" lon="-17.829938">
        <ele>1214.288</ele>
        <time>2025-11-10T15:44:22Z</time>
      </trkpt>
      <trkpt lat="28.535457" lon="-17.829765">
        <ele>1217.861</ele>
        <time>2025-11-10T15:45:21Z</time>
      </trkpt>
      <trkpt lat="28.535915" lon="-17.829279">
        <ele>1223.291</ele>
        <time>2025-11-10T15:46:02Z</time>
      </trkpt>
      <trkpt lat="28.536656" lon="-17.829394">
        <ele>1224.090</ele>
        <time>2025-11-10T15:46:43Z</time>
      </trkpt>
      <trkpt lat="28.537507" lon="-17.828114">
        <ele>1229.474</ele>
        <time>2025-11-10T15:47:43Z</time>
      </trkpt>
      <trkpt lat="28.538110" lon="-17.828327">
        <ele>1230.694</ele>
        <time>2025-11-10T15:48:01Z</time>
      </trkpt>
      <trkpt lat="28.538910" lon="-17.827856">
        <ele>1230.457</ele>
        <time>2025-11-10T15:48:28Z</time>
      </trkpt>
      <trkpt lat="28.539755" lon="-17.827891">
        <ele>1229.422</ele>
        <time>2025-11-10T15:48:56Z</time>
      </trkpt>
      <trkpt lat="28.540095" lon="-17.827772">
        <ele>1229.009</ele>
        <time>2025-11-10T15:49:07Z</time>
      </trkpt>
      <trkpt lat="28.540669" lon="-17.828185">
        <ele>1231.081</ele>
        <time>2025-11-10T15:49:35Z</time>
      </trkpt>
      <trkpt lat="28.541007" lon="-17.827566">
        <ele>1233.012</ele>
        <time>2025-11-10T15:49:57Z</time>
      </trkpt>
      <trkpt lat="28.541200" lon="-17.827492">
        <ele>1233.057</ele>
        <time>2025-11-10T15:50:03Z</time>
      </trkpt>
      <trkpt lat="28.541631" lon="-17.827684">
        <ele>1232.637</ele>
        <time>2025-11-10T15:50:18Z</time>
      </trkpt>
      <trkpt lat="28.542397" lon="-17.827176">
        <ele>1232.423</ele>
        <time>2025-11-10T15:51:04Z</time>
      </trkpt>
      <trkpt lat="28.542992" lon="-17.827027">
        <ele>1234.856</ele>
        <time>2025-11-10T15:51:36Z</time>
      </trkpt>
      <trkpt lat="28.543210" lon="-17.826779">
        <ele>1237.056</ele>
        <time>2025-11-10T15:51:54Z</time>
      </trkpt>
      <trkpt lat="28.543672" lon="-17.826800">
        <ele>1239.245</ele>
        <time>2025-11-10T15:52:22Z</time>
      </trkpt>
      <trkpt lat="28.543969" lon="-17.826509">
        <ele>1243.289</ele>
        <time>2025-11-10T15:52:43Z</time>
      </trkpt>
      <trkpt lat="28.544418" lon="-17.826506">
        <ele>1243.228</ele>
        <time>2025-11-10T15:53:03Z</time>
      </trkpt>
      <trkpt lat="28.544998" lon="-17.826896">
        <ele>1245.089</ele>
        <time>2025-11-10T15:53:34Z</time>
      </trkpt>
      <trkpt lat="28.545113" lon="-17.826396">
        <ele>1250.817</ele>
        <time>2025-11-10T15:53:55Z</time>
      </trkpt>
      <trkpt lat="28.545553" lon="-17.826449">
        <ele>1251.209</ele>
        <time>2025-11-10T15:54:19Z</time>
      </trkpt>
      <trkpt lat="28.545917" lon="-17.825883">
        <ele>1252.494</ele>
        <time>2025-11-10T15:54:35Z</time>
      </trkpt>
      <trkpt lat="28.546226" lon="-17.826086">
        <ele>1253.435</ele>
        <time>2025-11-10T15:54:44Z</time>
      </trkpt>
      <trkpt lat="28.546468" lon="-17.825637">
        <ele>1253.270</ele>
        <time>2025-11-10T15:54:55Z</time>
      </trkpt>
      <trkpt lat="28.547164" lon="-17.825391">
        <ele>1251.050</ele>
        <time>2025-11-10T15:55:10Z</time>
      </trkpt>
      <trkpt lat="28.547292" lon="-17.825005">
        <ele>1250.446</ele>
        <time>2025-11-10T15:55:17Z</time>
      </trkpt>
      <trkpt lat="28.548598" lon="-17.823684">
        <ele>1237.689</ele>
        <time>2025-11-10T15:55:46Z</time>
      </trkpt>
      <trkpt lat="28.549033" lon="-17.823509">
        <ele>1232.449</ele>
        <time>2025-11-10T15:55:55Z</time>
      </trkpt>
      <trkpt lat="28.549527" lon="-17.823616">
        <ele>1227.898</ele>
        <time>2025-11-10T15:56:05Z</time>
      </trkpt>
      <trkpt lat="28.549842" lon="-17.823166">
        <ele>1224.022</ele>
        <time>2025-11-10T15:56:15Z</time>
      </trkpt>
      <trkpt lat="28.551029" lon="-17.822716">
        <ele>1213.422</ele>
        <time>2025-11-10T15:56:36Z</time>
      </trkpt>
      <trkpt lat="28.551507" lon="-17.822816">
        <ele>1210.262</ele>
        <time>2025-11-10T15:56:45Z</time>
      </trkpt>
      <trkpt lat="28.551896" lon="-17.823187">
        <ele>1207.208</ele>
        <time>2025-11-10T15:56:56Z</time>
      </trkpt>
      <trkpt lat="28.552263" lon="-17.822619">
        <ele>1208.009</ele>
        <time>2025-11-10T15:57:17Z</time>
      </trkpt>
      <trkpt lat="28.552720" lon="-17.822876">
        <ele>1206.824</ele>
        <time>2025-11-10T15:57:49Z</time>
      </trkpt>
      <trkpt lat="28.553242" lon="-17.822440">
        <ele>1210.025</ele>
        <time>2025-11-10T15:58:29Z</time>
      </trkpt>
      <trkpt lat="28.554381" lon="-17.822644">
        <ele>1215.660</ele>
        <time>2025-11-10T15:59:42Z</time>
      </trkpt>
      <trkpt lat="28.554555" lon="-17.822374">
        <ele>1220.840</ele>
        <time>2025-11-10T15:59:59Z</time>
      </trkpt>
      <trkpt lat="28.554898" lon="-17.822460">
        <ele>1221.656</ele>
        <time>2025-11-10T16:00:28Z</time>
      </trkpt>
      <trkpt lat="28.555345" lon="-17.822328">
        <ele>1224.049</ele>
        <time>2025-11-10T16:00:53Z</time>
      </trkpt>
      <trkpt lat="28.555494" lon="-17.822244">
        <ele>1226.249</ele>
        <time>2025-11-10T16:00:59Z</time>
      </trkpt>
      <trkpt lat="28.555595" lon="-17.821850">
        <ele>1229.278</ele>
        <time>2025-11-10T16:01:11Z</time>
      </trkpt>
      <trkpt lat="28.556013" lon="-17.821673">
        <ele>1226.622</ele>
        <time>2025-11-10T16:01:23Z</time>
      </trkpt>
      <trkpt lat="28.555934" lon="-17.821119">
        <ele>1230.237</ele>
        <time>2025-11-10T16:01:41Z</time>
      </trkpt>
      <trkpt lat="28.556500" lon="-17.820733">
        <ele>1230.649</ele>
        <time>2025-11-10T16:02:20Z</time>
      </trkpt>
      <trkpt lat="28.557228" lon="-17.820598">
        <ele>1234.613</ele>
        <time>2025-11-10T16:03:09Z</time>
      </trkpt>
      <trkpt lat="28.557691" lon="-17.819964">
        <ele>1240.609</ele>
        <time>2025-11-10T16:03:56Z</time>
      </trkpt>
      <trkpt lat="28.558370" lon="-17.819846">
        <ele>1244.095</ele>
        <time>2025-11-10T16:04:45Z</time>
      </trkpt>
      <trkpt lat="28.558803" lon="-17.820028">
        <ele>1249.476</ele>
        <time>2025-11-10T16:05:17Z</time>
      </trkpt>
      <trkpt lat="28.559146" lon="-17.819458">
        <ele>1253.691</ele>
        <time>2025-11-10T16:05:49Z</time>
      </trkpt>
      <trkpt lat="28.559940" lon="-17.818937">
        <ele>1258.841</ele>
        <time>2025-11-10T16:06:56Z</time>
      </trkpt>
      <trkpt lat="28.561613" lon="-17.818358">
        <ele>1271.667</ele>
        <time>2025-11-10T16:09:08Z</time>
      </trkpt>
      <trkpt lat="28.562111" lon="-17.817777">
        <ele>1279.230</ele>
        <time>2025-11-10T16:09:56Z</time>
      </trkpt>
      <trkpt lat="28.562849" lon="-17.817791">
        <ele>1283.630</ele>
        <time>2025-11-10T16:10:54Z</time>
      </trkpt>
      <trkpt lat="28.563668" lon="-17.817212">
        <ele>1288.239</ele>
        <time>2025-11-10T16:12:04Z</time>
      </trkpt>
      <trkpt lat="28.564899" lon="-17.817633">
        <ele>1302.263</ele>
        <time>2025-11-10T16:16:58Z</time>
      </trkpt>
      <trkpt lat="28.565471" lon="-17.817346">
        <ele>1309.678</ele>
        <time>2025-11-10T16:17:39Z</time>
      </trkpt>
      <trkpt lat="28.565908" lon="-17.817497">
        <ele>1314.433</ele>
        <time>2025-11-10T16:18:12Z</time>
      </trkpt>
      <trkpt lat="28.566515" lon="-17.817359">
        <ele>1322.026</ele>
        <time>2025-11-10T16:18:52Z</time>
      </trkpt>
      <trkpt lat="28.567617" lon="-17.817573">
        <ele>1327.809</ele>
        <time>2025-11-10T16:20:13Z</time>
      </trkpt>
      <trkpt lat="28.568488" lon="-17.817176">
        <ele>1330.889</ele>
        <time>2025-11-10T16:21:09Z</time>
      </trkpt>
      <trkpt lat="28.569619" lon="-17.816900">
        <ele>1339.650</ele>
        <time>2025-11-10T16:21:48Z</time>
      </trkpt>
      <trkpt lat="28.570397" lon="-17.817020">
        <ele>1338.665</ele>
        <time>2025-11-10T16:22:12Z</time>
      </trkpt>
      <trkpt lat="28.570848" lon="-17.816623">
        <ele>1337.225</ele>
        <time>2025-11-10T16:22:31Z</time>
      </trkpt>
      <trkpt lat="28.571912" lon="-17.816387">
        <ele>1339.621</ele>
        <time>2025-11-10T16:23:02Z</time>
      </trkpt>
      <trkpt lat="28.572140" lon="-17.815609">
        <ele>1342.234</ele>
        <time>2025-11-10T16:23:27Z</time>
      </trkpt>
      <trkpt lat="28.572798" lon="-17.815141">
        <ele>1337.494</ele>
        <time>2025-11-10T16:23:43Z</time>
      </trkpt>
      <trkpt lat="28.573376" lon="-17.815192">
        <ele>1336.893</ele>
        <time>2025-11-10T16:23:55Z</time>
      </trkpt>
      <trkpt lat="28.573896" lon="-17.814441">
        <ele>1335.667</ele>
        <time>2025-11-10T16:24:18Z</time>
      </trkpt>
      <trkpt lat="28.574047" lon="-17.814962">
        <ele>1335.061</ele>
        <time>2025-11-10T16:24:34Z</time>
      </trkpt>
      <trkpt lat="28.574549" lon="-17.815222">
        <ele>1336.421</ele>
        <time>2025-11-10T16:24:55Z</time>
      </trkpt>
      <trkpt lat="28.575722" lon="-17.814999">
        <ele>1339.213</ele>
        <time>2025-11-10T16:25:49Z</time>
      </trkpt>
      <trkpt lat="28.575931" lon="-17.815097">
        <ele>1339.409</ele>
        <time>2025-11-10T16:26:00Z</time>
      </trkpt>
      <trkpt lat="28.576356" lon="-17.814829">
        <ele>1338.418</ele>
        <time>2025-11-10T16:26:20Z</time>
      </trkpt>
      <trkpt lat="28.576983" lon="-17.814705">
        <ele>1337.879</ele>
        <time>2025-11-10T16:26:50Z</time>
      </trkpt>
      <trkpt lat="28.577493" lon="-17.814856">
        <ele>1340.894</ele>
        <time>2025-11-10T16:27:03Z</time>
      </trkpt>
      <trkpt lat="28.577810" lon="-17.815134">
        <ele>1341.054</ele>
        <time>2025-11-10T16:27:14Z</time>
      </trkpt>
      <trkpt lat="28.578372" lon="-17.814715">
        <ele>1346.050</ele>
        <time>2025-11-10T16:27:46Z</time>
      </trkpt>
      <trkpt lat="28.578667" lon="-17.814891">
        <ele>1346.823</ele>
        <time>2025-11-10T16:27:59Z</time>
      </trkpt>
      <trkpt lat="28.578841" lon="-17.815329">
        <ele>1346.483</ele>
        <time>2025-11-10T16:28:14Z</time>
      </trkpt>
      <trkpt lat="28.579399" lon="-17.815491">
        <ele>1346.032</ele>
        <time>2025-11-10T16:28:30Z</time>
      </trkpt>
      <trkpt lat="28.579604" lon="-17.815232">
        <ele>1343.426</ele>
        <time>2025-11-10T16:28:36Z</time>
      </trkpt>
      <trkpt lat="28.580288" lon="-17.815231">
        <ele>1340.243</ele>
        <time>2025-11-10T16:28:48Z</time>
      </trkpt>
      <trkpt lat="28.580481" lon="-17.814594">
        <ele>1340.264</ele>
        <time>2025-11-10T16:29:06Z</time>
      </trkpt>
      <trkpt lat="28.581679" lon="-17.813795">
        <ele>1341.010</ele>
        <time>2025-11-10T16:30:19Z</time>
      </trkpt>
      <trkpt lat="28.582182" lon="-17.814059">
        <ele>1343.609</ele>
        <time>2025-11-10T16:30:43Z</time>
      </trkpt>
      <trkpt lat="28.583225" lon="-17.813794">
        <ele>1344.886</ele>
        <time>2025-11-10T16:31:15Z</time>
      </trkpt>
      <trkpt lat="28.583663" lon="-17.814033">
        <ele>1344.077</ele>
        <time>2025-11-10T16:31:28Z</time>
      </trkpt>
      <trkpt lat="28.584047" lon="-17.813780">
        <ele>1343.072</ele>
        <time>2025-11-10T16:31:45Z</time>
      </trkpt>
      <trkpt lat="28.584593" lon="-17.814207">
        <ele>1342.012</ele>
        <time>2025-11-10T16:32:04Z</time>
      </trkpt>
      <trkpt lat="28.585219" lon="-17.814228">
        <ele>1339.058</ele>
        <time>2025-11-10T16:32:20Z</time>
      </trkpt>
      <trkpt lat="28.586460" lon="-17.814693">
        <ele>1334.661</ele>
        <time>2025-11-10T16:32:51Z</time>
      </trkpt>
      <trkpt lat="28.586929" lon="-17.815163">
        <ele>1325.011</ele>
        <time>2025-11-10T16:40:00Z</time>
      </trkpt>
      <trkpt lat="28.587411" lon="-17.815259">
        <ele>1331.660</ele>
        <time>2025-11-10T16:40:19Z</time>
      </trkpt>
      <trkpt lat="28.587910" lon="-17.815696">
        <ele>1332.684</ele>
        <time>2025-11-10T16:40:34Z</time>
      </trkpt>
      <trkpt lat="28.588349" lon="-17.815241">
        <ele>1329.242</ele>
        <time>2025-11-10T16:40:46Z</time>
      </trkpt>
      <trkpt lat="28.588699" lon="-17.815401">
        <ele>1326.822</ele>
        <time>2025-11-10T16:40:55Z</time>
      </trkpt>
      <trkpt lat="28.588930" lon="-17.814644">
        <ele>1328.014</ele>
        <time>2025-11-10T16:41:16Z</time>
      </trkpt>
      <trkpt lat="28.589282" lon="-17.814205">
        <ele>1329.809</ele>
        <time>2025-11-10T16:41:33Z</time>
      </trkpt>
      <trkpt lat="28.590645" lon="-17.813337">
        <ele>1329.076</ele>
        <time>2025-11-10T16:42:10Z</time>
      </trkpt>
      <trkpt lat="28.591302" lon="-17.813169">
        <ele>1329.627</ele>
        <time>2025-11-10T16:42:33Z</time>
      </trkpt>
      <trkpt lat="28.591386" lon="-17.812701">
        <ele>1331.032</ele>
        <time>2025-11-10T16:42:50Z</time>
      </trkpt>
      <trkpt lat="28.591564" lon="-17.812574">
        <ele>1330.852</ele>
        <time>2025-11-10T16:43:02Z</time>
      </trkpt>
      <trkpt lat="28.592421" lon="-17.812714">
        <ele>1333.298</ele>
        <time>2025-11-10T16:44:07Z</time>
      </trkpt>
      <trkpt lat="28.593568" lon="-17.812569">
        <ele>1337.441</ele>
        <time>2025-11-10T16:45:17Z</time>
      </trkpt>
      <trkpt lat="28.593868" lon="-17.812692">
        <ele>1337.811</ele>
        <time>2025-11-10T16:45:32Z</time>
      </trkpt>
      <trkpt lat="28.594574" lon="-17.813417">
        <ele>1346.640</ele>
        <time>2025-11-10T16:46:26Z</time>
      </trkpt>
      <trkpt lat="28.594625" lon="-17.813885">
        <ele>1348.444</ele>
        <time>2025-11-10T16:46:57Z</time>
      </trkpt>
      <trkpt lat="28.593987" lon="-17.814670">
        <ele>1358.617</ele>
        <time>2025-11-10T16:48:04Z</time>
      </trkpt>
      <trkpt lat="28.593997" lon="-17.815041">
        <ele>1360.887</ele>
        <time>2025-11-10T16:48:26Z</time>
      </trkpt>
      <trkpt lat="28.594872" lon="-17.815770">
        <ele>1365.215</ele>
        <time>2025-11-10T16:49:50Z</time>
      </trkpt>
      <trkpt lat="28.595743" lon="-17.816787">
        <ele>1362.209</ele>
        <time>2025-11-10T16:50:38Z</time>
      </trkpt>
      <trkpt lat="28.596762" lon="-17.816902">
        <ele>1363.823</ele>
        <time>2025-11-10T16:51:30Z</time>
      </trkpt>
      <trkpt lat="28.597824" lon="-17.817627">
        <ele>1367.274</ele>
        <time>2025-11-10T16:52:16Z</time>
      </trkpt>
      <trkpt lat="28.598362" lon="-17.817160">
        <ele>1364.489</ele>
        <time>2025-11-10T16:52:28Z</time>
      </trkpt>
      <trkpt lat="28.599339" lon="-17.817134">
        <ele>1365.079</ele>
        <time>2025-11-10T16:52:47Z</time>
      </trkpt>
      <trkpt lat="28.600621" lon="-17.817744">
        <ele>1367.865</ele>
        <time>2025-11-10T16:53:35Z</time>
      </trkpt>
      <trkpt lat="28.601349" lon="-17.817592">
        <ele>1367.498</ele>
        <time>2025-11-10T16:53:53Z</time>
      </trkpt>
      <trkpt lat="28.602047" lon="-17.818073">
        <ele>1368.018</ele>
        <time>2025-11-10T16:54:34Z</time>
      </trkpt>
      <trkpt lat="28.602719" lon="-17.818935">
        <ele>1369.837</ele>
        <time>2025-11-10T16:55:09Z</time>
      </trkpt>
      <trkpt lat="28.603228" lon="-17.819028">
        <ele>1370.851</ele>
        <time>2025-11-10T16:55:29Z</time>
      </trkpt>
      <trkpt lat="28.603990" lon="-17.818655">
        <ele>1375.432</ele>
        <time>2025-11-10T16:56:06Z</time>
      </trkpt>
      <trkpt lat="28.604155" lon="-17.818265">
        <ele>1375.492</ele>
        <time>2025-11-10T16:56:21Z</time>
      </trkpt>
      <trkpt lat="28.604607" lon="-17.818488">
        <ele>1375.411</ele>
        <time>2025-11-10T16:56:44Z</time>
      </trkpt>
      <trkpt lat="28.605500" lon="-17.817658">
        <ele>1375.809</ele>
        <time>2025-11-10T16:57:24Z</time>
      </trkpt>
      <trkpt lat="28.605489" lon="-17.818339">
        <ele>1372.835</ele>
        <time>2025-11-10T16:57:40Z</time>
      </trkpt>
      <trkpt lat="28.605165" lon="-17.819349">
        <ele>1369.816</ele>
        <time>2025-11-10T16:57:58Z</time>
      </trkpt>
      <trkpt lat="28.605296" lon="-17.820947">
        <ele>1374.211</ele>
        <time>2025-11-10T16:58:53Z</time>
      </trkpt>
      <trkpt lat="28.605461" lon="-17.821130">
        <ele>1375.271</ele>
        <time>2025-11-10T16:59:05Z</time>
      </trkpt>
      <trkpt lat="28.605635" lon="-17.821069">
        <ele>1375.877</ele>
        <time>2025-11-10T16:59:17Z</time>
      </trkpt>
      <trkpt lat="28.606657" lon="-17.819866">
        <ele>1381.450</ele>
        <time>2025-11-10T17:01:04Z</time>
      </trkpt>
      <trkpt lat="28.606812" lon="-17.819926">
        <ele>1380.640</ele>
        <time>2025-11-10T17:01:13Z</time>
      </trkpt>
      <trkpt lat="28.607323" lon="-17.820844">
        <ele>1383.689</ele>
        <time>2025-11-10T17:01:32Z</time>
      </trkpt>
      <trkpt lat="28.607824" lon="-17.823034">
        <ele>1377.823</ele>
        <time>2025-11-10T17:02:20Z</time>
      </trkpt>
      <trkpt lat="28.608102" lon="-17.823449">
        <ele>1377.487</ele>
        <time>2025-11-10T17:02:32Z</time>
      </trkpt>
      <trkpt lat="28.607995" lon="-17.823718">
        <ele>1377.042</ele>
        <time>2025-11-10T17:02:39Z</time>
      </trkpt>
      <trkpt lat="28.607000" lon="-17.824113">
        <ele>1384.226</ele>
        <time>2025-11-10T17:03:38Z</time>
      </trkpt>
      <trkpt lat="28.606881" lon="-17.824482">
        <ele>1388.009</ele>
        <time>2025-11-10T17:04:16Z</time>
      </trkpt>
      <trkpt lat="28.607662" lon="-17.824042">
        <ele>1392.670</ele>
        <time>2025-11-10T17:05:22Z</time>
      </trkpt>
      <trkpt lat="28.608154" lon="-17.824184">
        <ele>1399.611</ele>
        <time>2025-11-10T17:05:52Z</time>
      </trkpt>
      <trkpt lat="28.608430" lon="-17.824116">
        <ele>1402.286</ele>
        <time>2025-11-10T17:06:16Z</time>
      </trkpt>
      <trkpt lat="28.608830" lon="-17.825257">
        <ele>1411.056</ele>
        <time>2025-11-10T17:07:41Z</time>
      </trkpt>
      <trkpt lat="28.609404" lon="-17.825067">
        <ele>1414.662</ele>
        <time>2025-11-10T17:08:28Z</time>
      </trkpt>
      <trkpt lat="28.609869" lon="-17.825163">
        <ele>1416.245</ele>
        <time>2025-11-10T17:09:01Z</time>
      </trkpt>
      <trkpt lat="28.610640" lon="-17.825827">
        <ele>1425.475</ele>
        <time>2025-11-10T17:10:08Z</time>
      </trkpt>
      <trkpt lat="28.610461" lon="-17.826234">
        <ele>1427.634</ele>
        <time>2025-11-10T17:10:40Z</time>
      </trkpt>
      <trkpt lat="28.609483" lon="-17.826814">
        <ele>1438.058</ele>
        <time>2025-11-10T17:12:20Z</time>
      </trkpt>
      <trkpt lat="28.609424" lon="-17.826977">
        <ele>1440.871</ele>
        <time>2025-11-10T17:12:32Z</time>
      </trkpt>
      <trkpt lat="28.609951" lon="-17.828689">
        <ele>1454.641</ele>
        <time>2025-11-10T17:14:13Z</time>
      </trkpt>
      <trkpt lat="28.609671" lon="-17.830055">
        <ele>1461.215</ele>
        <time>2025-11-10T17:15:38Z</time>
      </trkpt>
      <trkpt lat="28.610140" lon="-17.830526">
        <ele>1467.009</ele>
        <time>2025-11-10T17:16:16Z</time>
      </trkpt>
      <trkpt lat="28.610368" lon="-17.831417">
        <ele>1473.879</ele>
        <time>2025-11-10T17:17:16Z</time>
      </trkpt>
      <trkpt lat="28.611311" lon="-17.831957">
        <ele>1480.460</ele>
        <time>2025-11-10T17:18:32Z</time>
      </trkpt>
      <trkpt lat="28.611824" lon="-17.832463">
        <ele>1487.235</ele>
        <time>2025-11-10T17:19:25Z</time>
      </trkpt>
      <trkpt lat="28.612392" lon="-17.833288">
        <ele>1487.425</ele>
        <time>2025-11-10T17:20:20Z</time>
      </trkpt>
      <trkpt lat="28.612779" lon="-17.834419">
        <ele>1488.081</ele>
        <time>2025-11-10T17:20:51Z</time>
      </trkpt>
      <trkpt lat="28.613543" lon="-17.834538">
        <ele>1482.094</ele>
        <time>2025-11-10T17:21:02Z</time>
      </trkpt>
      <trkpt lat="28.614754" lon="-17.834232">
        <ele>1473.034</ele>
        <time>2025-11-10T17:21:29Z</time>
      </trkpt>
    </trkseg>
  </trk></gpx>