<?xml version="1.0" encoding="UTF-8"?>
<gpx creator="Wikiloc - https://www.wikiloc.com" version="1.1" xmlns="http://www.topografix.com/GPX/1/1" xmlns:xsi="http://www.w3.org/2001/XMLSchema-instance" xsi:schemaLocation="http://www.topografix.com/GPX/1/1 http://www.topografix.com/GPX/1/1/gpx.xsd">
  <metadata>
    <name>Wikiloc - Costa Adeje - Playa de Los Cristianos - Playa de San Blas - ...</name>
    <link href="https://www.wikiloc.com/mountain-biking-trails/costa-adeje-playa-de-los-cristianos-playa-de-san-blas-playa-el-horno-el-medano-173385198">
      <text>Costa Adeje - Playa de Los Cristianos - Playa de San Blas - ... on Wikiloc</text>
    </link>
    <time>2024-06-07T15:55:12.004Z</time>
  </metadata>
  <trk>
    <name>Costa Adeje - Playa de Los Cristianos - Playa de San Blas - ... - Wikiloc</name>
    <cmt></cmt>
    <desc></desc>
    <trkseg>
      <trkpt lat="28.076242" lon="-16.729050">
        <ele>54.085</ele>
        <time>2024-06-07T09:37:01.999Z</time>
      </trkpt>
      <trkpt lat="28.075590" lon="-16.729096">
        <ele>55.089</ele>
        <time>2024-06-07T09:37:19Z</time>
      </trkpt>
      <trkpt lat="28.074239" lon="-16.728675">
        <ele>39.217</ele>
        <time>2024-06-07T09:37:45Z</time>
      </trkpt>
      <trkpt lat="28.074120" lon="-16.729240">
        <ele>38.009</ele>
        <time>2024-06-07T09:37:55Z</time>
      </trkpt>
      <trkpt lat="28.074761" lon="-16.731440">
        <ele>34.479</ele>
        <time>2024-06-07T09:38:37Z</time>
      </trkpt>
      <trkpt lat="28.074631" lon="-16.731357">
        <ele>33.015</ele>
        <time>2024-06-07T09:38:39Z</time>
      </trkpt>
      <trkpt lat="28.074151" lon="-16.729717">
        <ele>31.441</ele>
        <time>2024-06-07T09:39:10Z</time>
      </trkpt>
      <trkpt lat="28.073817" lon="-16.729261">
        <ele>29.841</ele>
        <time>2024-06-07T09:39:18Z</time>
      </trkpt>
      <trkpt lat="28.073234" lon="-16.728816">
        <ele>28.316</ele>
        <time>2024-06-07T09:39:28.001Z</time>
      </trkpt>
      <trkpt lat="28.068807" lon="-16.727591">
        <ele>30.663</ele>
        <time>2024-06-07T09:40:50.001Z</time>
      </trkpt>
      <trkpt lat="28.068189" lon="-16.727068">
        <ele>30.319</ele>
        <time>2024-06-07T09:41:10.001Z</time>
      </trkpt>
      <trkpt lat="28.067755" lon="-16.727715">
        <ele>26.077</ele>
        <time>2024-06-07T09:41:28.002Z</time>
      </trkpt>
      <trkpt lat="28.065735" lon="-16.727907">
        <ele>18.186</ele>
        <time>2024-06-07T09:42:14.002Z</time>
      </trkpt>
      <trkpt lat="28.064833" lon="-16.727611">
        <ele>25.652</ele>
        <time>2024-06-07T09:42:44.002Z</time>
      </trkpt>
      <trkpt lat="28.063352" lon="-16.726695">
        <ele>31.753</ele>
        <time>2024-06-07T09:43:30.003Z</time>
      </trkpt>
      <trkpt lat="28.062275" lon="-16.726578">
        <ele>29.908</ele>
        <time>2024-06-07T09:43:57.003Z</time>
      </trkpt>
      <trkpt lat="28.057146" lon="-16.728134">
        <ele>17.909</ele>
        <time>2024-06-07T09:46:26.004Z</time>
      </trkpt>
      <trkpt lat="28.056812" lon="-16.728351">
        <ele>16.986</ele>
        <time>2024-06-07T09:46:36.004Z</time>
      </trkpt>
      <trkpt lat="28.056591" lon="-16.728228">
        <ele>16.452</ele>
        <time>2024-06-07T09:46:42.004Z</time>
      </trkpt>
      <trkpt lat="28.056621" lon="-16.727980">
        <ele>16.698</ele>
        <time>2024-06-07T09:46:47.004Z</time>
      </trkpt>
      <trkpt lat="28.056380" lon="-16.728352">
        <ele>16.338</ele>
        <time>2024-06-07T09:47:01.004Z</time>
      </trkpt>
      <trkpt lat="28.056117" lon="-16.728446">
        <ele>15.943</ele>
        <time>2024-06-07T09:47:10.004Z</time>
      </trkpt>
      <trkpt lat="28.055993" lon="-16.728092">
        <ele>14.320</ele>
        <time>2024-06-07T09:47:18.004Z</time>
      </trkpt>
      <trkpt lat="28.055038" lon="-16.727365">
        <ele>10.466</ele>
        <time>2024-06-07T09:48:01.005Z</time>
      </trkpt>
      <trkpt lat="28.054730" lon="-16.726620">
        <ele>9.054</ele>
        <time>2024-06-07T09:48:22.005Z</time>
      </trkpt>
      <trkpt lat="28.054143" lon="-16.726825">
        <ele>6.763</ele>
        <time>2024-06-07T09:48:58.005Z</time>
      </trkpt>
      <trkpt lat="28.053976" lon="-16.727101">
        <ele>7.048</ele>
        <time>2024-06-07T09:49:06.005Z</time>
      </trkpt>
      <trkpt lat="28.052687" lon="-16.727425">
        <ele>6.561</ele>
        <time>2024-06-07T09:49:50.006Z</time>
      </trkpt>
      <trkpt lat="28.053334" lon="-16.725860">
        <ele>4.317</ele>
        <time>2024-06-07T09:51:27.006Z</time>
      </trkpt>
      <trkpt lat="28.052832" lon="-16.723858">
        <ele>4.609</ele>
        <time>2024-06-07T09:52:51.007Z</time>
      </trkpt>
      <trkpt lat="28.050586" lon="-16.721013">
        <ele>5.725</ele>
        <time>2024-06-07T09:55:36.008Z</time>
      </trkpt>
      <trkpt lat="28.049204" lon="-16.720945">
        <ele>6.091</ele>
        <time>2024-06-07T09:56:24.009Z</time>
      </trkpt>
      <trkpt lat="28.049582" lon="-16.720868">
        <ele>7.387</ele>
        <time>2024-06-07T09:56:41.009Z</time>
      </trkpt>
      <trkpt lat="28.049676" lon="-16.720717">
        <ele>7.587</ele>
        <time>2024-06-07T09:56:50.009Z</time>
      </trkpt>
      <trkpt lat="28.050097" lon="-16.720698">
        <ele>9.892</ele>
        <time>2024-06-07T09:57:07.009Z</time>
      </trkpt>
      <trkpt lat="28.050586" lon="-16.720176">
        <ele>10.359</ele>
        <time>2024-06-07T09:57:36.009Z</time>
      </trkpt>
      <trkpt lat="28.051174" lon="-16.719833">
        <ele>10.455</ele>
        <time>2024-06-07T09:58:03.009Z</time>
      </trkpt>
      <trkpt lat="28.051515" lon="-16.718549">
        <ele>9.913</ele>
        <time>2024-06-07T09:58:57.010Z</time>
      </trkpt>
      <trkpt lat="28.051310" lon="-16.718386">
        <ele>8.292</ele>
        <time>2024-06-07T09:59:14.010Z</time>
      </trkpt>
      <trkpt lat="28.051450" lon="-16.718245">
        <ele>7.616</ele>
        <time>2024-06-07T09:59:31.010Z</time>
      </trkpt>
      <trkpt lat="28.051396" lon="-16.718342">
        <ele>7.676</ele>
        <time>2024-06-07T09:59:44.010Z</time>
      </trkpt>
      <trkpt lat="28.051094" lon="-16.717469">
        <ele>5.713</ele>
        <time>2024-06-07T10:00:26.011Z</time>
      </trkpt>
      <trkpt lat="28.050856" lon="-16.717369">
        <ele>5.709</ele>
        <time>2024-06-07T10:00:36.011Z</time>
      </trkpt>
      <trkpt lat="28.050360" lon="-16.715299">
        <ele>6.292</ele>
        <time>2024-06-07T10:02:02.011Z</time>
      </trkpt>
      <trkpt lat="28.049832" lon="-16.714274">
        <ele>10.648</ele>
        <time>2024-06-07T10:03:03.012Z</time>
      </trkpt>
      <trkpt lat="28.049325" lon="-16.713536">
        <ele>7.764</ele>
        <time>2024-06-07T10:03:46.012Z</time>
      </trkpt>
      <trkpt lat="28.048652" lon="-16.712906">
        <ele>8.764</ele>
        <time>2024-06-07T10:04:25.012Z</time>
      </trkpt>
      <trkpt lat="28.048286" lon="-16.712901">
        <ele>7.559</ele>
        <time>2024-06-07T10:04:43.013Z</time>
      </trkpt>
      <trkpt lat="28.048493" lon="-16.712827">
        <ele>7.796</ele>
        <time>2024-06-07T10:06:17.012Z</time>
      </trkpt>
      <trkpt lat="28.048424" lon="-16.712557">
        <ele>8.662</ele>
        <time>2024-06-07T10:07:13.013Z</time>
      </trkpt>
      <trkpt lat="28.047917" lon="-16.711790">
        <ele>8.670</ele>
        <time>2024-06-07T10:07:55.013Z</time>
      </trkpt>
      <trkpt lat="28.046880" lon="-16.710902">
        <ele>8.459</ele>
        <time>2024-06-07T10:08:46.013Z</time>
      </trkpt>
      <trkpt lat="28.046076" lon="-16.710691">
        <ele>7.946</ele>
        <time>2024-06-07T10:09:12.013Z</time>
      </trkpt>
      <trkpt lat="28.044582" lon="-16.710850">
        <ele>9.388</ele>
        <time>2024-06-07T10:09:58.013Z</time>
      </trkpt>
      <trkpt lat="28.043445" lon="-16.710157">
        <ele>9.016</ele>
        <time>2024-06-07T10:10:57.013Z</time>
      </trkpt>
      <trkpt lat="28.043134" lon="-16.710336">
        <ele>7.509</ele>
        <time>2024-06-07T10:11:08.013Z</time>
      </trkpt>
      <trkpt lat="28.043094" lon="-16.710838">
        <ele>8.055</ele>
        <time>2024-06-07T10:11:24.013Z</time>
      </trkpt>
      <trkpt lat="28.042684" lon="-16.711243">
        <ele>12.641</ele>
        <time>2024-06-07T10:11:47.013Z</time>
      </trkpt>
      <trkpt lat="28.043171" lon="-16.710680">
        <ele>8.587</ele>
        <time>2024-06-07T10:14:13.013Z</time>
      </trkpt>
      <trkpt lat="28.043164" lon="-16.709864">
        <ele>8.097</ele>
        <time>2024-06-07T10:14:42.013Z</time>
      </trkpt>
      <trkpt lat="28.042299" lon="-16.709398">
        <ele>9.622</ele>
        <time>2024-06-07T10:15:26.013Z</time>
      </trkpt>
      <trkpt lat="28.041457" lon="-16.708324">
        <ele>9.939</ele>
        <time>2024-06-07T10:16:34.013Z</time>
      </trkpt>
      <trkpt lat="28.041907" lon="-16.707696">
        <ele>14.335</ele>
        <time>2024-06-07T10:18:03.014Z</time>
      </trkpt>
      <trkpt lat="28.042305" lon="-16.707478">
        <ele>16.093</ele>
        <time>2024-06-07T10:18:46.014Z</time>
      </trkpt>
      <trkpt lat="28.044024" lon="-16.705018">
        <ele>32.942</ele>
        <time>2024-06-07T10:23:03.016Z</time>
      </trkpt>
      <trkpt lat="28.045754" lon="-16.706512">
        <ele>29.057</ele>
        <time>2024-06-07T10:24:38.017Z</time>
      </trkpt>
      <trkpt lat="28.045884" lon="-16.706399">
        <ele>28.800</ele>
        <time>2024-06-07T10:24:52.017Z</time>
      </trkpt>
      <trkpt lat="28.045924" lon="-16.705955">
        <ele>34.920</ele>
        <time>2024-06-07T10:25:09.017Z</time>
      </trkpt>
      <trkpt lat="28.046480" lon="-16.705703">
        <ele>37.309</ele>
        <time>2024-06-07T10:25:37.018Z</time>
      </trkpt>
      <trkpt lat="28.047035" lon="-16.706238">
        <ele>38.466</ele>
        <time>2024-06-07T10:26:05.018Z</time>
      </trkpt>
      <trkpt lat="28.047522" lon="-16.706329">
        <ele>44.072</ele>
        <time>2024-06-07T10:26:29.018Z</time>
      </trkpt>
      <trkpt lat="28.047877" lon="-16.705659">
        <ele>51.468</ele>
        <time>2024-06-07T10:27:05.018Z</time>
      </trkpt>
      <trkpt lat="28.047852" lon="-16.705425">
        <ele>53.818</ele>
        <time>2024-06-07T10:27:19.018Z</time>
      </trkpt>
      <trkpt lat="28.047621" lon="-16.706207">
        <ele>48.033</ele>
        <time>2024-06-07T10:28:26.018Z</time>
      </trkpt>
      <trkpt lat="28.047387" lon="-16.706353">
        <ele>44.680</ele>
        <time>2024-06-07T10:28:36.018Z</time>
      </trkpt>
      <trkpt lat="28.047111" lon="-16.706237">
        <ele>39.536</ele>
        <time>2024-06-07T10:28:46.018Z</time>
      </trkpt>
      <trkpt lat="28.047151" lon="-16.706473">
        <ele>37.024</ele>
        <time>2024-06-07T10:29:00.018Z</time>
      </trkpt>
      <trkpt lat="28.048621" lon="-16.706354">
        <ele>39.633</ele>
        <time>2024-06-07T10:29:50.019Z</time>
      </trkpt>
      <trkpt lat="28.049151" lon="-16.706447">
        <ele>39.533</ele>
        <time>2024-06-07T10:30:06.019Z</time>
      </trkpt>
      <trkpt lat="28.050203" lon="-16.707343">
        <ele>37.123</ele>
        <time>2024-06-07T10:30:44.019Z</time>
      </trkpt>
      <trkpt lat="28.050900" lon="-16.708178">
        <ele>31.315</ele>
        <time>2024-06-07T10:31:06.019Z</time>
      </trkpt>
      <trkpt lat="28.051222" lon="-16.708263">
        <ele>28.909</ele>
        <time>2024-06-07T10:31:13.019Z</time>
      </trkpt>
      <trkpt lat="28.052162" lon="-16.707530">
        <ele>34.544</ele>
        <time>2024-06-07T10:31:53.020Z</time>
      </trkpt>
      <trkpt lat="28.054031" lon="-16.706582">
        <ele>44.390</ele>
        <time>2024-06-07T10:33:00.020Z</time>
      </trkpt>
      <trkpt lat="28.055157" lon="-16.705463">
        <ele>51.616</ele>
        <time>2024-06-07T10:33:58.021Z</time>
      </trkpt>
      <trkpt lat="28.055429" lon="-16.704972">
        <ele>56.426</ele>
        <time>2024-06-07T10:34:18.021Z</time>
      </trkpt>
      <trkpt lat="28.055955" lon="-16.703240">
        <ele>75.071</ele>
        <time>2024-06-07T10:35:31.021Z</time>
      </trkpt>
      <trkpt lat="28.056794" lon="-16.701926">
        <ele>94.028</ele>
        <time>2024-06-07T10:36:42.022Z</time>
      </trkpt>
      <trkpt lat="28.056816" lon="-16.701771">
        <ele>95.764</ele>
        <time>2024-06-07T10:37:09.022Z</time>
      </trkpt>
      <trkpt lat="28.056570" lon="-16.701569">
        <ele>97.522</ele>
        <time>2024-06-07T10:38:22.022Z</time>
      </trkpt>
      <trkpt lat="28.057152" lon="-16.700863">
        <ele>105.421</ele>
        <time>2024-06-07T10:39:01.022Z</time>
      </trkpt>
      <trkpt lat="28.057538" lon="-16.699727">
        <ele>118.155</ele>
        <time>2024-06-07T10:40:33.023Z</time>
      </trkpt>
      <trkpt lat="28.058101" lon="-16.699003">
        <ele>124.207</ele>
        <time>2024-06-07T10:41:06.023Z</time>
      </trkpt>
      <trkpt lat="28.058713" lon="-16.698772">
        <ele>123.317</ele>
        <time>2024-06-07T10:42:11.023Z</time>
      </trkpt>
      <trkpt lat="28.058692" lon="-16.698168">
        <ele>125.009</ele>
        <time>2024-06-07T10:42:35.023Z</time>
      </trkpt>
      <trkpt lat="28.058649" lon="-16.698764">
        <ele>124.286</ele>
        <time>2024-06-07T10:43:52.023Z</time>
      </trkpt>
      <trkpt lat="28.058286" lon="-16.698240">
        <ele>129.122</ele>
        <time>2024-06-07T10:44:24.024Z</time>
      </trkpt>
      <trkpt lat="28.057911" lon="-16.698257">
        <ele>134.078</ele>
        <time>2024-06-07T10:44:45.024Z</time>
      </trkpt>
      <trkpt lat="28.057046" lon="-16.699250">
        <ele>141.048</ele>
        <time>2024-06-07T10:45:45.024Z</time>
      </trkpt>
      <trkpt lat="28.057808" lon="-16.698331">
        <ele>139.423</ele>
        <time>2024-06-07T10:46:43.025Z</time>
      </trkpt>
      <trkpt lat="28.058533" lon="-16.698135">
        <ele>131.440</ele>
        <time>2024-06-07T10:47:27.025Z</time>
      </trkpt>
      <trkpt lat="28.058475" lon="-16.696605">
        <ele>137.756</ele>
        <time>2024-06-07T10:48:26.025Z</time>
      </trkpt>
      <trkpt lat="28.058625" lon="-16.696318">
        <ele>138.434</ele>
        <time>2024-06-07T10:49:48.026Z</time>
      </trkpt>
      <trkpt lat="28.058650" lon="-16.694601">
        <ele>146.583</ele>
        <time>2024-06-07T10:51:48.027Z</time>
      </trkpt>
      <trkpt lat="28.058982" lon="-16.692273">
        <ele>160.819</ele>
        <time>2024-06-07T10:53:13.028Z</time>
      </trkpt>
      <trkpt lat="28.058817" lon="-16.691673">
        <ele>165.109</ele>
        <time>2024-06-07T10:53:39.028Z</time>
      </trkpt>
      <trkpt lat="28.058163" lon="-16.691008">
        <ele>170.819</ele>
        <time>2024-06-07T10:54:18.028Z</time>
      </trkpt>
      <trkpt lat="28.057921" lon="-16.690464">
        <ele>172.009</ele>
        <time>2024-06-07T10:54:39.028Z</time>
      </trkpt>
      <trkpt lat="28.057905" lon="-16.687266">
        <ele>153.662</ele>
        <time>2024-06-07T10:55:23.029Z</time>
      </trkpt>
      <trkpt lat="28.053424" lon="-16.679698">
        <ele>113.468</ele>
        <time>2024-06-07T11:01:01.028Z</time>
      </trkpt>
      <trkpt lat="28.052679" lon="-16.679122">
        <ele>109.194</ele>
        <time>2024-06-07T11:01:18.029Z</time>
      </trkpt>
      <trkpt lat="28.052182" lon="-16.678949">
        <ele>109.464</ele>
        <time>2024-06-07T11:01:30.029Z</time>
      </trkpt>
      <trkpt lat="28.049196" lon="-16.679287">
        <ele>105.979</ele>
        <time>2024-06-07T11:02:35.029Z</time>
      </trkpt>
      <trkpt lat="28.046640" lon="-16.680109">
        <ele>97.656</ele>
        <time>2024-06-07T11:03:11.029Z</time>
      </trkpt>
      <trkpt lat="28.045302" lon="-16.679891">
        <ele>94.212</ele>
        <time>2024-06-07T11:03:29.030Z</time>
      </trkpt>
      <trkpt lat="28.045033" lon="-16.679606">
        <ele>93.440</ele>
        <time>2024-06-07T11:03:36.030Z</time>
      </trkpt>
      <trkpt lat="28.044741" lon="-16.679528">
        <ele>92.779</ele>
        <time>2024-06-07T11:03:42.030Z</time>
      </trkpt>
      <trkpt lat="28.041149" lon="-16.680369">
        <ele>81.691</ele>
        <time>2024-06-07T11:04:45.030Z</time>
      </trkpt>
      <trkpt lat="28.039810" lon="-16.680281">
        <ele>78.581</ele>
        <time>2024-06-07T11:05:05.030Z</time>
      </trkpt>
      <trkpt lat="28.036889" lon="-16.679605">
        <ele>71.419</ele>
        <time>2024-06-07T11:05:44.031Z</time>
      </trkpt>
      <trkpt lat="28.035843" lon="-16.679755">
        <ele>69.109</ele>
        <time>2024-06-07T11:05:57.031Z</time>
      </trkpt>
      <trkpt lat="28.034935" lon="-16.680190">
        <ele>66.510</ele>
        <time>2024-06-07T11:06:10.031Z</time>
      </trkpt>
      <trkpt lat="28.032949" lon="-16.681852">
        <ele>63.356</ele>
        <time>2024-06-07T11:06:52.031Z</time>
      </trkpt>
      <trkpt lat="28.032654" lon="-16.682393">
        <ele>62.212</ele>
        <time>2024-06-07T11:07:03.031Z</time>
      </trkpt>
      <trkpt lat="28.032414" lon="-16.684147">
        <ele>63.812</ele>
        <time>2024-06-07T11:07:39.032Z</time>
      </trkpt>
      <trkpt lat="28.031460" lon="-16.685490">
        <ele>65.947</ele>
        <time>2024-06-07T11:08:17.032Z</time>
      </trkpt>
      <trkpt lat="28.030507" lon="-16.686052">
        <ele>63.824</ele>
        <time>2024-06-07T11:08:52.032Z</time>
      </trkpt>
      <trkpt lat="28.027817" lon="-16.687166">
        <ele>53.510</ele>
        <time>2024-06-07T11:10:36.033Z</time>
      </trkpt>
      <trkpt lat="28.026633" lon="-16.687980">
        <ele>51.198</ele>
        <time>2024-06-07T11:11:21.033Z</time>
      </trkpt>
      <trkpt lat="28.026040" lon="-16.689739">
        <ele>52.757</ele>
        <time>2024-06-07T11:12:13.034Z</time>
      </trkpt>
      <trkpt lat="28.025134" lon="-16.690388">
        <ele>50.564</ele>
        <time>2024-06-07T11:14:02.035Z</time>
      </trkpt>
      <trkpt lat="28.024894" lon="-16.690260">
        <ele>51.106</ele>
        <time>2024-06-07T11:14:53.035Z</time>
      </trkpt>
      <trkpt lat="28.024984" lon="-16.690267">
        <ele>50.916</ele>
        <time>2024-06-07T11:14:59.035Z</time>
      </trkpt>
      <trkpt lat="28.024886" lon="-16.690983">
        <ele>49.809</ele>
        <time>2024-06-07T11:15:49.036Z</time>
      </trkpt>
      <trkpt lat="28.025031" lon="-16.690611">
        <ele>50.547</ele>
        <time>2024-06-07T11:16:56.036Z</time>
      </trkpt>
      <trkpt lat="28.024969" lon="-16.690278">
        <ele>51.093</ele>
        <time>2024-06-07T11:17:11.036Z</time>
      </trkpt>
      <trkpt lat="28.024742" lon="-16.690686">
        <ele>51.549</ele>
        <time>2024-06-07T11:17:29.036Z</time>
      </trkpt>
      <trkpt lat="28.024572" lon="-16.690597">
        <ele>52.989</ele>
        <time>2024-06-07T11:17:38.036Z</time>
      </trkpt>
      <trkpt lat="28.023919" lon="-16.691084">
        <ele>59.734</ele>
        <time>2024-06-07T11:18:14.037Z</time>
      </trkpt>
      <trkpt lat="28.023196" lon="-16.691137">
        <ele>59.541</ele>
        <time>2024-06-07T11:18:40.037Z</time>
      </trkpt>
      <trkpt lat="28.020901" lon="-16.691910">
        <ele>55.947</ele>
        <time>2024-06-07T11:19:45.037Z</time>
      </trkpt>
      <trkpt lat="28.019762" lon="-16.692446">
        <ele>57.775</ele>
        <time>2024-06-07T11:20:29.038Z</time>
      </trkpt>
      <trkpt lat="28.018267" lon="-16.692844">
        <ele>50.734</ele>
        <time>2024-06-07T11:31:43.039Z</time>
      </trkpt>
      <trkpt lat="28.018218" lon="-16.695048">
        <ele>47.132</ele>
        <time>2024-06-07T11:32:40.040Z</time>
      </trkpt>
      <trkpt lat="28.017879" lon="-16.695345">
        <ele>46.292</ele>
        <time>2024-06-07T11:32:57.040Z</time>
      </trkpt>
      <trkpt lat="28.018406" lon="-16.696031">
        <ele>45.111</ele>
        <time>2024-06-07T11:33:23.040Z</time>
      </trkpt>
      <trkpt lat="28.018821" lon="-16.696313">
        <ele>45.209</ele>
        <time>2024-06-07T11:33:39.040Z</time>
      </trkpt>
      <trkpt lat="28.018978" lon="-16.696803">
        <ele>45.734</ele>
        <time>2024-06-07T11:33:55.040Z</time>
      </trkpt>
      <trkpt lat="28.018829" lon="-16.697354">
        <ele>45.270</ele>
        <time>2024-06-07T11:34:13.040Z</time>
      </trkpt>
      <trkpt lat="28.018511" lon="-16.697407">
        <ele>44.356</ele>
        <time>2024-06-07T11:34:24.040Z</time>
      </trkpt>
      <trkpt lat="28.018223" lon="-16.697720">
        <ele>40.566</ele>
        <time>2024-06-07T11:34:42.041Z</time>
      </trkpt>
      <trkpt lat="28.018138" lon="-16.698271">
        <ele>35.861</ele>
        <time>2024-06-07T11:35:00.041Z</time>
      </trkpt>
      <trkpt lat="28.018380" lon="-16.698477">
        <ele>34.398</ele>
        <time>2024-06-07T11:35:12.041Z</time>
      </trkpt>
      <trkpt lat="28.018358" lon="-16.699234">
        <ele>30.594</ele>
        <time>2024-06-07T11:36:10.041Z</time>
      </trkpt>
      <trkpt lat="28.017919" lon="-16.700457">
        <ele>28.382</ele>
        <time>2024-06-07T11:37:17.042Z</time>
      </trkpt>
      <trkpt lat="28.017771" lon="-16.701332">
        <ele>26.581</ele>
        <time>2024-06-07T11:37:43.042Z</time>
      </trkpt>
      <trkpt lat="28.017473" lon="-16.701526">
        <ele>26.486</ele>
        <time>2024-06-07T11:37:55.042Z</time>
      </trkpt>
      <trkpt lat="28.017585" lon="-16.701689">
        <ele>26.560</ele>
        <time>2024-06-07T11:38:06.042Z</time>
      </trkpt>
      <trkpt lat="28.017440" lon="-16.701552">
        <ele>26.126</ele>
        <time>2024-06-07T11:38:42.042Z</time>
      </trkpt>
      <trkpt lat="28.016971" lon="-16.701656">
        <ele>25.109</ele>
        <time>2024-06-07T11:39:00.043Z</time>
      </trkpt>
      <trkpt lat="28.016713" lon="-16.702077">
        <ele>24.739</ele>
        <time>2024-06-07T11:39:42.043Z</time>
      </trkpt>
      <trkpt lat="28.016695" lon="-16.704106">
        <ele>21.055</ele>
        <time>2024-06-07T11:40:48.043Z</time>
      </trkpt>
      <trkpt lat="28.015938" lon="-16.704168">
        <ele>15.821</ele>
        <time>2024-06-07T11:41:13.043Z</time>
      </trkpt>
      <trkpt lat="28.015389" lon="-16.704628">
        <ele>15.151</ele>
        <time>2024-06-07T11:42:24.043Z</time>
      </trkpt>
      <trkpt lat="28.015246" lon="-16.706112">
        <ele>10.556</ele>
        <time>2024-06-07T11:44:55.044Z</time>
      </trkpt>
      <trkpt lat="28.015072" lon="-16.706570">
        <ele>7.383</ele>
        <time>2024-06-07T11:45:55.045Z</time>
      </trkpt>
      <trkpt lat="28.015352" lon="-16.704756">
        <ele>9.739</ele>
        <time>2024-06-07T11:56:47.047Z</time>
      </trkpt>
      <trkpt lat="28.015615" lon="-16.704491">
        <ele>12.987</ele>
        <time>2024-06-07T11:57:09.047Z</time>
      </trkpt>
      <trkpt lat="28.015647" lon="-16.703871">
        <ele>13.536</ele>
        <time>2024-06-07T11:57:38.047Z</time>
      </trkpt>
      <trkpt lat="28.014693" lon="-16.703685">
        <ele>13.648</ele>
        <time>2024-06-07T11:58:16.048Z</time>
      </trkpt>
      <trkpt lat="28.014464" lon="-16.703417">
        <ele>13.461</ele>
        <time>2024-06-07T11:58:28.048Z</time>
      </trkpt>
      <trkpt lat="28.014516" lon="-16.703157">
        <ele>14.117</ele>
        <time>2024-06-07T11:58:38.048Z</time>
      </trkpt>
      <trkpt lat="28.013003" lon="-16.702425">
        <ele>14.509</ele>
        <time>2024-06-07T11:59:44.048Z</time>
      </trkpt>
      <trkpt lat="28.012616" lon="-16.702050">
        <ele>15.565</ele>
        <time>2024-06-07T12:00:08.049Z</time>
      </trkpt>
      <trkpt lat="28.012569" lon="-16.700894">
        <ele>19.591</ele>
        <time>2024-06-07T12:00:56.049Z</time>
      </trkpt>
      <trkpt lat="28.012044" lon="-16.700559">
        <ele>18.977</ele>
        <time>2024-06-07T12:01:17.049Z</time>
      </trkpt>
      <trkpt lat="28.012030" lon="-16.700006">
        <ele>20.097</ele>
        <time>2024-06-07T12:01:37.049Z</time>
      </trkpt>
      <trkpt lat="28.011458" lon="-16.699294">
        <ele>21.152</ele>
        <time>2024-06-07T12:02:05.050Z</time>
      </trkpt>
      <trkpt lat="28.010824" lon="-16.698819">
        <ele>20.649</ele>
        <time>2024-06-07T12:02:33.050Z</time>
      </trkpt>
      <trkpt lat="28.011238" lon="-16.699196">
        <ele>21.015</ele>
        <time>2024-06-07T12:03:19.050Z</time>
      </trkpt>
      <trkpt lat="28.010890" lon="-16.699621">
        <ele>20.783</ele>
        <time>2024-06-07T12:03:41.050Z</time>
      </trkpt>
      <trkpt lat="28.009785" lon="-16.700229">
        <ele>17.532</ele>
        <time>2024-06-07T12:04:21.051Z</time>
      </trkpt>
      <trkpt lat="28.009430" lon="-16.700840">
        <ele>17.557</ele>
        <time>2024-06-07T12:04:43.051Z</time>
      </trkpt>
      <trkpt lat="28.009138" lon="-16.700883">
        <ele>16.500</ele>
        <time>2024-06-07T12:04:55.051Z</time>
      </trkpt>
      <trkpt lat="28.008988" lon="-16.700757">
        <ele>15.320</ele>
        <time>2024-06-07T12:05:01.051Z</time>
      </trkpt>
      <trkpt lat="28.008309" lon="-16.700896">
        <ele>15.109</ele>
        <time>2024-06-07T12:05:28.051Z</time>
      </trkpt>
      <trkpt lat="28.008237" lon="-16.701354">
        <ele>14.896</ele>
        <time>2024-06-07T12:05:42.051Z</time>
      </trkpt>
      <trkpt lat="28.007814" lon="-16.701885">
        <ele>14.062</ele>
        <time>2024-06-07T12:06:02.051Z</time>
      </trkpt>
      <trkpt lat="28.007572" lon="-16.702597">
        <ele>13.198</ele>
        <time>2024-06-07T12:06:22.052Z</time>
      </trkpt>
      <trkpt lat="28.007834" lon="-16.703022">
        <ele>13.478</ele>
        <time>2024-06-07T12:06:42.052Z</time>
      </trkpt>
      <trkpt lat="28.009053" lon="-16.702822">
        <ele>12.923</ele>
        <time>2024-06-07T12:07:31.052Z</time>
      </trkpt>
      <trkpt lat="28.007829" lon="-16.703011">
        <ele>12.940</ele>
        <time>2024-06-07T12:08:16.052Z</time>
      </trkpt>
      <trkpt lat="28.007590" lon="-16.702700">
        <ele>13.356</ele>
        <time>2024-06-07T12:08:28.053Z</time>
      </trkpt>
      <trkpt lat="28.007846" lon="-16.701828">
        <ele>12.774</ele>
        <time>2024-06-07T12:08:48.053Z</time>
      </trkpt>
      <trkpt lat="28.008244" lon="-16.701344">
        <ele>13.863</ele>
        <time>2024-06-07T12:09:04.053Z</time>
      </trkpt>
      <trkpt lat="28.008442" lon="-16.700429">
        <ele>15.111</ele>
        <time>2024-06-07T12:09:30.053Z</time>
      </trkpt>
      <trkpt lat="28.008174" lon="-16.699435">
        <ele>16.521</ele>
        <time>2024-06-07T12:09:58.053Z</time>
      </trkpt>
      <trkpt lat="28.006524" lon="-16.699440">
        <ele>17.103</ele>
        <time>2024-06-07T12:11:34.054Z</time>
      </trkpt>
      <trkpt lat="28.006073" lon="-16.698504">
        <ele>17.809</ele>
        <time>2024-06-07T12:12:04.054Z</time>
      </trkpt>
      <trkpt lat="28.005846" lon="-16.697397">
        <ele>18.612</ele>
        <time>2024-06-07T12:12:40.054Z</time>
      </trkpt>
      <trkpt lat="28.005401" lon="-16.697149">
        <ele>19.198</ele>
        <time>2024-06-07T12:12:56.054Z</time>
      </trkpt>
      <trkpt lat="28.004463" lon="-16.695957">
        <ele>19.614</ele>
        <time>2024-06-07T12:14:40.054Z</time>
      </trkpt>
      <trkpt lat="28.003906" lon="-16.695625">
        <ele>20.074</ele>
        <time>2024-06-07T12:15:00.054Z</time>
      </trkpt>
      <trkpt lat="28.003751" lon="-16.694865">
        <ele>19.899</ele>
        <time>2024-06-07T12:15:20.054Z</time>
      </trkpt>
      <trkpt lat="28.003350" lon="-16.694201">
        <ele>20.586</ele>
        <time>2024-06-07T12:15:49.054Z</time>
      </trkpt>
      <trkpt lat="28.002299" lon="-16.693946">
        <ele>21.882</ele>
        <time>2024-06-07T12:16:30.054Z</time>
      </trkpt>
      <trkpt lat="28.001608" lon="-16.693934">
        <ele>21.620</ele>
        <time>2024-06-07T12:16:50.054Z</time>
      </trkpt>
      <trkpt lat="28.001078" lon="-16.694643">
        <ele>21.469</ele>
        <time>2024-06-07T12:17:24.054Z</time>
      </trkpt>
      <trkpt lat="28.001257" lon="-16.694672">
        <ele>18.014</ele>
        <time>2024-06-07T12:17:41.054Z</time>
      </trkpt>
      <trkpt lat="28.001302" lon="-16.695434">
        <ele>8.654</ele>
        <time>2024-06-07T12:18:49.054Z</time>
      </trkpt>
      <trkpt lat="28.001353" lon="-16.694980">
        <ele>10.609</ele>
        <time>2024-06-07T12:19:37.054Z</time>
      </trkpt>
      <trkpt lat="28.001730" lon="-16.695050">
        <ele>9.409</ele>
        <time>2024-06-07T12:20:38.054Z</time>
      </trkpt>
      <trkpt lat="28.001659" lon="-16.695388">
        <ele>8.072</ele>
        <time>2024-06-07T12:21:10.054Z</time>
      </trkpt>
      <trkpt lat="28.001555" lon="-16.695129">
        <ele>6.458</ele>
        <time>2024-06-07T12:23:43.054Z</time>
      </trkpt>
      <trkpt lat="28.001676" lon="-16.694963">
        <ele>7.414</ele>
        <time>2024-06-07T12:24:00.054Z</time>
      </trkpt>
      <trkpt lat="28.001271" lon="-16.695039">
        <ele>9.414</ele>
        <time>2024-06-07T12:25:58.054Z</time>
      </trkpt>
      <trkpt lat="28.001263" lon="-16.694613">
        <ele>15.039</ele>
        <time>2024-06-07T12:26:32.054Z</time>
      </trkpt>
      <trkpt lat="28.001064" lon="-16.694672">
        <ele>18.316</ele>
        <time>2024-06-07T12:26:46.054Z</time>
      </trkpt>
      <trkpt lat="28.002396" lon="-16.693023">
        <ele>25.362</ele>
        <time>2024-06-07T12:28:05.054Z</time>
      </trkpt>
      <trkpt lat="28.003089" lon="-16.690336">
        <ele>28.870</ele>
        <time>2024-06-07T12:32:42.054Z</time>
      </trkpt>
      <trkpt lat="28.002913" lon="-16.689537">
        <ele>26.989</ele>
        <time>2024-06-07T12:33:10.054Z</time>
      </trkpt>
      <trkpt lat="28.002315" lon="-16.688883">
        <ele>22.319</ele>
        <time>2024-06-07T12:33:33.054Z</time>
      </trkpt>
      <trkpt lat="28.001681" lon="-16.688571">
        <ele>20.809</ele>
        <time>2024-06-07T12:33:51.054Z</time>
      </trkpt>
      <trkpt lat="28.001402" lon="-16.687951">
        <ele>20.219</ele>
        <time>2024-06-07T12:34:09.054Z</time>
      </trkpt>
      <trkpt lat="28.000802" lon="-16.687648">
        <ele>20.109</ele>
        <time>2024-06-07T12:34:27.054Z</time>
      </trkpt>
      <trkpt lat="27.999240" lon="-16.687929">
        <ele>21.922</ele>
        <time>2024-06-07T12:35:27.054Z</time>
      </trkpt>
      <trkpt lat="27.999070" lon="-16.686386">
        <ele>17.158</ele>
        <time>2024-06-07T12:36:52.054Z</time>
      </trkpt>
      <trkpt lat="27.998830" lon="-16.685753">
        <ele>18.654</ele>
        <time>2024-06-07T12:37:26.054Z</time>
      </trkpt>
      <trkpt lat="27.999048" lon="-16.684141">
        <ele>15.794</ele>
        <time>2024-06-07T12:39:45.054Z</time>
      </trkpt>
      <trkpt lat="27.998921" lon="-16.683049">
        <ele>14.819</ele>
        <time>2024-06-07T12:40:10.053Z</time>
      </trkpt>
      <trkpt lat="27.999072" lon="-16.682162">
        <ele>13.666</ele>
        <time>2024-06-07T12:40:26.053Z</time>
      </trkpt>
      <trkpt lat="27.998863" lon="-16.680123">
        <ele>13.492</ele>
        <time>2024-06-07T12:41:08.053Z</time>
      </trkpt>
      <trkpt lat="27.998640" lon="-16.679240">
        <ele>9.630</ele>
        <time>2024-06-07T12:41:28.053Z</time>
      </trkpt>
      <trkpt lat="27.998658" lon="-16.678547">
        <ele>9.379</ele>
        <time>2024-06-07T12:41:50.053Z</time>
      </trkpt>
      <trkpt lat="27.998831" lon="-16.678041">
        <ele>9.621</ele>
        <time>2024-06-07T12:42:06.052Z</time>
      </trkpt>
      <trkpt lat="27.999540" lon="-16.677361">
        <ele>12.241</ele>
        <time>2024-06-07T12:42:46.052Z</time>
      </trkpt>
      <trkpt lat="27.999759" lon="-16.677369">
        <ele>12.605</ele>
        <time>2024-06-07T12:42:58.052Z</time>
      </trkpt>
      <trkpt lat="28.000140" lon="-16.676572">
        <ele>16.109</ele>
        <time>2024-06-07T12:43:29.052Z</time>
      </trkpt>
      <trkpt lat="28.001001" lon="-16.676306">
        <ele>18.883</ele>
        <time>2024-06-07T12:44:08.051Z</time>
      </trkpt>
      <trkpt lat="28.000824" lon="-16.675909">
        <ele>15.379</ele>
        <time>2024-06-07T12:44:23.051Z</time>
      </trkpt>
      <trkpt lat="28.000955" lon="-16.675209">
        <ele>13.775</ele>
        <time>2024-06-07T12:45:08.051Z</time>
      </trkpt>
      <trkpt lat="28.001383" lon="-16.674824">
        <ele>12.625</ele>
        <time>2024-06-07T12:45:33.051Z</time>
      </trkpt>
      <trkpt lat="28.002932" lon="-16.673910">
        <ele>12.850</ele>
        <time>2024-06-07T12:46:59.051Z</time>
      </trkpt>
      <trkpt lat="28.003313" lon="-16.673301">
        <ele>19.167</ele>
        <time>2024-06-07T12:49:14.051Z</time>
      </trkpt>
      <trkpt lat="28.004827" lon="-16.672265">
        <ele>15.243</ele>
        <time>2024-06-07T12:52:19.051Z</time>
      </trkpt>
      <trkpt lat="28.005069" lon="-16.672525">
        <ele>12.561</ele>
        <time>2024-06-07T12:53:02.051Z</time>
      </trkpt>
      <trkpt lat="28.005311" lon="-16.672527">
        <ele>12.570</ele>
        <time>2024-06-07T12:53:23.051Z</time>
      </trkpt>
      <trkpt lat="28.005375" lon="-16.672014">
        <ele>12.598</ele>
        <time>2024-06-07T12:53:47.051Z</time>
      </trkpt>
      <trkpt lat="28.005239" lon="-16.671701">
        <ele>10.315</ele>
        <time>2024-06-07T12:53:58.051Z</time>
      </trkpt>
      <trkpt lat="28.005110" lon="-16.671961">
        <ele>9.626</ele>
        <time>2024-06-07T12:54:17.051Z</time>
      </trkpt>
      <trkpt lat="28.005230" lon="-16.671707">
        <ele>9.609</ele>
        <time>2024-06-07T12:54:39.050Z</time>
      </trkpt>
      <trkpt lat="28.005182" lon="-16.671174">
        <ele>9.540</ele>
        <time>2024-06-07T12:55:04.050Z</time>
      </trkpt>
      <trkpt lat="28.005551" lon="-16.671718">
        <ele>11.886</ele>
        <time>2024-06-07T12:57:32.050Z</time>
      </trkpt>
      <trkpt lat="28.005890" lon="-16.671955">
        <ele>16.372</ele>
        <time>2024-06-07T12:58:05.050Z</time>
      </trkpt>
      <trkpt lat="28.006065" lon="-16.670783">
        <ele>18.092</ele>
        <time>2024-06-07T12:58:50.050Z</time>
      </trkpt>
      <trkpt lat="28.006464" lon="-16.670386">
        <ele>19.267</ele>
        <time>2024-06-07T12:59:09.050Z</time>
      </trkpt>
      <trkpt lat="28.006730" lon="-16.669557">
        <ele>17.964</ele>
        <time>2024-06-07T12:59:29.050Z</time>
      </trkpt>
      <trkpt lat="28.006529" lon="-16.669367">
        <ele>18.010</ele>
        <time>2024-06-07T12:59:37.050Z</time>
      </trkpt>
      <trkpt lat="28.006490" lon="-16.669071">
        <ele>18.068</ele>
        <time>2024-06-07T12:59:45.050Z</time>
      </trkpt>
      <trkpt lat="28.006192" lon="-16.668951">
        <ele>18.237</ele>
        <time>2024-06-07T12:59:53.050Z</time>
      </trkpt>
      <trkpt lat="28.006066" lon="-16.668716">
        <ele>18.037</ele>
        <time>2024-06-07T12:59:59.050Z</time>
      </trkpt>
      <trkpt lat="28.005967" lon="-16.667760">
        <ele>18.149</ele>
        <time>2024-06-07T13:00:21.050Z</time>
      </trkpt>
      <trkpt lat="28.006156" lon="-16.667533">
        <ele>18.113</ele>
        <time>2024-06-07T13:00:29.050Z</time>
      </trkpt>
      <trkpt lat="28.006551" lon="-16.667516">
        <ele>13.009</ele>
        <time>2024-06-07T13:00:53.050Z</time>
      </trkpt>
      <trkpt lat="28.007162" lon="-16.667187">
        <ele>11.194</ele>
        <time>2024-06-07T13:01:23.050Z</time>
      </trkpt>
      <trkpt lat="28.007209" lon="-16.666855">
        <ele>8.370</ele>
        <time>2024-06-07T13:01:32.050Z</time>
      </trkpt>
      <trkpt lat="28.007641" lon="-16.666253">
        <ele>5.716</ele>
        <time>2024-06-07T13:01:50.050Z</time>
      </trkpt>
      <trkpt lat="28.008097" lon="-16.666088">
        <ele>7.376</ele>
        <time>2024-06-07T13:03:19.050Z</time>
      </trkpt>
      <trkpt lat="28.008379" lon="-16.665776">
        <ele>8.521</ele>
        <time>2024-06-07T13:03:36.050Z</time>
      </trkpt>
      <trkpt lat="28.008424" lon="-16.665419">
        <ele>9.228</ele>
        <time>2024-06-07T13:03:50.050Z</time>
      </trkpt>
      <trkpt lat="28.008820" lon="-16.664791">
        <ele>8.354</ele>
        <time>2024-06-07T13:04:28.050Z</time>
      </trkpt>
      <trkpt lat="28.008682" lon="-16.664847">
        <ele>8.342</ele>
        <time>2024-06-07T13:04:49.050Z</time>
      </trkpt>
      <trkpt lat="28.008906" lon="-16.664618">
        <ele>8.111</ele>
        <time>2024-06-07T13:55:38.050Z</time>
      </trkpt>
      <trkpt lat="28.008989" lon="-16.663978">
        <ele>7.784</ele>
        <time>2024-06-07T13:56:05.050Z</time>
      </trkpt>
      <trkpt lat="28.008808" lon="-16.663168">
        <ele>6.507</ele>
        <time>2024-06-07T13:56:28.050Z</time>
      </trkpt>
      <trkpt lat="28.008992" lon="-16.662619">
        <ele>12.317</ele>
        <time>2024-06-07T13:56:54.050Z</time>
      </trkpt>
      <trkpt lat="28.008953" lon="-16.662234">
        <ele>10.909</ele>
        <time>2024-06-07T13:57:06.050Z</time>
      </trkpt>
      <trkpt lat="28.009377" lon="-16.662190">
        <ele>8.879</ele>
        <time>2024-06-07T13:57:24.050Z</time>
      </trkpt>
      <trkpt lat="28.008627" lon="-16.658975">
        <ele>8.015</ele>
        <time>2024-06-07T13:59:05.050Z</time>
      </trkpt>
      <trkpt lat="28.007738" lon="-16.657937">
        <ele>6.061</ele>
        <time>2024-06-07T13:59:41.049Z</time>
      </trkpt>
      <trkpt lat="28.007130" lon="-16.656935">
        <ele>9.381</ele>
        <time>2024-06-07T14:16:51.049Z</time>
      </trkpt>
      <trkpt lat="28.006776" lon="-16.657085">
        <ele>8.416</ele>
        <time>2024-06-07T14:17:08.049Z</time>
      </trkpt>
      <trkpt lat="28.006602" lon="-16.656835">
        <ele>9.583</ele>
        <time>2024-06-07T14:17:23.049Z</time>
      </trkpt>
      <trkpt lat="28.006690" lon="-16.656635">
        <ele>9.769</ele>
        <time>2024-06-07T14:17:35.049Z</time>
      </trkpt>
      <trkpt lat="28.006339" lon="-16.656094">
        <ele>10.227</ele>
        <time>2024-06-07T14:18:00.049Z</time>
      </trkpt>
      <trkpt lat="28.006299" lon="-16.655625">
        <ele>9.466</ele>
        <time>2024-06-07T14:18:18.049Z</time>
      </trkpt>
      <trkpt lat="28.006611" lon="-16.654125">
        <ele>10.136</ele>
        <time>2024-06-07T14:19:12.050Z</time>
      </trkpt>
      <trkpt lat="28.009939" lon="-16.653440">
        <ele>15.317</ele>
        <time>2024-06-07T14:21:35.050Z</time>
      </trkpt>
      <trkpt lat="28.010351" lon="-16.653244">
        <ele>16.218</ele>
        <time>2024-06-07T14:21:56.050Z</time>
      </trkpt>
      <trkpt lat="28.010702" lon="-16.653306">
        <ele>15.709</ele>
        <time>2024-06-07T14:22:12.050Z</time>
      </trkpt>
      <trkpt lat="28.012778" lon="-16.652924">
        <ele>20.534</ele>
        <time>2024-06-07T14:23:20.050Z</time>
      </trkpt>
      <trkpt lat="28.013112" lon="-16.652717">
        <ele>22.540</ele>
        <time>2024-06-07T14:23:34.050Z</time>
      </trkpt>
      <trkpt lat="28.013547" lon="-16.652768">
        <ele>22.156</ele>
        <time>2024-06-07T14:23:51.050Z</time>
      </trkpt>
      <trkpt lat="28.015961" lon="-16.652360">
        <ele>30.626</ele>
        <time>2024-06-07T14:25:32.050Z</time>
      </trkpt>
      <trkpt lat="28.016031" lon="-16.652092">
        <ele>32.781</ele>
        <time>2024-06-07T14:25:43.050Z</time>
      </trkpt>
      <trkpt lat="28.015769" lon="-16.649993">
        <ele>34.388</ele>
        <time>2024-06-07T14:26:39.050Z</time>
      </trkpt>
      <trkpt lat="28.016379" lon="-16.649707">
        <ele>34.844</ele>
        <time>2024-06-07T14:27:01.050Z</time>
      </trkpt>
      <trkpt lat="28.016242" lon="-16.648695">
        <ele>34.152</ele>
        <time>2024-06-07T14:27:21.050Z</time>
      </trkpt>
      <trkpt lat="28.016346" lon="-16.648240">
        <ele>30.331</ele>
        <time>2024-06-07T14:27:38.050Z</time>
      </trkpt>
      <trkpt lat="28.016148" lon="-16.647929">
        <ele>28.196</ele>
        <time>2024-06-07T14:28:09.050Z</time>
      </trkpt>
      <trkpt lat="28.016128" lon="-16.647528">
        <ele>29.031</ele>
        <time>2024-06-07T14:28:23.050Z</time>
      </trkpt>
      <trkpt lat="28.018155" lon="-16.645878">
        <ele>32.024</ele>
        <time>2024-06-07T14:29:47.050Z</time>
      </trkpt>
      <trkpt lat="28.016767" lon="-16.642654">
        <ele>41.209</ele>
        <time>2024-06-07T14:31:29.049Z</time>
      </trkpt>
      <trkpt lat="28.016195" lon="-16.642057">
        <ele>37.810</ele>
        <time>2024-06-07T14:31:47.049Z</time>
      </trkpt>
      <trkpt lat="28.015790" lon="-16.641197">
        <ele>38.056</ele>
        <time>2024-06-07T14:32:05.049Z</time>
      </trkpt>
      <trkpt lat="28.015066" lon="-16.640360">
        <ele>43.782</ele>
        <time>2024-06-07T14:32:36.049Z</time>
      </trkpt>
      <trkpt lat="28.015374" lon="-16.639232">
        <ele>49.822</ele>
        <time>2024-06-07T14:33:21.048Z</time>
      </trkpt>
      <trkpt lat="28.015879" lon="-16.639220">
        <ele>51.967</ele>
        <time>2024-06-07T14:33:39.048Z</time>
      </trkpt>
      <trkpt lat="28.016304" lon="-16.638982">
        <ele>56.564</ele>
        <time>2024-06-07T14:33:58.048Z</time>
      </trkpt>
      <trkpt lat="28.016386" lon="-16.638445">
        <ele>55.540</ele>
        <time>2024-06-07T14:34:27.048Z</time>
      </trkpt>
      <trkpt lat="28.019275" lon="-16.635624">
        <ele>54.648</ele>
        <time>2024-06-07T14:36:15.048Z</time>
      </trkpt>
      <trkpt lat="28.019260" lon="-16.635250">
        <ele>52.637</ele>
        <time>2024-06-07T14:36:20.048Z</time>
      </trkpt>
      <trkpt lat="28.019041" lon="-16.634961">
        <ele>51.234</ele>
        <time>2024-06-07T14:36:25.048Z</time>
      </trkpt>
      <trkpt lat="28.019112" lon="-16.634382">
        <ele>50.655</ele>
        <time>2024-06-07T14:36:35.048Z</time>
      </trkpt>
      <trkpt lat="28.020232" lon="-16.630158">
        <ele>38.410</ele>
        <time>2024-06-07T14:41:30.049Z</time>
      </trkpt>
      <trkpt lat="28.020497" lon="-16.629762">
        <ele>34.209</ele>
        <time>2024-06-07T14:41:37.050Z</time>
      </trkpt>
      <trkpt lat="28.021265" lon="-16.625156">
        <ele>21.274</ele>
        <time>2024-06-07T14:43:38.051Z</time>
      </trkpt>
      <trkpt lat="28.021493" lon="-16.624466">
        <ele>23.670</ele>
        <time>2024-06-07T14:43:58.051Z</time>
      </trkpt>
      <trkpt lat="28.021432" lon="-16.624061">
        <ele>20.076</ele>
        <time>2024-06-07T14:44:06.051Z</time>
      </trkpt>
      <trkpt lat="28.020990" lon="-16.623691">
        <ele>22.616</ele>
        <time>2024-06-07T14:44:21.051Z</time>
      </trkpt>
      <trkpt lat="28.020928" lon="-16.623455">
        <ele>24.941</ele>
        <time>2024-06-07T14:44:29.051Z</time>
      </trkpt>
      <trkpt lat="28.021139" lon="-16.623068">
        <ele>26.268</ele>
        <time>2024-06-07T14:44:43.051Z</time>
      </trkpt>
      <trkpt lat="28.022535" lon="-16.621593">
        <ele>21.034</ele>
        <time>2024-06-07T14:45:32.051Z</time>
      </trkpt>
      <trkpt lat="28.022606" lon="-16.620755">
        <ele>24.412</ele>
        <time>2024-06-07T14:46:01.052Z</time>
      </trkpt>
      <trkpt lat="28.022056" lon="-16.620742">
        <ele>23.671</ele>
        <time>2024-06-07T14:46:14.052Z</time>
      </trkpt>
      <trkpt lat="28.021296" lon="-16.619917">
        <ele>25.816</ele>
        <time>2024-06-07T14:46:36.052Z</time>
      </trkpt>
      <trkpt lat="28.020542" lon="-16.619452">
        <ele>21.476</ele>
        <time>2024-06-07T14:46:50.052Z</time>
      </trkpt>
      <trkpt lat="28.019571" lon="-16.619134">
        <ele>13.813</ele>
        <time>2024-06-07T14:47:04.052Z</time>
      </trkpt>
      <trkpt lat="28.019614" lon="-16.618826">
        <ele>13.409</ele>
        <time>2024-06-07T14:47:09.052Z</time>
      </trkpt>
      <trkpt lat="28.020015" lon="-16.618386">
        <ele>16.692</ele>
        <time>2024-06-07T14:47:25.052Z</time>
      </trkpt>
      <trkpt lat="28.020245" lon="-16.618366">
        <ele>18.178</ele>
        <time>2024-06-07T14:47:35.052Z</time>
      </trkpt>
      <trkpt lat="28.020404" lon="-16.618612">
        <ele>17.564</ele>
        <time>2024-06-07T14:47:46.052Z</time>
      </trkpt>
      <trkpt lat="28.020100" lon="-16.618647">
        <ele>16.034</ele>
        <time>2024-06-07T14:47:57.053Z</time>
      </trkpt>
      <trkpt lat="28.019944" lon="-16.618438">
        <ele>16.379</ele>
        <time>2024-06-07T14:48:07.053Z</time>
      </trkpt>
      <trkpt lat="28.019702" lon="-16.618719">
        <ele>15.136</ele>
        <time>2024-06-07T14:49:18.052Z</time>
      </trkpt>
      <trkpt lat="28.019561" lon="-16.618674">
        <ele>13.832</ele>
        <time>2024-06-07T14:49:26.052Z</time>
      </trkpt>
      <trkpt lat="28.019704" lon="-16.618331">
        <ele>12.170</ele>
        <time>2024-06-07T14:50:00.053Z</time>
      </trkpt>
      <trkpt lat="28.019591" lon="-16.617979">
        <ele>11.969</ele>
        <time>2024-06-07T14:50:56.053Z</time>
      </trkpt>
      <trkpt lat="28.020134" lon="-16.617796">
        <ele>15.474</ele>
        <time>2024-06-07T14:51:42.053Z</time>
      </trkpt>
      <trkpt lat="28.020339" lon="-16.617231">
        <ele>15.456</ele>
        <time>2024-06-07T14:52:45.054Z</time>
      </trkpt>
      <trkpt lat="28.021097" lon="-16.616683">
        <ele>8.521</ele>
        <time>2024-06-07T14:53:03.054Z</time>
      </trkpt>
      <trkpt lat="28.020923" lon="-16.615903">
        <ele>12.009</ele>
        <time>2024-06-07T14:53:23.054Z</time>
      </trkpt>
      <trkpt lat="28.021104" lon="-16.615616">
        <ele>12.428</ele>
        <time>2024-06-07T14:53:33.054Z</time>
      </trkpt>
      <trkpt lat="28.021254" lon="-16.614440">
        <ele>11.284</ele>
        <time>2024-06-07T14:53:58.054Z</time>
      </trkpt>
      <trkpt lat="28.020992" lon="-16.613659">
        <ele>10.720</ele>
        <time>2024-06-07T14:54:16.055Z</time>
      </trkpt>
      <trkpt lat="28.021489" lon="-16.613172">
        <ele>9.240</ele>
        <time>2024-06-07T14:54:30.055Z</time>
      </trkpt>
      <trkpt lat="28.022109" lon="-16.611827">
        <ele>12.435</ele>
        <time>2024-06-07T14:54:56.055Z</time>
      </trkpt>
      <trkpt lat="28.022499" lon="-16.611292">
        <ele>10.232</ele>
        <time>2024-06-07T14:55:06.055Z</time>
      </trkpt>
      <trkpt lat="28.022447" lon="-16.611097">
        <ele>12.018</ele>
        <time>2024-06-07T14:55:13.055Z</time>
      </trkpt>
      <trkpt lat="28.022747" lon="-16.611162">
        <ele>13.646</ele>
        <time>2024-06-07T14:55:30.055Z</time>
      </trkpt>
      <trkpt lat="28.022428" lon="-16.610889">
        <ele>11.635</ele>
        <time>2024-06-07T14:55:49.055Z</time>
      </trkpt>
      <trkpt lat="28.022848" lon="-16.610467">
        <ele>6.495</ele>
        <time>2024-06-07T14:56:07.055Z</time>
      </trkpt>
      <trkpt lat="28.023176" lon="-16.609427">
        <ele>11.549</ele>
        <time>2024-06-07T14:56:46.056Z</time>
      </trkpt>
      <trkpt lat="28.023092" lon="-16.609872">
        <ele>10.623</ele>
        <time>2024-06-07T14:57:03.056Z</time>
      </trkpt>
      <trkpt lat="28.023324" lon="-16.609611">
        <ele>12.109</ele>
        <time>2024-06-07T14:57:47.056Z</time>
      </trkpt>
      <trkpt lat="28.023476" lon="-16.608259">
        <ele>16.980</ele>
        <time>2024-06-07T14:58:25.057Z</time>
      </trkpt>
      <trkpt lat="28.023415" lon="-16.607598">
        <ele>15.576</ele>
        <time>2024-06-07T14:58:43.057Z</time>
      </trkpt>
      <trkpt lat="28.023820" lon="-16.606217">
        <ele>16.062</ele>
        <time>2024-06-07T14:59:09.057Z</time>
      </trkpt>
      <trkpt lat="28.024889" lon="-16.604927">
        <ele>22.442</ele>
        <time>2024-06-07T14:59:45.057Z</time>
      </trkpt>
      <trkpt lat="28.025249" lon="-16.604629">
        <ele>23.067</ele>
        <time>2024-06-07T14:59:55.057Z</time>
      </trkpt>
      <trkpt lat="28.025522" lon="-16.604668">
        <ele>27.594</ele>
        <time>2024-06-07T15:00:09.057Z</time>
      </trkpt>
      <trkpt lat="28.025246" lon="-16.604639">
        <ele>26.650</ele>
        <time>2024-06-07T15:00:30.058Z</time>
      </trkpt>
      <trkpt lat="28.025292" lon="-16.604516">
        <ele>25.598</ele>
        <time>2024-06-07T15:00:34.058Z</time>
      </trkpt>
      <trkpt lat="28.025689" lon="-16.604400">
        <ele>21.097</ele>
        <time>2024-06-07T15:00:46.058Z</time>
      </trkpt>
      <trkpt lat="28.025516" lon="-16.604315">
        <ele>17.417</ele>
        <time>2024-06-07T15:00:52.058Z</time>
      </trkpt>
      <trkpt lat="28.025577" lon="-16.604013">
        <ele>13.887</ele>
        <time>2024-06-07T15:01:00.058Z</time>
      </trkpt>
      <trkpt lat="28.025306" lon="-16.603123">
        <ele>13.315</ele>
        <time>2024-06-07T15:01:19.058Z</time>
      </trkpt>
      <trkpt lat="28.025914" lon="-16.602944">
        <ele>14.609</ele>
        <time>2024-06-07T15:01:35.058Z</time>
      </trkpt>
      <trkpt lat="28.026273" lon="-16.602510">
        <ele>13.772</ele>
        <time>2024-06-07T15:01:49.058Z</time>
      </trkpt>
      <trkpt lat="28.026484" lon="-16.601772">
        <ele>12.138</ele>
        <time>2024-06-07T15:02:04.058Z</time>
      </trkpt>
      <trkpt lat="28.026401" lon="-16.601495">
        <ele>12.644</ele>
        <time>2024-06-07T15:02:10.058Z</time>
      </trkpt>
      <trkpt lat="28.026654" lon="-16.601139">
        <ele>12.174</ele>
        <time>2024-06-07T15:02:20.058Z</time>
      </trkpt>
      <trkpt lat="28.026557" lon="-16.600607">
        <ele>17.299</ele>
        <time>2024-06-07T15:02:36.059Z</time>
      </trkpt>
      <trkpt lat="28.027167" lon="-16.600109">
        <ele>20.086</ele>
        <time>2024-06-07T15:02:56.059Z</time>
      </trkpt>
      <trkpt lat="28.027391" lon="-16.599685">
        <ele>19.172</ele>
        <time>2024-06-07T15:03:14.059Z</time>
      </trkpt>
      <trkpt lat="28.027931" lon="-16.599419">
        <ele>13.790</ele>
        <time>2024-06-07T15:04:05.059Z</time>
      </trkpt>
      <trkpt lat="28.028280" lon="-16.599020">
        <ele>13.169</ele>
        <time>2024-06-07T15:04:19.059Z</time>
      </trkpt>
      <trkpt lat="28.028458" lon="-16.598218">
        <ele>10.935</ele>
        <time>2024-06-07T15:04:36.060Z</time>
      </trkpt>
      <trkpt lat="28.028966" lon="-16.597243">
        <ele>9.286</ele>
        <time>2024-06-07T15:04:57.060Z</time>
      </trkpt>
      <trkpt lat="28.028894" lon="-16.596958">
        <ele>8.814</ele>
        <time>2024-06-07T15:05:02.060Z</time>
      </trkpt>
      <trkpt lat="28.028500" lon="-16.596828">
        <ele>10.109</ele>
        <time>2024-06-07T15:05:12.060Z</time>
      </trkpt>
      <trkpt lat="28.028679" lon="-16.596775">
        <ele>12.464</ele>
        <time>2024-06-07T15:05:18.060Z</time>
      </trkpt>
      <trkpt lat="28.028562" lon="-16.596637">
        <ele>14.510</ele>
        <time>2024-06-07T15:05:33.060Z</time>
      </trkpt>
      <trkpt lat="28.029192" lon="-16.596133">
        <ele>18.616</ele>
        <time>2024-06-07T15:06:10.060Z</time>
      </trkpt>
      <trkpt lat="28.029696" lon="-16.596259">
        <ele>17.136</ele>
        <time>2024-06-07T15:06:45.061Z</time>
      </trkpt>
      <trkpt lat="28.030148" lon="-16.595997">
        <ele>16.311</ele>
        <time>2024-06-07T15:06:57.061Z</time>
      </trkpt>
      <trkpt lat="28.029770" lon="-16.595135">
        <ele>20.268</ele>
        <time>2024-06-07T15:07:32.061Z</time>
      </trkpt>
      <trkpt lat="28.030388" lon="-16.594421">
        <ele>23.954</ele>
        <time>2024-06-07T15:08:07.061Z</time>
      </trkpt>
      <trkpt lat="28.029645" lon="-16.593852">
        <ele>20.732</ele>
        <time>2024-06-07T15:08:50.062Z</time>
      </trkpt>
      <trkpt lat="28.030418" lon="-16.586555">
        <ele>20.051</ele>
        <time>2024-06-07T15:12:51.062Z</time>
      </trkpt>
      <trkpt lat="28.030374" lon="-16.586697">
        <ele>20.887</ele>
        <time>2024-06-07T15:13:11.063Z</time>
      </trkpt>
      <trkpt lat="28.030280" lon="-16.586628">
        <ele>20.042</ele>
        <time>2024-06-07T15:13:15.063Z</time>
      </trkpt>
      <trkpt lat="28.029681" lon="-16.585703">
        <ele>18.326</ele>
        <time>2024-06-07T15:13:45.063Z</time>
      </trkpt>
      <trkpt lat="28.029469" lon="-16.585091">
        <ele>13.909</ele>
        <time>2024-06-07T15:14:05.063Z</time>
      </trkpt>
      <trkpt lat="28.029464" lon="-16.584100">
        <ele>13.289</ele>
        <time>2024-06-07T15:14:24.063Z</time>
      </trkpt>
      <trkpt lat="28.029257" lon="-16.583588">
        <ele>14.375</ele>
        <time>2024-06-07T15:14:39.063Z</time>
      </trkpt>
      <trkpt lat="28.029481" lon="-16.584189">
        <ele>13.171</ele>
        <time>2024-06-07T15:15:22.064Z</time>
      </trkpt>
      <trkpt lat="28.029491" lon="-16.585282">
        <ele>13.341</ele>
        <time>2024-06-07T15:17:04.063Z</time>
      </trkpt>
      <trkpt lat="28.029737" lon="-16.585450">
        <ele>16.976</ele>
        <time>2024-06-07T15:17:15.064Z</time>
      </trkpt>
      <trkpt lat="28.029967" lon="-16.584450">
        <ele>25.643</ele>
        <time>2024-06-07T15:17:51.064Z</time>
      </trkpt>
      <trkpt lat="28.029771" lon="-16.583792">
        <ele>25.819</ele>
        <time>2024-06-07T15:18:09.064Z</time>
      </trkpt>
      <trkpt lat="28.029413" lon="-16.583561">
        <ele>24.457</ele>
        <time>2024-06-07T15:18:24.064Z</time>
      </trkpt>
      <trkpt lat="28.029656" lon="-16.582779">
        <ele>21.736</ele>
        <time>2024-06-07T15:19:44.065Z</time>
      </trkpt>
      <trkpt lat="28.029479" lon="-16.582015">
        <ele>20.237</ele>
        <time>2024-06-07T15:20:09.065Z</time>
      </trkpt>
      <trkpt lat="28.030034" lon="-16.581999">
        <ele>21.349</ele>
        <time>2024-06-07T15:20:31.065Z</time>
      </trkpt>
      <trkpt lat="28.030418" lon="-16.581692">
        <ele>17.713</ele>
        <time>2024-06-07T15:20:43.065Z</time>
      </trkpt>
      <trkpt lat="28.029842" lon="-16.580746">
        <ele>14.809</ele>
        <time>2024-06-07T15:21:16.065Z</time>
      </trkpt>
      <trkpt lat="28.029901" lon="-16.579727">
        <ele>14.254</ele>
        <time>2024-06-07T15:21:51.066Z</time>
      </trkpt>
      <trkpt lat="28.030114" lon="-16.578917">
        <ele>12.150</ele>
        <time>2024-06-07T15:22:08.066Z</time>
      </trkpt>
      <trkpt lat="28.030451" lon="-16.578343">
        <ele>12.546</ele>
        <time>2024-06-07T15:22:22.066Z</time>
      </trkpt>
      <trkpt lat="28.030369" lon="-16.577914">
        <ele>12.356</ele>
        <time>2024-06-07T15:22:34.066Z</time>
      </trkpt>
      <trkpt lat="28.030688" lon="-16.577621">
        <ele>13.181</ele>
        <time>2024-06-07T15:22:46.066Z</time>
      </trkpt>
      <trkpt lat="28.030859" lon="-16.577087">
        <ele>10.588</ele>
        <time>2024-06-07T15:22:57.066Z</time>
      </trkpt>
      <trkpt lat="28.031004" lon="-16.575842">
        <ele>8.974</ele>
        <time>2024-06-07T15:23:27.066Z</time>
      </trkpt>
      <trkpt lat="28.031269" lon="-16.575505">
        <ele>6.532</ele>
        <time>2024-06-07T15:24:09.067Z</time>
      </trkpt>
      <trkpt lat="28.031347" lon="-16.575054">
        <ele>7.641</ele>
        <time>2024-06-07T15:24:40.067Z</time>
      </trkpt>
      <trkpt lat="28.031150" lon="-16.574910">
        <ele>8.133</ele>
        <time>2024-06-07T15:24:57.067Z</time>
      </trkpt>
      <trkpt lat="28.031141" lon="-16.574442">
        <ele>8.423</ele>
        <time>2024-06-07T15:25:09.067Z</time>
      </trkpt>
      <trkpt lat="28.031282" lon="-16.573292">
        <ele>9.415</ele>
        <time>2024-06-07T15:25:36.068Z</time>
      </trkpt>
      <trkpt lat="28.031436" lon="-16.572472">
        <ele>10.109</ele>
        <time>2024-06-07T15:25:56.068Z</time>
      </trkpt>
      <trkpt lat="28.031732" lon="-16.572354">
        <ele>12.644</ele>
        <time>2024-06-07T15:26:06.068Z</time>
      </trkpt>
      <trkpt lat="28.031858" lon="-16.571891">
        <ele>11.270</ele>
        <time>2024-06-07T15:26:18.068Z</time>
      </trkpt>
      <trkpt lat="28.031744" lon="-16.571637">
        <ele>11.096</ele>
        <time>2024-06-07T15:26:26.068Z</time>
      </trkpt>
      <trkpt lat="28.031867" lon="-16.570791">
        <ele>6.316</ele>
        <time>2024-06-07T15:26:42.068Z</time>
      </trkpt>
      <trkpt lat="28.031687" lon="-16.570253">
        <ele>8.091</ele>
        <time>2024-06-07T15:27:14.068Z</time>
      </trkpt>
      <trkpt lat="28.031863" lon="-16.570076">
        <ele>10.638</ele>
        <time>2024-06-07T15:27:22.068Z</time>
      </trkpt>
      <trkpt lat="28.032532" lon="-16.570116">
        <ele>12.564</ele>
        <time>2024-06-07T15:27:40.069Z</time>
      </trkpt>
      <trkpt lat="28.033296" lon="-16.569869">
        <ele>13.522</ele>
        <time>2024-06-07T15:28:00.069Z</time>
      </trkpt>
      <trkpt lat="28.033451" lon="-16.563834">
        <ele>18.471</ele>
        <time>2024-06-07T15:30:17.070Z</time>
      </trkpt>
      <trkpt lat="28.034643" lon="-16.560882">
        <ele>14.975</ele>
        <time>2024-06-07T15:31:17.070Z</time>
      </trkpt>
      <trkpt lat="28.034159" lon="-16.560811">
        <ele>13.828</ele>
        <time>2024-06-07T15:31:30.070Z</time>
      </trkpt>
      <trkpt lat="28.032777" lon="-16.560018">
        <ele>9.020</ele>
        <time>2024-06-07T15:32:08.071Z</time>
      </trkpt>
      <trkpt lat="28.032632" lon="-16.559816">
        <ele>7.709</ele>
        <time>2024-06-07T15:32:14.071Z</time>
      </trkpt>
      <trkpt lat="28.032702" lon="-16.559626">
        <ele>7.268</ele>
        <time>2024-06-07T15:32:20.071Z</time>
      </trkpt>
      <trkpt lat="28.032472" lon="-16.559010">
        <ele>6.724</ele>
        <time>2024-06-07T15:32:34.071Z</time>
      </trkpt>
      <trkpt lat="28.032378" lon="-16.557700">
        <ele>8.070</ele>
        <time>2024-06-07T15:34:55.068Z</time>
      </trkpt>
      <trkpt lat="28.032643" lon="-16.556432">
        <ele>7.070</ele>
        <time>2024-06-07T15:35:49.068Z</time>
      </trkpt>
      <trkpt lat="28.032434" lon="-16.555518">
        <ele>7.415</ele>
        <time>2024-06-07T15:36:38.071Z</time>
      </trkpt>
      <trkpt lat="28.032708" lon="-16.553327">
        <ele>7.252</ele>
        <time>2024-06-07T15:37:38.071Z</time>
      </trkpt>
      <trkpt lat="28.033089" lon="-16.552864">
        <ele>6.838</ele>
        <time>2024-06-07T15:37:54.071Z</time>
      </trkpt>
      <trkpt lat="28.033256" lon="-16.552096">
        <ele>8.996</ele>
        <time>2024-06-07T15:38:16.072Z</time>
      </trkpt>
      <trkpt lat="28.034931" lon="-16.548550">
        <ele>15.975</ele>
        <time>2024-06-07T15:44:18Z</time>
      </trkpt>
      <trkpt lat="28.035459" lon="-16.547785">
        <ele>17.935</ele>
        <time>2024-06-07T15:45:27Z</time>
      </trkpt>
      <trkpt lat="28.035847" lon="-16.548079">
        <ele>17.686</ele>
        <time>2024-06-07T15:46:17Z</time>
      </trkpt>
      <trkpt lat="28.035223" lon="-16.548310">
        <ele>17.014</ele>
        <time>2024-06-07T15:46:45Z</time>
      </trkpt>
      <trkpt lat="28.035147" lon="-16.548168">
        <ele>17.109</ele>
        <time>2024-06-07T15:46:48Z</time>
      </trkpt>
      <trkpt lat="28.035923" lon="-16.546927">
        <ele>18.374</ele>
        <time>2024-06-07T15:47:25Z</time>
      </trkpt>
      <trkpt lat="28.036717" lon="-16.546092">
        <ele>16.480</ele>
        <time>2024-06-07T15:47:49.001Z</time>
      </trkpt>
      <trkpt lat="28.037031" lon="-16.545355">
        <ele>15.796</ele>
        <time>2024-06-07T15:48:04.001Z</time>
      </trkpt>
      <trkpt lat="28.038079" lon="-16.544219">
        <ele>13.146</ele>
        <time>2024-06-07T15:48:36.001Z</time>
      </trkpt>
      <trkpt lat="28.038435" lon="-16.543618">
        <ele>10.361</ele>
        <time>2024-06-07T15:48:59.001Z</time>
      </trkpt>
      <trkpt lat="28.038792" lon="-16.543367">
        <ele>6.218</ele>
        <time>2024-06-07T15:49:17.001Z</time>
      </trkpt>
      <trkpt lat="28.039672" lon="-16.543145">
        <ele>4.634</ele>
        <time>2024-06-07T15:49:45.002Z</time>
      </trkpt>
      <trkpt lat="28.039965" lon="-16.543340">
        <ele>3.382</ele>
        <time>2024-06-07T15:50:00.002Z</time>
      </trkpt>
      <trkpt lat="28.040348" lon="-16.543007">
        <ele>5.571</ele>
        <time>2024-06-07T15:50:14.002Z</time>
      </trkpt>
      <trkpt lat="28.040887" lon="-16.543050">
        <ele>9.346</ele>
        <time>2024-06-07T15:50:30.002Z</time>
      </trkpt>
      <trkpt lat="28.041179" lon="-16.543446">
        <ele>11.088</ele>
        <time>2024-06-07T15:50:55.002Z</time>
      </trkpt>
      <trkpt lat="28.041699" lon="-16.543380">
        <ele>14.916</ele>
        <time>2024-06-07T15:51:12.002Z</time>
      </trkpt>
      <trkpt lat="28.042153" lon="-16.542912">
        <ele>17.909</ele>
        <time>2024-06-07T15:51:27.002Z</time>
      </trkpt>
      <trkpt lat="28.043120" lon="-16.542318">
        <ele>20.925</ele>
        <time>2024-06-07T15:51:52.003Z</time>
      </trkpt>
      <trkpt lat="28.043612" lon="-16.541141">
        <ele>21.441</ele>
        <time>2024-06-07T15:52:22.003Z</time>
      </trkpt>
      <trkpt lat="28.044348" lon="-16.541455">
        <ele>26.237</ele>
        <time>2024-06-07T15:52:39.003Z</time>
      </trkpt>
      <trkpt lat="28.044912" lon="-16.541881">
        <ele>29.687</ele>
        <time>2024-06-07T15:52:55.003Z</time>
      </trkpt>
      <trkpt lat="28.045084" lon="-16.541841">
        <ele>30.742</ele>
        <time>2024-06-07T15:53:00.003Z</time>
      </trkpt>
      <trkpt lat="28.045319" lon="-16.541056">
        <ele>23.859</ele>
        <time>2024-06-07T15:53:23.003Z</time>
      </trkpt>
      <trkpt lat="28.046163" lon="-16.539424">
        <ele>11.395</ele>
        <time>2024-06-07T15:53:46.003Z</time>
      </trkpt>
      <trkpt lat="28.046540" lon="-16.538930">
        <ele>16.553</ele>
        <time>2024-06-07T15:54:03.004Z</time>
      </trkpt>
      <trkpt lat="28.046831" lon="-16.539110">
        <ele>18.752</ele>
        <time>2024-06-07T15:54:15.004Z</time>
      </trkpt>
      <trkpt lat="28.047096" lon="-16.538766">
        <ele>22.436</ele>
        <time>2024-06-07T15:54:27.004Z</time>
      </trkpt>
      <trkpt lat="28.045451" lon="-16.537205">
        <ele>10.517</ele>
        <time>2024-06-07T15:55:12.004Z</time>
      </trkpt>
    </trkseg>
  </trk></gpx>