<?xml version="1.0" encoding="UTF-8"?>
<gpx creator="Wikiloc - https://www.wikiloc.com" version="1.1" xmlns="http://www.topografix.com/GPX/1/1" xmlns:xsi="http://www.w3.org/2001/XMLSchema-instance" xsi:schemaLocation="http://www.topografix.com/GPX/1/1 http://www.topografix.com/GPX/1/1/gpx.xsd">
  <metadata>
    <name>Wikiloc - Maspalomas - Presa de Ayagaures - Presa de la Gambuesa - Deg...</name>
    <link href="https://www.wikiloc.com/hiking-trails/maspalomas-presa-de-ayagaures-presa-de-la-gambuesa-degollada-de-la-manzanilla-iglesia-de-san-bartol-205252126">
      <text>Maspalomas - Presa de Ayagaures - Presa de la Gambuesa - Deg... on Wikiloc</text>
    </link>
    <time>2025-03-17T17:51:07.255Z</time>
  </metadata>
  <trk>
    <name>Maspalomas - Presa de Ayagaures - Presa de la Gambuesa - Deg... - Wikiloc</name>
    <cmt></cmt>
    <desc></desc>
    <trkseg>
      <trkpt lat="27.765379" lon="-15.578347">
        <ele>61.062</ele>
        <time>2025-03-16T10:13:21Z</time>
      </trkpt>
      <trkpt lat="27.765501" lon="-15.578753">
        <ele>62.383</ele>
        <time>2025-03-16T10:14:05Z</time>
      </trkpt>
      <trkpt lat="27.765771" lon="-15.578707">
        <ele>63.011</ele>
        <time>2025-03-16T10:14:32Z</time>
      </trkpt>
      <trkpt lat="27.766312" lon="-15.579219">
        <ele>65.709</ele>
        <time>2025-03-16T10:15:35.001Z</time>
      </trkpt>
      <trkpt lat="27.766348" lon="-15.580709">
        <ele>67.028</ele>
        <time>2025-03-16T10:17:53.002Z</time>
      </trkpt>
      <trkpt lat="27.766479" lon="-15.580827">
        <ele>66.996</ele>
        <time>2025-03-16T10:35:22.002Z</time>
      </trkpt>
      <trkpt lat="27.766380" lon="-15.581282">
        <ele>66.881</ele>
        <time>2025-03-16T10:36:01.002Z</time>
      </trkpt>
      <trkpt lat="27.766498" lon="-15.581607">
        <ele>67.098</ele>
        <time>2025-03-16T10:36:31.003Z</time>
      </trkpt>
      <trkpt lat="27.767128" lon="-15.581906">
        <ele>69.131</ele>
        <time>2025-03-16T10:37:34.003Z</time>
      </trkpt>
      <trkpt lat="27.767237" lon="-15.582155">
        <ele>69.348</ele>
        <time>2025-03-16T10:37:56.003Z</time>
      </trkpt>
      <trkpt lat="27.767657" lon="-15.582468">
        <ele>70.737</ele>
        <time>2025-03-16T10:38:41.004Z</time>
      </trkpt>
      <trkpt lat="27.768838" lon="-15.583090">
        <ele>73.988</ele>
        <time>2025-03-16T10:40:35.005Z</time>
      </trkpt>
      <trkpt lat="27.769327" lon="-15.583460">
        <ele>75.242</ele>
        <time>2025-03-16T10:41:26.005Z</time>
      </trkpt>
      <trkpt lat="27.769547" lon="-15.583895">
        <ele>76.774</ele>
        <time>2025-03-16T10:42:07.005Z</time>
      </trkpt>
      <trkpt lat="27.769496" lon="-15.584317">
        <ele>76.956</ele>
        <time>2025-03-16T10:42:36.005Z</time>
      </trkpt>
      <trkpt lat="27.768960" lon="-15.585394">
        <ele>74.221</ele>
        <time>2025-03-16T10:44:02.006Z</time>
      </trkpt>
      <trkpt lat="27.768495" lon="-15.585819">
        <ele>72.409</ele>
        <time>2025-03-16T10:44:50.007Z</time>
      </trkpt>
      <trkpt lat="27.768543" lon="-15.586292">
        <ele>71.819</ele>
        <time>2025-03-16T10:45:27.007Z</time>
      </trkpt>
      <trkpt lat="27.768110" lon="-15.587079">
        <ele>70.477</ele>
        <time>2025-03-16T10:46:29.007Z</time>
      </trkpt>
      <trkpt lat="27.768234" lon="-15.587616">
        <ele>69.162</ele>
        <time>2025-03-16T10:47:13.008Z</time>
      </trkpt>
      <trkpt lat="27.767690" lon="-15.588162">
        <ele>65.289</ele>
        <time>2025-03-16T10:48:08.008Z</time>
      </trkpt>
      <trkpt lat="27.767315" lon="-15.588941">
        <ele>58.522</ele>
        <time>2025-03-16T10:49:13.009Z</time>
      </trkpt>
      <trkpt lat="27.767303" lon="-15.589386">
        <ele>54.549</ele>
        <time>2025-03-16T10:49:59.009Z</time>
      </trkpt>
      <trkpt lat="27.767169" lon="-15.589395">
        <ele>53.988</ele>
        <time>2025-03-16T10:50:10.009Z</time>
      </trkpt>
      <trkpt lat="27.766859" lon="-15.592487">
        <ele>41.119</ele>
        <time>2025-03-16T10:53:55.011Z</time>
      </trkpt>
      <trkpt lat="27.766421" lon="-15.593972">
        <ele>35.943</ele>
        <time>2025-03-16T10:56:41.012Z</time>
      </trkpt>
      <trkpt lat="27.766411" lon="-15.593796">
        <ele>36.119</ele>
        <time>2025-03-16T10:57:06.012Z</time>
      </trkpt>
      <trkpt lat="27.766959" lon="-15.593755">
        <ele>35.509</ele>
        <time>2025-03-16T10:57:52.013Z</time>
      </trkpt>
      <trkpt lat="27.766885" lon="-15.593927">
        <ele>34.719</ele>
        <time>2025-03-16T10:58:16.013Z</time>
      </trkpt>
      <trkpt lat="27.768414" lon="-15.593865">
        <ele>35.109</ele>
        <time>2025-03-16T11:00:34.014Z</time>
      </trkpt>
      <trkpt lat="27.768865" lon="-15.594102">
        <ele>35.363</ele>
        <time>2025-03-16T11:01:28.014Z</time>
      </trkpt>
      <trkpt lat="27.769901" lon="-15.593584">
        <ele>38.781</ele>
        <time>2025-03-16T11:03:14.015Z</time>
      </trkpt>
      <trkpt lat="27.770711" lon="-15.593442">
        <ele>41.586</ele>
        <time>2025-03-16T11:04:52.016Z</time>
      </trkpt>
      <trkpt lat="27.770919" lon="-15.593196">
        <ele>41.763</ele>
        <time>2025-03-16T11:06:33.016Z</time>
      </trkpt>
      <trkpt lat="27.771009" lon="-15.593261">
        <ele>41.486</ele>
        <time>2025-03-16T11:08:26.016Z</time>
      </trkpt>
      <trkpt lat="27.770877" lon="-15.593147">
        <ele>41.353</ele>
        <time>2025-03-16T11:08:46.016Z</time>
      </trkpt>
      <trkpt lat="27.771067" lon="-15.593290">
        <ele>41.052</ele>
        <time>2025-03-16T11:13:11.018Z</time>
      </trkpt>
      <trkpt lat="27.770888" lon="-15.593333">
        <ele>41.453</ele>
        <time>2025-03-16T11:16:01.018Z</time>
      </trkpt>
      <trkpt lat="27.770914" lon="-15.593167">
        <ele>41.717</ele>
        <time>2025-03-16T11:16:10.018Z</time>
      </trkpt>
      <trkpt lat="27.771150" lon="-15.593304">
        <ele>42.557</ele>
        <time>2025-03-16T11:17:43.018Z</time>
      </trkpt>
      <trkpt lat="27.771026" lon="-15.593319">
        <ele>42.500</ele>
        <time>2025-03-16T11:17:46.018Z</time>
      </trkpt>
      <trkpt lat="27.771626" lon="-15.593145">
        <ele>44.820</ele>
        <time>2025-03-16T11:18:51.019Z</time>
      </trkpt>
      <trkpt lat="27.772176" lon="-15.592673">
        <ele>47.609</ele>
        <time>2025-03-16T11:19:55.019Z</time>
      </trkpt>
      <trkpt lat="27.772550" lon="-15.592011">
        <ele>48.197</ele>
        <time>2025-03-16T11:20:59.020Z</time>
      </trkpt>
      <trkpt lat="27.773184" lon="-15.591726">
        <ele>49.095</ele>
        <time>2025-03-16T11:21:59.020Z</time>
      </trkpt>
      <trkpt lat="27.773816" lon="-15.591099">
        <ele>51.160</ele>
        <time>2025-03-16T11:23:18.021Z</time>
      </trkpt>
      <trkpt lat="27.774270" lon="-15.590210">
        <ele>52.967</ele>
        <time>2025-03-16T11:24:39.022Z</time>
      </trkpt>
      <trkpt lat="27.777041" lon="-15.587420">
        <ele>58.390</ele>
        <time>2025-03-16T11:30:02.024Z</time>
      </trkpt>
      <trkpt lat="27.778422" lon="-15.586985">
        <ele>61.547</ele>
        <time>2025-03-16T11:32:12.025Z</time>
      </trkpt>
      <trkpt lat="27.779292" lon="-15.586900">
        <ele>62.916</ele>
        <time>2025-03-16T11:33:26.026Z</time>
      </trkpt>
      <trkpt lat="27.779632" lon="-15.586671">
        <ele>63.757</ele>
        <time>2025-03-16T11:33:58.026Z</time>
      </trkpt>
      <trkpt lat="27.780066" lon="-15.586663">
        <ele>63.511</ele>
        <time>2025-03-16T11:34:33.026Z</time>
      </trkpt>
      <trkpt lat="27.780548" lon="-15.586322">
        <ele>64.033</ele>
        <time>2025-03-16T11:35:23.027Z</time>
      </trkpt>
      <trkpt lat="27.781583" lon="-15.586452">
        <ele>66.023</ele>
        <time>2025-03-16T11:36:48.027Z</time>
      </trkpt>
      <trkpt lat="27.782985" lon="-15.585836">
        <ele>70.915</ele>
        <time>2025-03-16T11:38:56.028Z</time>
      </trkpt>
      <trkpt lat="27.783678" lon="-15.585811">
        <ele>73.009</ele>
        <time>2025-03-16T11:40:04.029Z</time>
      </trkpt>
      <trkpt lat="27.784607" lon="-15.584703">
        <ele>75.515</ele>
        <time>2025-03-16T11:41:52.030Z</time>
      </trkpt>
      <trkpt lat="27.785083" lon="-15.583766">
        <ele>78.013</ele>
        <time>2025-03-16T11:43:12.030Z</time>
      </trkpt>
      <trkpt lat="27.785605" lon="-15.583445">
        <ele>79.048</ele>
        <time>2025-03-16T11:44:03.031Z</time>
      </trkpt>
      <trkpt lat="27.785740" lon="-15.583074">
        <ele>79.575</ele>
        <time>2025-03-16T11:44:25.031Z</time>
      </trkpt>
      <trkpt lat="27.786206" lon="-15.582837">
        <ele>80.218</ele>
        <time>2025-03-16T11:45:07.031Z</time>
      </trkpt>
      <trkpt lat="27.786815" lon="-15.582182">
        <ele>81.495</ele>
        <time>2025-03-16T11:46:17.032Z</time>
      </trkpt>
      <trkpt lat="27.787730" lon="-15.581817">
        <ele>82.334</ele>
        <time>2025-03-16T11:47:33.032Z</time>
      </trkpt>
      <trkpt lat="27.788524" lon="-15.581749">
        <ele>84.645</ele>
        <time>2025-03-16T11:48:40.033Z</time>
      </trkpt>
      <trkpt lat="27.788966" lon="-15.581881">
        <ele>85.279</ele>
        <time>2025-03-16T11:49:17.033Z</time>
      </trkpt>
      <trkpt lat="27.790426" lon="-15.582922">
        <ele>88.774</ele>
        <time>2025-03-16T11:52:42.034Z</time>
      </trkpt>
      <trkpt lat="27.791261" lon="-15.583162">
        <ele>91.456</ele>
        <time>2025-03-16T11:54:00.034Z</time>
      </trkpt>
      <trkpt lat="27.792270" lon="-15.583920">
        <ele>94.621</ele>
        <time>2025-03-16T11:55:41.035Z</time>
      </trkpt>
      <trkpt lat="27.793348" lon="-15.584251">
        <ele>95.409</ele>
        <time>2025-03-16T11:57:12.036Z</time>
      </trkpt>
      <trkpt lat="27.794579" lon="-15.584015">
        <ele>97.269</ele>
        <time>2025-03-16T11:58:57.037Z</time>
      </trkpt>
      <trkpt lat="27.795033" lon="-15.583756">
        <ele>99.137</ele>
        <time>2025-03-16T11:59:44.037Z</time>
      </trkpt>
      <trkpt lat="27.795798" lon="-15.584001">
        <ele>103.432</ele>
        <time>2025-03-16T12:00:47.038Z</time>
      </trkpt>
      <trkpt lat="27.797733" lon="-15.585292">
        <ele>107.729</ele>
        <time>2025-03-16T12:04:20.039Z</time>
      </trkpt>
      <trkpt lat="27.798350" lon="-15.585886">
        <ele>110.082</ele>
        <time>2025-03-16T12:08:33.040Z</time>
      </trkpt>
      <trkpt lat="27.799126" lon="-15.586258">
        <ele>111.039</ele>
        <time>2025-03-16T12:19:20.042Z</time>
      </trkpt>
      <trkpt lat="27.799519" lon="-15.586885">
        <ele>111.878</ele>
        <time>2025-03-16T12:20:15.042Z</time>
      </trkpt>
      <trkpt lat="27.800674" lon="-15.587508">
        <ele>116.029</ele>
        <time>2025-03-16T12:22:06.043Z</time>
      </trkpt>
      <trkpt lat="27.800991" lon="-15.587518">
        <ele>117.283</ele>
        <time>2025-03-16T12:22:29.043Z</time>
      </trkpt>
      <trkpt lat="27.801577" lon="-15.587922">
        <ele>118.523</ele>
        <time>2025-03-16T12:23:58.044Z</time>
      </trkpt>
      <trkpt lat="27.803039" lon="-15.587995">
        <ele>123.083</ele>
        <time>2025-03-16T12:25:58.045Z</time>
      </trkpt>
      <trkpt lat="27.803794" lon="-15.588203">
        <ele>125.411</ele>
        <time>2025-03-16T12:27:02.045Z</time>
      </trkpt>
      <trkpt lat="27.805082" lon="-15.588061">
        <ele>127.609</ele>
        <time>2025-03-16T12:28:46.046Z</time>
      </trkpt>
      <trkpt lat="27.806511" lon="-15.587595">
        <ele>131.834</ele>
        <time>2025-03-16T12:30:55.047Z</time>
      </trkpt>
      <trkpt lat="27.807301" lon="-15.586894">
        <ele>134.172</ele>
        <time>2025-03-16T12:32:25.048Z</time>
      </trkpt>
      <trkpt lat="27.808252" lon="-15.586842">
        <ele>135.597</ele>
        <time>2025-03-16T12:33:36.048Z</time>
      </trkpt>
      <trkpt lat="27.809575" lon="-15.587429">
        <ele>140.084</ele>
        <time>2025-03-16T12:35:36.049Z</time>
      </trkpt>
      <trkpt lat="27.810399" lon="-15.587524">
        <ele>142.177</ele>
        <time>2025-03-16T12:36:47.050Z</time>
      </trkpt>
      <trkpt lat="27.811337" lon="-15.587025">
        <ele>144.274</ele>
        <time>2025-03-16T12:38:16.051Z</time>
      </trkpt>
      <trkpt lat="27.812013" lon="-15.586848">
        <ele>146.723</ele>
        <time>2025-03-16T12:39:16.051Z</time>
      </trkpt>
      <trkpt lat="27.812670" lon="-15.586813">
        <ele>149.234</ele>
        <time>2025-03-16T12:40:11.051Z</time>
      </trkpt>
      <trkpt lat="27.813268" lon="-15.587091">
        <ele>151.828</ele>
        <time>2025-03-16T12:41:07.052Z</time>
      </trkpt>
      <trkpt lat="27.814214" lon="-15.587179">
        <ele>153.969</ele>
        <time>2025-03-16T12:42:22.053Z</time>
      </trkpt>
      <trkpt lat="27.814604" lon="-15.587439">
        <ele>155.904</ele>
        <time>2025-03-16T12:43:03.053Z</time>
      </trkpt>
      <trkpt lat="27.815221" lon="-15.587365">
        <ele>157.724</ele>
        <time>2025-03-16T12:43:55.053Z</time>
      </trkpt>
      <trkpt lat="27.815587" lon="-15.587473">
        <ele>158.609</ele>
        <time>2025-03-16T12:44:27.054Z</time>
      </trkpt>
      <trkpt lat="27.816909" lon="-15.587312">
        <ele>161.398</ele>
        <time>2025-03-16T12:46:19.054Z</time>
      </trkpt>
      <trkpt lat="27.817260" lon="-15.586876">
        <ele>162.426</ele>
        <time>2025-03-16T12:47:01.055Z</time>
      </trkpt>
      <trkpt lat="27.817994" lon="-15.586962">
        <ele>164.381</ele>
        <time>2025-03-16T12:48:06.055Z</time>
      </trkpt>
      <trkpt lat="27.818106" lon="-15.586840">
        <ele>165.278</ele>
        <time>2025-03-16T12:48:46.056Z</time>
      </trkpt>
      <trkpt lat="27.818010" lon="-15.587303">
        <ele>166.061</ele>
        <time>2025-03-16T12:49:48.056Z</time>
      </trkpt>
      <trkpt lat="27.817704" lon="-15.587688">
        <ele>167.228</ele>
        <time>2025-03-16T12:54:22.056Z</time>
      </trkpt>
      <trkpt lat="27.818132" lon="-15.586845">
        <ele>170.157</ele>
        <time>2025-03-16T13:14:08.057Z</time>
      </trkpt>
      <trkpt lat="27.819255" lon="-15.586379">
        <ele>183.628</ele>
        <time>2025-03-16T13:16:10.058Z</time>
      </trkpt>
      <trkpt lat="27.820392" lon="-15.585344">
        <ele>202.452</ele>
        <time>2025-03-16T13:19:07.059Z</time>
      </trkpt>
      <trkpt lat="27.820774" lon="-15.585264">
        <ele>208.181</ele>
        <time>2025-03-16T13:19:55.059Z</time>
      </trkpt>
      <trkpt lat="27.820869" lon="-15.585383">
        <ele>210.361</ele>
        <time>2025-03-16T13:20:13.060Z</time>
      </trkpt>
      <trkpt lat="27.820516" lon="-15.586532">
        <ele>226.517</ele>
        <time>2025-03-16T13:22:52.061Z</time>
      </trkpt>
      <trkpt lat="27.821282" lon="-15.586008">
        <ele>240.909</ele>
        <time>2025-03-16T13:24:38.062Z</time>
      </trkpt>
      <trkpt lat="27.821630" lon="-15.585518">
        <ele>247.270</ele>
        <time>2025-03-16T13:25:36.062Z</time>
      </trkpt>
      <trkpt lat="27.822392" lon="-15.585284">
        <ele>251.048</ele>
        <time>2025-03-16T13:26:47.063Z</time>
      </trkpt>
      <trkpt lat="27.822558" lon="-15.584998">
        <ele>252.983</ele>
        <time>2025-03-16T13:27:18.063Z</time>
      </trkpt>
      <trkpt lat="27.822896" lon="-15.584868">
        <ele>256.240</ele>
        <time>2025-03-16T13:27:51.063Z</time>
      </trkpt>
      <trkpt lat="27.823085" lon="-15.584545">
        <ele>261.123</ele>
        <time>2025-03-16T13:28:30.063Z</time>
      </trkpt>
      <trkpt lat="27.823642" lon="-15.584169">
        <ele>268.550</ele>
        <time>2025-03-16T13:30:03.064Z</time>
      </trkpt>
      <trkpt lat="27.823240" lon="-15.583276">
        <ele>278.579</ele>
        <time>2025-03-16T13:31:43.065Z</time>
      </trkpt>
      <trkpt lat="27.823386" lon="-15.583186">
        <ele>281.280</ele>
        <time>2025-03-16T13:32:10.065Z</time>
      </trkpt>
      <trkpt lat="27.824911" lon="-15.583861">
        <ele>294.844</ele>
        <time>2025-03-16T13:34:54.067Z</time>
      </trkpt>
      <trkpt lat="27.824997" lon="-15.584080">
        <ele>294.665</ele>
        <time>2025-03-16T13:35:13.067Z</time>
      </trkpt>
      <trkpt lat="27.824623" lon="-15.584880">
        <ele>304.968</ele>
        <time>2025-03-16T13:36:39.067Z</time>
      </trkpt>
      <trkpt lat="27.824839" lon="-15.584863">
        <ele>307.214</ele>
        <time>2025-03-16T13:37:28.068Z</time>
      </trkpt>
      <trkpt lat="27.825021" lon="-15.585033">
        <ele>311.509</ele>
        <time>2025-03-16T13:37:58.068Z</time>
      </trkpt>
      <trkpt lat="27.825515" lon="-15.585004">
        <ele>314.788</ele>
        <time>2025-03-16T13:38:44.068Z</time>
      </trkpt>
      <trkpt lat="27.826599" lon="-15.585414">
        <ele>309.896</ele>
        <time>2025-03-16T13:40:19.069Z</time>
      </trkpt>
      <trkpt lat="27.827727" lon="-15.585253">
        <ele>312.871</ele>
        <time>2025-03-16T13:42:13.070Z</time>
      </trkpt>
      <trkpt lat="27.829083" lon="-15.585302">
        <ele>302.798</ele>
        <time>2025-03-16T13:44:20.071Z</time>
      </trkpt>
      <trkpt lat="27.829544" lon="-15.585093">
        <ele>302.981</ele>
        <time>2025-03-16T13:45:05.071Z</time>
      </trkpt>
      <trkpt lat="27.829881" lon="-15.584676">
        <ele>301.988</ele>
        <time>2025-03-16T13:45:52.072Z</time>
      </trkpt>
      <trkpt lat="27.830435" lon="-15.584509">
        <ele>298.717</ele>
        <time>2025-03-16T13:46:41.072Z</time>
      </trkpt>
      <trkpt lat="27.832253" lon="-15.584640">
        <ele>297.248</ele>
        <time>2025-03-16T13:49:29.073Z</time>
      </trkpt>
      <trkpt lat="27.832726" lon="-15.584543">
        <ele>290.112</ele>
        <time>2025-03-16T13:50:15.074Z</time>
      </trkpt>
      <trkpt lat="27.833724" lon="-15.584758">
        <ele>292.577</ele>
        <time>2025-03-16T13:51:47.075Z</time>
      </trkpt>
      <trkpt lat="27.835912" lon="-15.584345">
        <ele>297.461</ele>
        <time>2025-03-16T14:07:33.076Z</time>
      </trkpt>
      <trkpt lat="27.836096" lon="-15.584091">
        <ele>294.927</ele>
        <time>2025-03-16T14:08:00.076Z</time>
      </trkpt>
      <trkpt lat="27.835072" lon="-15.583493">
        <ele>292.809</ele>
        <time>2025-03-16T14:09:38.076Z</time>
      </trkpt>
      <trkpt lat="27.834864" lon="-15.583116">
        <ele>293.469</ele>
        <time>2025-03-16T14:10:11.076Z</time>
      </trkpt>
      <trkpt lat="27.834471" lon="-15.583526">
        <ele>296.247</ele>
        <time>2025-03-16T14:11:05.076Z</time>
      </trkpt>
      <trkpt lat="27.834284" lon="-15.583544">
        <ele>298.162</ele>
        <time>2025-03-16T14:11:24.076Z</time>
      </trkpt>
      <trkpt lat="27.834294" lon="-15.583039">
        <ele>302.569</ele>
        <time>2025-03-16T14:12:07.076Z</time>
      </trkpt>
      <trkpt lat="27.833547" lon="-15.582127">
        <ele>305.982</ele>
        <time>2025-03-16T14:13:43.076Z</time>
      </trkpt>
      <trkpt lat="27.833524" lon="-15.581753">
        <ele>306.249</ele>
        <time>2025-03-16T14:14:09.076Z</time>
      </trkpt>
      <trkpt lat="27.833743" lon="-15.581326">
        <ele>307.848</ele>
        <time>2025-03-16T14:14:49.076Z</time>
      </trkpt>
      <trkpt lat="27.833839" lon="-15.581297">
        <ele>308.979</ele>
        <time>2025-03-16T14:14:59.076Z</time>
      </trkpt>
      <trkpt lat="27.833905" lon="-15.581572">
        <ele>312.493</ele>
        <time>2025-03-16T14:15:35.076Z</time>
      </trkpt>
      <trkpt lat="27.834238" lon="-15.580991">
        <ele>322.073</ele>
        <time>2025-03-16T14:16:56.076Z</time>
      </trkpt>
      <trkpt lat="27.834276" lon="-15.581520">
        <ele>330.485</ele>
        <time>2025-03-16T14:18:12.076Z</time>
      </trkpt>
      <trkpt lat="27.834637" lon="-15.581061">
        <ele>336.013</ele>
        <time>2025-03-16T14:19:10.076Z</time>
      </trkpt>
      <trkpt lat="27.835324" lon="-15.581020">
        <ele>342.509</ele>
        <time>2025-03-16T14:20:28.076Z</time>
      </trkpt>
      <trkpt lat="27.835731" lon="-15.581387">
        <ele>348.719</ele>
        <time>2025-03-16T14:21:41.076Z</time>
      </trkpt>
      <trkpt lat="27.835664" lon="-15.581715">
        <ele>351.227</ele>
        <time>2025-03-16T14:22:13.076Z</time>
      </trkpt>
      <trkpt lat="27.835377" lon="-15.582015">
        <ele>355.212</ele>
        <time>2025-03-16T14:22:53.076Z</time>
      </trkpt>
      <trkpt lat="27.835576" lon="-15.582100">
        <ele>358.849</ele>
        <time>2025-03-16T14:23:27.076Z</time>
      </trkpt>
      <trkpt lat="27.836894" lon="-15.580272">
        <ele>381.082</ele>
        <time>2025-03-16T14:27:20.076Z</time>
      </trkpt>
      <trkpt lat="27.837111" lon="-15.580038">
        <ele>383.559</ele>
        <time>2025-03-16T14:27:49.076Z</time>
      </trkpt>
      <trkpt lat="27.837402" lon="-15.579978">
        <ele>384.878</ele>
        <time>2025-03-16T14:28:23.076Z</time>
      </trkpt>
      <trkpt lat="27.837644" lon="-15.579376">
        <ele>387.079</ele>
        <time>2025-03-16T14:29:25.076Z</time>
      </trkpt>
      <trkpt lat="27.838185" lon="-15.579014">
        <ele>394.893</ele>
        <time>2025-03-16T14:30:45.076Z</time>
      </trkpt>
      <trkpt lat="27.838771" lon="-15.578995">
        <ele>400.617</ele>
        <time>2025-03-16T14:31:47.076Z</time>
      </trkpt>
      <trkpt lat="27.838847" lon="-15.578328">
        <ele>408.087</ele>
        <time>2025-03-16T14:33:18.076Z</time>
      </trkpt>
      <trkpt lat="27.839956" lon="-15.578061">
        <ele>424.015</ele>
        <time>2025-03-16T15:01:43.076Z</time>
      </trkpt>
      <trkpt lat="27.839187" lon="-15.578675">
        <ele>425.609</ele>
        <time>2025-03-16T15:05:07.076Z</time>
      </trkpt>
      <trkpt lat="27.838954" lon="-15.579290">
        <ele>425.683</ele>
        <time>2025-03-16T15:06:01.076Z</time>
      </trkpt>
      <trkpt lat="27.838428" lon="-15.579492">
        <ele>426.871</ele>
        <time>2025-03-16T15:06:47.076Z</time>
      </trkpt>
      <trkpt lat="27.838080" lon="-15.579805">
        <ele>428.356</ele>
        <time>2025-03-16T15:07:26.077Z</time>
      </trkpt>
      <trkpt lat="27.837402" lon="-15.580937">
        <ele>432.633</ele>
        <time>2025-03-16T15:09:17.077Z</time>
      </trkpt>
      <trkpt lat="27.837101" lon="-15.582007">
        <ele>436.286</ele>
        <time>2025-03-16T15:10:54.078Z</time>
      </trkpt>
      <trkpt lat="27.838043" lon="-15.582317">
        <ele>443.833</ele>
        <time>2025-03-16T15:12:28.079Z</time>
      </trkpt>
      <trkpt lat="27.839070" lon="-15.582150">
        <ele>442.682</ele>
        <time>2025-03-16T15:13:57.080Z</time>
      </trkpt>
      <trkpt lat="27.839626" lon="-15.582690">
        <ele>444.673</ele>
        <time>2025-03-16T15:15:06.080Z</time>
      </trkpt>
      <trkpt lat="27.840230" lon="-15.582533">
        <ele>449.887</ele>
        <time>2025-03-16T15:16:06.080Z</time>
      </trkpt>
      <trkpt lat="27.841837" lon="-15.582813">
        <ele>461.792</ele>
        <time>2025-03-16T15:18:45.081Z</time>
      </trkpt>
      <trkpt lat="27.842394" lon="-15.582766">
        <ele>464.573</ele>
        <time>2025-03-16T15:19:38.081Z</time>
      </trkpt>
      <trkpt lat="27.843221" lon="-15.582427">
        <ele>470.220</ele>
        <time>2025-03-16T15:21:28.082Z</time>
      </trkpt>
      <trkpt lat="27.844751" lon="-15.582944">
        <ele>481.309</ele>
        <time>2025-03-16T15:24:25.084Z</time>
      </trkpt>
      <trkpt lat="27.846055" lon="-15.583014">
        <ele>492.691</ele>
        <time>2025-03-16T15:27:35.085Z</time>
      </trkpt>
      <trkpt lat="27.846566" lon="-15.583174">
        <ele>501.499</ele>
        <time>2025-03-16T15:28:49.086Z</time>
      </trkpt>
      <trkpt lat="27.846369" lon="-15.583549">
        <ele>502.694</ele>
        <time>2025-03-16T15:29:32.086Z</time>
      </trkpt>
      <trkpt lat="27.845826" lon="-15.583902">
        <ele>503.481</ele>
        <time>2025-03-16T15:30:30.087Z</time>
      </trkpt>
      <trkpt lat="27.845323" lon="-15.584461">
        <ele>507.474</ele>
        <time>2025-03-16T15:31:38.087Z</time>
      </trkpt>
      <trkpt lat="27.843697" lon="-15.585014">
        <ele>501.321</ele>
        <time>2025-03-16T15:34:15.088Z</time>
      </trkpt>
      <trkpt lat="27.843364" lon="-15.585833">
        <ele>499.150</ele>
        <time>2025-03-16T15:35:28.089Z</time>
      </trkpt>
      <trkpt lat="27.843416" lon="-15.587092">
        <ele>498.361</ele>
        <time>2025-03-16T15:37:14.090Z</time>
      </trkpt>
      <trkpt lat="27.844818" lon="-15.587020">
        <ele>486.595</ele>
        <time>2025-03-16T15:39:29.091Z</time>
      </trkpt>
      <trkpt lat="27.845728" lon="-15.587262">
        <ele>478.947</ele>
        <time>2025-03-16T15:40:55.092Z</time>
      </trkpt>
      <trkpt lat="27.846944" lon="-15.587325">
        <ele>469.229</ele>
        <time>2025-03-16T15:42:48.092Z</time>
      </trkpt>
      <trkpt lat="27.848062" lon="-15.586984">
        <ele>458.121</ele>
        <time>2025-03-16T15:44:37.093Z</time>
      </trkpt>
      <trkpt lat="27.848449" lon="-15.587045">
        <ele>454.309</ele>
        <time>2025-03-16T15:45:13.094Z</time>
      </trkpt>
      <trkpt lat="27.848925" lon="-15.586918">
        <ele>452.236</ele>
        <time>2025-03-16T15:46:03.094Z</time>
      </trkpt>
      <trkpt lat="27.849672" lon="-15.587084">
        <ele>451.734</ele>
        <time>2025-03-16T15:47:12.095Z</time>
      </trkpt>
      <trkpt lat="27.850689" lon="-15.586955">
        <ele>449.129</ele>
        <time>2025-03-16T15:48:50.095Z</time>
      </trkpt>
      <trkpt lat="27.852014" lon="-15.587245">
        <ele>447.486</ele>
        <time>2025-03-16T15:50:50.096Z</time>
      </trkpt>
      <trkpt lat="27.852848" lon="-15.587711">
        <ele>448.069</ele>
        <time>2025-03-16T15:52:21.097Z</time>
      </trkpt>
      <trkpt lat="27.853099" lon="-15.588023">
        <ele>446.976</ele>
        <time>2025-03-16T15:52:52.097Z</time>
      </trkpt>
      <trkpt lat="27.853083" lon="-15.588191">
        <ele>446.935</ele>
        <time>2025-03-16T15:53:04.097Z</time>
      </trkpt>
      <trkpt lat="27.852784" lon="-15.588294">
        <ele>447.536</ele>
        <time>2025-03-16T15:56:09.097Z</time>
      </trkpt>
      <trkpt lat="27.853054" lon="-15.588346">
        <ele>447.430</ele>
        <time>2025-03-16T16:02:05.097Z</time>
      </trkpt>
      <trkpt lat="27.851994" lon="-15.588003">
        <ele>451.181</ele>
        <time>2025-03-16T16:20:16.098Z</time>
      </trkpt>
      <trkpt lat="27.851525" lon="-15.588234">
        <ele>450.661</ele>
        <time>2025-03-16T16:21:03.099Z</time>
      </trkpt>
      <trkpt lat="27.851106" lon="-15.588211">
        <ele>450.817</ele>
        <time>2025-03-16T16:21:47.099Z</time>
      </trkpt>
      <trkpt lat="27.850902" lon="-15.588415">
        <ele>450.609</ele>
        <time>2025-03-16T16:22:08.099Z</time>
      </trkpt>
      <trkpt lat="27.850660" lon="-15.588362">
        <ele>451.680</ele>
        <time>2025-03-16T16:22:28.099Z</time>
      </trkpt>
      <trkpt lat="27.850485" lon="-15.588704">
        <ele>452.478</ele>
        <time>2025-03-16T16:22:59.100Z</time>
      </trkpt>
      <trkpt lat="27.849931" lon="-15.589027">
        <ele>451.273</ele>
        <time>2025-03-16T16:23:55.100Z</time>
      </trkpt>
      <trkpt lat="27.849068" lon="-15.589032">
        <ele>450.410</ele>
        <time>2025-03-16T16:25:09.101Z</time>
      </trkpt>
      <trkpt lat="27.848861" lon="-15.589171">
        <ele>449.643</ele>
        <time>2025-03-16T16:25:31.101Z</time>
      </trkpt>
      <trkpt lat="27.848545" lon="-15.589623">
        <ele>450.650</ele>
        <time>2025-03-16T16:26:21.101Z</time>
      </trkpt>
      <trkpt lat="27.848369" lon="-15.590502">
        <ele>453.799</ele>
        <time>2025-03-16T16:27:37.102Z</time>
      </trkpt>
      <trkpt lat="27.848204" lon="-15.590616">
        <ele>454.260</ele>
        <time>2025-03-16T16:27:56.102Z</time>
      </trkpt>
      <trkpt lat="27.847692" lon="-15.590512">
        <ele>456.814</ele>
        <time>2025-03-16T16:28:44.102Z</time>
      </trkpt>
      <trkpt lat="27.847462" lon="-15.591368">
        <ele>457.625</ele>
        <time>2025-03-16T16:30:20.103Z</time>
      </trkpt>
      <trkpt lat="27.846601" lon="-15.591361">
        <ele>458.326</ele>
        <time>2025-03-16T16:31:36.104Z</time>
      </trkpt>
      <trkpt lat="27.846312" lon="-15.591888">
        <ele>458.408</ele>
        <time>2025-03-16T16:32:27.104Z</time>
      </trkpt>
      <trkpt lat="27.845580" lon="-15.591959">
        <ele>460.309</ele>
        <time>2025-03-16T16:33:45.105Z</time>
      </trkpt>
      <trkpt lat="27.844546" lon="-15.592868">
        <ele>463.454</ele>
        <time>2025-03-16T16:35:37.106Z</time>
      </trkpt>
      <trkpt lat="27.844309" lon="-15.593685">
        <ele>464.172</ele>
        <time>2025-03-16T16:36:44.106Z</time>
      </trkpt>
      <trkpt lat="27.843926" lon="-15.594081">
        <ele>464.817</ele>
        <time>2025-03-16T16:37:25.106Z</time>
      </trkpt>
      <trkpt lat="27.843383" lon="-15.595188">
        <ele>463.854</ele>
        <time>2025-03-16T16:38:54.107Z</time>
      </trkpt>
      <trkpt lat="27.843548" lon="-15.595649">
        <ele>464.177</ele>
        <time>2025-03-16T16:39:33.107Z</time>
      </trkpt>
      <trkpt lat="27.844696" lon="-15.596214">
        <ele>473.954</ele>
        <time>2025-03-16T16:41:35.108Z</time>
      </trkpt>
      <trkpt lat="27.845355" lon="-15.595572">
        <ele>477.183</ele>
        <time>2025-03-16T16:42:56.109Z</time>
      </trkpt>
      <trkpt lat="27.845825" lon="-15.595358">
        <ele>478.734</ele>
        <time>2025-03-16T16:43:49.109Z</time>
      </trkpt>
      <trkpt lat="27.846752" lon="-15.596136">
        <ele>482.178</ele>
        <time>2025-03-16T16:46:38.110Z</time>
      </trkpt>
      <trkpt lat="27.847494" lon="-15.596078">
        <ele>482.097</ele>
        <time>2025-03-16T16:47:44.110Z</time>
      </trkpt>
      <trkpt lat="27.848161" lon="-15.596257">
        <ele>482.423</ele>
        <time>2025-03-16T16:48:46.111Z</time>
      </trkpt>
      <trkpt lat="27.849437" lon="-15.595224">
        <ele>481.125</ele>
        <time>2025-03-16T16:51:41.112Z</time>
      </trkpt>
      <trkpt lat="27.849834" lon="-15.595191">
        <ele>479.209</ele>
        <time>2025-03-16T16:52:11.112Z</time>
      </trkpt>
      <trkpt lat="27.850117" lon="-15.594706">
        <ele>477.411</ele>
        <time>2025-03-16T16:52:57.113Z</time>
      </trkpt>
      <trkpt lat="27.850500" lon="-15.594396">
        <ele>476.269</ele>
        <time>2025-03-16T16:53:33.113Z</time>
      </trkpt>
      <trkpt lat="27.850712" lon="-15.594337">
        <ele>475.674</ele>
        <time>2025-03-16T16:53:49.113Z</time>
      </trkpt>
      <trkpt lat="27.851214" lon="-15.594497">
        <ele>473.671</ele>
        <time>2025-03-16T16:54:29.114Z</time>
      </trkpt>
      <trkpt lat="27.851620" lon="-15.594832">
        <ele>471.784</ele>
        <time>2025-03-16T16:55:09.114Z</time>
      </trkpt>
      <trkpt lat="27.852183" lon="-15.594891">
        <ele>470.611</ele>
        <time>2025-03-16T16:55:59.114Z</time>
      </trkpt>
      <trkpt lat="27.852465" lon="-15.594669">
        <ele>469.770</ele>
        <time>2025-03-16T16:56:33.115Z</time>
      </trkpt>
      <trkpt lat="27.852832" lon="-15.593998">
        <ele>464.871</ele>
        <time>2025-03-16T16:57:55.115Z</time>
      </trkpt>
      <trkpt lat="27.853201" lon="-15.593788">
        <ele>461.635</ele>
        <time>2025-03-16T16:58:27.115Z</time>
      </trkpt>
      <trkpt lat="27.853576" lon="-15.594032">
        <ele>457.593</ele>
        <time>2025-03-16T16:59:05.116Z</time>
      </trkpt>
      <trkpt lat="27.853782" lon="-15.594725">
        <ele>453.865</ele>
        <time>2025-03-16T16:59:59.116Z</time>
      </trkpt>
      <trkpt lat="27.854170" lon="-15.594711">
        <ele>451.521</ele>
        <time>2025-03-16T17:00:32.116Z</time>
      </trkpt>
      <trkpt lat="27.854474" lon="-15.594423">
        <ele>448.109</ele>
        <time>2025-03-16T17:01:07.117Z</time>
      </trkpt>
      <trkpt lat="27.855599" lon="-15.594325">
        <ele>440.051</ele>
        <time>2025-03-16T17:02:39.117Z</time>
      </trkpt>
      <trkpt lat="27.856062" lon="-15.594756">
        <ele>435.179</ele>
        <time>2025-03-16T17:03:27.118Z</time>
      </trkpt>
      <trkpt lat="27.856158" lon="-15.595238">
        <ele>431.644</ele>
        <time>2025-03-16T17:04:06.118Z</time>
      </trkpt>
      <trkpt lat="27.856069" lon="-15.595433">
        <ele>431.411</ele>
        <time>2025-03-16T17:06:26.118Z</time>
      </trkpt>
      <trkpt lat="27.856058" lon="-15.595305">
        <ele>431.574</ele>
        <time>2025-03-16T17:07:55.118Z</time>
      </trkpt>
      <trkpt lat="27.855723" lon="-15.595512">
        <ele>430.281</ele>
        <time>2025-03-16T17:21:31.119Z</time>
      </trkpt>
      <trkpt lat="27.855129" lon="-15.595598">
        <ele>429.350</ele>
        <time>2025-03-16T17:22:27.120Z</time>
      </trkpt>
      <trkpt lat="27.853524" lon="-15.596330">
        <ele>422.531</ele>
        <time>2025-03-16T17:25:11.121Z</time>
      </trkpt>
      <trkpt lat="27.852213" lon="-15.596405">
        <ele>418.815</ele>
        <time>2025-03-16T17:27:15.122Z</time>
      </trkpt>
      <trkpt lat="27.851726" lon="-15.596733">
        <ele>418.346</ele>
        <time>2025-03-16T17:28:10.123Z</time>
      </trkpt>
      <trkpt lat="27.851229" lon="-15.596691">
        <ele>418.988</ele>
        <time>2025-03-16T17:28:59.123Z</time>
      </trkpt>
      <trkpt lat="27.850928" lon="-15.597180">
        <ele>418.816</ele>
        <time>2025-03-16T17:29:57.123Z</time>
      </trkpt>
      <trkpt lat="27.849811" lon="-15.597727">
        <ele>420.209</ele>
        <time>2025-03-16T17:31:37.124Z</time>
      </trkpt>
      <trkpt lat="27.849610" lon="-15.598571">
        <ele>420.556</ele>
        <time>2025-03-16T17:32:45.125Z</time>
      </trkpt>
      <trkpt lat="27.848141" lon="-15.599746">
        <ele>423.924</ele>
        <time>2025-03-16T17:35:16.126Z</time>
      </trkpt>
      <trkpt lat="27.846846" lon="-15.600186">
        <ele>427.319</ele>
        <time>2025-03-16T17:37:11.127Z</time>
      </trkpt>
      <trkpt lat="27.844703" lon="-15.601312">
        <ele>433.226</ele>
        <time>2025-03-16T17:40:43.129Z</time>
      </trkpt>
      <trkpt lat="27.843679" lon="-15.601301">
        <ele>435.659</ele>
        <time>2025-03-16T17:42:07.129Z</time>
      </trkpt>
      <trkpt lat="27.843053" lon="-15.601524">
        <ele>437.676</ele>
        <time>2025-03-16T17:43:03.130Z</time>
      </trkpt>
      <trkpt lat="27.842503" lon="-15.601516">
        <ele>439.385</ele>
        <time>2025-03-16T17:43:47.130Z</time>
      </trkpt>
      <trkpt lat="27.840831" lon="-15.600560">
        <ele>444.536</ele>
        <time>2025-03-16T17:46:27.131Z</time>
      </trkpt>
      <trkpt lat="27.839969" lon="-15.600510">
        <ele>448.810</ele>
        <time>2025-03-16T17:47:51.132Z</time>
      </trkpt>
      <trkpt lat="27.837877" lon="-15.600862">
        <ele>460.459</ele>
        <time>2025-03-16T17:51:11.132Z</time>
      </trkpt>
      <trkpt lat="27.836893" lon="-15.601402">
        <ele>471.403</ele>
        <time>2025-03-16T17:53:15.132Z</time>
      </trkpt>
      <trkpt lat="27.835387" lon="-15.601823">
        <ele>482.923</ele>
        <time>2025-03-16T17:55:50.132Z</time>
      </trkpt>
      <trkpt lat="27.834343" lon="-15.601613">
        <ele>469.109</ele>
        <time>2025-03-17T09:35:16.132Z</time>
      </trkpt>
      <trkpt lat="27.835374" lon="-15.601807">
        <ele>468.847</ele>
        <time>2025-03-17T09:38:14.133Z</time>
      </trkpt>
      <trkpt lat="27.836978" lon="-15.602793">
        <ele>478.795</ele>
        <time>2025-03-17T09:41:17.134Z</time>
      </trkpt>
      <trkpt lat="27.837813" lon="-15.602545">
        <ele>471.150</ele>
        <time>2025-03-17T09:42:43.135Z</time>
      </trkpt>
      <trkpt lat="27.839347" lon="-15.602902">
        <ele>452.347</ele>
        <time>2025-03-17T09:45:08.136Z</time>
      </trkpt>
      <trkpt lat="27.841038" lon="-15.602480">
        <ele>438.880</ele>
        <time>2025-03-17T09:47:44.137Z</time>
      </trkpt>
      <trkpt lat="27.843424" lon="-15.602870">
        <ele>422.887</ele>
        <time>2025-03-17T09:51:18.139Z</time>
      </trkpt>
      <trkpt lat="27.843437" lon="-15.603080">
        <ele>420.866</ele>
        <time>2025-03-17T09:51:41.139Z</time>
      </trkpt>
      <trkpt lat="27.842284" lon="-15.603201">
        <ele>411.787</ele>
        <time>2025-03-17T09:53:20.140Z</time>
      </trkpt>
      <trkpt lat="27.841359" lon="-15.603716">
        <ele>404.561</ele>
        <time>2025-03-17T09:54:48.140Z</time>
      </trkpt>
      <trkpt lat="27.839936" lon="-15.603961">
        <ele>391.055</ele>
        <time>2025-03-17T09:57:01.141Z</time>
      </trkpt>
      <trkpt lat="27.840419" lon="-15.604279">
        <ele>383.507</ele>
        <time>2025-03-17T09:57:53.141Z</time>
      </trkpt>
      <trkpt lat="27.841682" lon="-15.604688">
        <ele>372.017</ele>
        <time>2025-03-17T09:59:49.142Z</time>
      </trkpt>
      <trkpt lat="27.842960" lon="-15.604716">
        <ele>364.709</ele>
        <time>2025-03-17T10:01:49.142Z</time>
      </trkpt>
      <trkpt lat="27.843671" lon="-15.604130">
        <ele>360.257</ele>
        <time>2025-03-17T10:03:08.142Z</time>
      </trkpt>
      <trkpt lat="27.844249" lon="-15.604727">
        <ele>355.925</ele>
        <time>2025-03-17T10:04:15.142Z</time>
      </trkpt>
      <trkpt lat="27.844667" lon="-15.604421">
        <ele>351.710</ele>
        <time>2025-03-17T10:05:02.142Z</time>
      </trkpt>
      <trkpt lat="27.845176" lon="-15.604623">
        <ele>347.787</ele>
        <time>2025-03-17T10:05:48.143Z</time>
      </trkpt>
      <trkpt lat="27.845779" lon="-15.604459">
        <ele>343.460</ele>
        <time>2025-03-17T10:06:43.143Z</time>
      </trkpt>
      <trkpt lat="27.846405" lon="-15.604824">
        <ele>340.587</ele>
        <time>2025-03-17T10:07:41.143Z</time>
      </trkpt>
      <trkpt lat="27.846948" lon="-15.604874">
        <ele>337.986</ele>
        <time>2025-03-17T10:08:41.143Z</time>
      </trkpt>
      <trkpt lat="27.847374" lon="-15.605178">
        <ele>335.417</ele>
        <time>2025-03-17T10:09:23.143Z</time>
      </trkpt>
      <trkpt lat="27.847905" lon="-15.605216">
        <ele>332.311</ele>
        <time>2025-03-17T10:10:13.144Z</time>
      </trkpt>
      <trkpt lat="27.848408" lon="-15.605732">
        <ele>329.777</ele>
        <time>2025-03-17T10:11:11.144Z</time>
      </trkpt>
      <trkpt lat="27.849029" lon="-15.605287">
        <ele>324.461</ele>
        <time>2025-03-17T10:12:21.145Z</time>
      </trkpt>
      <trkpt lat="27.849328" lon="-15.605275">
        <ele>321.927</ele>
        <time>2025-03-17T10:12:44.145Z</time>
      </trkpt>
      <trkpt lat="27.849900" lon="-15.605960">
        <ele>318.209</ele>
        <time>2025-03-17T10:14:00.146Z</time>
      </trkpt>
      <trkpt lat="27.850719" lon="-15.605821">
        <ele>314.219</ele>
        <time>2025-03-17T10:15:19.146Z</time>
      </trkpt>
      <trkpt lat="27.851150" lon="-15.606120">
        <ele>312.797</ele>
        <time>2025-03-17T10:16:01.147Z</time>
      </trkpt>
      <trkpt lat="27.851427" lon="-15.606534">
        <ele>312.742</ele>
        <time>2025-03-17T10:16:44.147Z</time>
      </trkpt>
      <trkpt lat="27.851563" lon="-15.607072">
        <ele>312.779</ele>
        <time>2025-03-17T10:17:35.147Z</time>
      </trkpt>
      <trkpt lat="27.851404" lon="-15.607441">
        <ele>311.882</ele>
        <time>2025-03-17T10:18:07.148Z</time>
      </trkpt>
      <trkpt lat="27.850574" lon="-15.607499">
        <ele>310.429</ele>
        <time>2025-03-17T10:19:28.148Z</time>
      </trkpt>
      <trkpt lat="27.850379" lon="-15.607740">
        <ele>312.188</ele>
        <time>2025-03-17T10:20:39.149Z</time>
      </trkpt>
      <trkpt lat="27.850673" lon="-15.607459">
        <ele>310.439</ele>
        <time>2025-03-17T11:52:41.150Z</time>
      </trkpt>
      <trkpt lat="27.851383" lon="-15.607459">
        <ele>308.833</ele>
        <time>2025-03-17T11:53:46.150Z</time>
      </trkpt>
      <trkpt lat="27.851853" lon="-15.606781">
        <ele>312.817</ele>
        <time>2025-03-17T11:55:11.151Z</time>
      </trkpt>
      <trkpt lat="27.852176" lon="-15.606656">
        <ele>314.187</ele>
        <time>2025-03-17T11:55:43.151Z</time>
      </trkpt>
      <trkpt lat="27.852730" lon="-15.606691">
        <ele>313.315</ele>
        <time>2025-03-17T11:56:32.151Z</time>
      </trkpt>
      <trkpt lat="27.853452" lon="-15.606999">
        <ele>313.009</ele>
        <time>2025-03-17T11:57:40.152Z</time>
      </trkpt>
      <trkpt lat="27.854200" lon="-15.606264">
        <ele>322.713</ele>
        <time>2025-03-17T11:59:19.153Z</time>
      </trkpt>
      <trkpt lat="27.855029" lon="-15.606330">
        <ele>317.821</ele>
        <time>2025-03-17T12:00:33.153Z</time>
      </trkpt>
      <trkpt lat="27.855064" lon="-15.606173">
        <ele>317.166</ele>
        <time>2025-03-17T12:00:46.153Z</time>
      </trkpt>
      <trkpt lat="27.854645" lon="-15.605582">
        <ele>318.563</ele>
        <time>2025-03-17T12:01:46.154Z</time>
      </trkpt>
      <trkpt lat="27.854702" lon="-15.605433">
        <ele>318.996</ele>
        <time>2025-03-17T12:01:59.154Z</time>
      </trkpt>
      <trkpt lat="27.855506" lon="-15.605051">
        <ele>323.743</ele>
        <time>2025-03-17T12:03:16.155Z</time>
      </trkpt>
      <trkpt lat="27.856147" lon="-15.605013">
        <ele>323.292</ele>
        <time>2025-03-17T12:04:09.155Z</time>
      </trkpt>
      <trkpt lat="27.856443" lon="-15.604100">
        <ele>334.223</ele>
        <time>2025-03-17T12:07:05.156Z</time>
      </trkpt>
      <trkpt lat="27.856387" lon="-15.603731">
        <ele>335.927</ele>
        <time>2025-03-17T12:07:36.157Z</time>
      </trkpt>
      <trkpt lat="27.856508" lon="-15.603739">
        <ele>337.241</ele>
        <time>2025-03-17T12:07:49.157Z</time>
      </trkpt>
      <trkpt lat="27.856719" lon="-15.604174">
        <ele>341.381</ele>
        <time>2025-03-17T12:08:37.157Z</time>
      </trkpt>
      <trkpt lat="27.856958" lon="-15.603522">
        <ele>350.109</ele>
        <time>2025-03-17T12:10:11.158Z</time>
      </trkpt>
      <trkpt lat="27.857584" lon="-15.603349">
        <ele>354.309</ele>
        <time>2025-03-17T12:11:12.158Z</time>
      </trkpt>
      <trkpt lat="27.858210" lon="-15.601634">
        <ele>348.996</ele>
        <time>2025-03-17T12:13:38.160Z</time>
      </trkpt>
      <trkpt lat="27.858697" lon="-15.601406">
        <ele>348.554</ele>
        <time>2025-03-17T12:14:26.160Z</time>
      </trkpt>
      <trkpt lat="27.859133" lon="-15.601504">
        <ele>347.069</ele>
        <time>2025-03-17T12:15:06.160Z</time>
      </trkpt>
      <trkpt lat="27.859362" lon="-15.601846">
        <ele>352.786</ele>
        <time>2025-03-17T12:15:54.161Z</time>
      </trkpt>
      <trkpt lat="27.859716" lon="-15.601811">
        <ele>360.139</ele>
        <time>2025-03-17T12:16:44.161Z</time>
      </trkpt>
      <trkpt lat="27.859897" lon="-15.602071">
        <ele>364.626</ele>
        <time>2025-03-17T12:17:21.161Z</time>
      </trkpt>
      <trkpt lat="27.859787" lon="-15.602551">
        <ele>369.985</ele>
        <time>2025-03-17T12:18:24.162Z</time>
      </trkpt>
      <trkpt lat="27.860088" lon="-15.602298">
        <ele>377.866</ele>
        <time>2025-03-17T12:19:21.162Z</time>
      </trkpt>
      <trkpt lat="27.860656" lon="-15.602139">
        <ele>387.430</ele>
        <time>2025-03-17T12:20:37.163Z</time>
      </trkpt>
      <trkpt lat="27.861467" lon="-15.602394">
        <ele>406.281</ele>
        <time>2025-03-17T12:23:12.164Z</time>
      </trkpt>
      <trkpt lat="27.860959" lon="-15.601572">
        <ele>423.861</ele>
        <time>2025-03-17T12:25:35.165Z</time>
      </trkpt>
      <trkpt lat="27.861568" lon="-15.601602">
        <ele>430.217</ele>
        <time>2025-03-17T12:26:45.166Z</time>
      </trkpt>
      <trkpt lat="27.861746" lon="-15.601077">
        <ele>437.309</ele>
        <time>2025-03-17T12:28:11.166Z</time>
      </trkpt>
      <trkpt lat="27.862462" lon="-15.601185">
        <ele>449.670</ele>
        <time>2025-03-17T12:42:49.166Z</time>
      </trkpt>
      <trkpt lat="27.863164" lon="-15.601626">
        <ele>472.558</ele>
        <time>2025-03-17T12:45:47.168Z</time>
      </trkpt>
      <trkpt lat="27.862978" lon="-15.601347">
        <ele>478.763</ele>
        <time>2025-03-17T12:46:50.168Z</time>
      </trkpt>
      <trkpt lat="27.863139" lon="-15.601283">
        <ele>482.410</ele>
        <time>2025-03-17T12:47:34.169Z</time>
      </trkpt>
      <trkpt lat="27.863023" lon="-15.601124">
        <ele>486.483</ele>
        <time>2025-03-17T12:48:19.169Z</time>
      </trkpt>
      <trkpt lat="27.863560" lon="-15.600908">
        <ele>501.640</ele>
        <time>2025-03-17T12:50:26.170Z</time>
      </trkpt>
      <trkpt lat="27.863483" lon="-15.599947">
        <ele>512.859</ele>
        <time>2025-03-17T12:52:15.171Z</time>
      </trkpt>
      <trkpt lat="27.863893" lon="-15.599288">
        <ele>514.550</ele>
        <time>2025-03-17T12:53:32.172Z</time>
      </trkpt>
      <trkpt lat="27.865099" lon="-15.598767">
        <ele>527.224</ele>
        <time>2025-03-17T12:57:14.172Z</time>
      </trkpt>
      <trkpt lat="27.866375" lon="-15.598653">
        <ele>552.215</ele>
        <time>2025-03-17T13:01:49.174Z</time>
      </trkpt>
      <trkpt lat="27.867216" lon="-15.598232">
        <ele>575.265</ele>
        <time>2025-03-17T13:05:44.176Z</time>
      </trkpt>
      <trkpt lat="27.867443" lon="-15.598357">
        <ele>581.711</ele>
        <time>2025-03-17T13:17:32.177Z</time>
      </trkpt>
      <trkpt lat="27.867696" lon="-15.598186">
        <ele>589.009</ele>
        <time>2025-03-17T13:18:52.178Z</time>
      </trkpt>
      <trkpt lat="27.867993" lon="-15.598212">
        <ele>593.793</ele>
        <time>2025-03-17T13:19:41.178Z</time>
      </trkpt>
      <trkpt lat="27.868732" lon="-15.598530">
        <ele>600.881</ele>
        <time>2025-03-17T13:21:22.179Z</time>
      </trkpt>
      <trkpt lat="27.869197" lon="-15.598468">
        <ele>610.146</ele>
        <time>2025-03-17T13:22:53.180Z</time>
      </trkpt>
      <trkpt lat="27.869710" lon="-15.598610">
        <ele>620.823</ele>
        <time>2025-03-17T13:24:35.180Z</time>
      </trkpt>
      <trkpt lat="27.869918" lon="-15.598488">
        <ele>626.846</ele>
        <time>2025-03-17T13:25:28.181Z</time>
      </trkpt>
      <trkpt lat="27.870207" lon="-15.598702">
        <ele>630.823</ele>
        <time>2025-03-17T13:26:17.181Z</time>
      </trkpt>
      <trkpt lat="27.870686" lon="-15.598795">
        <ele>640.952</ele>
        <time>2025-03-17T13:28:38.182Z</time>
      </trkpt>
      <trkpt lat="27.870984" lon="-15.598654">
        <ele>647.773</ele>
        <time>2025-03-17T13:29:58.183Z</time>
      </trkpt>
      <trkpt lat="27.871431" lon="-15.598760">
        <ele>656.547</ele>
        <time>2025-03-17T13:31:54.184Z</time>
      </trkpt>
      <trkpt lat="27.871940" lon="-15.598480">
        <ele>671.186</ele>
        <time>2025-03-17T13:34:36.185Z</time>
      </trkpt>
      <trkpt lat="27.872772" lon="-15.598524">
        <ele>688.260</ele>
        <time>2025-03-17T13:37:37.187Z</time>
      </trkpt>
      <trkpt lat="27.873026" lon="-15.598402">
        <ele>695.026</ele>
        <time>2025-03-17T13:38:32.187Z</time>
      </trkpt>
      <trkpt lat="27.874673" lon="-15.598803">
        <ele>712.409</ele>
        <time>2025-03-17T13:42:34.189Z</time>
      </trkpt>
      <trkpt lat="27.875041" lon="-15.599106">
        <ele>715.580</ele>
        <time>2025-03-17T13:43:51.190Z</time>
      </trkpt>
      <trkpt lat="27.875574" lon="-15.598982">
        <ele>723.278</ele>
        <time>2025-03-17T13:45:39.190Z</time>
      </trkpt>
      <trkpt lat="27.876702" lon="-15.599735">
        <ele>740.773</ele>
        <time>2025-03-17T14:07:08.194Z</time>
      </trkpt>
      <trkpt lat="27.876924" lon="-15.600142">
        <ele>746.180</ele>
        <time>2025-03-17T14:08:07.194Z</time>
      </trkpt>
      <trkpt lat="27.877469" lon="-15.599829">
        <ele>749.553</ele>
        <time>2025-03-17T14:09:23.195Z</time>
      </trkpt>
      <trkpt lat="27.877804" lon="-15.600275">
        <ele>756.940</ele>
        <time>2025-03-17T14:10:49.195Z</time>
      </trkpt>
      <trkpt lat="27.877774" lon="-15.600121">
        <ele>759.949</ele>
        <time>2025-03-17T14:11:32.196Z</time>
      </trkpt>
      <trkpt lat="27.878160" lon="-15.600290">
        <ele>769.010</ele>
        <time>2025-03-17T14:12:50.196Z</time>
      </trkpt>
      <trkpt lat="27.878019" lon="-15.599964">
        <ele>776.874</ele>
        <time>2025-03-17T14:14:12.197Z</time>
      </trkpt>
      <trkpt lat="27.878535" lon="-15.600005">
        <ele>787.862</ele>
        <time>2025-03-17T14:16:01.198Z</time>
      </trkpt>
      <trkpt lat="27.878746" lon="-15.600986">
        <ele>802.883</ele>
        <time>2025-03-17T14:18:28.199Z</time>
      </trkpt>
      <trkpt lat="27.879170" lon="-15.601413">
        <ele>814.011</ele>
        <time>2025-03-17T14:20:15.200Z</time>
      </trkpt>
      <trkpt lat="27.879432" lon="-15.601106">
        <ele>818.209</ele>
        <time>2025-03-17T14:21:06.200Z</time>
      </trkpt>
      <trkpt lat="27.879791" lon="-15.600954">
        <ele>823.298</ele>
        <time>2025-03-17T14:22:18.201Z</time>
      </trkpt>
      <trkpt lat="27.880248" lon="-15.600380">
        <ele>826.836</ele>
        <time>2025-03-17T14:23:37.201Z</time>
      </trkpt>
      <trkpt lat="27.881580" lon="-15.600220">
        <ele>834.431</ele>
        <time>2025-03-17T14:26:11.203Z</time>
      </trkpt>
      <trkpt lat="27.881765" lon="-15.599937">
        <ele>836.588</ele>
        <time>2025-03-17T14:26:42.203Z</time>
      </trkpt>
      <trkpt lat="27.882413" lon="-15.599648">
        <ele>839.331</ele>
        <time>2025-03-17T14:28:01.204Z</time>
      </trkpt>
      <trkpt lat="27.882765" lon="-15.599812">
        <ele>846.558</ele>
        <time>2025-03-17T14:29:13.204Z</time>
      </trkpt>
      <trkpt lat="27.883078" lon="-15.599656">
        <ele>851.867</ele>
        <time>2025-03-17T14:30:13.205Z</time>
      </trkpt>
      <trkpt lat="27.883793" lon="-15.599713">
        <ele>863.548</ele>
        <time>2025-03-17T14:32:58.206Z</time>
      </trkpt>
      <trkpt lat="27.884361" lon="-15.598377">
        <ele>877.292</ele>
        <time>2025-03-17T14:35:44.207Z</time>
      </trkpt>
      <trkpt lat="27.884619" lon="-15.598589">
        <ele>877.671</ele>
        <time>2025-03-17T14:36:25.208Z</time>
      </trkpt>
      <trkpt lat="27.885090" lon="-15.598073">
        <ele>887.841</ele>
        <time>2025-03-17T14:38:40.209Z</time>
      </trkpt>
      <trkpt lat="27.885714" lon="-15.597805">
        <ele>899.715</ele>
        <time>2025-03-17T14:41:17.210Z</time>
      </trkpt>
      <trkpt lat="27.885460" lon="-15.597794">
        <ele>906.809</ele>
        <time>2025-03-17T14:42:08.210Z</time>
      </trkpt>
      <trkpt lat="27.885475" lon="-15.597667">
        <ele>909.479</ele>
        <time>2025-03-17T14:42:43.211Z</time>
      </trkpt>
      <trkpt lat="27.886730" lon="-15.597397">
        <ele>931.637</ele>
        <time>2025-03-17T15:06:36.213Z</time>
      </trkpt>
      <trkpt lat="27.886414" lon="-15.597331">
        <ele>937.292</ele>
        <time>2025-03-17T15:07:29.213Z</time>
      </trkpt>
      <trkpt lat="27.886424" lon="-15.597156">
        <ele>940.239</ele>
        <time>2025-03-17T15:07:51.214Z</time>
      </trkpt>
      <trkpt lat="27.887308" lon="-15.597201">
        <ele>954.392</ele>
        <time>2025-03-17T15:10:33.215Z</time>
      </trkpt>
      <trkpt lat="27.887344" lon="-15.596965">
        <ele>959.129</ele>
        <time>2025-03-17T15:11:27.215Z</time>
      </trkpt>
      <trkpt lat="27.887474" lon="-15.597019">
        <ele>962.338</ele>
        <time>2025-03-17T15:11:51.215Z</time>
      </trkpt>
      <trkpt lat="27.888580" lon="-15.596221">
        <ele>994.289</ele>
        <time>2025-03-17T15:16:48.218Z</time>
      </trkpt>
      <trkpt lat="27.888709" lon="-15.596248">
        <ele>996.113</ele>
        <time>2025-03-17T15:17:10.218Z</time>
      </trkpt>
      <trkpt lat="27.889016" lon="-15.595787">
        <ele>1009.298</ele>
        <time>2025-03-17T15:19:47.219Z</time>
      </trkpt>
      <trkpt lat="27.889555" lon="-15.595814">
        <ele>1019.415</ele>
        <time>2025-03-17T15:21:15.220Z</time>
      </trkpt>
      <trkpt lat="27.890288" lon="-15.595033">
        <ele>1028.126</ele>
        <time>2025-03-17T15:24:01.221Z</time>
      </trkpt>
      <trkpt lat="27.890832" lon="-15.594783">
        <ele>1033.909</ele>
        <time>2025-03-17T15:25:52.222Z</time>
      </trkpt>
      <trkpt lat="27.891386" lon="-15.594052">
        <ele>1043.011</ele>
        <time>2025-03-17T15:28:18.223Z</time>
      </trkpt>
      <trkpt lat="27.891404" lon="-15.592355">
        <ele>1061.999</ele>
        <time>2025-03-17T15:32:22.225Z</time>
      </trkpt>
      <trkpt lat="27.891634" lon="-15.592067">
        <ele>1065.624</ele>
        <time>2025-03-17T15:33:08.226Z</time>
      </trkpt>
      <trkpt lat="27.892414" lon="-15.592042">
        <ele>1070.871</ele>
        <time>2025-03-17T15:34:53.226Z</time>
      </trkpt>
      <trkpt lat="27.893307" lon="-15.591540">
        <ele>1074.774</ele>
        <time>2025-03-17T15:37:24.228Z</time>
      </trkpt>
      <trkpt lat="27.893543" lon="-15.591093">
        <ele>1078.761</ele>
        <time>2025-03-17T15:38:32.228Z</time>
      </trkpt>
      <trkpt lat="27.894474" lon="-15.590397">
        <ele>1094.890</ele>
        <time>2025-03-17T15:41:25.229Z</time>
      </trkpt>
      <trkpt lat="27.894718" lon="-15.589931">
        <ele>1096.031</ele>
        <time>2025-03-17T15:42:17.230Z</time>
      </trkpt>
      <trkpt lat="27.896003" lon="-15.588938">
        <ele>1109.555</ele>
        <time>2025-03-17T15:46:12.232Z</time>
      </trkpt>
      <trkpt lat="27.896151" lon="-15.588768">
        <ele>1112.979</ele>
        <time>2025-03-17T15:47:11.232Z</time>
      </trkpt>
      <trkpt lat="27.896080" lon="-15.588571">
        <ele>1114.505</ele>
        <time>2025-03-17T15:47:56.233Z</time>
      </trkpt>
      <trkpt lat="27.896444" lon="-15.588080">
        <ele>1131.025</ele>
        <time>2025-03-17T15:50:43.234Z</time>
      </trkpt>
      <trkpt lat="27.895896" lon="-15.587780">
        <ele>1152.909</ele>
        <time>2025-03-17T16:04:35.236Z</time>
      </trkpt>
      <trkpt lat="27.895971" lon="-15.587934">
        <ele>1155.149</ele>
        <time>2025-03-17T16:17:06.236Z</time>
      </trkpt>
      <trkpt lat="27.896021" lon="-15.587781">
        <ele>1155.317</ele>
        <time>2025-03-17T16:17:28.237Z</time>
      </trkpt>
      <trkpt lat="27.897323" lon="-15.586916">
        <ele>1168.572</ele>
        <time>2025-03-17T16:20:43.238Z</time>
      </trkpt>
      <trkpt lat="27.897876" lon="-15.587068">
        <ele>1176.159</ele>
        <time>2025-03-17T16:21:48.239Z</time>
      </trkpt>
      <trkpt lat="27.898447" lon="-15.586859">
        <ele>1180.972</ele>
        <time>2025-03-17T16:22:55.239Z</time>
      </trkpt>
      <trkpt lat="27.898756" lon="-15.586963">
        <ele>1181.859</ele>
        <time>2025-03-17T16:23:24.239Z</time>
      </trkpt>
      <trkpt lat="27.899307" lon="-15.586536">
        <ele>1187.078</ele>
        <time>2025-03-17T16:24:37.240Z</time>
      </trkpt>
      <trkpt lat="27.899777" lon="-15.586399">
        <ele>1188.169</ele>
        <time>2025-03-17T16:25:26.240Z</time>
      </trkpt>
      <trkpt lat="27.900437" lon="-15.586736">
        <ele>1190.173</ele>
        <time>2025-03-17T16:26:30.241Z</time>
      </trkpt>
      <trkpt lat="27.901060" lon="-15.586590">
        <ele>1192.175</ele>
        <time>2025-03-17T16:27:33.241Z</time>
      </trkpt>
      <trkpt lat="27.901278" lon="-15.586279">
        <ele>1190.528</ele>
        <time>2025-03-17T16:28:11.242Z</time>
      </trkpt>
      <trkpt lat="27.900452" lon="-15.585946">
        <ele>1188.020</ele>
        <time>2025-03-17T16:29:59.243Z</time>
      </trkpt>
      <trkpt lat="27.900136" lon="-15.585197">
        <ele>1172.609</ele>
        <time>2025-03-17T16:31:45.243Z</time>
      </trkpt>
      <trkpt lat="27.900903" lon="-15.585850">
        <ele>1159.879</ele>
        <time>2025-03-17T16:33:45.244Z</time>
      </trkpt>
      <trkpt lat="27.901603" lon="-15.585870">
        <ele>1145.357</ele>
        <time>2025-03-17T16:35:10.245Z</time>
      </trkpt>
      <trkpt lat="27.901781" lon="-15.585714">
        <ele>1139.232</ele>
        <time>2025-03-17T16:35:55.245Z</time>
      </trkpt>
      <trkpt lat="27.901760" lon="-15.585610">
        <ele>1136.969</ele>
        <time>2025-03-17T16:36:08.246Z</time>
      </trkpt>
      <trkpt lat="27.901640" lon="-15.585701">
        <ele>1134.522</ele>
        <time>2025-03-17T16:36:32.246Z</time>
      </trkpt>
      <trkpt lat="27.901259" lon="-15.585588">
        <ele>1127.959</ele>
        <time>2025-03-17T16:37:27.246Z</time>
      </trkpt>
      <trkpt lat="27.901230" lon="-15.585471">
        <ele>1125.758</ele>
        <time>2025-03-17T16:37:43.246Z</time>
      </trkpt>
      <trkpt lat="27.901543" lon="-15.585406">
        <ele>1120.179</ele>
        <time>2025-03-17T16:38:20.247Z</time>
      </trkpt>
      <trkpt lat="27.901728" lon="-15.584100">
        <ele>1096.853</ele>
        <time>2025-03-17T16:41:03.248Z</time>
      </trkpt>
      <trkpt lat="27.902157" lon="-15.583616">
        <ele>1089.281</ele>
        <time>2025-03-17T16:42:03.248Z</time>
      </trkpt>
      <trkpt lat="27.901961" lon="-15.583045">
        <ele>1083.161</ele>
        <time>2025-03-17T16:42:59.249Z</time>
      </trkpt>
      <trkpt lat="27.901969" lon="-15.581822">
        <ele>1078.817</ele>
        <time>2025-03-17T16:44:36.250Z</time>
      </trkpt>
      <trkpt lat="27.902506" lon="-15.581714">
        <ele>1074.409</ele>
        <time>2025-03-17T16:45:26.250Z</time>
      </trkpt>
      <trkpt lat="27.903051" lon="-15.581188">
        <ele>1071.150</ele>
        <time>2025-03-17T16:46:32.250Z</time>
      </trkpt>
      <trkpt lat="27.903352" lon="-15.581184">
        <ele>1071.638</ele>
        <time>2025-03-17T16:47:00.251Z</time>
      </trkpt>
      <trkpt lat="27.903605" lon="-15.580771">
        <ele>1068.793</ele>
        <time>2025-03-17T16:47:41.251Z</time>
      </trkpt>
      <trkpt lat="27.904534" lon="-15.580713">
        <ele>1067.240</ele>
        <time>2025-03-17T16:49:08.251Z</time>
      </trkpt>
      <trkpt lat="27.904881" lon="-15.580529">
        <ele>1062.783</ele>
        <time>2025-03-17T16:49:42.251Z</time>
      </trkpt>
      <trkpt lat="27.905247" lon="-15.580517">
        <ele>1062.420</ele>
        <time>2025-03-17T16:50:17.251Z</time>
      </trkpt>
      <trkpt lat="27.905383" lon="-15.580685">
        <ele>1062.549</ele>
        <time>2025-03-17T16:50:37.251Z</time>
      </trkpt>
      <trkpt lat="27.906495" lon="-15.580612">
        <ele>1057.020</ele>
        <time>2025-03-17T16:52:23.251Z</time>
      </trkpt>
      <trkpt lat="27.907645" lon="-15.580994">
        <ele>1049.554</ele>
        <time>2025-03-17T16:54:20.251Z</time>
      </trkpt>
      <trkpt lat="27.907836" lon="-15.580823">
        <ele>1046.776</ele>
        <time>2025-03-17T16:54:47.251Z</time>
      </trkpt>
      <trkpt lat="27.908382" lon="-15.580864">
        <ele>1038.990</ele>
        <time>2025-03-17T16:55:46.251Z</time>
      </trkpt>
      <trkpt lat="27.909710" lon="-15.580562">
        <ele>1016.519</ele>
        <time>2025-03-17T16:58:26.251Z</time>
      </trkpt>
      <trkpt lat="27.910736" lon="-15.579910">
        <ele>999.309</ele>
        <time>2025-03-17T17:00:28.251Z</time>
      </trkpt>
      <trkpt lat="27.911227" lon="-15.579929">
        <ele>998.019</ele>
        <time>2025-03-17T17:01:11.251Z</time>
      </trkpt>
      <trkpt lat="27.911904" lon="-15.578622">
        <ele>1001.347</ele>
        <time>2025-03-17T17:03:28.251Z</time>
      </trkpt>
      <trkpt lat="27.912287" lon="-15.578258">
        <ele>999.532</ele>
        <time>2025-03-17T17:04:12.251Z</time>
      </trkpt>
      <trkpt lat="27.912992" lon="-15.578487">
        <ele>987.889</ele>
        <time>2025-03-17T17:05:23.251Z</time>
      </trkpt>
      <trkpt lat="27.913903" lon="-15.578367">
        <ele>973.752</ele>
        <time>2025-03-17T17:06:49.251Z</time>
      </trkpt>
      <trkpt lat="27.915010" lon="-15.577640">
        <ele>963.119</ele>
        <time>2025-03-17T17:08:50.251Z</time>
      </trkpt>
      <trkpt lat="27.915905" lon="-15.577592">
        <ele>962.618</ele>
        <time>2025-03-17T17:10:24.251Z</time>
      </trkpt>
      <trkpt lat="27.919019" lon="-15.576491">
        <ele>954.519</ele>
        <time>2025-03-17T17:15:10.252Z</time>
      </trkpt>
      <trkpt lat="27.919219" lon="-15.576197">
        <ele>954.653</ele>
        <time>2025-03-17T17:16:07.252Z</time>
      </trkpt>
      <trkpt lat="27.919193" lon="-15.575224">
        <ele>950.387</ele>
        <time>2025-03-17T17:17:25.252Z</time>
      </trkpt>
      <trkpt lat="27.920149" lon="-15.574804">
        <ele>952.542</ele>
        <time>2025-03-17T17:18:58.252Z</time>
      </trkpt>
      <trkpt lat="27.920979" lon="-15.574667">
        <ele>951.426</ele>
        <time>2025-03-17T17:20:15.252Z</time>
      </trkpt>
      <trkpt lat="27.921883" lon="-15.574803">
        <ele>949.709</ele>
        <time>2025-03-17T17:22:18.252Z</time>
      </trkpt>
      <trkpt lat="27.922721" lon="-15.574305">
        <ele>948.820</ele>
        <time>2025-03-17T17:25:18.252Z</time>
      </trkpt>
      <trkpt lat="27.923074" lon="-15.574306">
        <ele>946.818</ele>
        <time>2025-03-17T17:25:50.252Z</time>
      </trkpt>
      <trkpt lat="27.923469" lon="-15.574518">
        <ele>943.243</ele>
        <time>2025-03-17T17:26:33.252Z</time>
      </trkpt>
      <trkpt lat="27.923703" lon="-15.574281">
        <ele>937.740</ele>
        <time>2025-03-17T17:28:39.252Z</time>
      </trkpt>
      <trkpt lat="27.923920" lon="-15.574701">
        <ele>930.983</ele>
        <time>2025-03-17T17:35:29.253Z</time>
      </trkpt>
      <trkpt lat="27.924084" lon="-15.574179">
        <ele>919.130</ele>
        <time>2025-03-17T17:36:20.253Z</time>
      </trkpt>
      <trkpt lat="27.923963" lon="-15.573851">
        <ele>916.649</ele>
        <time>2025-03-17T17:37:08.254Z</time>
      </trkpt>
      <trkpt lat="27.924059" lon="-15.573721">
        <ele>916.020</ele>
        <time>2025-03-17T17:37:58.254Z</time>
      </trkpt>
      <trkpt lat="27.923936" lon="-15.573632">
        <ele>912.744</ele>
        <time>2025-03-17T17:38:27.254Z</time>
      </trkpt>
      <trkpt lat="27.924095" lon="-15.573774">
        <ele>912.076</ele>
        <time>2025-03-17T17:38:59.254Z</time>
      </trkpt>
      <trkpt lat="27.924222" lon="-15.573629">
        <ele>910.390</ele>
        <time>2025-03-17T17:39:28.255Z</time>
      </trkpt>
      <trkpt lat="27.924719" lon="-15.573680">
        <ele>902.819</ele>
        <time>2025-03-17T17:40:23.255Z</time>
      </trkpt>
      <trkpt lat="27.924772" lon="-15.573325">
        <ele>898.109</ele>
        <time>2025-03-17T17:51:07.255Z</time>
      </trkpt>
    </trkseg>
  </trk></gpx>