<?xml version="1.0" encoding="UTF-8"?>
<gpx creator="Wikiloc - https://www.wikiloc.com" version="1.1" xmlns="http://www.topografix.com/GPX/1/1" xmlns:xsi="http://www.w3.org/2001/XMLSchema-instance" xsi:schemaLocation="http://www.topografix.com/GPX/1/1 http://www.topografix.com/GPX/1/1/gpx.xsd">
  <metadata>
    <name>Wikiloc - 20140223 vuelta gran canaria</name>
    <link href="https://www.wikiloc.com/cycling-trails/20140223-vuelta-gran-canaria-6214601">
      <text>20140223 vuelta gran canaria - Wikiloc on Wikiloc</text>
    </link>
    <time>2014-02-23T18:48:23Z</time>
  </metadata>
  <trk>
    <name>20140223 vuelta gran canaria - Wikiloc</name>
    <cmt></cmt>
    <desc></desc>
    <trkseg>
      <trkpt lat="28.134272" lon="-15.437166">
        <ele>22.712</ele>
        <time>2014-02-23T07:54:28Z</time>
      </trkpt>
      <trkpt lat="28.134685" lon="-15.436523">
        <ele>24.332</ele>
        <time>2014-02-23T07:54:51Z</time>
      </trkpt>
      <trkpt lat="28.133865" lon="-15.436401">
        <ele>29.005</ele>
        <time>2014-02-23T07:55:42Z</time>
      </trkpt>
      <trkpt lat="28.133878" lon="-15.434598">
        <ele>31.407</ele>
        <time>2014-02-23T07:56:29Z</time>
      </trkpt>
      <trkpt lat="28.132536" lon="-15.434142">
        <ele>30.087</ele>
        <time>2014-02-23T08:16:27Z</time>
      </trkpt>
      <trkpt lat="28.132483" lon="-15.430165">
        <ele>18.323</ele>
        <time>2014-02-23T08:17:50Z</time>
      </trkpt>
      <trkpt lat="28.128574" lon="-15.429986">
        <ele>13.182</ele>
        <time>2014-02-23T08:19:45Z</time>
      </trkpt>
      <trkpt lat="28.121698" lon="-15.424888">
        <ele>12.315</ele>
        <time>2014-02-23T08:22:00Z</time>
      </trkpt>
      <trkpt lat="28.119078" lon="-15.421623">
        <ele>12.357</ele>
        <time>2014-02-23T08:23:35Z</time>
      </trkpt>
      <trkpt lat="28.112250" lon="-15.416308">
        <ele>13.861</ele>
        <time>2014-02-23T08:25:52Z</time>
      </trkpt>
      <trkpt lat="28.103332" lon="-15.412545">
        <ele>8.342</ele>
        <time>2014-02-23T08:28:17Z</time>
      </trkpt>
      <trkpt lat="28.098529" lon="-15.411823">
        <ele>10.387</ele>
        <time>2014-02-23T08:29:23Z</time>
      </trkpt>
      <trkpt lat="28.095254" lon="-15.412435">
        <ele>8.442</ele>
        <time>2014-02-23T08:30:10Z</time>
      </trkpt>
      <trkpt lat="28.090752" lon="-15.413876">
        <ele>14.026</ele>
        <time>2014-02-23T08:31:16Z</time>
      </trkpt>
      <trkpt lat="28.087676" lon="-15.416079">
        <ele>9.207</ele>
        <time>2014-02-23T08:32:08Z</time>
      </trkpt>
      <trkpt lat="28.083912" lon="-15.416862">
        <ele>13.234</ele>
        <time>2014-02-23T08:33:03Z</time>
      </trkpt>
      <trkpt lat="28.075135" lon="-15.415610">
        <ele>18.280</ele>
        <time>2014-02-23T08:35:07Z</time>
      </trkpt>
      <trkpt lat="28.070458" lon="-15.417751">
        <ele>15.389</ele>
        <time>2014-02-23T08:36:16Z</time>
      </trkpt>
      <trkpt lat="28.067382" lon="-15.417648">
        <ele>19.532</ele>
        <time>2014-02-23T08:37:01Z</time>
      </trkpt>
      <trkpt lat="28.060154" lon="-15.421751">
        <ele>62.934</ele>
        <time>2014-02-23T08:39:29Z</time>
      </trkpt>
      <trkpt lat="28.050327" lon="-15.419671">
        <ele>77.498</ele>
        <time>2014-02-23T08:42:40Z</time>
      </trkpt>
      <trkpt lat="28.042795" lon="-15.414707">
        <ele>74.139</ele>
        <time>2014-02-23T08:44:29Z</time>
      </trkpt>
      <trkpt lat="28.038309" lon="-15.407952">
        <ele>49.926</ele>
        <time>2014-02-23T08:45:30Z</time>
      </trkpt>
      <trkpt lat="28.030669" lon="-15.400441">
        <ele>23.647</ele>
        <time>2014-02-23T08:47:14Z</time>
      </trkpt>
      <trkpt lat="28.022891" lon="-15.389063">
        <ele>21.511</ele>
        <time>2014-02-23T08:49:31Z</time>
      </trkpt>
      <trkpt lat="28.019937" lon="-15.387163">
        <ele>46.407</ele>
        <time>2014-02-23T08:50:26Z</time>
      </trkpt>
      <trkpt lat="28.017148" lon="-15.387248">
        <ele>49.798</ele>
        <time>2014-02-23T08:51:15Z</time>
      </trkpt>
      <trkpt lat="28.003011" lon="-15.391883">
        <ele>62.964</ele>
        <time>2014-02-23T08:54:54Z</time>
      </trkpt>
      <trkpt lat="27.985677" lon="-15.392564">
        <ele>73.553</ele>
        <time>2014-02-23T08:58:40Z</time>
      </trkpt>
      <trkpt lat="27.978207" lon="-15.390982">
        <ele>53.856</ele>
        <time>2014-02-23T09:00:00Z</time>
      </trkpt>
      <trkpt lat="27.974922" lon="-15.391447">
        <ele>36.128</ele>
        <time>2014-02-23T09:00:43Z</time>
      </trkpt>
      <trkpt lat="27.965114" lon="-15.390294">
        <ele>72.642</ele>
        <time>2014-02-23T09:03:10Z</time>
      </trkpt>
      <trkpt lat="27.954640" lon="-15.387635">
        <ele>41.053</ele>
        <time>2014-02-23T09:05:06Z</time>
      </trkpt>
      <trkpt lat="27.948908" lon="-15.387478">
        <ele>19.124</ele>
        <time>2014-02-23T09:05:53Z</time>
      </trkpt>
      <trkpt lat="27.944343" lon="-15.389459">
        <ele>32.704</ele>
        <time>2014-02-23T09:07:10Z</time>
      </trkpt>
      <trkpt lat="27.945179" lon="-15.394003">
        <ele>54.614</ele>
        <time>2014-02-23T09:08:48Z</time>
      </trkpt>
      <trkpt lat="27.941851" lon="-15.395905">
        <ele>52.207</ele>
        <time>2014-02-23T09:09:47Z</time>
      </trkpt>
      <trkpt lat="27.934120" lon="-15.395186">
        <ele>43.228</ele>
        <time>2014-02-23T09:11:38Z</time>
      </trkpt>
      <trkpt lat="27.928953" lon="-15.396276">
        <ele>37.744</ele>
        <time>2014-02-23T09:12:49Z</time>
      </trkpt>
      <trkpt lat="27.924063" lon="-15.398298">
        <ele>57.323</ele>
        <time>2014-02-23T09:14:27Z</time>
      </trkpt>
      <trkpt lat="27.915474" lon="-15.399944">
        <ele>61.076</ele>
        <time>2014-02-23T09:18:19Z</time>
      </trkpt>
      <trkpt lat="27.914113" lon="-15.401459">
        <ele>56.598</ele>
        <time>2014-02-23T09:18:44Z</time>
      </trkpt>
      <trkpt lat="27.909442" lon="-15.401072">
        <ele>60.622</ele>
        <time>2014-02-23T09:19:59Z</time>
      </trkpt>
      <trkpt lat="27.909131" lon="-15.402728">
        <ele>64.913</ele>
        <time>2014-02-23T09:20:30Z</time>
      </trkpt>
      <trkpt lat="27.907985" lon="-15.403046">
        <ele>64.581</ele>
        <time>2014-02-23T09:20:51Z</time>
      </trkpt>
      <trkpt lat="27.908190" lon="-15.404663">
        <ele>71.261</ele>
        <time>2014-02-23T09:21:18Z</time>
      </trkpt>
      <trkpt lat="27.907098" lon="-15.404990">
        <ele>71.017</ele>
        <time>2014-02-23T09:21:42Z</time>
      </trkpt>
      <trkpt lat="27.908599" lon="-15.408132">
        <ele>82.807</ele>
        <time>2014-02-23T09:22:50Z</time>
      </trkpt>
      <trkpt lat="27.908324" lon="-15.409411">
        <ele>87.814</ele>
        <time>2014-02-23T09:23:24Z</time>
      </trkpt>
      <trkpt lat="27.903462" lon="-15.408423">
        <ele>81.710</ele>
        <time>2014-02-23T09:24:37Z</time>
      </trkpt>
      <trkpt lat="27.856828" lon="-15.437523">
        <ele>78.599</ele>
        <time>2014-02-23T09:36:32Z</time>
      </trkpt>
      <trkpt lat="27.855657" lon="-15.445077">
        <ele>96.552</ele>
        <time>2014-02-23T09:38:37Z</time>
      </trkpt>
      <trkpt lat="27.845601" lon="-15.450733">
        <ele>110.844</ele>
        <time>2014-02-23T09:41:44Z</time>
      </trkpt>
      <trkpt lat="27.839498" lon="-15.453486">
        <ele>111.398</ele>
        <time>2014-02-23T09:43:14Z</time>
      </trkpt>
      <trkpt lat="27.837192" lon="-15.451956">
        <ele>102.149</ele>
        <time>2014-02-23T09:43:46Z</time>
      </trkpt>
      <trkpt lat="27.836271" lon="-15.450373">
        <ele>93.927</ele>
        <time>2014-02-23T09:44:06Z</time>
      </trkpt>
      <trkpt lat="27.831586" lon="-15.451628">
        <ele>86.368</ele>
        <time>2014-02-23T09:45:02Z</time>
      </trkpt>
      <trkpt lat="27.817930" lon="-15.460978">
        <ele>64.314</ele>
        <time>2014-02-23T09:47:54Z</time>
      </trkpt>
      <trkpt lat="27.808180" lon="-15.470363">
        <ele>40.307</ele>
        <time>2014-02-23T09:49:47Z</time>
      </trkpt>
      <trkpt lat="27.802854" lon="-15.476707">
        <ele>22.598</ele>
        <time>2014-02-23T09:51:04Z</time>
      </trkpt>
      <trkpt lat="27.789773" lon="-15.497477">
        <ele>7.934</ele>
        <time>2014-02-23T09:56:18Z</time>
      </trkpt>
      <trkpt lat="27.786332" lon="-15.500830">
        <ele>17.583</ele>
        <time>2014-02-23T09:57:26Z</time>
      </trkpt>
      <trkpt lat="27.784657" lon="-15.509596">
        <ele>17.056</ele>
        <time>2014-02-23T09:59:01Z</time>
      </trkpt>
      <trkpt lat="27.785390" lon="-15.516658">
        <ele>24.638</ele>
        <time>2014-02-23T10:00:35Z</time>
      </trkpt>
      <trkpt lat="27.778661" lon="-15.525159">
        <ele>18.342</ele>
        <time>2014-02-23T10:02:41Z</time>
      </trkpt>
      <trkpt lat="27.777385" lon="-15.529004">
        <ele>16.963</ele>
        <time>2014-02-23T10:03:36Z</time>
      </trkpt>
      <trkpt lat="27.775411" lon="-15.531305">
        <ele>31.769</ele>
        <time>2014-02-23T10:04:34Z</time>
      </trkpt>
      <trkpt lat="27.775040" lon="-15.533128">
        <ele>47.504</ele>
        <time>2014-02-23T10:05:18Z</time>
      </trkpt>
      <trkpt lat="27.773717" lon="-15.533891">
        <ele>55.324</ele>
        <time>2014-02-23T10:05:57Z</time>
      </trkpt>
      <trkpt lat="27.773453" lon="-15.535978">
        <ele>58.607</ele>
        <time>2014-02-23T10:06:32Z</time>
      </trkpt>
      <trkpt lat="27.772340" lon="-15.537122">
        <ele>51.792</ele>
        <time>2014-02-23T10:06:55Z</time>
      </trkpt>
      <trkpt lat="27.773697" lon="-15.540030">
        <ele>21.868</ele>
        <time>2014-02-23T10:07:22Z</time>
      </trkpt>
      <trkpt lat="27.769985" lon="-15.545446">
        <ele>26.457</ele>
        <time>2014-02-23T10:08:48Z</time>
      </trkpt>
      <trkpt lat="27.769216" lon="-15.549307">
        <ele>30.780</ele>
        <time>2014-02-23T10:09:44Z</time>
      </trkpt>
      <trkpt lat="27.765769" lon="-15.556471">
        <ele>9.842</ele>
        <time>2014-02-23T10:11:01Z</time>
      </trkpt>
      <trkpt lat="27.765961" lon="-15.560241">
        <ele>19.536</ele>
        <time>2014-02-23T10:11:54Z</time>
      </trkpt>
      <trkpt lat="27.764685" lon="-15.564219">
        <ele>33.317</ele>
        <time>2014-02-23T10:13:07Z</time>
      </trkpt>
      <trkpt lat="27.764893" lon="-15.574066">
        <ele>57.893</ele>
        <time>2014-02-23T10:15:33Z</time>
      </trkpt>
      <trkpt lat="27.764006" lon="-15.577815">
        <ele>59.665</ele>
        <time>2014-02-23T10:16:25Z</time>
      </trkpt>
      <trkpt lat="27.765012" lon="-15.584575">
        <ele>62.621</ele>
        <time>2014-02-23T10:19:05Z</time>
      </trkpt>
      <trkpt lat="27.762879" lon="-15.588314">
        <ele>36.007</ele>
        <time>2014-02-23T10:19:36Z</time>
      </trkpt>
      <trkpt lat="27.761222" lon="-15.598276">
        <ele>33.125</ele>
        <time>2014-02-23T10:21:20Z</time>
      </trkpt>
      <trkpt lat="27.754277" lon="-15.601334">
        <ele>21.181</ele>
        <time>2014-02-23T10:22:38Z</time>
      </trkpt>
      <trkpt lat="27.751695" lon="-15.605120">
        <ele>43.440</ele>
        <time>2014-02-23T10:23:54Z</time>
      </trkpt>
      <trkpt lat="27.750805" lon="-15.610952">
        <ele>42.823</ele>
        <time>2014-02-23T10:25:02Z</time>
      </trkpt>
      <trkpt lat="27.753306" lon="-15.623087">
        <ele>49.125</ele>
        <time>2014-02-23T10:27:22Z</time>
      </trkpt>
      <trkpt lat="27.752666" lon="-15.627346">
        <ele>45.039</ele>
        <time>2014-02-23T10:28:03Z</time>
      </trkpt>
      <trkpt lat="27.750770" lon="-15.630263">
        <ele>52.530</ele>
        <time>2014-02-23T10:28:46Z</time>
      </trkpt>
      <trkpt lat="27.751724" lon="-15.633012">
        <ele>51.768</ele>
        <time>2014-02-23T10:29:17Z</time>
      </trkpt>
      <trkpt lat="27.754165" lon="-15.635093">
        <ele>44.042</ele>
        <time>2014-02-23T10:29:46Z</time>
      </trkpt>
      <trkpt lat="27.753303" lon="-15.637778">
        <ele>63.326</ele>
        <time>2014-02-23T10:30:26Z</time>
      </trkpt>
      <trkpt lat="27.756750" lon="-15.640318">
        <ele>36.407</ele>
        <time>2014-02-23T10:31:04Z</time>
      </trkpt>
      <trkpt lat="27.753563" lon="-15.642353">
        <ele>21.962</ele>
        <time>2014-02-23T10:31:37Z</time>
      </trkpt>
      <trkpt lat="27.753987" lon="-15.644137">
        <ele>22.878</ele>
        <time>2014-02-23T10:31:55Z</time>
      </trkpt>
      <trkpt lat="27.751736" lon="-15.645051">
        <ele>27.087</ele>
        <time>2014-02-23T10:32:41Z</time>
      </trkpt>
      <trkpt lat="27.752755" lon="-15.648284">
        <ele>26.380</ele>
        <time>2014-02-23T10:33:17Z</time>
      </trkpt>
      <trkpt lat="27.754317" lon="-15.649929">
        <ele>14.752</ele>
        <time>2014-02-23T10:33:32Z</time>
      </trkpt>
      <trkpt lat="27.756974" lon="-15.655814">
        <ele>18.976</ele>
        <time>2014-02-23T10:34:23Z</time>
      </trkpt>
      <trkpt lat="27.756777" lon="-15.657104">
        <ele>20.117</ele>
        <time>2014-02-23T10:34:41Z</time>
      </trkpt>
      <trkpt lat="27.758314" lon="-15.660686">
        <ele>14.927</ele>
        <time>2014-02-23T10:35:24Z</time>
      </trkpt>
      <trkpt lat="27.756152" lon="-15.663559">
        <ele>34.268</ele>
        <time>2014-02-23T10:36:24Z</time>
      </trkpt>
      <trkpt lat="27.756911" lon="-15.665108">
        <ele>37.414</ele>
        <time>2014-02-23T10:36:45Z</time>
      </trkpt>
      <trkpt lat="27.754952" lon="-15.669759">
        <ele>18.607</ele>
        <time>2014-02-23T10:37:49Z</time>
      </trkpt>
      <trkpt lat="27.755210" lon="-15.670390">
        <ele>24.768</ele>
        <time>2014-02-23T10:37:55Z</time>
      </trkpt>
      <trkpt lat="27.758793" lon="-15.669687">
        <ele>21.064</ele>
        <time>2014-02-23T10:38:26Z</time>
      </trkpt>
      <trkpt lat="27.759481" lon="-15.675072">
        <ele>12.653</ele>
        <time>2014-02-23T10:39:18Z</time>
      </trkpt>
      <trkpt lat="27.760177" lon="-15.675578">
        <ele>22.556</ele>
        <time>2014-02-23T10:39:28Z</time>
      </trkpt>
      <trkpt lat="27.760651" lon="-15.675001">
        <ele>18.488</ele>
        <time>2014-02-23T10:39:37Z</time>
      </trkpt>
      <trkpt lat="27.757957" lon="-15.677160">
        <ele>14.672</ele>
        <time>2014-02-23T10:40:14Z</time>
      </trkpt>
      <trkpt lat="27.757835" lon="-15.678968">
        <ele>14.163</ele>
        <time>2014-02-23T10:40:35Z</time>
      </trkpt>
      <trkpt lat="27.764275" lon="-15.685379">
        <ele>25.915</ele>
        <time>2014-02-23T10:42:19Z</time>
      </trkpt>
      <trkpt lat="27.765087" lon="-15.687079">
        <ele>21.565</ele>
        <time>2014-02-23T10:42:42Z</time>
      </trkpt>
      <trkpt lat="27.768108" lon="-15.687882">
        <ele>34.811</ele>
        <time>2014-02-23T10:43:24Z</time>
      </trkpt>
      <trkpt lat="27.770785" lon="-15.687289">
        <ele>42.907</ele>
        <time>2014-02-23T10:43:55Z</time>
      </trkpt>
      <trkpt lat="27.773292" lon="-15.692195">
        <ele>42.427</ele>
        <time>2014-02-23T10:45:00Z</time>
      </trkpt>
      <trkpt lat="27.775406" lon="-15.693092">
        <ele>27.583</ele>
        <time>2014-02-23T10:45:22Z</time>
      </trkpt>
      <trkpt lat="27.774856" lon="-15.699844">
        <ele>19.872</ele>
        <time>2014-02-23T10:46:35Z</time>
      </trkpt>
      <trkpt lat="27.777312" lon="-15.701745">
        <ele>34.915</ele>
        <time>2014-02-23T10:47:13Z</time>
      </trkpt>
      <trkpt lat="27.777731" lon="-15.705084">
        <ele>34.257</ele>
        <time>2014-02-23T10:48:05Z</time>
      </trkpt>
      <trkpt lat="27.779798" lon="-15.707651">
        <ele>37.411</ele>
        <time>2014-02-23T10:48:37Z</time>
      </trkpt>
      <trkpt lat="27.783537" lon="-15.708690">
        <ele>18.412</ele>
        <time>2014-02-23T10:49:08Z</time>
      </trkpt>
      <trkpt lat="27.784238" lon="-15.711742">
        <ele>17.331</ele>
        <time>2014-02-23T10:49:37Z</time>
      </trkpt>
      <trkpt lat="27.788131" lon="-15.710853">
        <ele>15.961</ele>
        <time>2014-02-23T10:50:15Z</time>
      </trkpt>
      <trkpt lat="27.787469" lon="-15.713593">
        <ele>33.507</ele>
        <time>2014-02-23T10:51:01Z</time>
      </trkpt>
      <trkpt lat="27.783666" lon="-15.717089">
        <ele>21.207</ele>
        <time>2014-02-23T10:52:04Z</time>
      </trkpt>
      <trkpt lat="27.786843" lon="-15.719948">
        <ele>46.479</ele>
        <time>2014-02-23T10:53:00Z</time>
      </trkpt>
      <trkpt lat="27.787759" lon="-15.722872">
        <ele>5.985</ele>
        <time>2014-02-23T10:53:36Z</time>
      </trkpt>
      <trkpt lat="27.791570" lon="-15.721697">
        <ele>27.834</ele>
        <time>2014-02-23T10:54:19Z</time>
      </trkpt>
      <trkpt lat="27.793350" lon="-15.726947">
        <ele>16.517</ele>
        <time>2014-02-23T10:55:20Z</time>
      </trkpt>
      <trkpt lat="27.794721" lon="-15.726510">
        <ele>19.119</ele>
        <time>2014-02-23T10:55:31Z</time>
      </trkpt>
      <trkpt lat="27.796511" lon="-15.723808">
        <ele>11.933</ele>
        <time>2014-02-23T10:55:58Z</time>
      </trkpt>
      <trkpt lat="27.798635" lon="-15.728069">
        <ele>12.644</ele>
        <time>2014-02-23T10:56:46Z</time>
      </trkpt>
      <trkpt lat="27.798356" lon="-15.729956">
        <ele>22.276</ele>
        <time>2014-02-23T10:57:15Z</time>
      </trkpt>
      <trkpt lat="27.800548" lon="-15.731703">
        <ele>12.990</ele>
        <time>2014-02-23T10:57:44Z</time>
      </trkpt>
      <trkpt lat="27.800212" lon="-15.732899">
        <ele>16.919</ele>
        <time>2014-02-23T10:57:57Z</time>
      </trkpt>
      <trkpt lat="27.798349" lon="-15.734119">
        <ele>42.007</ele>
        <time>2014-02-23T10:58:43Z</time>
      </trkpt>
      <trkpt lat="27.798380" lon="-15.735860">
        <ele>40.323</ele>
        <time>2014-02-23T10:59:18Z</time>
      </trkpt>
      <trkpt lat="27.799984" lon="-15.736794">
        <ele>52.969</ele>
        <time>2014-02-23T10:59:52Z</time>
      </trkpt>
      <trkpt lat="27.803431" lon="-15.736862">
        <ele>43.588</ele>
        <time>2014-02-23T11:00:29Z</time>
      </trkpt>
      <trkpt lat="27.805256" lon="-15.738381">
        <ele>37.811</ele>
        <time>2014-02-23T11:00:52Z</time>
      </trkpt>
      <trkpt lat="27.807921" lon="-15.738120">
        <ele>39.073</ele>
        <time>2014-02-23T11:01:18Z</time>
      </trkpt>
      <trkpt lat="27.805525" lon="-15.742503">
        <ele>62.947</ele>
        <time>2014-02-23T11:02:56Z</time>
      </trkpt>
      <trkpt lat="27.805944" lon="-15.743146">
        <ele>67.668</ele>
        <time>2014-02-23T11:03:12Z</time>
      </trkpt>
      <trkpt lat="27.807699" lon="-15.742760">
        <ele>89.942</ele>
        <time>2014-02-23T11:03:49Z</time>
      </trkpt>
      <trkpt lat="27.810164" lon="-15.744466">
        <ele>68.222</ele>
        <time>2014-02-23T11:04:25Z</time>
      </trkpt>
      <trkpt lat="27.808648" lon="-15.746495">
        <ele>71.714</ele>
        <time>2014-02-23T11:04:53Z</time>
      </trkpt>
      <trkpt lat="27.808182" lon="-15.749550">
        <ele>60.207</ele>
        <time>2014-02-23T11:05:24Z</time>
      </trkpt>
      <trkpt lat="27.812790" lon="-15.751637">
        <ele>69.940</ele>
        <time>2014-02-23T11:06:23Z</time>
      </trkpt>
      <trkpt lat="27.818263" lon="-15.750140">
        <ele>36.836</ele>
        <time>2014-02-23T11:07:09Z</time>
      </trkpt>
      <trkpt lat="27.819942" lon="-15.750404">
        <ele>27.215</ele>
        <time>2014-02-23T11:07:24Z</time>
      </trkpt>
      <trkpt lat="27.815820" lon="-15.755209">
        <ele>54.338</ele>
        <time>2014-02-23T11:09:36Z</time>
      </trkpt>
      <trkpt lat="27.815865" lon="-15.755838">
        <ele>62.630</ele>
        <time>2014-02-23T11:09:52Z</time>
      </trkpt>
      <trkpt lat="27.817579" lon="-15.756309">
        <ele>98.494</ele>
        <time>2014-02-23T11:10:40Z</time>
      </trkpt>
      <trkpt lat="27.816851" lon="-15.757892">
        <ele>89.525</ele>
        <time>2014-02-23T11:11:13Z</time>
      </trkpt>
      <trkpt lat="27.817193" lon="-15.759956">
        <ele>45.583</ele>
        <time>2014-02-23T11:11:35Z</time>
      </trkpt>
      <trkpt lat="27.819062" lon="-15.758649">
        <ele>91.825</ele>
        <time>2014-02-23T11:11:59Z</time>
      </trkpt>
      <trkpt lat="27.820226" lon="-15.759413">
        <ele>86.117</ele>
        <time>2014-02-23T11:12:14Z</time>
      </trkpt>
      <trkpt lat="27.821635" lon="-15.759096">
        <ele>64.807</ele>
        <time>2014-02-23T11:12:26Z</time>
      </trkpt>
      <trkpt lat="27.828568" lon="-15.753997">
        <ele>36.274</ele>
        <time>2014-02-23T11:13:30Z</time>
      </trkpt>
      <trkpt lat="27.830170" lon="-15.755345">
        <ele>41.990</ele>
        <time>2014-02-23T11:14:01Z</time>
      </trkpt>
      <trkpt lat="27.836129" lon="-15.751300">
        <ele>69.749</ele>
        <time>2014-02-23T11:16:59Z</time>
      </trkpt>
      <trkpt lat="27.840739" lon="-15.746989">
        <ele>72.762</ele>
        <time>2014-02-23T11:18:27Z</time>
      </trkpt>
      <trkpt lat="27.855402" lon="-15.744873">
        <ele>139.174</ele>
        <time>2014-02-23T11:24:07Z</time>
      </trkpt>
      <trkpt lat="27.861115" lon="-15.741848">
        <ele>151.998</ele>
        <time>2014-02-23T11:26:24Z</time>
      </trkpt>
      <trkpt lat="27.863345" lon="-15.741779">
        <ele>158.529</ele>
        <time>2014-02-23T11:27:13Z</time>
      </trkpt>
      <trkpt lat="27.874365" lon="-15.730433">
        <ele>221.024</ele>
        <time>2014-02-23T11:33:01Z</time>
      </trkpt>
      <trkpt lat="27.879217" lon="-15.726631">
        <ele>231.204</ele>
        <time>2014-02-23T11:34:55Z</time>
      </trkpt>
      <trkpt lat="27.883421" lon="-15.725335">
        <ele>239.414</ele>
        <time>2014-02-23T11:36:32Z</time>
      </trkpt>
      <trkpt lat="27.886443" lon="-15.721252">
        <ele>254.407</ele>
        <time>2014-02-23T11:50:02Z</time>
      </trkpt>
      <trkpt lat="27.886789" lon="-15.721907">
        <ele>244.158</ele>
        <time>2014-02-23T11:53:53Z</time>
      </trkpt>
      <trkpt lat="27.885656" lon="-15.721120">
        <ele>269.624</ele>
        <time>2014-02-23T11:59:30Z</time>
      </trkpt>
      <trkpt lat="27.886418" lon="-15.721447">
        <ele>251.643</ele>
        <time>2014-02-23T12:01:10Z</time>
      </trkpt>
      <trkpt lat="27.884990" lon="-15.723633">
        <ele>249.876</ele>
        <time>2014-02-23T12:03:45Z</time>
      </trkpt>
      <trkpt lat="27.889263" lon="-15.717749">
        <ele>280.148</ele>
        <time>2014-02-23T12:15:02Z</time>
      </trkpt>
      <trkpt lat="27.891277" lon="-15.717441">
        <ele>280.012</ele>
        <time>2014-02-23T12:15:35Z</time>
      </trkpt>
      <trkpt lat="27.892759" lon="-15.715559">
        <ele>290.453</ele>
        <time>2014-02-23T12:16:19Z</time>
      </trkpt>
      <trkpt lat="27.896414" lon="-15.713718">
        <ele>309.457</ele>
        <time>2014-02-23T12:17:53Z</time>
      </trkpt>
      <trkpt lat="27.897905" lon="-15.712281">
        <ele>314.900</ele>
        <time>2014-02-23T12:18:34Z</time>
      </trkpt>
      <trkpt lat="27.898659" lon="-15.709840">
        <ele>328.620</ele>
        <time>2014-02-23T12:19:39Z</time>
      </trkpt>
      <trkpt lat="27.901344" lon="-15.708181">
        <ele>336.207</ele>
        <time>2014-02-23T12:20:46Z</time>
      </trkpt>
      <trkpt lat="27.900312" lon="-15.712890">
        <ele>367.391</ele>
        <time>2014-02-23T12:23:17Z</time>
      </trkpt>
      <trkpt lat="27.898985" lon="-15.713527">
        <ele>362.577</ele>
        <time>2014-02-23T12:24:13Z</time>
      </trkpt>
      <trkpt lat="27.899738" lon="-15.715191">
        <ele>400.766</ele>
        <time>2014-02-23T12:25:16Z</time>
      </trkpt>
      <trkpt lat="27.898605" lon="-15.717384">
        <ele>403.629</ele>
        <time>2014-02-23T12:26:39Z</time>
      </trkpt>
      <trkpt lat="27.898874" lon="-15.719065">
        <ele>428.881</ele>
        <time>2014-02-23T12:28:04Z</time>
      </trkpt>
      <trkpt lat="27.898280" lon="-15.720047">
        <ele>436.635</ele>
        <time>2014-02-23T12:28:36Z</time>
      </trkpt>
      <trkpt lat="27.896575" lon="-15.720251">
        <ele>426.036</ele>
        <time>2014-02-23T12:29:34Z</time>
      </trkpt>
      <trkpt lat="27.896514" lon="-15.721976">
        <ele>441.496</ele>
        <time>2014-02-23T12:30:18Z</time>
      </trkpt>
      <trkpt lat="27.898647" lon="-15.722816">
        <ele>411.631</ele>
        <time>2014-02-23T12:30:52Z</time>
      </trkpt>
      <trkpt lat="27.899188" lon="-15.721618">
        <ele>414.424</ele>
        <time>2014-02-23T12:31:04Z</time>
      </trkpt>
      <trkpt lat="27.900176" lon="-15.721534">
        <ele>398.407</ele>
        <time>2014-02-23T12:31:14Z</time>
      </trkpt>
      <trkpt lat="27.900499" lon="-15.719729">
        <ele>408.415</ele>
        <time>2014-02-23T12:31:31Z</time>
      </trkpt>
      <trkpt lat="27.901542" lon="-15.719984">
        <ele>401.981</ele>
        <time>2014-02-23T12:31:41Z</time>
      </trkpt>
      <trkpt lat="27.901929" lon="-15.724002">
        <ele>365.370</ele>
        <time>2014-02-23T12:32:14Z</time>
      </trkpt>
      <trkpt lat="27.903513" lon="-15.724219">
        <ele>350.153</ele>
        <time>2014-02-23T12:32:32Z</time>
      </trkpt>
      <trkpt lat="27.904437" lon="-15.723134">
        <ele>352.885</ele>
        <time>2014-02-23T12:32:47Z</time>
      </trkpt>
      <trkpt lat="27.904942" lon="-15.725084">
        <ele>344.979</ele>
        <time>2014-02-23T12:33:03Z</time>
      </trkpt>
      <trkpt lat="27.904452" lon="-15.727047">
        <ele>327.890</ele>
        <time>2014-02-23T12:33:19Z</time>
      </trkpt>
      <trkpt lat="27.905632" lon="-15.727834">
        <ele>319.172</ele>
        <time>2014-02-23T12:33:30Z</time>
      </trkpt>
      <trkpt lat="27.907011" lon="-15.727323">
        <ele>335.313</ele>
        <time>2014-02-23T12:33:47Z</time>
      </trkpt>
      <trkpt lat="27.907956" lon="-15.729650">
        <ele>344.514</ele>
        <time>2014-02-23T12:34:38Z</time>
      </trkpt>
      <trkpt lat="27.909315" lon="-15.728136">
        <ele>359.407</ele>
        <time>2014-02-23T12:35:27Z</time>
      </trkpt>
      <trkpt lat="27.910226" lon="-15.729153">
        <ele>367.113</ele>
        <time>2014-02-23T12:36:00Z</time>
      </trkpt>
      <trkpt lat="27.912297" lon="-15.728539">
        <ele>380.219</ele>
        <time>2014-02-23T12:36:56Z</time>
      </trkpt>
      <trkpt lat="27.912800" lon="-15.729455">
        <ele>382.068</ele>
        <time>2014-02-23T12:37:20Z</time>
      </trkpt>
      <trkpt lat="27.915848" lon="-15.729740">
        <ele>403.651</ele>
        <time>2014-02-23T12:38:52Z</time>
      </trkpt>
      <trkpt lat="27.916989" lon="-15.726438">
        <ele>425.263</ele>
        <time>2014-02-23T12:40:20Z</time>
      </trkpt>
      <trkpt lat="27.918066" lon="-15.727985">
        <ele>430.997</ele>
        <time>2014-02-23T12:41:14Z</time>
      </trkpt>
      <trkpt lat="27.920797" lon="-15.725114">
        <ele>471.298</ele>
        <time>2014-02-23T12:43:04Z</time>
      </trkpt>
      <trkpt lat="27.923791" lon="-15.726744">
        <ele>477.387</ele>
        <time>2014-02-23T12:44:23Z</time>
      </trkpt>
      <trkpt lat="27.923894" lon="-15.728177">
        <ele>496.242</ele>
        <time>2014-02-23T12:44:52Z</time>
      </trkpt>
      <trkpt lat="27.921410" lon="-15.728106">
        <ele>475.426</ele>
        <time>2014-02-23T12:45:43Z</time>
      </trkpt>
      <trkpt lat="27.920711" lon="-15.728879">
        <ele>468.307</ele>
        <time>2014-02-23T12:46:04Z</time>
      </trkpt>
      <trkpt lat="27.921246" lon="-15.731004">
        <ele>522.144</ele>
        <time>2014-02-23T12:46:49Z</time>
      </trkpt>
      <trkpt lat="27.919975" lon="-15.735315">
        <ele>524.480</ele>
        <time>2014-02-23T12:49:09Z</time>
      </trkpt>
      <trkpt lat="27.922400" lon="-15.739933">
        <ele>569.319</ele>
        <time>2014-02-23T12:52:06Z</time>
      </trkpt>
      <trkpt lat="27.923746" lon="-15.740313">
        <ele>593.472</ele>
        <time>2014-02-23T12:52:50Z</time>
      </trkpt>
      <trkpt lat="27.924785" lon="-15.742007">
        <ele>604.014</ele>
        <time>2014-02-23T12:53:51Z</time>
      </trkpt>
      <trkpt lat="27.926267" lon="-15.742356">
        <ele>632.168</ele>
        <time>2014-02-23T12:54:47Z</time>
      </trkpt>
      <trkpt lat="27.925302" lon="-15.747738">
        <ele>656.499</ele>
        <time>2014-02-23T12:57:56Z</time>
      </trkpt>
      <trkpt lat="27.927137" lon="-15.746920">
        <ele>666.667</ele>
        <time>2014-02-23T12:58:41Z</time>
      </trkpt>
      <trkpt lat="27.927422" lon="-15.747749">
        <ele>654.281</ele>
        <time>2014-02-23T12:58:53Z</time>
      </trkpt>
      <trkpt lat="27.928404" lon="-15.747881">
        <ele>666.619</ele>
        <time>2014-02-23T12:59:08Z</time>
      </trkpt>
      <trkpt lat="27.929498" lon="-15.750297">
        <ele>657.107</ele>
        <time>2014-02-23T12:59:44Z</time>
      </trkpt>
      <trkpt lat="27.931217" lon="-15.750164">
        <ele>664.332</ele>
        <time>2014-02-23T13:00:13Z</time>
      </trkpt>
      <trkpt lat="27.931702" lon="-15.751640">
        <ele>655.718</ele>
        <time>2014-02-23T13:00:28Z</time>
      </trkpt>
      <trkpt lat="27.933975" lon="-15.750418">
        <ele>683.517</ele>
        <time>2014-02-23T13:01:10Z</time>
      </trkpt>
      <trkpt lat="27.934020" lon="-15.752220">
        <ele>651.950</ele>
        <time>2014-02-23T13:01:35Z</time>
      </trkpt>
      <trkpt lat="27.935847" lon="-15.752195">
        <ele>671.392</ele>
        <time>2014-02-23T13:01:59Z</time>
      </trkpt>
      <trkpt lat="27.937351" lon="-15.754027">
        <ele>675.676</ele>
        <time>2014-02-23T13:02:27Z</time>
      </trkpt>
      <trkpt lat="27.936656" lon="-15.755406">
        <ele>659.257</ele>
        <time>2014-02-23T13:02:47Z</time>
      </trkpt>
      <trkpt lat="27.938114" lon="-15.756350">
        <ele>685.688</ele>
        <time>2014-02-23T13:03:14Z</time>
      </trkpt>
      <trkpt lat="27.937283" lon="-15.757916">
        <ele>667.824</ele>
        <time>2014-02-23T13:03:50Z</time>
      </trkpt>
      <trkpt lat="27.938426" lon="-15.757656">
        <ele>690.326</ele>
        <time>2014-02-23T13:04:26Z</time>
      </trkpt>
      <trkpt lat="27.938762" lon="-15.758343">
        <ele>688.507</ele>
        <time>2014-02-23T13:04:44Z</time>
      </trkpt>
      <trkpt lat="27.938406" lon="-15.761213">
        <ele>671.924</ele>
        <time>2014-02-23T13:23:18Z</time>
      </trkpt>
      <trkpt lat="27.940571" lon="-15.757508">
        <ele>644.730</ele>
        <time>2014-02-23T13:33:39Z</time>
      </trkpt>
      <trkpt lat="27.942674" lon="-15.757574">
        <ele>621.379</ele>
        <time>2014-02-23T13:34:00Z</time>
      </trkpt>
      <trkpt lat="27.941288" lon="-15.758216">
        <ele>613.672</ele>
        <time>2014-02-23T13:34:18Z</time>
      </trkpt>
      <trkpt lat="27.941410" lon="-15.759427">
        <ele>588.454</ele>
        <time>2014-02-23T13:34:30Z</time>
      </trkpt>
      <trkpt lat="27.941618" lon="-15.758771">
        <ele>586.758</ele>
        <time>2014-02-23T13:34:39Z</time>
      </trkpt>
      <trkpt lat="27.943108" lon="-15.758594">
        <ele>563.939</ele>
        <time>2014-02-23T13:34:53Z</time>
      </trkpt>
      <trkpt lat="27.944122" lon="-15.760689">
        <ele>542.151</ele>
        <time>2014-02-23T13:35:11Z</time>
      </trkpt>
      <trkpt lat="27.945052" lon="-15.760489">
        <ele>533.501</ele>
        <time>2014-02-23T13:35:24Z</time>
      </trkpt>
      <trkpt lat="27.946050" lon="-15.762328">
        <ele>500.611</ele>
        <time>2014-02-23T13:35:46Z</time>
      </trkpt>
      <trkpt lat="27.948375" lon="-15.762125">
        <ele>482.907</ele>
        <time>2014-02-23T13:36:09Z</time>
      </trkpt>
      <trkpt lat="27.950379" lon="-15.763307">
        <ele>452.021</ele>
        <time>2014-02-23T13:36:32Z</time>
      </trkpt>
      <trkpt lat="27.950875" lon="-15.765817">
        <ele>415.597</ele>
        <time>2014-02-23T13:36:54Z</time>
      </trkpt>
      <trkpt lat="27.950058" lon="-15.765229">
        <ele>410.216</ele>
        <time>2014-02-23T13:37:10Z</time>
      </trkpt>
      <trkpt lat="27.951366" lon="-15.768100">
        <ele>369.929</ele>
        <time>2014-02-23T13:38:09Z</time>
      </trkpt>
      <trkpt lat="27.952779" lon="-15.767402">
        <ele>360.111</ele>
        <time>2014-02-23T13:38:52Z</time>
      </trkpt>
      <trkpt lat="27.952595" lon="-15.771005">
        <ele>307.675</ele>
        <time>2014-02-23T13:40:03Z</time>
      </trkpt>
      <trkpt lat="27.954477" lon="-15.771363">
        <ele>298.466</ele>
        <time>2014-02-23T13:40:45Z</time>
      </trkpt>
      <trkpt lat="27.953916" lon="-15.773772">
        <ele>274.533</ele>
        <time>2014-02-23T13:41:21Z</time>
      </trkpt>
      <trkpt lat="27.955225" lon="-15.775755">
        <ele>256.623</ele>
        <time>2014-02-23T13:42:01Z</time>
      </trkpt>
      <trkpt lat="27.955136" lon="-15.777167">
        <ele>264.215</ele>
        <time>2014-02-23T13:42:37Z</time>
      </trkpt>
      <trkpt lat="27.957781" lon="-15.777193">
        <ele>261.407</ele>
        <time>2014-02-23T13:43:41Z</time>
      </trkpt>
      <trkpt lat="27.959691" lon="-15.778622">
        <ele>255.449</ele>
        <time>2014-02-23T13:44:16Z</time>
      </trkpt>
      <trkpt lat="27.963931" lon="-15.778830">
        <ele>226.485</ele>
        <time>2014-02-23T13:45:11Z</time>
      </trkpt>
      <trkpt lat="27.966516" lon="-15.779972">
        <ele>207.034</ele>
        <time>2014-02-23T13:45:40Z</time>
      </trkpt>
      <trkpt lat="27.968251" lon="-15.782372">
        <ele>188.987</ele>
        <time>2014-02-23T13:46:09Z</time>
      </trkpt>
      <trkpt lat="27.976020" lon="-15.781245">
        <ele>134.689</ele>
        <time>2014-02-23T13:47:26Z</time>
      </trkpt>
      <trkpt lat="27.977029" lon="-15.782177">
        <ele>123.043</ele>
        <time>2014-02-23T13:47:38Z</time>
      </trkpt>
      <trkpt lat="27.976410" lon="-15.783879">
        <ele>115.064</ele>
        <time>2014-02-23T13:47:55Z</time>
      </trkpt>
      <trkpt lat="27.978816" lon="-15.783480">
        <ele>108.676</ele>
        <time>2014-02-23T13:48:28Z</time>
      </trkpt>
      <trkpt lat="27.986752" lon="-15.787260">
        <ele>64.990</ele>
        <time>2014-02-23T13:50:07Z</time>
      </trkpt>
      <trkpt lat="27.986610" lon="-15.789463">
        <ele>71.819</ele>
        <time>2014-02-23T13:53:25Z</time>
      </trkpt>
      <trkpt lat="27.990407" lon="-15.799233">
        <ele>58.407</ele>
        <time>2014-02-23T13:55:19Z</time>
      </trkpt>
      <trkpt lat="27.994874" lon="-15.803454">
        <ele>45.813</ele>
        <time>2014-02-23T13:56:36Z</time>
      </trkpt>
      <trkpt lat="27.995826" lon="-15.810783">
        <ele>31.939</ele>
        <time>2014-02-23T13:58:23Z</time>
      </trkpt>
      <trkpt lat="27.997535" lon="-15.814088">
        <ele>19.598</ele>
        <time>2014-02-23T13:59:17Z</time>
      </trkpt>
      <trkpt lat="28.002862" lon="-15.815153">
        <ele>12.591</ele>
        <time>2014-02-23T14:00:39Z</time>
      </trkpt>
      <trkpt lat="28.003862" lon="-15.809306">
        <ele>49.243</ele>
        <time>2014-02-23T14:03:37Z</time>
      </trkpt>
      <trkpt lat="28.007016" lon="-15.806873">
        <ele>72.417</ele>
        <time>2014-02-23T14:05:53Z</time>
      </trkpt>
      <trkpt lat="28.007437" lon="-15.801760">
        <ele>91.828</ele>
        <time>2014-02-23T14:08:39Z</time>
      </trkpt>
      <trkpt lat="28.008893" lon="-15.800779">
        <ele>118.573</ele>
        <time>2014-02-23T14:09:35Z</time>
      </trkpt>
      <trkpt lat="28.007722" lon="-15.800034">
        <ele>107.785</ele>
        <time>2014-02-23T14:10:30Z</time>
      </trkpt>
      <trkpt lat="28.008951" lon="-15.791391">
        <ele>177.213</ele>
        <time>2014-02-23T14:16:53Z</time>
      </trkpt>
      <trkpt lat="28.010951" lon="-15.788836">
        <ele>198.707</ele>
        <time>2014-02-23T14:19:11Z</time>
      </trkpt>
      <trkpt lat="28.015322" lon="-15.788402">
        <ele>254.343</ele>
        <time>2014-02-23T14:22:47Z</time>
      </trkpt>
      <trkpt lat="28.014411" lon="-15.786445">
        <ele>268.569</ele>
        <time>2014-02-23T14:24:18Z</time>
      </trkpt>
      <trkpt lat="28.012473" lon="-15.785595">
        <ele>279.828</ele>
        <time>2014-02-23T14:26:01Z</time>
      </trkpt>
      <trkpt lat="28.011707" lon="-15.784344">
        <ele>291.771</ele>
        <time>2014-02-23T14:27:02Z</time>
      </trkpt>
      <trkpt lat="28.012908" lon="-15.783463">
        <ele>300.283</ele>
        <time>2014-02-23T14:28:04Z</time>
      </trkpt>
      <trkpt lat="28.016820" lon="-15.785596">
        <ele>346.297</ele>
        <time>2014-02-23T14:31:00Z</time>
      </trkpt>
      <trkpt lat="28.019192" lon="-15.785288">
        <ele>345.258</ele>
        <time>2014-02-23T14:32:32Z</time>
      </trkpt>
      <trkpt lat="28.018743" lon="-15.783967">
        <ele>359.119</ele>
        <time>2014-02-23T14:33:22Z</time>
      </trkpt>
      <trkpt lat="28.020369" lon="-15.783399">
        <ele>381.309</ele>
        <time>2014-02-23T14:34:24Z</time>
      </trkpt>
      <trkpt lat="28.019613" lon="-15.781727">
        <ele>415.719</ele>
        <time>2014-02-23T14:35:38Z</time>
      </trkpt>
      <trkpt lat="28.018398" lon="-15.781324">
        <ele>408.207</ele>
        <time>2014-02-23T14:36:37Z</time>
      </trkpt>
      <trkpt lat="28.019969" lon="-15.780215">
        <ele>441.257</ele>
        <time>2014-02-23T14:37:51Z</time>
      </trkpt>
      <trkpt lat="28.019146" lon="-15.778733">
        <ele>434.173</ele>
        <time>2014-02-23T14:38:49Z</time>
      </trkpt>
      <trkpt lat="28.020354" lon="-15.777981">
        <ele>462.092</ele>
        <time>2014-02-23T14:39:47Z</time>
      </trkpt>
      <trkpt lat="28.019839" lon="-15.776755">
        <ele>461.385</ele>
        <time>2014-02-23T14:40:39Z</time>
      </trkpt>
      <trkpt lat="28.022058" lon="-15.777050">
        <ele>492.857</ele>
        <time>2014-02-23T14:42:13Z</time>
      </trkpt>
      <trkpt lat="28.022315" lon="-15.775886">
        <ele>493.121</ele>
        <time>2014-02-23T14:42:57Z</time>
      </trkpt>
      <trkpt lat="28.023599" lon="-15.775951">
        <ele>514.842</ele>
        <time>2014-02-23T14:43:47Z</time>
      </trkpt>
      <trkpt lat="28.023734" lon="-15.774488">
        <ele>497.461</ele>
        <time>2014-02-23T14:44:27Z</time>
      </trkpt>
      <trkpt lat="28.025678" lon="-15.774544">
        <ele>488.021</ele>
        <time>2014-02-23T14:45:17Z</time>
      </trkpt>
      <trkpt lat="28.026251" lon="-15.772687">
        <ele>540.313</ele>
        <time>2014-02-23T14:46:19Z</time>
      </trkpt>
      <trkpt lat="28.025090" lon="-15.770398">
        <ele>547.807</ele>
        <time>2014-02-23T14:47:45Z</time>
      </trkpt>
      <trkpt lat="28.027797" lon="-15.769569">
        <ele>561.872</ele>
        <time>2014-02-23T14:49:25Z</time>
      </trkpt>
      <trkpt lat="28.029083" lon="-15.768258">
        <ele>564.818</ele>
        <time>2014-02-23T15:05:21Z</time>
      </trkpt>
      <trkpt lat="28.029311" lon="-15.766247">
        <ele>560.017</ele>
        <time>2014-02-23T15:05:43Z</time>
      </trkpt>
      <trkpt lat="28.030688" lon="-15.765637">
        <ele>531.690</ele>
        <time>2014-02-23T15:05:59Z</time>
      </trkpt>
      <trkpt lat="28.030502" lon="-15.764591">
        <ele>553.242</ele>
        <time>2014-02-23T15:06:11Z</time>
      </trkpt>
      <trkpt lat="28.032285" lon="-15.762963">
        <ele>523.016</ele>
        <time>2014-02-23T15:06:40Z</time>
      </trkpt>
      <trkpt lat="28.032545" lon="-15.761151">
        <ele>646.347</ele>
        <time>2014-02-23T15:07:15Z</time>
      </trkpt>
      <trkpt lat="28.034209" lon="-15.760418">
        <ele>554.053</ele>
        <time>2014-02-23T15:07:44Z</time>
      </trkpt>
      <trkpt lat="28.035180" lon="-15.758878">
        <ele>554.704</ele>
        <time>2014-02-23T15:08:21Z</time>
      </trkpt>
      <trkpt lat="28.035221" lon="-15.756006">
        <ele>516.014</ele>
        <time>2014-02-23T15:08:59Z</time>
      </trkpt>
      <trkpt lat="28.034034" lon="-15.755229">
        <ele>520.807</ele>
        <time>2014-02-23T15:09:13Z</time>
      </trkpt>
      <trkpt lat="28.034179" lon="-15.753795">
        <ele>529.161</ele>
        <time>2014-02-23T15:09:28Z</time>
      </trkpt>
      <trkpt lat="28.036150" lon="-15.753862">
        <ele>478.597</ele>
        <time>2014-02-23T15:09:49Z</time>
      </trkpt>
      <trkpt lat="28.036815" lon="-15.749317">
        <ele>465.566</ele>
        <time>2014-02-23T15:10:34Z</time>
      </trkpt>
      <trkpt lat="28.038318" lon="-15.749312">
        <ele>416.289</ele>
        <time>2014-02-23T15:10:49Z</time>
      </trkpt>
      <trkpt lat="28.039230" lon="-15.746177">
        <ele>420.141</ele>
        <time>2014-02-23T15:11:17Z</time>
      </trkpt>
      <trkpt lat="28.041104" lon="-15.744572">
        <ele>369.415</ele>
        <time>2014-02-23T15:11:43Z</time>
      </trkpt>
      <trkpt lat="28.039626" lon="-15.743598">
        <ele>377.586</ele>
        <time>2014-02-23T15:12:01Z</time>
      </trkpt>
      <trkpt lat="28.037731" lon="-15.740035">
        <ele>329.651</ele>
        <time>2014-02-23T15:12:41Z</time>
      </trkpt>
      <trkpt lat="28.035558" lon="-15.739243">
        <ele>311.501</ele>
        <time>2014-02-23T15:13:02Z</time>
      </trkpt>
      <trkpt lat="28.033343" lon="-15.739678">
        <ele>296.411</ele>
        <time>2014-02-23T15:13:25Z</time>
      </trkpt>
      <trkpt lat="28.032583" lon="-15.738798">
        <ele>284.907</ele>
        <time>2014-02-23T15:13:38Z</time>
      </trkpt>
      <trkpt lat="28.033120" lon="-15.736772">
        <ele>269.371</ele>
        <time>2014-02-23T15:13:55Z</time>
      </trkpt>
      <trkpt lat="28.035284" lon="-15.735472">
        <ele>250.037</ele>
        <time>2014-02-23T15:14:16Z</time>
      </trkpt>
      <trkpt lat="28.037231" lon="-15.735948">
        <ele>216.086</ele>
        <time>2014-02-23T15:14:40Z</time>
      </trkpt>
      <trkpt lat="28.038010" lon="-15.734885">
        <ele>219.569</ele>
        <time>2014-02-23T15:14:52Z</time>
      </trkpt>
      <trkpt lat="28.039501" lon="-15.735820">
        <ele>182.471</ele>
        <time>2014-02-23T15:15:05Z</time>
      </trkpt>
      <trkpt lat="28.040933" lon="-15.735845">
        <ele>171.325</ele>
        <time>2014-02-23T15:15:20Z</time>
      </trkpt>
      <trkpt lat="28.042198" lon="-15.734799">
        <ele>177.446</ele>
        <time>2014-02-23T15:15:33Z</time>
      </trkpt>
      <trkpt lat="28.042816" lon="-15.735316">
        <ele>159.729</ele>
        <time>2014-02-23T15:15:41Z</time>
      </trkpt>
      <trkpt lat="28.045642" lon="-15.734483">
        <ele>155.000</ele>
        <time>2014-02-23T15:16:08Z</time>
      </trkpt>
      <trkpt lat="28.046629" lon="-15.735066">
        <ele>121.120</ele>
        <time>2014-02-23T15:16:18Z</time>
      </trkpt>
      <trkpt lat="28.047274" lon="-15.734251">
        <ele>113.707</ele>
        <time>2014-02-23T15:16:28Z</time>
      </trkpt>
      <trkpt lat="28.045962" lon="-15.730896">
        <ele>90.448</ele>
        <time>2014-02-23T15:16:52Z</time>
      </trkpt>
      <trkpt lat="28.046374" lon="-15.727816">
        <ele>79.454</ele>
        <time>2014-02-23T15:23:16Z</time>
      </trkpt>
      <trkpt lat="28.048060" lon="-15.728749">
        <ele>88.213</ele>
        <time>2014-02-23T15:55:34Z</time>
      </trkpt>
      <trkpt lat="28.049260" lon="-15.732501">
        <ele>55.336</ele>
        <time>2014-02-23T15:56:16Z</time>
      </trkpt>
      <trkpt lat="28.050690" lon="-15.732650">
        <ele>55.438</ele>
        <time>2014-02-23T15:56:53Z</time>
      </trkpt>
      <trkpt lat="28.051822" lon="-15.730850">
        <ele>74.592</ele>
        <time>2014-02-23T15:58:09Z</time>
      </trkpt>
      <trkpt lat="28.052185" lon="-15.731589">
        <ele>73.883</ele>
        <time>2014-02-23T15:58:35Z</time>
      </trkpt>
      <trkpt lat="28.053222" lon="-15.731257">
        <ele>91.029</ele>
        <time>2014-02-23T15:59:20Z</time>
      </trkpt>
      <trkpt lat="28.052600" lon="-15.732666">
        <ele>89.200</ele>
        <time>2014-02-23T16:00:13Z</time>
      </trkpt>
      <trkpt lat="28.053774" lon="-15.733430">
        <ele>102.620</ele>
        <time>2014-02-23T16:01:09Z</time>
      </trkpt>
      <trkpt lat="28.056133" lon="-15.730862">
        <ele>143.007</ele>
        <time>2014-02-23T16:03:36Z</time>
      </trkpt>
      <trkpt lat="28.057432" lon="-15.731574">
        <ele>151.838</ele>
        <time>2014-02-23T16:04:38Z</time>
      </trkpt>
      <trkpt lat="28.059692" lon="-15.729598">
        <ele>178.934</ele>
        <time>2014-02-23T16:06:24Z</time>
      </trkpt>
      <trkpt lat="28.060638" lon="-15.731146">
        <ele>174.563</ele>
        <time>2014-02-23T16:07:26Z</time>
      </trkpt>
      <trkpt lat="28.064022" lon="-15.727732">
        <ele>201.266</ele>
        <time>2014-02-23T16:09:05Z</time>
      </trkpt>
      <trkpt lat="28.064719" lon="-15.725467">
        <ele>197.468</ele>
        <time>2014-02-23T16:09:42Z</time>
      </trkpt>
      <trkpt lat="28.066575" lon="-15.723950">
        <ele>175.642</ele>
        <time>2014-02-23T16:10:13Z</time>
      </trkpt>
      <trkpt lat="28.067111" lon="-15.722198">
        <ele>190.243</ele>
        <time>2014-02-23T16:10:35Z</time>
      </trkpt>
      <trkpt lat="28.070503" lon="-15.719024">
        <ele>153.076</ele>
        <time>2014-02-23T16:11:26Z</time>
      </trkpt>
      <trkpt lat="28.070178" lon="-15.716867">
        <ele>172.990</ele>
        <time>2014-02-23T16:11:56Z</time>
      </trkpt>
      <trkpt lat="28.075173" lon="-15.715167">
        <ele>175.919</ele>
        <time>2014-02-23T16:13:47Z</time>
      </trkpt>
      <trkpt lat="28.070055" lon="-15.711312">
        <ele>188.307</ele>
        <time>2014-02-23T16:15:46Z</time>
      </trkpt>
      <trkpt lat="28.074573" lon="-15.710085">
        <ele>221.913</ele>
        <time>2014-02-23T16:17:55Z</time>
      </trkpt>
      <trkpt lat="28.075673" lon="-15.708251">
        <ele>222.999</ele>
        <time>2014-02-23T16:18:21Z</time>
      </trkpt>
      <trkpt lat="28.076301" lon="-15.708690">
        <ele>210.718</ele>
        <time>2014-02-23T16:18:30Z</time>
      </trkpt>
      <trkpt lat="28.078423" lon="-15.707842">
        <ele>177.541</ele>
        <time>2014-02-23T16:18:51Z</time>
      </trkpt>
      <trkpt lat="28.077988" lon="-15.706740">
        <ele>176.553</ele>
        <time>2014-02-23T16:19:02Z</time>
      </trkpt>
      <trkpt lat="28.077111" lon="-15.706558">
        <ele>186.467</ele>
        <time>2014-02-23T16:19:11Z</time>
      </trkpt>
      <trkpt lat="28.077578" lon="-15.705584">
        <ele>158.428</ele>
        <time>2014-02-23T16:19:21Z</time>
      </trkpt>
      <trkpt lat="28.076781" lon="-15.704306">
        <ele>160.341</ele>
        <time>2014-02-23T16:19:35Z</time>
      </trkpt>
      <trkpt lat="28.079550" lon="-15.707423">
        <ele>130.881</ele>
        <time>2014-02-23T16:20:14Z</time>
      </trkpt>
      <trkpt lat="28.078734" lon="-15.705174">
        <ele>127.609</ele>
        <time>2014-02-23T16:20:38Z</time>
      </trkpt>
      <trkpt lat="28.080487" lon="-15.706044">
        <ele>109.407</ele>
        <time>2014-02-23T16:20:54Z</time>
      </trkpt>
      <trkpt lat="28.080924" lon="-15.704711">
        <ele>103.420</ele>
        <time>2014-02-23T16:21:11Z</time>
      </trkpt>
      <trkpt lat="28.081958" lon="-15.705665">
        <ele>91.416</ele>
        <time>2014-02-23T16:21:31Z</time>
      </trkpt>
      <trkpt lat="28.082581" lon="-15.704782">
        <ele>111.235</ele>
        <time>2014-02-23T16:21:49Z</time>
      </trkpt>
      <trkpt lat="28.083315" lon="-15.705973">
        <ele>101.848</ele>
        <time>2014-02-23T16:22:50Z</time>
      </trkpt>
      <trkpt lat="28.084722" lon="-15.703218">
        <ele>121.140</ele>
        <time>2014-02-23T16:23:54Z</time>
      </trkpt>
      <trkpt lat="28.085385" lon="-15.705335">
        <ele>123.354</ele>
        <time>2014-02-23T16:24:42Z</time>
      </trkpt>
      <trkpt lat="28.087343" lon="-15.703744">
        <ele>150.085</ele>
        <time>2014-02-23T16:25:48Z</time>
      </trkpt>
      <trkpt lat="28.089635" lon="-15.703222">
        <ele>184.185</ele>
        <time>2014-02-23T16:27:12Z</time>
      </trkpt>
      <trkpt lat="28.091806" lon="-15.706427">
        <ele>174.889</ele>
        <time>2014-02-23T16:28:47Z</time>
      </trkpt>
      <trkpt lat="28.093875" lon="-15.705754">
        <ele>164.417</ele>
        <time>2014-02-23T16:29:19Z</time>
      </trkpt>
      <trkpt lat="28.092611" lon="-15.699672">
        <ele>140.107</ele>
        <time>2014-02-23T16:30:06Z</time>
      </trkpt>
      <trkpt lat="28.095717" lon="-15.703254">
        <ele>95.864</ele>
        <time>2014-02-23T16:30:46Z</time>
      </trkpt>
      <trkpt lat="28.096316" lon="-15.702376">
        <ele>88.380</ele>
        <time>2014-02-23T16:30:55Z</time>
      </trkpt>
      <trkpt lat="28.095728" lon="-15.700509">
        <ele>82.199</ele>
        <time>2014-02-23T16:31:09Z</time>
      </trkpt>
      <trkpt lat="28.096171" lon="-15.699069">
        <ele>72.772</ele>
        <time>2014-02-23T16:31:22Z</time>
      </trkpt>
      <trkpt lat="28.098117" lon="-15.703642">
        <ele>48.984</ele>
        <time>2014-02-23T16:32:13Z</time>
      </trkpt>
      <trkpt lat="28.099108" lon="-15.704373">
        <ele>41.158</ele>
        <time>2014-02-23T16:32:36Z</time>
      </trkpt>
      <trkpt lat="28.099741" lon="-15.703037">
        <ele>36.969</ele>
        <time>2014-02-23T16:33:07Z</time>
      </trkpt>
      <trkpt lat="28.099979" lon="-15.703465">
        <ele>35.274</ele>
        <time>2014-02-23T16:33:46Z</time>
      </trkpt>
      <trkpt lat="28.099233" lon="-15.701530">
        <ele>42.056</ele>
        <time>2014-02-23T16:37:58Z</time>
      </trkpt>
      <trkpt lat="28.100382" lon="-15.700431">
        <ele>51.021</ele>
        <time>2014-02-23T16:38:33Z</time>
      </trkpt>
      <trkpt lat="28.102249" lon="-15.701971">
        <ele>51.407</ele>
        <time>2014-02-23T16:39:11Z</time>
      </trkpt>
      <trkpt lat="28.103106" lon="-15.700304">
        <ele>60.263</ele>
        <time>2014-02-23T16:40:00Z</time>
      </trkpt>
      <trkpt lat="28.103999" lon="-15.700730">
        <ele>67.119</ele>
        <time>2014-02-23T16:40:32Z</time>
      </trkpt>
      <trkpt lat="28.105666" lon="-15.699760">
        <ele>75.618</ele>
        <time>2014-02-23T16:41:38Z</time>
      </trkpt>
      <trkpt lat="28.107102" lon="-15.698017">
        <ele>94.891</ele>
        <time>2014-02-23T16:43:02Z</time>
      </trkpt>
      <trkpt lat="28.108523" lon="-15.693222">
        <ele>115.913</ele>
        <time>2014-02-23T16:45:46Z</time>
      </trkpt>
      <trkpt lat="28.107909" lon="-15.690038">
        <ele>144.067</ele>
        <time>2014-02-23T16:47:18Z</time>
      </trkpt>
      <trkpt lat="28.109660" lon="-15.691937">
        <ele>158.548</ele>
        <time>2014-02-23T16:48:42Z</time>
      </trkpt>
      <trkpt lat="28.110455" lon="-15.691617">
        <ele>163.054</ele>
        <time>2014-02-23T16:49:14Z</time>
      </trkpt>
      <trkpt lat="28.110720" lon="-15.688210">
        <ele>171.656</ele>
        <time>2014-02-23T16:50:34Z</time>
      </trkpt>
      <trkpt lat="28.109602" lon="-15.685901">
        <ele>158.411</ele>
        <time>2014-02-23T16:51:04Z</time>
      </trkpt>
      <trkpt lat="28.111724" lon="-15.684884">
        <ele>175.107</ele>
        <time>2014-02-23T16:51:59Z</time>
      </trkpt>
      <trkpt lat="28.110791" lon="-15.678493">
        <ele>184.781</ele>
        <time>2014-02-23T16:54:10Z</time>
      </trkpt>
      <trkpt lat="28.112452" lon="-15.678549">
        <ele>194.367</ele>
        <time>2014-02-23T16:54:44Z</time>
      </trkpt>
      <trkpt lat="28.114349" lon="-15.674357">
        <ele>187.486</ele>
        <time>2014-02-23T16:55:48Z</time>
      </trkpt>
      <trkpt lat="28.115100" lon="-15.674228">
        <ele>195.949</ele>
        <time>2014-02-23T16:55:57Z</time>
      </trkpt>
      <trkpt lat="28.115237" lon="-15.675643">
        <ele>193.871</ele>
        <time>2014-02-23T16:56:22Z</time>
      </trkpt>
      <trkpt lat="28.116069" lon="-15.675259">
        <ele>194.145</ele>
        <time>2014-02-23T16:56:43Z</time>
      </trkpt>
      <trkpt lat="28.117608" lon="-15.672377">
        <ele>210.486</ele>
        <time>2014-02-23T16:59:14Z</time>
      </trkpt>
      <trkpt lat="28.123436" lon="-15.667006">
        <ele>179.258</ele>
        <time>2014-02-23T17:08:23Z</time>
      </trkpt>
      <trkpt lat="28.129435" lon="-15.657785">
        <ele>131.252</ele>
        <time>2014-02-23T17:09:39Z</time>
      </trkpt>
      <trkpt lat="28.132877" lon="-15.654225">
        <ele>123.517</ele>
        <time>2014-02-23T17:10:24Z</time>
      </trkpt>
      <trkpt lat="28.135342" lon="-15.653307">
        <ele>105.207</ele>
        <time>2014-02-23T17:10:51Z</time>
      </trkpt>
      <trkpt lat="28.139661" lon="-15.654266">
        <ele>86.491</ele>
        <time>2014-02-23T17:11:27Z</time>
      </trkpt>
      <trkpt lat="28.141255" lon="-15.652740">
        <ele>89.897</ele>
        <time>2014-02-23T17:11:51Z</time>
      </trkpt>
      <trkpt lat="28.143780" lon="-15.642495">
        <ele>125.856</ele>
        <time>2014-02-23T17:15:02Z</time>
      </trkpt>
      <trkpt lat="28.143103" lon="-15.638537">
        <ele>139.999</ele>
        <time>2014-02-23T17:16:22Z</time>
      </trkpt>
      <trkpt lat="28.145972" lon="-15.632461">
        <ele>164.111</ele>
        <time>2014-02-23T17:18:51Z</time>
      </trkpt>
      <trkpt lat="28.144209" lon="-15.628103">
        <ele>190.815</ele>
        <time>2014-02-23T17:20:41Z</time>
      </trkpt>
      <trkpt lat="28.143780" lon="-15.622077">
        <ele>188.776</ele>
        <time>2014-02-23T17:22:23Z</time>
      </trkpt>
      <trkpt lat="28.144484" lon="-15.619374">
        <ele>199.938</ele>
        <time>2014-02-23T17:23:03Z</time>
      </trkpt>
      <trkpt lat="28.143957" lon="-15.616734">
        <ele>185.170</ele>
        <time>2014-02-23T17:23:46Z</time>
      </trkpt>
      <trkpt lat="28.144456" lon="-15.612230">
        <ele>221.617</ele>
        <time>2014-02-23T17:25:09Z</time>
      </trkpt>
      <trkpt lat="28.145798" lon="-15.608352">
        <ele>236.607</ele>
        <time>2014-02-23T17:29:37Z</time>
      </trkpt>
      <trkpt lat="28.139914" lon="-15.598741">
        <ele>63.649</ele>
        <time>2014-02-23T17:30:54Z</time>
      </trkpt>
      <trkpt lat="28.140161" lon="-15.593511">
        <ele>149.185</ele>
        <time>2014-02-23T17:31:25Z</time>
      </trkpt>
      <trkpt lat="28.138446" lon="-15.589429">
        <ele>108.834</ele>
        <time>2014-02-23T17:31:52Z</time>
      </trkpt>
      <trkpt lat="28.139150" lon="-15.587873">
        <ele>101.217</ele>
        <time>2014-02-23T17:32:03Z</time>
      </trkpt>
      <trkpt lat="28.141712" lon="-15.586243">
        <ele>82.619</ele>
        <time>2014-02-23T17:32:22Z</time>
      </trkpt>
      <trkpt lat="28.142500" lon="-15.584850">
        <ele>72.093</ele>
        <time>2014-02-23T17:32:31Z</time>
      </trkpt>
      <trkpt lat="28.141852" lon="-15.580475">
        <ele>49.224</ele>
        <time>2014-02-23T17:32:56Z</time>
      </trkpt>
      <trkpt lat="28.142646" lon="-15.577448">
        <ele>31.223</ele>
        <time>2014-02-23T17:33:13Z</time>
      </trkpt>
      <trkpt lat="28.142341" lon="-15.572171">
        <ele>27.183</ele>
        <time>2014-02-23T17:33:47Z</time>
      </trkpt>
      <trkpt lat="28.144281" lon="-15.568064">
        <ele>18.211</ele>
        <time>2014-02-23T17:34:25Z</time>
      </trkpt>
      <trkpt lat="28.144973" lon="-15.564066">
        <ele>16.207</ele>
        <time>2014-02-23T17:35:01Z</time>
      </trkpt>
      <trkpt lat="28.146000" lon="-15.545513">
        <ele>13.558</ele>
        <time>2014-02-23T17:38:28Z</time>
      </trkpt>
      <trkpt lat="28.148781" lon="-15.538753">
        <ele>19.034</ele>
        <time>2014-02-23T17:40:04Z</time>
      </trkpt>
      <trkpt lat="28.149520" lon="-15.533358">
        <ele>23.563</ele>
        <time>2014-02-23T17:41:01Z</time>
      </trkpt>
      <trkpt lat="28.152041" lon="-15.526616">
        <ele>45.216</ele>
        <time>2014-02-23T17:42:44Z</time>
      </trkpt>
      <trkpt lat="28.150803" lon="-15.523373">
        <ele>45.878</ele>
        <time>2014-02-23T17:43:33Z</time>
      </trkpt>
      <trkpt lat="28.147683" lon="-15.520228">
        <ele>56.412</ele>
        <time>2014-02-23T17:44:39Z</time>
      </trkpt>
      <trkpt lat="28.144875" lon="-15.515365">
        <ele>80.763</ele>
        <time>2014-02-23T17:46:16Z</time>
      </trkpt>
      <trkpt lat="28.140178" lon="-15.493473">
        <ele>75.815</ele>
        <time>2014-02-23T17:50:20Z</time>
      </trkpt>
      <trkpt lat="28.133884" lon="-15.485118">
        <ele>36.865</ele>
        <time>2014-02-23T17:51:36Z</time>
      </trkpt>
      <trkpt lat="28.133606" lon="-15.483370">
        <ele>49.811</ele>
        <time>2014-02-23T17:51:50Z</time>
      </trkpt>
      <trkpt lat="28.134762" lon="-15.478212">
        <ele>53.607</ele>
        <time>2014-02-23T17:52:44Z</time>
      </trkpt>
      <trkpt lat="28.130218" lon="-15.474569">
        <ele>36.717</ele>
        <time>2014-02-23T17:53:33Z</time>
      </trkpt>
      <trkpt lat="28.125729" lon="-15.468046">
        <ele>15.953</ele>
        <time>2014-02-23T17:54:26Z</time>
      </trkpt>
      <trkpt lat="28.126006" lon="-15.465456">
        <ele>18.612</ele>
        <time>2014-02-23T17:54:45Z</time>
      </trkpt>
      <trkpt lat="28.127494" lon="-15.462294">
        <ele>22.465</ele>
        <time>2014-02-23T17:55:14Z</time>
      </trkpt>
      <trkpt lat="28.127822" lon="-15.456551">
        <ele>21.977</ele>
        <time>2014-02-23T17:56:13Z</time>
      </trkpt>
      <trkpt lat="28.126656" lon="-15.452760">
        <ele>36.011</ele>
        <time>2014-02-23T17:56:48Z</time>
      </trkpt>
      <trkpt lat="28.126974" lon="-15.448450">
        <ele>34.092</ele>
        <time>2014-02-23T17:57:30Z</time>
      </trkpt>
      <trkpt lat="28.126014" lon="-15.446844">
        <ele>45.814</ele>
        <time>2014-02-23T17:57:52Z</time>
      </trkpt>
      <trkpt lat="28.130593" lon="-15.442172">
        <ele>22.554</ele>
        <time>2014-02-23T18:06:26Z</time>
      </trkpt>
      <trkpt lat="28.130656" lon="-15.439826">
        <ele>23.009</ele>
        <time>2014-02-23T18:08:39Z</time>
      </trkpt>
      <trkpt lat="28.134313" lon="-15.435586">
        <ele>29.207</ele>
        <time>2014-02-23T18:11:05Z</time>
      </trkpt>
      <trkpt lat="28.133978" lon="-15.433971">
        <ele>37.477</ele>
        <time>2014-02-23T18:11:35Z</time>
      </trkpt>
      <trkpt lat="28.130186" lon="-15.433795">
        <ele>38.223</ele>
        <time>2014-02-23T18:12:46Z</time>
      </trkpt>
      <trkpt lat="28.129990" lon="-15.434348">
        <ele>44.442</ele>
        <time>2014-02-23T18:27:02Z</time>
      </trkpt>
      <trkpt lat="28.129583" lon="-15.433010">
        <ele>26.885</ele>
        <time>2014-02-23T18:43:30Z</time>
      </trkpt>
      <trkpt lat="28.134606" lon="-15.433258">
        <ele>33.517</ele>
        <time>2014-02-23T18:46:11Z</time>
      </trkpt>
      <trkpt lat="28.134614" lon="-15.435348">
        <ele>32.261</ele>
        <time>2014-02-23T18:46:41Z</time>
      </trkpt>
      <trkpt lat="28.133487" lon="-15.436389">
        <ele>29.452</ele>
        <time>2014-02-23T18:47:16Z</time>
      </trkpt>
      <trkpt lat="28.134374" lon="-15.437279">
        <ele>22.036</ele>
        <time>2014-02-23T18:48:23Z</time>
      </trkpt>
    </trkseg>
  </trk></gpx>