<?xml version="1.0" encoding="UTF-8"?>
<gpx version="1.1" creator="Aventuras en Cada Paso" xmlns="http://www.topografix.com/GPX/1/1">
  <metadata>
    <name>Ruta Circular Completa – Isla de Lobos</name>
    <desc>La vuelta completa por el Parque Natural: El Puertito, La Caldera, Faro Martiño y Playa de La Concha. Requiere permiso gratuito online (máx. 200 personas/día).</desc>
    <author><name>Aventuras en Cada Paso</name></author>
    <time>2026-07-08T08:12:58.210Z</time>
    <keywords>Isla de Lobos, Senderismo, Fácil, senderismo Canarias</keywords>
  </metadata>
  <wpt lat="28.7506" lon="-13.8167">
    <name>Ruta Circular Completa – Isla de Lobos</name>
    <desc>La vuelta completa por el Parque Natural: El Puertito, La Caldera, Faro Martiño y Playa de La Concha. Requiere permiso gratuito online (máx. 200 personas/día). | Isla: Isla de Lobos | Tipo: Senderismo | Dificultad: Fácil | Distancia: 8km | Duración: 2-4 horas</desc>
    <type>Senderismo</type>
    <extensions>
      <isla>Isla de Lobos</isla>
      <dificultad>Fácil</dificultad>
      <distancia>8</distancia>
      <duracion>2-4 horas</duracion>
    </extensions>
  </wpt>
</gpx>