<?xml version="1.0" encoding="UTF-8"?>
<gpx version="1.1" creator="Aventuras en Cada Paso" xmlns="http://www.topografix.com/GPX/1/1">
  <metadata>
    <name>Gran Circular Garajonay (Ruta 18)</name>
    <desc>Circular completa por el corazón del Parque Nacional. Pajarito, Contadero, Mimbreras, Cedro, Reventón Oscuro y Tajaqué. La ruta más completa del parque.</desc>
    <author><name>Aventuras en Cada Paso</name></author>
    <time>2026-07-08T08:12:58.199Z</time>
    <keywords>La Gomera, Senderismo, Difícil, senderismo Canarias</keywords>
  </metadata>
  <wpt lat="28.1073" lon="-17.2452">
    <name>Gran Circular Garajonay (Ruta 18)</name>
    <desc>Circular completa por el corazón del Parque Nacional. Pajarito, Contadero, Mimbreras, Cedro, Reventón Oscuro y Tajaqué. La ruta más completa del parque. | Isla: La Gomera | Tipo: Senderismo | Dificultad: Difícil | Distancia: 16km | Duración: Día completo</desc>
    <type>Senderismo</type>
    <extensions>
      <isla>La Gomera</isla>
      <dificultad>Difícil</dificultad>
      <distancia>16</distancia>
      <duracion>Día completo</duracion>
    </extensions>
  </wpt>
</gpx>