<?xml version="1.0" encoding="UTF-8"?>
<gpx version="1.1" creator="Aventuras en Cada Paso" xmlns="http://www.topografix.com/GPX/1/1">
  <metadata>
    <name>Ruta Circular – Isla de Lobos</name>
    <desc>Circular completa por Lobos: La Caldera, El Puertito, Faro Martiño y Playa de La Concha. Requiere permiso gratuito y ferry desde Corralejo.</desc>
    <author><name>Aventuras en Cada Paso</name></author>
    <time>2026-07-08T08:12:58.179Z</time>
    <keywords>Fuerteventura, Senderismo, Fácil, senderismo Canarias</keywords>
  </metadata>
  <wpt lat="28.7506" lon="-13.8167">
    <name>Ruta Circular – Isla de Lobos</name>
    <desc>Circular completa por Lobos: La Caldera, El Puertito, Faro Martiño y Playa de La Concha. Requiere permiso gratuito y ferry desde Corralejo. | Isla: Fuerteventura | Tipo: Senderismo | Dificultad: Fácil | Distancia: 8km | Duración: 2-4 horas</desc>
    <type>Senderismo</type>
    <extensions>
      <isla>Fuerteventura</isla>
      <dificultad>Fácil</dificultad>
      <distancia>8</distancia>
      <duracion>2-4 horas</duracion>
    </extensions>
  </wpt>
</gpx>