<?xml version="1.0" encoding="UTF-8"?>
<gpx version="1.1" creator="Aventuras en Cada Paso" xmlns="http://www.topografix.com/GPX/1/1">
  <metadata>
    <name>Cofete – Gran Valle (PR-FV 55)</name>
    <desc>Una de las mejores rutas de Fuerteventura. Desciende por el Gran Valle hasta la playa salvaje de Cofete, 12 km de arena virgen. Muy exigente.</desc>
    <author><name>Aventuras en Cada Paso</name></author>
    <time>2026-07-08T08:12:58.176Z</time>
    <keywords>Fuerteventura, Senderismo, Difícil, senderismo Canarias</keywords>
  </metadata>
  <wpt lat="28.0703" lon="-14.3972">
    <name>Cofete – Gran Valle (PR-FV 55)</name>
    <desc>Una de las mejores rutas de Fuerteventura. Desciende por el Gran Valle hasta la playa salvaje de Cofete, 12 km de arena virgen. Muy exigente. | Isla: Fuerteventura | Tipo: Senderismo | Dificultad: Difícil | Distancia: 14km | Duración: 4-8 horas</desc>
    <type>Senderismo</type>
    <extensions>
      <isla>Fuerteventura</isla>
      <dificultad>Difícil</dificultad>
      <distancia>14</distancia>
      <duracion>4-8 horas</duracion>
    </extensions>
  </wpt>
</gpx>