<?xml version="1.0" encoding="UTF-8"?>
<gpx version="1.1" creator="Aventuras en Cada Paso" xmlns="http://www.topografix.com/GPX/1/1">
  <metadata>
    <name>Las Raíces – Corona Forestal (PR-TF 25.1)</name>
    <desc>Agradable ruta por el bosque de Las Esperanzas en la Corona Forestal. Pino canario y eucalipto en la zona donde Franco planificó el alzamiento.</desc>
    <author><name>Aventuras en Cada Paso</name></author>
    <time>2026-07-08T08:12:58.161Z</time>
    <keywords>Tenerife, Senderismo, Fácil, senderismo Canarias</keywords>
  </metadata>
  <wpt lat="28.4333" lon="-16.4253">
    <name>Las Raíces – Corona Forestal (PR-TF 25.1)</name>
    <desc>Agradable ruta por el bosque de Las Esperanzas en la Corona Forestal. Pino canario y eucalipto en la zona donde Franco planificó el alzamiento. | Isla: Tenerife | Tipo: Senderismo | Dificultad: Fácil | Distancia: 8km | Duración: 2-4 horas</desc>
    <type>Senderismo</type>
    <extensions>
      <isla>Tenerife</isla>
      <dificultad>Fácil</dificultad>
      <distancia>8</distancia>
      <duracion>2-4 horas</duracion>
    </extensions>
  </wpt>
</gpx>