<?xml version="1.0" encoding="UTF-8"?>
<gpx version="1.1" creator="Aventuras en Cada Paso" xmlns="http://www.topografix.com/GPX/1/1">
  <metadata>
    <name>Parque Natural de Corralejo – Dunas</name>
    <desc>Sendero por las grandes dunas blancas del norte junto al Parque Natural de Corralejo. Paisaje desértico con vistas a Lobos y Lanzarote.</desc>
    <author><name>Aventuras en Cada Paso</name></author>
    <time>2026-07-08T08:12:58.178Z</time>
    <keywords>Fuerteventura, Senderismo, Fácil, senderismo Canarias</keywords>
  </metadata>
  <wpt lat="28.7361" lon="-13.8636">
    <name>Parque Natural de Corralejo – Dunas</name>
    <desc>Sendero por las grandes dunas blancas del norte junto al Parque Natural de Corralejo. Paisaje desértico con vistas a Lobos y Lanzarote. | Isla: Fuerteventura | Tipo: Senderismo | Dificultad: Fácil | Distancia: 7km | Duración: 2-4 horas</desc>
    <type>Senderismo</type>
    <extensions>
      <isla>Fuerteventura</isla>
      <dificultad>Fácil</dificultad>
      <distancia>7</distancia>
      <duracion>2-4 horas</duracion>
    </extensions>
  </wpt>
</gpx>