<?xml version="1.0" encoding="UTF-8"?>
<gpx version="1.1" creator="Aventuras en Cada Paso" xmlns="http://www.topografix.com/GPX/1/1">
  <metadata>
    <name>Costa Teguise – Ruta de Playas</name>
    <desc>Circular costera desde Costa Teguise por Playa de las Cucharas, Los Charcos y Jabilillo. Zona turística con ambiente playero y accesos fáciles.</desc>
    <author><name>Aventuras en Cada Paso</name></author>
    <time>2026-07-08T08:12:58.173Z</time>
    <keywords>Lanzarote, Senderismo, Fácil, senderismo Canarias</keywords>
  </metadata>
  <wpt lat="28.9983" lon="-13.5089">
    <name>Costa Teguise – Ruta de Playas</name>
    <desc>Circular costera desde Costa Teguise por Playa de las Cucharas, Los Charcos y Jabilillo. Zona turística con ambiente playero y accesos fáciles. | Isla: Lanzarote | Tipo: Senderismo | Dificultad: Fácil | Distancia: 8km | Duración: 2-4 horas</desc>
    <type>Senderismo</type>
    <extensions>
      <isla>Lanzarote</isla>
      <dificultad>Fácil</dificultad>
      <distancia>8</distancia>
      <duracion>2-4 horas</duracion>
    </extensions>
  </wpt>
</gpx>