<?xml version="1.0" encoding="UTF-8"?>
<gpx creator="Wikiloc - https://www.wikiloc.com" version="1.1" xmlns="http://www.topografix.com/GPX/1/1" xmlns:xsi="http://www.w3.org/2001/XMLSchema-instance" xsi:schemaLocation="http://www.topografix.com/GPX/1/1 http://www.topografix.com/GPX/1/1/gpx.xsd">
  <metadata>
    <name>Wikiloc - Fuerteventura Montaña de la Caldera Isla de Lobos</name>
    <link href="https://www.wikiloc.com/hiking-trails/montana-de-la-caldera-isla-de-lobos-fuerteventura-islas-canarias-114103509">
      <text>Fuerteventura Montaña de la Caldera Isla de Lobos - Wikiloc on Wikiloc</text>
    </link>
    <time>2022-09-20T12:25:35Z</time>
  </metadata>
  <trk>
    <name>Fuerteventura Montaña de la Caldera Isla de Lobos - Wikiloc</name>
    <cmt></cmt>
    <desc></desc>
    <trkseg>
      <trkpt lat="28.736856" lon="-13.822239">
        <ele>5.777</ele>
        <time>2022-09-20T11:08:42Z</time>
      </trkpt>
      <trkpt lat="28.737015" lon="-13.822227">
        <ele>22.361</ele>
        <time>2022-09-20T11:08:50Z</time>
      </trkpt>
      <trkpt lat="28.736969" lon="-13.822213">
        <ele>25.227</ele>
        <time>2022-09-20T11:08:52Z</time>
      </trkpt>
      <trkpt lat="28.737131" lon="-13.822024">
        <ele>26.309</ele>
        <time>2022-09-20T11:10:23Z</time>
      </trkpt>
      <trkpt lat="28.737366" lon="-13.821893">
        <ele>28.268</ele>
        <time>2022-09-20T11:10:44Z</time>
      </trkpt>
      <trkpt lat="28.737998" lon="-13.822414">
        <ele>30.628</ele>
        <time>2022-09-20T11:11:39Z</time>
      </trkpt>
      <trkpt lat="28.738351" lon="-13.822590">
        <ele>30.041</ele>
        <time>2022-09-20T11:12:07Z</time>
      </trkpt>
      <trkpt lat="28.738494" lon="-13.822593">
        <ele>30.528</ele>
        <time>2022-09-20T11:12:17Z</time>
      </trkpt>
      <trkpt lat="28.739229" lon="-13.822353">
        <ele>30.987</ele>
        <time>2022-09-20T11:13:11Z</time>
      </trkpt>
      <trkpt lat="28.739714" lon="-13.822344">
        <ele>31.260</ele>
        <time>2022-09-20T11:13:44Z</time>
      </trkpt>
      <trkpt lat="28.739968" lon="-13.822417">
        <ele>30.382</ele>
        <time>2022-09-20T11:14:03Z</time>
      </trkpt>
      <trkpt lat="28.741088" lon="-13.823764">
        <ele>30.137</ele>
        <time>2022-09-20T11:16:02Z</time>
      </trkpt>
      <trkpt lat="28.741792" lon="-13.825113">
        <ele>28.026</ele>
        <time>2022-09-20T11:17:46Z</time>
      </trkpt>
      <trkpt lat="28.742119" lon="-13.825264">
        <ele>28.659</ele>
        <time>2022-09-20T11:18:19Z</time>
      </trkpt>
      <trkpt lat="28.742625" lon="-13.825316">
        <ele>29.703</ele>
        <time>2022-09-20T11:19:20Z</time>
      </trkpt>
      <trkpt lat="28.743177" lon="-13.825804">
        <ele>27.023</ele>
        <time>2022-09-20T11:20:06Z</time>
      </trkpt>
      <trkpt lat="28.743591" lon="-13.826008">
        <ele>26.809</ele>
        <time>2022-09-20T11:20:36Z</time>
      </trkpt>
      <trkpt lat="28.744348" lon="-13.826282">
        <ele>26.986</ele>
        <time>2022-09-20T11:21:28Z</time>
      </trkpt>
      <trkpt lat="28.744824" lon="-13.826348">
        <ele>27.826</ele>
        <time>2022-09-20T11:21:59Z</time>
      </trkpt>
      <trkpt lat="28.746933" lon="-13.826056">
        <ele>35.689</ele>
        <time>2022-09-20T11:24:23Z</time>
      </trkpt>
      <trkpt lat="28.747554" lon="-13.825903">
        <ele>36.216</ele>
        <time>2022-09-20T11:25:06Z</time>
      </trkpt>
      <trkpt lat="28.747958" lon="-13.825682">
        <ele>40.985</ele>
        <time>2022-09-20T11:25:38Z</time>
      </trkpt>
      <trkpt lat="28.748417" lon="-13.825316">
        <ele>40.668</ele>
        <time>2022-09-20T11:26:16Z</time>
      </trkpt>
      <trkpt lat="28.748644" lon="-13.825046">
        <ele>40.820</ele>
        <time>2022-09-20T11:26:39Z</time>
      </trkpt>
      <trkpt lat="28.749387" lon="-13.823548">
        <ele>42.695</ele>
        <time>2022-09-20T11:28:20Z</time>
      </trkpt>
      <trkpt lat="28.750073" lon="-13.823011">
        <ele>43.974</ele>
        <time>2022-09-20T11:29:17Z</time>
      </trkpt>
      <trkpt lat="28.750473" lon="-13.822828">
        <ele>42.271</ele>
        <time>2022-09-20T11:29:46Z</time>
      </trkpt>
      <trkpt lat="28.750202" lon="-13.823106">
        <ele>41.641</ele>
        <time>2022-09-20T11:30:16Z</time>
      </trkpt>
      <trkpt lat="28.750131" lon="-13.823425">
        <ele>41.515</ele>
        <time>2022-09-20T11:30:38Z</time>
      </trkpt>
      <trkpt lat="28.750339" lon="-13.823747">
        <ele>40.809</ele>
        <time>2022-09-20T11:31:02Z</time>
      </trkpt>
      <trkpt lat="28.750617" lon="-13.824609">
        <ele>40.958</ele>
        <time>2022-09-20T11:31:58Z</time>
      </trkpt>
      <trkpt lat="28.750897" lon="-13.824995">
        <ele>41.768</ele>
        <time>2022-09-20T11:32:29Z</time>
      </trkpt>
      <trkpt lat="28.751101" lon="-13.825915">
        <ele>42.481</ele>
        <time>2022-09-20T11:33:27Z</time>
      </trkpt>
      <trkpt lat="28.751470" lon="-13.826781">
        <ele>43.088</ele>
        <time>2022-09-20T11:34:24Z</time>
      </trkpt>
      <trkpt lat="28.751536" lon="-13.826869">
        <ele>43.377</ele>
        <time>2022-09-20T11:34:31Z</time>
      </trkpt>
      <trkpt lat="28.751776" lon="-13.826945">
        <ele>43.040</ele>
        <time>2022-09-20T11:34:48Z</time>
      </trkpt>
      <trkpt lat="28.751876" lon="-13.827136">
        <ele>44.092</ele>
        <time>2022-09-20T11:35:46Z</time>
      </trkpt>
      <trkpt lat="28.752175" lon="-13.827133">
        <ele>45.337</ele>
        <time>2022-09-20T11:36:14Z</time>
      </trkpt>
      <trkpt lat="28.752443" lon="-13.827000">
        <ele>50.176</ele>
        <time>2022-09-20T11:36:44Z</time>
      </trkpt>
      <trkpt lat="28.752571" lon="-13.827350">
        <ele>60.458</ele>
        <time>2022-09-20T11:37:41Z</time>
      </trkpt>
      <trkpt lat="28.752600" lon="-13.827946">
        <ele>71.152</ele>
        <time>2022-09-20T11:38:40Z</time>
      </trkpt>
      <trkpt lat="28.752488" lon="-13.828410">
        <ele>81.717</ele>
        <time>2022-09-20T11:39:50Z</time>
      </trkpt>
      <trkpt lat="28.752530" lon="-13.828664">
        <ele>91.609</ele>
        <time>2022-09-20T11:40:52Z</time>
      </trkpt>
      <trkpt lat="28.752461" lon="-13.828798">
        <ele>97.276</ele>
        <time>2022-09-20T11:41:15Z</time>
      </trkpt>
      <trkpt lat="28.752511" lon="-13.828947">
        <ele>101.676</ele>
        <time>2022-09-20T11:41:42Z</time>
      </trkpt>
      <trkpt lat="28.752350" lon="-13.829469">
        <ele>124.269</ele>
        <time>2022-09-20T11:43:38Z</time>
      </trkpt>
      <trkpt lat="28.752038" lon="-13.830141">
        <ele>149.456</ele>
        <time>2022-09-20T11:45:43Z</time>
      </trkpt>
      <trkpt lat="28.751797" lon="-13.830386">
        <ele>155.655</ele>
        <time>2022-09-20T11:46:55Z</time>
      </trkpt>
      <trkpt lat="28.752088" lon="-13.830024">
        <ele>152.758</ele>
        <time>2022-09-20T11:50:37Z</time>
      </trkpt>
      <trkpt lat="28.752388" lon="-13.829395">
        <ele>130.770</ele>
        <time>2022-09-20T11:52:20Z</time>
      </trkpt>
      <trkpt lat="28.752434" lon="-13.829091">
        <ele>115.295</ele>
        <time>2022-09-20T11:53:16Z</time>
      </trkpt>
      <trkpt lat="28.752526" lon="-13.828950">
        <ele>111.974</ele>
        <time>2022-09-20T11:53:31Z</time>
      </trkpt>
      <trkpt lat="28.752470" lon="-13.828799">
        <ele>103.361</ele>
        <time>2022-09-20T11:53:46Z</time>
      </trkpt>
      <trkpt lat="28.752548" lon="-13.828666">
        <ele>97.421</ele>
        <time>2022-09-20T11:54:04Z</time>
      </trkpt>
      <trkpt lat="28.752511" lon="-13.828418">
        <ele>88.713</ele>
        <time>2022-09-20T11:54:33Z</time>
      </trkpt>
      <trkpt lat="28.752608" lon="-13.827916">
        <ele>75.009</ele>
        <time>2022-09-20T11:55:10Z</time>
      </trkpt>
      <trkpt lat="28.752586" lon="-13.827370">
        <ele>63.567</ele>
        <time>2022-09-20T11:55:53Z</time>
      </trkpt>
      <trkpt lat="28.752464" lon="-13.826989">
        <ele>54.997</ele>
        <time>2022-09-20T11:56:21Z</time>
      </trkpt>
      <trkpt lat="28.752184" lon="-13.827125">
        <ele>47.750</ele>
        <time>2022-09-20T11:56:45Z</time>
      </trkpt>
      <trkpt lat="28.751887" lon="-13.827130">
        <ele>43.967</ele>
        <time>2022-09-20T11:57:08Z</time>
      </trkpt>
      <trkpt lat="28.751798" lon="-13.826999">
        <ele>42.756</ele>
        <time>2022-09-20T11:57:20Z</time>
      </trkpt>
      <trkpt lat="28.751819" lon="-13.827051">
        <ele>42.679</ele>
        <time>2022-09-20T11:57:22Z</time>
      </trkpt>
      <trkpt lat="28.751842" lon="-13.827000">
        <ele>42.311</ele>
        <time>2022-09-20T11:57:28Z</time>
      </trkpt>
      <trkpt lat="28.751490" lon="-13.826836">
        <ele>41.026</ele>
        <time>2022-09-20T11:57:55Z</time>
      </trkpt>
      <trkpt lat="28.751095" lon="-13.825875">
        <ele>42.675</ele>
        <time>2022-09-20T11:59:01Z</time>
      </trkpt>
      <trkpt lat="28.750892" lon="-13.824959">
        <ele>42.981</ele>
        <time>2022-09-20T12:00:00Z</time>
      </trkpt>
      <trkpt lat="28.750622" lon="-13.824635">
        <ele>42.161</ele>
        <time>2022-09-20T12:00:28Z</time>
      </trkpt>
      <trkpt lat="28.750368" lon="-13.823806">
        <ele>38.617</ele>
        <time>2022-09-20T12:01:45Z</time>
      </trkpt>
      <trkpt lat="28.750144" lon="-13.823390">
        <ele>40.709</ele>
        <time>2022-09-20T12:02:13Z</time>
      </trkpt>
      <trkpt lat="28.750208" lon="-13.823103">
        <ele>40.239</ele>
        <time>2022-09-20T12:02:31Z</time>
      </trkpt>
      <trkpt lat="28.750437" lon="-13.822829">
        <ele>40.169</ele>
        <time>2022-09-20T12:02:53Z</time>
      </trkpt>
      <trkpt lat="28.750312" lon="-13.822848">
        <ele>40.312</ele>
        <time>2022-09-20T12:03:02Z</time>
      </trkpt>
      <trkpt lat="28.749571" lon="-13.823404">
        <ele>41.599</ele>
        <time>2022-09-20T12:04:06Z</time>
      </trkpt>
      <trkpt lat="28.749476" lon="-13.823414">
        <ele>41.368</ele>
        <time>2022-09-20T12:04:15Z</time>
      </trkpt>
      <trkpt lat="28.748601" lon="-13.825118">
        <ele>39.351</ele>
        <time>2022-09-20T12:06:16Z</time>
      </trkpt>
      <trkpt lat="28.748262" lon="-13.825457">
        <ele>39.623</ele>
        <time>2022-09-20T12:06:48Z</time>
      </trkpt>
      <trkpt lat="28.747686" lon="-13.825857">
        <ele>41.358</ele>
        <time>2022-09-20T12:07:36Z</time>
      </trkpt>
      <trkpt lat="28.746494" lon="-13.826138">
        <ele>34.957</ele>
        <time>2022-09-20T12:09:01Z</time>
      </trkpt>
      <trkpt lat="28.745096" lon="-13.826362">
        <ele>33.017</ele>
        <time>2022-09-20T12:10:37Z</time>
      </trkpt>
      <trkpt lat="28.744415" lon="-13.826292">
        <ele>29.787</ele>
        <time>2022-09-20T12:11:24Z</time>
      </trkpt>
      <trkpt lat="28.743805" lon="-13.826088">
        <ele>31.315</ele>
        <time>2022-09-20T12:12:07Z</time>
      </trkpt>
      <trkpt lat="28.743276" lon="-13.825862">
        <ele>31.509</ele>
        <time>2022-09-20T12:12:45Z</time>
      </trkpt>
      <trkpt lat="28.742863" lon="-13.825545">
        <ele>31.292</ele>
        <time>2022-09-20T12:13:19Z</time>
      </trkpt>
      <trkpt lat="28.742543" lon="-13.825201">
        <ele>32.652</ele>
        <time>2022-09-20T12:13:49Z</time>
      </trkpt>
      <trkpt lat="28.742060" lon="-13.824420">
        <ele>33.225</ele>
        <time>2022-09-20T12:14:50Z</time>
      </trkpt>
      <trkpt lat="28.741864" lon="-13.824285">
        <ele>33.912</ele>
        <time>2022-09-20T12:15:06Z</time>
      </trkpt>
      <trkpt lat="28.741287" lon="-13.824063">
        <ele>33.891</ele>
        <time>2022-09-20T12:15:48Z</time>
      </trkpt>
      <trkpt lat="28.740974" lon="-13.823573">
        <ele>36.344</ele>
        <time>2022-09-20T12:16:23Z</time>
      </trkpt>
      <trkpt lat="28.740020" lon="-13.822457">
        <ele>34.976</ele>
        <time>2022-09-20T12:17:56Z</time>
      </trkpt>
      <trkpt lat="28.739779" lon="-13.822341">
        <ele>31.251</ele>
        <time>2022-09-20T12:18:14Z</time>
      </trkpt>
      <trkpt lat="28.739326" lon="-13.822340">
        <ele>29.650</ele>
        <time>2022-09-20T12:18:45Z</time>
      </trkpt>
      <trkpt lat="28.739179" lon="-13.822244">
        <ele>29.624</ele>
        <time>2022-09-20T12:18:57Z</time>
      </trkpt>
      <trkpt lat="28.738991" lon="-13.821866">
        <ele>29.604</ele>
        <time>2022-09-20T12:19:23Z</time>
      </trkpt>
      <trkpt lat="28.738784" lon="-13.821050">
        <ele>30.614</ele>
        <time>2022-09-20T12:20:14Z</time>
      </trkpt>
      <trkpt lat="28.738633" lon="-13.820711">
        <ele>28.609</ele>
        <time>2022-09-20T12:20:37Z</time>
      </trkpt>
      <trkpt lat="28.738484" lon="-13.819989">
        <ele>27.693</ele>
        <time>2022-09-20T12:21:45Z</time>
      </trkpt>
      <trkpt lat="28.738143" lon="-13.819413">
        <ele>28.833</ele>
        <time>2022-09-20T12:22:29Z</time>
      </trkpt>
      <trkpt lat="28.738094" lon="-13.818866">
        <ele>29.886</ele>
        <time>2022-09-20T12:23:04Z</time>
      </trkpt>
      <trkpt lat="28.738012" lon="-13.818626">
        <ele>29.143</ele>
        <time>2022-09-20T12:23:20Z</time>
      </trkpt>
      <trkpt lat="28.738087" lon="-13.818013">
        <ele>26.482</ele>
        <time>2022-09-20T12:24:00Z</time>
      </trkpt>
      <trkpt lat="28.738056" lon="-13.817838">
        <ele>26.925</ele>
        <time>2022-09-20T12:24:13Z</time>
      </trkpt>
      <trkpt lat="28.737906" lon="-13.817867">
        <ele>26.877</ele>
        <time>2022-09-20T12:24:26Z</time>
      </trkpt>
      <trkpt lat="28.737699" lon="-13.817721">
        <ele>27.212</ele>
        <time>2022-09-20T12:24:45Z</time>
      </trkpt>
      <trkpt lat="28.737603" lon="-13.817723">
        <ele>27.551</ele>
        <time>2022-09-20T12:24:53Z</time>
      </trkpt>
      <trkpt lat="28.737558" lon="-13.817750">
        <ele>27.327</ele>
        <time>2022-09-20T12:24:57Z</time>
      </trkpt>
      <trkpt lat="28.737662" lon="-13.818004">
        <ele>26.068</ele>
        <time>2022-09-20T12:25:23Z</time>
      </trkpt>
      <trkpt lat="28.737606" lon="-13.818093">
        <ele>26.314</ele>
        <time>2022-09-20T12:25:35Z</time>
      </trkpt>
    </trkseg>
  </trk></gpx>