<?xml version="1.0" encoding="UTF-8"?>
<gpx creator="Wikiloc - https://www.wikiloc.com" version="1.1" xmlns="http://www.topografix.com/GPX/1/1" xmlns:xsi="http://www.w3.org/2001/XMLSchema-instance" xsi:schemaLocation="http://www.topografix.com/GPX/1/1 http://www.topografix.com/GPX/1/1/gpx.xsd">
  <metadata>
    <name>Wikiloc - La Palma Cubo de la Galga PR LP 5.1</name>
    <link href="https://www.wikiloc.com/hiking-trails/la-palma-cubo-de-la-galga-pr-lp-5-1-3210024">
      <text>La Palma Cubo de la Galga PR LP 5.1 - Wikiloc on Wikiloc</text>
    </link>
    <time>2012-08-10T12:00:41Z</time>
  </metadata>
  <trk>
    <name>La Palma Cubo de la Galga PR LP 5.1 - Wikiloc</name>
    <cmt></cmt>
    <desc></desc>
    <trkseg>
      <trkpt lat="28.767040" lon="-17.769825">
        <ele>354.399</ele>
        <time>2012-08-10T08:18:39Z</time>
      </trkpt>
      <trkpt lat="28.766891" lon="-17.769712">
        <ele>347.507</ele>
        <time>2012-08-10T08:23:04Z</time>
      </trkpt>
      <trkpt lat="28.766561" lon="-17.770074">
        <ele>359.427</ele>
        <time>2012-08-10T08:23:48Z</time>
      </trkpt>
      <trkpt lat="28.766676" lon="-17.770891">
        <ele>369.907</ele>
        <time>2012-08-10T08:25:06Z</time>
      </trkpt>
      <trkpt lat="28.766497" lon="-17.771485">
        <ele>377.212</ele>
        <time>2012-08-10T08:26:23Z</time>
      </trkpt>
      <trkpt lat="28.766194" lon="-17.771864">
        <ele>386.831</ele>
        <time>2012-08-10T08:27:13Z</time>
      </trkpt>
      <trkpt lat="28.765899" lon="-17.772013">
        <ele>393.820</ele>
        <time>2012-08-10T08:27:50Z</time>
      </trkpt>
      <trkpt lat="28.765511" lon="-17.771612">
        <ele>400.029</ele>
        <time>2012-08-10T08:29:18Z</time>
      </trkpt>
      <trkpt lat="28.765172" lon="-17.771589">
        <ele>401.059</ele>
        <time>2012-08-10T08:29:48Z</time>
      </trkpt>
      <trkpt lat="28.765079" lon="-17.771402">
        <ele>404.971</ele>
        <time>2012-08-10T08:31:08Z</time>
      </trkpt>
      <trkpt lat="28.764834" lon="-17.771397">
        <ele>407.763</ele>
        <time>2012-08-10T08:31:39Z</time>
      </trkpt>
      <trkpt lat="28.764535" lon="-17.771614">
        <ele>413.194</ele>
        <time>2012-08-10T08:32:20Z</time>
      </trkpt>
      <trkpt lat="28.764180" lon="-17.772124">
        <ele>422.457</ele>
        <time>2012-08-10T08:33:30Z</time>
      </trkpt>
      <trkpt lat="28.764219" lon="-17.773170">
        <ele>437.822</ele>
        <time>2012-08-10T08:35:24Z</time>
      </trkpt>
      <trkpt lat="28.763900" lon="-17.773784">
        <ele>456.207</ele>
        <time>2012-08-10T08:36:50Z</time>
      </trkpt>
      <trkpt lat="28.763938" lon="-17.773986">
        <ele>466.982</ele>
        <time>2012-08-10T08:37:05Z</time>
      </trkpt>
      <trkpt lat="28.763651" lon="-17.774107">
        <ele>460.951</ele>
        <time>2012-08-10T08:37:41Z</time>
      </trkpt>
      <trkpt lat="28.763647" lon="-17.774312">
        <ele>462.090</ele>
        <time>2012-08-10T08:38:20Z</time>
      </trkpt>
      <trkpt lat="28.763402" lon="-17.774413">
        <ele>459.729</ele>
        <time>2012-08-10T08:39:04Z</time>
      </trkpt>
      <trkpt lat="28.763350" lon="-17.774684">
        <ele>469.159</ele>
        <time>2012-08-10T08:39:53Z</time>
      </trkpt>
      <trkpt lat="28.763152" lon="-17.774783">
        <ele>468.681</ele>
        <time>2012-08-10T08:40:31Z</time>
      </trkpt>
      <trkpt lat="28.763148" lon="-17.774953">
        <ele>479.153</ele>
        <time>2012-08-10T08:41:11Z</time>
      </trkpt>
      <trkpt lat="28.762725" lon="-17.774630">
        <ele>471.768</ele>
        <time>2012-08-10T08:41:52Z</time>
      </trkpt>
      <trkpt lat="28.762284" lon="-17.774929">
        <ele>506.042</ele>
        <time>2012-08-10T08:43:24Z</time>
      </trkpt>
      <trkpt lat="28.762073" lon="-17.775123">
        <ele>530.726</ele>
        <time>2012-08-10T08:44:25Z</time>
      </trkpt>
      <trkpt lat="28.761818" lon="-17.775691">
        <ele>533.407</ele>
        <time>2012-08-10T08:45:53Z</time>
      </trkpt>
      <trkpt lat="28.762004" lon="-17.776081">
        <ele>515.829</ele>
        <time>2012-08-10T08:46:58Z</time>
      </trkpt>
      <trkpt lat="28.762336" lon="-17.776095">
        <ele>507.548</ele>
        <time>2012-08-10T08:47:54Z</time>
      </trkpt>
      <trkpt lat="28.762899" lon="-17.775940">
        <ele>513.117</ele>
        <time>2012-08-10T08:49:52Z</time>
      </trkpt>
      <trkpt lat="28.763148" lon="-17.776467">
        <ele>528.776</ele>
        <time>2012-08-10T08:51:11Z</time>
      </trkpt>
      <trkpt lat="28.763466" lon="-17.776673">
        <ele>537.886</ele>
        <time>2012-08-10T08:52:02Z</time>
      </trkpt>
      <trkpt lat="28.763426" lon="-17.776793">
        <ele>535.078</ele>
        <time>2012-08-10T08:52:16Z</time>
      </trkpt>
      <trkpt lat="28.763483" lon="-17.776725">
        <ele>538.210</ele>
        <time>2012-08-10T08:52:39Z</time>
      </trkpt>
      <trkpt lat="28.763306" lon="-17.776755">
        <ele>530.852</ele>
        <time>2012-08-10T08:54:19Z</time>
      </trkpt>
      <trkpt lat="28.763241" lon="-17.777331">
        <ele>523.653</ele>
        <time>2012-08-10T08:55:21Z</time>
      </trkpt>
      <trkpt lat="28.763073" lon="-17.777497">
        <ele>520.608</ele>
        <time>2012-08-10T08:55:45Z</time>
      </trkpt>
      <trkpt lat="28.763059" lon="-17.778248">
        <ele>530.207</ele>
        <time>2012-08-10T08:57:25Z</time>
      </trkpt>
      <trkpt lat="28.763296" lon="-17.778422">
        <ele>557.418</ele>
        <time>2012-08-10T08:57:52Z</time>
      </trkpt>
      <trkpt lat="28.762632" lon="-17.778739">
        <ele>537.467</ele>
        <time>2012-08-10T08:59:02Z</time>
      </trkpt>
      <trkpt lat="28.761946" lon="-17.778392">
        <ele>543.996</ele>
        <time>2012-08-10T09:00:35Z</time>
      </trkpt>
      <trkpt lat="28.761847" lon="-17.778483">
        <ele>547.465</ele>
        <time>2012-08-10T09:01:22Z</time>
      </trkpt>
      <trkpt lat="28.761559" lon="-17.778398">
        <ele>559.795</ele>
        <time>2012-08-10T09:01:51Z</time>
      </trkpt>
      <trkpt lat="28.761396" lon="-17.778173">
        <ele>575.257</ele>
        <time>2012-08-10T09:03:03Z</time>
      </trkpt>
      <trkpt lat="28.761254" lon="-17.778486">
        <ele>569.799</ele>
        <time>2012-08-10T09:03:58Z</time>
      </trkpt>
      <trkpt lat="28.761159" lon="-17.778468">
        <ele>578.384</ele>
        <time>2012-08-10T09:04:46Z</time>
      </trkpt>
      <trkpt lat="28.761261" lon="-17.778667">
        <ele>559.407</ele>
        <time>2012-08-10T09:05:15Z</time>
      </trkpt>
      <trkpt lat="28.761197" lon="-17.779099">
        <ele>560.917</ele>
        <time>2012-08-10T09:06:03Z</time>
      </trkpt>
      <trkpt lat="28.761420" lon="-17.779459">
        <ele>571.307</ele>
        <time>2012-08-10T09:06:52Z</time>
      </trkpt>
      <trkpt lat="28.761361" lon="-17.779638">
        <ele>576.571</ele>
        <time>2012-08-10T09:07:53Z</time>
      </trkpt>
      <trkpt lat="28.760970" lon="-17.779646">
        <ele>574.360</ele>
        <time>2012-08-10T09:08:28Z</time>
      </trkpt>
      <trkpt lat="28.760709" lon="-17.779780">
        <ele>580.379</ele>
        <time>2012-08-10T09:09:02Z</time>
      </trkpt>
      <trkpt lat="28.759989" lon="-17.780502">
        <ele>598.618</ele>
        <time>2012-08-10T09:11:10Z</time>
      </trkpt>
      <trkpt lat="28.759917" lon="-17.780518">
        <ele>600.188</ele>
        <time>2012-08-10T09:12:16Z</time>
      </trkpt>
      <trkpt lat="28.759781" lon="-17.780233">
        <ele>594.440</ele>
        <time>2012-08-10T09:13:09Z</time>
      </trkpt>
      <trkpt lat="28.759576" lon="-17.780594">
        <ele>611.242</ele>
        <time>2012-08-10T09:14:04Z</time>
      </trkpt>
      <trkpt lat="28.759302" lon="-17.780634">
        <ele>622.486</ele>
        <time>2012-08-10T09:14:34Z</time>
      </trkpt>
      <trkpt lat="28.758960" lon="-17.780380">
        <ele>615.360</ele>
        <time>2012-08-10T09:15:38Z</time>
      </trkpt>
      <trkpt lat="28.758956" lon="-17.780483">
        <ele>616.326</ele>
        <time>2012-08-10T09:16:03Z</time>
      </trkpt>
      <trkpt lat="28.759242" lon="-17.780664">
        <ele>626.907</ele>
        <time>2012-08-10T09:16:50Z</time>
      </trkpt>
      <trkpt lat="28.758976" lon="-17.780303">
        <ele>614.561</ele>
        <time>2012-08-10T09:18:27Z</time>
      </trkpt>
      <trkpt lat="28.758906" lon="-17.780417">
        <ele>615.930</ele>
        <time>2012-08-10T09:20:55Z</time>
      </trkpt>
      <trkpt lat="28.758547" lon="-17.779900">
        <ele>644.489</ele>
        <time>2012-08-10T09:23:05Z</time>
      </trkpt>
      <trkpt lat="28.758867" lon="-17.780229">
        <ele>617.798</ele>
        <time>2012-08-10T09:23:33Z</time>
      </trkpt>
      <trkpt lat="28.758703" lon="-17.779943">
        <ele>636.288</ele>
        <time>2012-08-10T09:24:17Z</time>
      </trkpt>
      <trkpt lat="28.758660" lon="-17.780034">
        <ele>633.050</ele>
        <time>2012-08-10T09:24:57Z</time>
      </trkpt>
      <trkpt lat="28.758493" lon="-17.780002">
        <ele>640.152</ele>
        <time>2012-08-10T09:25:14Z</time>
      </trkpt>
      <trkpt lat="28.758154" lon="-17.779763">
        <ele>675.978</ele>
        <time>2012-08-10T09:26:16Z</time>
      </trkpt>
      <trkpt lat="28.758041" lon="-17.779812">
        <ele>678.733</ele>
        <time>2012-08-10T09:26:59Z</time>
      </trkpt>
      <trkpt lat="28.757989" lon="-17.780383">
        <ele>650.526</ele>
        <time>2012-08-10T09:28:27Z</time>
      </trkpt>
      <trkpt lat="28.758079" lon="-17.780462">
        <ele>645.207</ele>
        <time>2012-08-10T09:28:45Z</time>
      </trkpt>
      <trkpt lat="28.758166" lon="-17.781183">
        <ele>641.490</ele>
        <time>2012-08-10T09:30:05Z</time>
      </trkpt>
      <trkpt lat="28.758009" lon="-17.781217">
        <ele>642.499</ele>
        <time>2012-08-10T09:30:22Z</time>
      </trkpt>
      <trkpt lat="28.758020" lon="-17.781354">
        <ele>650.418</ele>
        <time>2012-08-10T09:31:00Z</time>
      </trkpt>
      <trkpt lat="28.757054" lon="-17.780757">
        <ele>674.477</ele>
        <time>2012-08-10T09:33:03Z</time>
      </trkpt>
      <trkpt lat="28.756666" lon="-17.780402">
        <ele>711.937</ele>
        <time>2012-08-10T09:33:21Z</time>
      </trkpt>
      <trkpt lat="28.757852" lon="-17.781443">
        <ele>652.669</ele>
        <time>2012-08-10T09:33:52Z</time>
      </trkpt>
      <trkpt lat="28.756942" lon="-17.781387">
        <ele>653.241</ele>
        <time>2012-08-10T09:35:51Z</time>
      </trkpt>
      <trkpt lat="28.756727" lon="-17.781852">
        <ele>671.012</ele>
        <time>2012-08-10T09:37:08Z</time>
      </trkpt>
      <trkpt lat="28.756299" lon="-17.781836">
        <ele>673.032</ele>
        <time>2012-08-10T09:37:58Z</time>
      </trkpt>
      <trkpt lat="28.756212" lon="-17.781735">
        <ele>671.405</ele>
        <time>2012-08-10T09:38:17Z</time>
      </trkpt>
      <trkpt lat="28.756263" lon="-17.781813">
        <ele>672.807</ele>
        <time>2012-08-10T09:38:31Z</time>
      </trkpt>
      <trkpt lat="28.756015" lon="-17.781862">
        <ele>677.964</ele>
        <time>2012-08-10T09:39:01Z</time>
      </trkpt>
      <trkpt lat="28.755747" lon="-17.781807">
        <ele>681.423</ele>
        <time>2012-08-10T09:39:33Z</time>
      </trkpt>
      <trkpt lat="28.755782" lon="-17.782063">
        <ele>684.762</ele>
        <time>2012-08-10T09:40:04Z</time>
      </trkpt>
      <trkpt lat="28.755429" lon="-17.782407">
        <ele>689.231</ele>
        <time>2012-08-10T09:41:07Z</time>
      </trkpt>
      <trkpt lat="28.755326" lon="-17.783198">
        <ele>713.861</ele>
        <time>2012-08-10T09:42:16Z</time>
      </trkpt>
      <trkpt lat="28.755014" lon="-17.783516">
        <ele>708.173</ele>
        <time>2012-08-10T09:43:07Z</time>
      </trkpt>
      <trkpt lat="28.754847" lon="-17.784167">
        <ele>722.835</ele>
        <time>2012-08-10T09:44:19Z</time>
      </trkpt>
      <trkpt lat="28.754573" lon="-17.784440">
        <ele>744.579</ele>
        <time>2012-08-10T09:45:25Z</time>
      </trkpt>
      <trkpt lat="28.754493" lon="-17.784388">
        <ele>739.105</ele>
        <time>2012-08-10T09:46:00Z</time>
      </trkpt>
      <trkpt lat="28.754443" lon="-17.783851">
        <ele>719.325</ele>
        <time>2012-08-10T09:46:56Z</time>
      </trkpt>
      <trkpt lat="28.754616" lon="-17.783271">
        <ele>714.107</ele>
        <time>2012-08-10T09:47:49Z</time>
      </trkpt>
      <trkpt lat="28.754352" lon="-17.782895">
        <ele>722.280</ele>
        <time>2012-08-10T09:48:45Z</time>
      </trkpt>
      <trkpt lat="28.754645" lon="-17.782411">
        <ele>716.949</ele>
        <time>2012-08-10T09:49:50Z</time>
      </trkpt>
      <trkpt lat="28.754611" lon="-17.782046">
        <ele>725.918</ele>
        <time>2012-08-10T09:50:27Z</time>
      </trkpt>
      <trkpt lat="28.754701" lon="-17.781830">
        <ele>726.477</ele>
        <time>2012-08-10T09:51:22Z</time>
      </trkpt>
      <trkpt lat="28.754518" lon="-17.781691">
        <ele>741.317</ele>
        <time>2012-08-10T09:51:49Z</time>
      </trkpt>
      <trkpt lat="28.754559" lon="-17.781385">
        <ele>751.999</ele>
        <time>2012-08-10T09:52:21Z</time>
      </trkpt>
      <trkpt lat="28.754896" lon="-17.781236">
        <ele>737.911</ele>
        <time>2012-08-10T09:52:56Z</time>
      </trkpt>
      <trkpt lat="28.755953" lon="-17.779680">
        <ele>766.998</ele>
        <time>2012-08-10T09:55:59Z</time>
      </trkpt>
      <trkpt lat="28.756531" lon="-17.779449">
        <ele>761.815</ele>
        <time>2012-08-10T09:56:53Z</time>
      </trkpt>
      <trkpt lat="28.757234" lon="-17.778866">
        <ele>781.826</ele>
        <time>2012-08-10T09:58:22Z</time>
      </trkpt>
      <trkpt lat="28.757954" lon="-17.778797">
        <ele>760.907</ele>
        <time>2012-08-10T09:59:27Z</time>
      </trkpt>
      <trkpt lat="28.758375" lon="-17.778443">
        <ele>764.252</ele>
        <time>2012-08-10T10:00:19Z</time>
      </trkpt>
      <trkpt lat="28.758357" lon="-17.778082">
        <ele>780.081</ele>
        <time>2012-08-10T10:00:51Z</time>
      </trkpt>
      <trkpt lat="28.758695" lon="-17.778158">
        <ele>774.930</ele>
        <time>2012-08-10T10:01:31Z</time>
      </trkpt>
      <trkpt lat="28.758767" lon="-17.778038">
        <ele>774.499</ele>
        <time>2012-08-10T10:05:55Z</time>
      </trkpt>
      <trkpt lat="28.759223" lon="-17.778045">
        <ele>754.749</ele>
        <time>2012-08-10T10:25:08Z</time>
      </trkpt>
      <trkpt lat="28.758861" lon="-17.777906">
        <ele>771.141</ele>
        <time>2012-08-10T10:26:03Z</time>
      </trkpt>
      <trkpt lat="28.758727" lon="-17.777963">
        <ele>773.623</ele>
        <time>2012-08-10T10:26:46Z</time>
      </trkpt>
      <trkpt lat="28.758704" lon="-17.777870">
        <ele>772.131</ele>
        <time>2012-08-10T10:27:14Z</time>
      </trkpt>
      <trkpt lat="28.758631" lon="-17.777921">
        <ele>773.961</ele>
        <time>2012-08-10T10:27:38Z</time>
      </trkpt>
      <trkpt lat="28.758731" lon="-17.777613">
        <ele>766.807</ele>
        <time>2012-08-10T10:30:03Z</time>
      </trkpt>
      <trkpt lat="28.758707" lon="-17.776938">
        <ele>745.807</ele>
        <time>2012-08-10T10:31:27Z</time>
      </trkpt>
      <trkpt lat="28.759066" lon="-17.776560">
        <ele>728.446</ele>
        <time>2012-08-10T10:32:43Z</time>
      </trkpt>
      <trkpt lat="28.759587" lon="-17.775346">
        <ele>694.065</ele>
        <time>2012-08-10T10:35:08Z</time>
      </trkpt>
      <trkpt lat="28.759857" lon="-17.774063">
        <ele>655.394</ele>
        <time>2012-08-10T10:39:18Z</time>
      </trkpt>
      <trkpt lat="28.759862" lon="-17.773440">
        <ele>636.213</ele>
        <time>2012-08-10T10:40:42Z</time>
      </trkpt>
      <trkpt lat="28.760044" lon="-17.773044">
        <ele>626.883</ele>
        <time>2012-08-10T10:42:38Z</time>
      </trkpt>
      <trkpt lat="28.760053" lon="-17.772560">
        <ele>611.655</ele>
        <time>2012-08-10T10:44:44Z</time>
      </trkpt>
      <trkpt lat="28.760406" lon="-17.772674">
        <ele>606.997</ele>
        <time>2012-08-10T10:46:26Z</time>
      </trkpt>
      <trkpt lat="28.760861" lon="-17.773360">
        <ele>608.331</ele>
        <time>2012-08-10T10:47:43Z</time>
      </trkpt>
      <trkpt lat="28.761523" lon="-17.773044">
        <ele>591.361</ele>
        <time>2012-08-10T10:48:49Z</time>
      </trkpt>
      <trkpt lat="28.761823" lon="-17.773833">
        <ele>585.207</ele>
        <time>2012-08-10T10:50:03Z</time>
      </trkpt>
      <trkpt lat="28.762045" lon="-17.773902">
        <ele>571.907</ele>
        <time>2012-08-10T10:50:52Z</time>
      </trkpt>
      <trkpt lat="28.761484" lon="-17.774511">
        <ele>598.786</ele>
        <time>2012-08-10T10:53:29Z</time>
      </trkpt>
      <trkpt lat="28.761160" lon="-17.775298">
        <ele>634.875</ele>
        <time>2012-08-10T10:55:51Z</time>
      </trkpt>
      <trkpt lat="28.761288" lon="-17.775542">
        <ele>629.094</ele>
        <time>2012-08-10T10:56:25Z</time>
      </trkpt>
      <trkpt lat="28.761168" lon="-17.775891">
        <ele>642.933</ele>
        <time>2012-08-10T10:57:14Z</time>
      </trkpt>
      <trkpt lat="28.761109" lon="-17.777552">
        <ele>618.193</ele>
        <time>2012-08-10T11:02:00Z</time>
      </trkpt>
      <trkpt lat="28.760612" lon="-17.777868">
        <ele>658.135</ele>
        <time>2012-08-10T11:03:53Z</time>
      </trkpt>
      <trkpt lat="28.760336" lon="-17.778350">
        <ele>648.447</ele>
        <time>2012-08-10T11:05:18Z</time>
      </trkpt>
      <trkpt lat="28.759986" lon="-17.778478">
        <ele>662.872</ele>
        <time>2012-08-10T11:06:17Z</time>
      </trkpt>
      <trkpt lat="28.759733" lon="-17.778968">
        <ele>648.013</ele>
        <time>2012-08-10T11:07:11Z</time>
      </trkpt>
      <trkpt lat="28.759650" lon="-17.779869">
        <ele>605.714</ele>
        <time>2012-08-10T11:09:24Z</time>
      </trkpt>
      <trkpt lat="28.759436" lon="-17.779954">
        <ele>613.007</ele>
        <time>2012-08-10T11:10:26Z</time>
      </trkpt>
      <trkpt lat="28.758664" lon="-17.779840">
        <ele>643.260</ele>
        <time>2012-08-10T11:12:08Z</time>
      </trkpt>
      <trkpt lat="28.758596" lon="-17.779721">
        <ele>653.199</ele>
        <time>2012-08-10T11:12:26Z</time>
      </trkpt>
      <trkpt lat="28.758476" lon="-17.779867">
        <ele>650.428</ele>
        <time>2012-08-10T11:13:22Z</time>
      </trkpt>
      <trkpt lat="28.758441" lon="-17.780056">
        <ele>641.387</ele>
        <time>2012-08-10T11:14:02Z</time>
      </trkpt>
      <trkpt lat="28.758594" lon="-17.780014">
        <ele>635.477</ele>
        <time>2012-08-10T11:15:28Z</time>
      </trkpt>
      <trkpt lat="28.758860" lon="-17.780412">
        <ele>617.159</ele>
        <time>2012-08-10T11:17:21Z</time>
      </trkpt>
      <trkpt lat="28.759002" lon="-17.780448">
        <ele>615.611</ele>
        <time>2012-08-10T11:18:40Z</time>
      </trkpt>
      <trkpt lat="28.759646" lon="-17.780356">
        <ele>601.469</ele>
        <time>2012-08-10T11:20:10Z</time>
      </trkpt>
      <trkpt lat="28.759928" lon="-17.780506">
        <ele>599.504</ele>
        <time>2012-08-10T11:21:04Z</time>
      </trkpt>
      <trkpt lat="28.760120" lon="-17.780155">
        <ele>585.924</ele>
        <time>2012-08-10T11:21:51Z</time>
      </trkpt>
      <trkpt lat="28.760824" lon="-17.779654">
        <ele>575.907</ele>
        <time>2012-08-10T11:23:28Z</time>
      </trkpt>
      <trkpt lat="28.761350" lon="-17.779786">
        <ele>583.959</ele>
        <time>2012-08-10T11:24:51Z</time>
      </trkpt>
      <trkpt lat="28.761378" lon="-17.779266">
        <ele>566.018</ele>
        <time>2012-08-10T11:25:20Z</time>
      </trkpt>
      <trkpt lat="28.760995" lon="-17.778692">
        <ele>576.097</ele>
        <time>2012-08-10T11:26:34Z</time>
      </trkpt>
      <trkpt lat="28.760872" lon="-17.778678">
        <ele>588.776</ele>
        <time>2012-08-10T11:27:24Z</time>
      </trkpt>
      <trkpt lat="28.761302" lon="-17.778190">
        <ele>582.776</ele>
        <time>2012-08-10T11:28:58Z</time>
      </trkpt>
      <trkpt lat="28.761607" lon="-17.778193">
        <ele>564.788</ele>
        <time>2012-08-10T11:29:25Z</time>
      </trkpt>
      <trkpt lat="28.762648" lon="-17.778617">
        <ele>530.910</ele>
        <time>2012-08-10T11:31:23Z</time>
      </trkpt>
      <trkpt lat="28.762878" lon="-17.778613">
        <ele>538.789</ele>
        <time>2012-08-10T11:32:07Z</time>
      </trkpt>
      <trkpt lat="28.762724" lon="-17.778674">
        <ele>535.806</ele>
        <time>2012-08-10T11:32:27Z</time>
      </trkpt>
      <trkpt lat="28.762715" lon="-17.778433">
        <ele>526.826</ele>
        <time>2012-08-10T11:32:44Z</time>
      </trkpt>
      <trkpt lat="28.762872" lon="-17.777937">
        <ele>522.107</ele>
        <time>2012-08-10T11:33:30Z</time>
      </trkpt>
      <trkpt lat="28.763310" lon="-17.777170">
        <ele>524.091</ele>
        <time>2012-08-10T11:34:34Z</time>
      </trkpt>
      <trkpt lat="28.763380" lon="-17.776661">
        <ele>535.990</ele>
        <time>2012-08-10T11:35:18Z</time>
      </trkpt>
      <trkpt lat="28.763229" lon="-17.776322">
        <ele>528.589</ele>
        <time>2012-08-10T11:35:51Z</time>
      </trkpt>
      <trkpt lat="28.762987" lon="-17.776147">
        <ele>523.288</ele>
        <time>2012-08-10T11:36:50Z</time>
      </trkpt>
      <trkpt lat="28.762340" lon="-17.776131">
        <ele>509.158</ele>
        <time>2012-08-10T11:38:18Z</time>
      </trkpt>
      <trkpt lat="28.762098" lon="-17.775940">
        <ele>504.550</ele>
        <time>2012-08-10T11:38:40Z</time>
      </trkpt>
      <trkpt lat="28.761981" lon="-17.775282">
        <ele>544.312</ele>
        <time>2012-08-10T11:39:18Z</time>
      </trkpt>
      <trkpt lat="28.761918" lon="-17.775297">
        <ele>553.919</ele>
        <time>2012-08-10T11:39:37Z</time>
      </trkpt>
      <trkpt lat="28.761948" lon="-17.775060">
        <ele>559.509</ele>
        <time>2012-08-10T11:40:08Z</time>
      </trkpt>
      <trkpt lat="28.762144" lon="-17.774838">
        <ele>531.119</ele>
        <time>2012-08-10T11:40:50Z</time>
      </trkpt>
      <trkpt lat="28.763031" lon="-17.774697">
        <ele>462.607</ele>
        <time>2012-08-10T11:42:55Z</time>
      </trkpt>
      <trkpt lat="28.762789" lon="-17.774668">
        <ele>466.874</ele>
        <time>2012-08-10T11:43:41Z</time>
      </trkpt>
      <trkpt lat="28.762809" lon="-17.774789">
        <ele>465.913</ele>
        <time>2012-08-10T11:44:34Z</time>
      </trkpt>
      <trkpt lat="28.763305" lon="-17.774968">
        <ele>492.582</ele>
        <time>2012-08-10T11:45:36Z</time>
      </trkpt>
      <trkpt lat="28.763393" lon="-17.774389">
        <ele>460.091</ele>
        <time>2012-08-10T11:46:43Z</time>
      </trkpt>
      <trkpt lat="28.763704" lon="-17.774323">
        <ele>465.361</ele>
        <time>2012-08-10T11:47:22Z</time>
      </trkpt>
      <trkpt lat="28.763839" lon="-17.773794">
        <ele>456.573</ele>
        <time>2012-08-10T11:47:59Z</time>
      </trkpt>
      <trkpt lat="28.764148" lon="-17.773314">
        <ele>444.065</ele>
        <time>2012-08-10T11:48:47Z</time>
      </trkpt>
      <trkpt lat="28.764197" lon="-17.772003">
        <ele>419.233</ele>
        <time>2012-08-10T11:50:44Z</time>
      </trkpt>
      <trkpt lat="28.764583" lon="-17.771504">
        <ele>414.023</ele>
        <time>2012-08-10T11:51:43Z</time>
      </trkpt>
      <trkpt lat="28.765061" lon="-17.771286">
        <ele>407.015</ele>
        <time>2012-08-10T11:52:35Z</time>
      </trkpt>
      <trkpt lat="28.765446" lon="-17.771482">
        <ele>400.707</ele>
        <time>2012-08-10T11:53:28Z</time>
      </trkpt>
      <trkpt lat="28.765618" lon="-17.771773">
        <ele>398.246</ele>
        <time>2012-08-10T11:53:59Z</time>
      </trkpt>
      <trkpt lat="28.765456" lon="-17.771902">
        <ele>399.175</ele>
        <time>2012-08-10T11:54:17Z</time>
      </trkpt>
      <trkpt lat="28.765977" lon="-17.772044">
        <ele>393.434</ele>
        <time>2012-08-10T11:54:29Z</time>
      </trkpt>
      <trkpt lat="28.766104" lon="-17.771995">
        <ele>388.323</ele>
        <time>2012-08-10T11:54:43Z</time>
      </trkpt>
      <trkpt lat="28.766531" lon="-17.771334">
        <ele>376.623</ele>
        <time>2012-08-10T11:56:31Z</time>
      </trkpt>
      <trkpt lat="28.766625" lon="-17.770996">
        <ele>371.585</ele>
        <time>2012-08-10T11:57:11Z</time>
      </trkpt>
      <trkpt lat="28.766633" lon="-17.769894">
        <ele>355.637</ele>
        <time>2012-08-10T11:58:43Z</time>
      </trkpt>
      <trkpt lat="28.766840" lon="-17.769667">
        <ele>348.097</ele>
        <time>2012-08-10T11:59:16Z</time>
      </trkpt>
      <trkpt lat="28.767024" lon="-17.769675">
        <ele>348.823</ele>
        <time>2012-08-10T11:59:32Z</time>
      </trkpt>
      <trkpt lat="28.767038" lon="-17.769771">
        <ele>352.425</ele>
        <time>2012-08-10T12:00:41Z</time>
      </trkpt>
    </trkseg>
  </trk></gpx>