<?xml version="1.0" encoding="UTF-8"?>
<gpx version="1.1" creator="Aventuras en Cada Paso" xmlns="http://www.topografix.com/GPX/1/1">
  <metadata>
    <name>Cuevas Volcánicas – Lobos</name>
    <desc>Exploración de pequeñas cuevas y tubos volcánicos en el interior del islote. Formaciones de lava solidificada únicas con fauna rupícola protegida.</desc>
    <author><name>Aventuras en Cada Paso</name></author>
    <time>2026-07-08T08:12:58.213Z</time>
    <keywords>Isla de Lobos, Espeleología, Fácil, senderismo Canarias</keywords>
  </metadata>
  <wpt lat="28.7519" lon="-13.8183">
    <name>Cuevas Volcánicas – Lobos</name>
    <desc>Exploración de pequeñas cuevas y tubos volcánicos en el interior del islote. Formaciones de lava solidificada únicas con fauna rupícola protegida. | Isla: Isla de Lobos | Tipo: Espeleología | Dificultad: Fácil | Distancia: 2km | Duración: Menos de 2h</desc>
    <type>Espeleología</type>
    <extensions>
      <isla>Isla de Lobos</isla>
      <dificultad>Fácil</dificultad>
      <distancia>2</distancia>
      <duracion>Menos de 2h</duracion>
    </extensions>
  </wpt>
</gpx>