<?xml version="1.0" encoding="UTF-8"?>
<gpx creator="Wikiloc - https://www.wikiloc.com" version="1.1" xmlns="http://www.topografix.com/GPX/1/1" xmlns:xsi="http://www.w3.org/2001/XMLSchema-instance" xsi:schemaLocation="http://www.topografix.com/GPX/1/1 http://www.topografix.com/GPX/1/1/gpx.xsd">
  <metadata>
    <name>Wikiloc - MIRADOR CUMBRECITA A CENTRO INFORMATIVO CALDERA TABURIENTE. ...</name>
    <link href="https://www.wikiloc.com/hiking-trails/mirador-cumbrecita-a-centro-informativo-caldera-taburiente-ruta-corta-24434459">
      <text>MIRADOR CUMBRECITA A CENTRO INFORMATIVO CALDERA TABURIENTE. ... on Wikiloc</text>
    </link>
    <time>2018-04-05T14:23:42Z</time>
  </metadata>
  <trk>
    <name>MIRADOR CUMBRECITA A CENTRO INFORMATIVO CALDERA TABURIENTE. ... - Wikiloc</name>
    <cmt></cmt>
    <desc></desc>
    <trkseg>
      <trkpt lat="28.697653" lon="-17.856904">
        <ele>1308.986</ele>
        <time>2018-04-05T10:25:32Z</time>
      </trkpt>
      <trkpt lat="28.697844" lon="-17.856840">
        <ele>1311.360</ele>
        <time>2018-04-05T10:25:59Z</time>
      </trkpt>
      <trkpt lat="28.697989" lon="-17.856448">
        <ele>1311.826</ele>
        <time>2018-04-05T10:27:08Z</time>
      </trkpt>
      <trkpt lat="28.697928" lon="-17.856347">
        <ele>1322.408</ele>
        <time>2018-04-05T10:29:50Z</time>
      </trkpt>
      <trkpt lat="28.698405" lon="-17.855640">
        <ele>1312.340</ele>
        <time>2018-04-05T10:31:47Z</time>
      </trkpt>
      <trkpt lat="28.698315" lon="-17.855508">
        <ele>1316.112</ele>
        <time>2018-04-05T10:34:12Z</time>
      </trkpt>
      <trkpt lat="28.698387" lon="-17.855582">
        <ele>1311.382</ele>
        <time>2018-04-05T10:35:33Z</time>
      </trkpt>
      <trkpt lat="28.698386" lon="-17.855230">
        <ele>1303.251</ele>
        <time>2018-04-05T10:37:46Z</time>
      </trkpt>
      <trkpt lat="28.697924" lon="-17.854396">
        <ele>1299.832</ele>
        <time>2018-04-05T10:39:38Z</time>
      </trkpt>
      <trkpt lat="28.697877" lon="-17.853452">
        <ele>1300.332</ele>
        <time>2018-04-05T10:41:16Z</time>
      </trkpt>
      <trkpt lat="28.697768" lon="-17.853117">
        <ele>1297.993</ele>
        <time>2018-04-05T10:41:45Z</time>
      </trkpt>
      <trkpt lat="28.697645" lon="-17.853119">
        <ele>1301.777</ele>
        <time>2018-04-05T10:42:34Z</time>
      </trkpt>
      <trkpt lat="28.697848" lon="-17.852937">
        <ele>1306.054</ele>
        <time>2018-04-05T10:43:52Z</time>
      </trkpt>
      <trkpt lat="28.697801" lon="-17.852349">
        <ele>1296.956</ele>
        <time>2018-04-05T10:45:16Z</time>
      </trkpt>
      <trkpt lat="28.697312" lon="-17.851684">
        <ele>1297.411</ele>
        <time>2018-04-05T10:47:34Z</time>
      </trkpt>
      <trkpt lat="28.697203" lon="-17.851742">
        <ele>1298.408</ele>
        <time>2018-04-05T10:47:58Z</time>
      </trkpt>
      <trkpt lat="28.697254" lon="-17.851578">
        <ele>1299.367</ele>
        <time>2018-04-05T10:48:34Z</time>
      </trkpt>
      <trkpt lat="28.697168" lon="-17.851463">
        <ele>1305.659</ele>
        <time>2018-04-05T10:48:47Z</time>
      </trkpt>
      <trkpt lat="28.696982" lon="-17.851295">
        <ele>1304.629</ele>
        <time>2018-04-05T10:49:15Z</time>
      </trkpt>
      <trkpt lat="28.696646" lon="-17.851226">
        <ele>1297.928</ele>
        <time>2018-04-05T10:50:17Z</time>
      </trkpt>
      <trkpt lat="28.696562" lon="-17.851021">
        <ele>1291.689</ele>
        <time>2018-04-05T10:50:44Z</time>
      </trkpt>
      <trkpt lat="28.696721" lon="-17.850817">
        <ele>1278.289</ele>
        <time>2018-04-05T10:52:47Z</time>
      </trkpt>
      <trkpt lat="28.696586" lon="-17.850972">
        <ele>1281.060</ele>
        <time>2018-04-05T10:53:42Z</time>
      </trkpt>
      <trkpt lat="28.696560" lon="-17.850795">
        <ele>1284.974</ele>
        <time>2018-04-05T10:54:25Z</time>
      </trkpt>
      <trkpt lat="28.696366" lon="-17.850773">
        <ele>1283.061</ele>
        <time>2018-04-05T10:55:54Z</time>
      </trkpt>
      <trkpt lat="28.696204" lon="-17.850271">
        <ele>1279.621</ele>
        <time>2018-04-05T10:57:06Z</time>
      </trkpt>
      <trkpt lat="28.696197" lon="-17.850408">
        <ele>1283.013</ele>
        <time>2018-04-05T10:57:52Z</time>
      </trkpt>
      <trkpt lat="28.696058" lon="-17.850337">
        <ele>1279.108</ele>
        <time>2018-04-05T10:58:29Z</time>
      </trkpt>
      <trkpt lat="28.696175" lon="-17.850151">
        <ele>1271.988</ele>
        <time>2018-04-05T10:59:23Z</time>
      </trkpt>
      <trkpt lat="28.696123" lon="-17.850337">
        <ele>1275.340</ele>
        <time>2018-04-05T11:00:16Z</time>
      </trkpt>
      <trkpt lat="28.695948" lon="-17.850418">
        <ele>1276.290</ele>
        <time>2018-04-05T11:00:33Z</time>
      </trkpt>
      <trkpt lat="28.695433" lon="-17.850372">
        <ele>1270.529</ele>
        <time>2018-04-05T11:01:47Z</time>
      </trkpt>
      <trkpt lat="28.695156" lon="-17.850226">
        <ele>1269.540</ele>
        <time>2018-04-05T11:02:38Z</time>
      </trkpt>
      <trkpt lat="28.695307" lon="-17.850228">
        <ele>1282.520</ele>
        <time>2018-04-05T11:03:07Z</time>
      </trkpt>
      <trkpt lat="28.695172" lon="-17.850149">
        <ele>1284.921</ele>
        <time>2018-04-05T11:04:52Z</time>
      </trkpt>
      <trkpt lat="28.695037" lon="-17.850208">
        <ele>1286.855</ele>
        <time>2018-04-05T11:05:18Z</time>
      </trkpt>
      <trkpt lat="28.695022" lon="-17.850459">
        <ele>1292.123</ele>
        <time>2018-04-05T11:10:06Z</time>
      </trkpt>
      <trkpt lat="28.694988" lon="-17.849944">
        <ele>1274.883</ele>
        <time>2018-04-05T11:13:51Z</time>
      </trkpt>
      <trkpt lat="28.695273" lon="-17.849739">
        <ele>1269.011</ele>
        <time>2018-04-05T11:15:12Z</time>
      </trkpt>
      <trkpt lat="28.694803" lon="-17.849409">
        <ele>1271.408</ele>
        <time>2018-04-05T11:15:45Z</time>
      </trkpt>
      <trkpt lat="28.694622" lon="-17.849531">
        <ele>1273.494</ele>
        <time>2018-04-05T11:16:34Z</time>
      </trkpt>
      <trkpt lat="28.694078" lon="-17.849092">
        <ele>1286.876</ele>
        <time>2018-04-05T11:17:08Z</time>
      </trkpt>
      <trkpt lat="28.693985" lon="-17.849127">
        <ele>1287.826</ele>
        <time>2018-04-05T11:17:19Z</time>
      </trkpt>
      <trkpt lat="28.694289" lon="-17.849502">
        <ele>1285.485</ele>
        <time>2018-04-05T11:17:30Z</time>
      </trkpt>
      <trkpt lat="28.693880" lon="-17.849017">
        <ele>1286.886</ele>
        <time>2018-04-05T11:18:41Z</time>
      </trkpt>
      <trkpt lat="28.693993" lon="-17.848981">
        <ele>1289.276</ele>
        <time>2018-04-05T11:19:12Z</time>
      </trkpt>
      <trkpt lat="28.693903" lon="-17.848836">
        <ele>1290.797</ele>
        <time>2018-04-05T11:19:20Z</time>
      </trkpt>
      <trkpt lat="28.693425" lon="-17.848694">
        <ele>1290.211</ele>
        <time>2018-04-05T11:20:12Z</time>
      </trkpt>
      <trkpt lat="28.693728" lon="-17.848854">
        <ele>1301.737</ele>
        <time>2018-04-05T11:21:10Z</time>
      </trkpt>
      <trkpt lat="28.693683" lon="-17.848753">
        <ele>1298.449</ele>
        <time>2018-04-05T11:21:20Z</time>
      </trkpt>
      <trkpt lat="28.693872" lon="-17.848773">
        <ele>1293.113</ele>
        <time>2018-04-05T11:21:48Z</time>
      </trkpt>
      <trkpt lat="28.693689" lon="-17.848783">
        <ele>1291.608</ele>
        <time>2018-04-05T11:22:12Z</time>
      </trkpt>
      <trkpt lat="28.693727" lon="-17.848669">
        <ele>1288.375</ele>
        <time>2018-04-05T11:22:57Z</time>
      </trkpt>
      <trkpt lat="28.693809" lon="-17.848800">
        <ele>1283.917</ele>
        <time>2018-04-05T11:23:30Z</time>
      </trkpt>
      <trkpt lat="28.694024" lon="-17.848630">
        <ele>1264.257</ele>
        <time>2018-04-05T11:25:56Z</time>
      </trkpt>
      <trkpt lat="28.694193" lon="-17.848986">
        <ele>1263.356</ele>
        <time>2018-04-05T11:27:19Z</time>
      </trkpt>
      <trkpt lat="28.694816" lon="-17.849498">
        <ele>1263.347</ele>
        <time>2018-04-05T11:28:10Z</time>
      </trkpt>
      <trkpt lat="28.693974" lon="-17.848615">
        <ele>1263.787</ele>
        <time>2018-04-05T11:29:33Z</time>
      </trkpt>
      <trkpt lat="28.694144" lon="-17.848670">
        <ele>1254.158</ele>
        <time>2018-04-05T11:30:16Z</time>
      </trkpt>
      <trkpt lat="28.694310" lon="-17.849184">
        <ele>1270.062</ele>
        <time>2018-04-05T11:32:16Z</time>
      </trkpt>
      <trkpt lat="28.694080" lon="-17.849470">
        <ele>1289.725</ele>
        <time>2018-04-05T11:33:05Z</time>
      </trkpt>
      <trkpt lat="28.693827" lon="-17.849559">
        <ele>1298.426</ele>
        <time>2018-04-05T11:33:55Z</time>
      </trkpt>
      <trkpt lat="28.693759" lon="-17.849224">
        <ele>1271.908</ele>
        <time>2018-04-05T11:34:29Z</time>
      </trkpt>
      <trkpt lat="28.693452" lon="-17.848994">
        <ele>1253.208</ele>
        <time>2018-04-05T11:35:17Z</time>
      </trkpt>
      <trkpt lat="28.693270" lon="-17.849075">
        <ele>1237.314</ele>
        <time>2018-04-05T11:36:30Z</time>
      </trkpt>
      <trkpt lat="28.693097" lon="-17.848936">
        <ele>1225.396</ele>
        <time>2018-04-05T11:36:58Z</time>
      </trkpt>
      <trkpt lat="28.692953" lon="-17.848504">
        <ele>1206.186</ele>
        <time>2018-04-05T11:38:12Z</time>
      </trkpt>
      <trkpt lat="28.692702" lon="-17.848332">
        <ele>1213.845</ele>
        <time>2018-04-05T11:38:55Z</time>
      </trkpt>
      <trkpt lat="28.692470" lon="-17.847513">
        <ele>1199.336</ele>
        <time>2018-04-05T11:40:32Z</time>
      </trkpt>
      <trkpt lat="28.692027" lon="-17.846906">
        <ele>1203.226</ele>
        <time>2018-04-05T11:41:54Z</time>
      </trkpt>
      <trkpt lat="28.691982" lon="-17.846371">
        <ele>1208.567</ele>
        <time>2018-04-05T11:43:29Z</time>
      </trkpt>
      <trkpt lat="28.691909" lon="-17.846439">
        <ele>1210.961</ele>
        <time>2018-04-05T11:43:48Z</time>
      </trkpt>
      <trkpt lat="28.692014" lon="-17.846358">
        <ele>1212.896</ele>
        <time>2018-04-05T11:44:38Z</time>
      </trkpt>
      <trkpt lat="28.691921" lon="-17.846438">
        <ele>1216.231</ele>
        <time>2018-04-05T11:45:59Z</time>
      </trkpt>
      <trkpt lat="28.691882" lon="-17.846281">
        <ele>1216.224</ele>
        <time>2018-04-05T11:46:56Z</time>
      </trkpt>
      <trkpt lat="28.691890" lon="-17.846538">
        <ele>1212.308</ele>
        <time>2018-04-05T11:47:50Z</time>
      </trkpt>
      <trkpt lat="28.691527" lon="-17.846551">
        <ele>1198.481</ele>
        <time>2018-04-05T11:48:51Z</time>
      </trkpt>
      <trkpt lat="28.691441" lon="-17.846469">
        <ele>1188.393</ele>
        <time>2018-04-05T11:49:21Z</time>
      </trkpt>
      <trkpt lat="28.691509" lon="-17.846602">
        <ele>1184.083</ele>
        <time>2018-04-05T11:49:48Z</time>
      </trkpt>
      <trkpt lat="28.691003" lon="-17.846170">
        <ele>1179.682</ele>
        <time>2018-04-05T11:51:10Z</time>
      </trkpt>
      <trkpt lat="28.690891" lon="-17.846361">
        <ele>1178.213</ele>
        <time>2018-04-05T11:52:45Z</time>
      </trkpt>
      <trkpt lat="28.690718" lon="-17.846074">
        <ele>1187.883</ele>
        <time>2018-04-05T11:53:32Z</time>
      </trkpt>
      <trkpt lat="28.690643" lon="-17.846355">
        <ele>1207.554</ele>
        <time>2018-04-05T11:55:24Z</time>
      </trkpt>
      <trkpt lat="28.690685" lon="-17.846246">
        <ele>1186.878</ele>
        <time>2018-04-05T11:57:03Z</time>
      </trkpt>
      <trkpt lat="28.690346" lon="-17.846100">
        <ele>1166.261</ele>
        <time>2018-04-05T11:58:39Z</time>
      </trkpt>
      <trkpt lat="28.690565" lon="-17.845979">
        <ele>1162.821</ele>
        <time>2018-04-05T11:59:48Z</time>
      </trkpt>
      <trkpt lat="28.689898" lon="-17.845825">
        <ele>1172.413</ele>
        <time>2018-04-05T12:01:49Z</time>
      </trkpt>
      <trkpt lat="28.689414" lon="-17.845121">
        <ele>1174.308</ele>
        <time>2018-04-05T12:03:25Z</time>
      </trkpt>
      <trkpt lat="28.689059" lon="-17.844920">
        <ele>1173.918</ele>
        <time>2018-04-05T12:04:24Z</time>
      </trkpt>
      <trkpt lat="28.688789" lon="-17.844899">
        <ele>1173.470</ele>
        <time>2018-04-05T12:05:15Z</time>
      </trkpt>
      <trkpt lat="28.688662" lon="-17.844761">
        <ele>1172.410</ele>
        <time>2018-04-05T12:06:20Z</time>
      </trkpt>
      <trkpt lat="28.688602" lon="-17.844886">
        <ele>1174.389</ele>
        <time>2018-04-05T12:06:51Z</time>
      </trkpt>
      <trkpt lat="28.688239" lon="-17.845059">
        <ele>1167.190</ele>
        <time>2018-04-05T12:07:40Z</time>
      </trkpt>
      <trkpt lat="28.688001" lon="-17.844963">
        <ele>1163.880</ele>
        <time>2018-04-05T12:08:18Z</time>
      </trkpt>
      <trkpt lat="28.687716" lon="-17.845168">
        <ele>1156.611</ele>
        <time>2018-04-05T12:09:09Z</time>
      </trkpt>
      <trkpt lat="28.687577" lon="-17.845142">
        <ele>1153.235</ele>
        <time>2018-04-05T12:09:36Z</time>
      </trkpt>
      <trkpt lat="28.687681" lon="-17.845316">
        <ele>1146.084</ele>
        <time>2018-04-05T12:10:32Z</time>
      </trkpt>
      <trkpt lat="28.686757" lon="-17.845435">
        <ele>1133.507</ele>
        <time>2018-04-05T12:13:02Z</time>
      </trkpt>
      <trkpt lat="28.686188" lon="-17.845268">
        <ele>1127.717</ele>
        <time>2018-04-05T12:15:33Z</time>
      </trkpt>
      <trkpt lat="28.685640" lon="-17.844620">
        <ele>1118.108</ele>
        <time>2018-04-05T12:17:20Z</time>
      </trkpt>
      <trkpt lat="28.685337" lon="-17.844670">
        <ele>1121.550</ele>
        <time>2018-04-05T12:18:31Z</time>
      </trkpt>
      <trkpt lat="28.685057" lon="-17.844580">
        <ele>1119.552</ele>
        <time>2018-04-05T12:19:17Z</time>
      </trkpt>
      <trkpt lat="28.685143" lon="-17.844628">
        <ele>1118.642</ele>
        <time>2018-04-05T12:20:21Z</time>
      </trkpt>
      <trkpt lat="28.685209" lon="-17.844644">
        <ele>1115.291</ele>
        <time>2018-04-05T12:20:44Z</time>
      </trkpt>
      <trkpt lat="28.684301" lon="-17.844335">
        <ele>1126.872</ele>
        <time>2018-04-05T12:24:17Z</time>
      </trkpt>
      <trkpt lat="28.684137" lon="-17.844375">
        <ele>1119.152</ele>
        <time>2018-04-05T12:25:10Z</time>
      </trkpt>
      <trkpt lat="28.683818" lon="-17.844170">
        <ele>1127.763</ele>
        <time>2018-04-05T12:27:04Z</time>
      </trkpt>
      <trkpt lat="28.683380" lon="-17.843374">
        <ele>1122.427</ele>
        <time>2018-04-05T12:28:28Z</time>
      </trkpt>
      <trkpt lat="28.683321" lon="-17.842929">
        <ele>1127.298</ele>
        <time>2018-04-05T12:29:36Z</time>
      </trkpt>
      <trkpt lat="28.683147" lon="-17.842961">
        <ele>1127.215</ele>
        <time>2018-04-05T12:30:26Z</time>
      </trkpt>
      <trkpt lat="28.683352" lon="-17.842737">
        <ele>1126.826</ele>
        <time>2018-04-05T12:31:45Z</time>
      </trkpt>
      <trkpt lat="28.682165" lon="-17.843407">
        <ele>1119.108</ele>
        <time>2018-04-05T12:36:18Z</time>
      </trkpt>
      <trkpt lat="28.682163" lon="-17.843324">
        <ele>1116.281</ele>
        <time>2018-04-05T12:39:58Z</time>
      </trkpt>
      <trkpt lat="28.682179" lon="-17.843512">
        <ele>1119.593</ele>
        <time>2018-04-05T12:42:27Z</time>
      </trkpt>
      <trkpt lat="28.682327" lon="-17.843523">
        <ele>1115.753</ele>
        <time>2018-04-05T12:43:21Z</time>
      </trkpt>
      <trkpt lat="28.682213" lon="-17.843604">
        <ele>1107.172</ele>
        <time>2018-04-05T12:43:49Z</time>
      </trkpt>
      <trkpt lat="28.682648" lon="-17.843670">
        <ele>1096.073</ele>
        <time>2018-04-05T12:45:24Z</time>
      </trkpt>
      <trkpt lat="28.682501" lon="-17.843770">
        <ele>1084.573</ele>
        <time>2018-04-05T12:46:00Z</time>
      </trkpt>
      <trkpt lat="28.682594" lon="-17.843891">
        <ele>1085.464</ele>
        <time>2018-04-05T12:46:28Z</time>
      </trkpt>
      <trkpt lat="28.682489" lon="-17.844007">
        <ele>1084.968</ele>
        <time>2018-04-05T12:46:57Z</time>
      </trkpt>
      <trkpt lat="28.682200" lon="-17.844004">
        <ele>1080.127</ele>
        <time>2018-04-05T12:48:06Z</time>
      </trkpt>
      <trkpt lat="28.682045" lon="-17.844111">
        <ele>1074.868</ele>
        <time>2018-04-05T12:48:45Z</time>
      </trkpt>
      <trkpt lat="28.681717" lon="-17.844018">
        <ele>1064.814</ele>
        <time>2018-04-05T12:50:25Z</time>
      </trkpt>
      <trkpt lat="28.681383" lon="-17.843434">
        <ele>1046.508</ele>
        <time>2018-04-05T12:51:54Z</time>
      </trkpt>
      <trkpt lat="28.681311" lon="-17.843569">
        <ele>1056.134</ele>
        <time>2018-04-05T12:52:46Z</time>
      </trkpt>
      <trkpt lat="28.681077" lon="-17.843626">
        <ele>1047.026</ele>
        <time>2018-04-05T12:53:24Z</time>
      </trkpt>
      <trkpt lat="28.680527" lon="-17.843167">
        <ele>1033.096</ele>
        <time>2018-04-05T12:54:32Z</time>
      </trkpt>
      <trkpt lat="28.680085" lon="-17.843075">
        <ele>1026.385</ele>
        <time>2018-04-05T12:56:19Z</time>
      </trkpt>
      <trkpt lat="28.679918" lon="-17.842912">
        <ele>1026.856</ele>
        <time>2018-04-05T12:56:46Z</time>
      </trkpt>
      <trkpt lat="28.679894" lon="-17.842697">
        <ele>1037.436</ele>
        <time>2018-04-05T12:58:10Z</time>
      </trkpt>
      <trkpt lat="28.680023" lon="-17.842601">
        <ele>1046.537</ele>
        <time>2018-04-05T12:59:16Z</time>
      </trkpt>
      <trkpt lat="28.679971" lon="-17.842677">
        <ele>1045.081</ele>
        <time>2018-04-05T13:00:00Z</time>
      </trkpt>
      <trkpt lat="28.679913" lon="-17.842583">
        <ele>1030.628</ele>
        <time>2018-04-05T13:02:14Z</time>
      </trkpt>
      <trkpt lat="28.679918" lon="-17.842657">
        <ele>1030.689</ele>
        <time>2018-04-05T13:03:00Z</time>
      </trkpt>
      <trkpt lat="28.679985" lon="-17.842600">
        <ele>1034.017</ele>
        <time>2018-04-05T13:04:34Z</time>
      </trkpt>
      <trkpt lat="28.679948" lon="-17.842811">
        <ele>1025.808</ele>
        <time>2018-04-05T13:05:36Z</time>
      </trkpt>
      <trkpt lat="28.679301" lon="-17.842830">
        <ele>1013.814</ele>
        <time>2018-04-05T13:07:40Z</time>
      </trkpt>
      <trkpt lat="28.678962" lon="-17.843042">
        <ele>1006.136</ele>
        <time>2018-04-05T13:08:56Z</time>
      </trkpt>
      <trkpt lat="28.679029" lon="-17.842992">
        <ele>1002.386</ele>
        <time>2018-04-05T13:09:48Z</time>
      </trkpt>
      <trkpt lat="28.678961" lon="-17.842906">
        <ele>999.985</ele>
        <time>2018-04-05T13:11:29Z</time>
      </trkpt>
      <trkpt lat="28.678926" lon="-17.843088">
        <ele>1012.836</ele>
        <time>2018-04-05T13:13:03Z</time>
      </trkpt>
      <trkpt lat="28.678332" lon="-17.843731">
        <ele>1004.736</ele>
        <time>2018-04-05T13:14:27Z</time>
      </trkpt>
      <trkpt lat="28.677646" lon="-17.844017">
        <ele>996.557</ele>
        <time>2018-04-05T13:15:20Z</time>
      </trkpt>
      <trkpt lat="28.677105" lon="-17.844544">
        <ele>972.511</ele>
        <time>2018-04-05T13:17:28Z</time>
      </trkpt>
      <trkpt lat="28.676505" lon="-17.844865">
        <ele>975.346</ele>
        <time>2018-04-05T13:18:39Z</time>
      </trkpt>
      <trkpt lat="28.676196" lon="-17.844939">
        <ele>968.688</ele>
        <time>2018-04-05T13:19:19Z</time>
      </trkpt>
      <trkpt lat="28.675889" lon="-17.844903">
        <ele>958.016</ele>
        <time>2018-04-05T13:20:08Z</time>
      </trkpt>
      <trkpt lat="28.675891" lon="-17.844809">
        <ele>953.708</ele>
        <time>2018-04-05T13:21:01Z</time>
      </trkpt>
      <trkpt lat="28.675882" lon="-17.844958">
        <ele>954.246</ele>
        <time>2018-04-05T13:21:25Z</time>
      </trkpt>
      <trkpt lat="28.675741" lon="-17.845004">
        <ele>960.978</ele>
        <time>2018-04-05T13:21:42Z</time>
      </trkpt>
      <trkpt lat="28.674663" lon="-17.844904">
        <ele>958.538</ele>
        <time>2018-04-05T13:23:08Z</time>
      </trkpt>
      <trkpt lat="28.674238" lon="-17.845294">
        <ele>951.867</ele>
        <time>2018-04-05T13:24:21Z</time>
      </trkpt>
      <trkpt lat="28.673591" lon="-17.845625">
        <ele>947.018</ele>
        <time>2018-04-05T13:25:29Z</time>
      </trkpt>
      <trkpt lat="28.673346" lon="-17.845590">
        <ele>946.518</ele>
        <time>2018-04-05T13:25:51Z</time>
      </trkpt>
      <trkpt lat="28.672528" lon="-17.846177">
        <ele>945.569</ele>
        <time>2018-04-05T13:28:06Z</time>
      </trkpt>
      <trkpt lat="28.670960" lon="-17.846507">
        <ele>927.333</ele>
        <time>2018-04-05T13:30:43Z</time>
      </trkpt>
      <trkpt lat="28.669795" lon="-17.847217">
        <ele>906.176</ele>
        <time>2018-04-05T13:32:46Z</time>
      </trkpt>
      <trkpt lat="28.666698" lon="-17.848648">
        <ele>879.290</ele>
        <time>2018-04-05T13:38:16Z</time>
      </trkpt>
      <trkpt lat="28.666592" lon="-17.848813">
        <ele>888.819</ele>
        <time>2018-04-05T13:40:09Z</time>
      </trkpt>
      <trkpt lat="28.665789" lon="-17.849027">
        <ele>883.508</ele>
        <time>2018-04-05T13:41:18Z</time>
      </trkpt>
      <trkpt lat="28.665515" lon="-17.848897">
        <ele>877.889</ele>
        <time>2018-04-05T13:43:13Z</time>
      </trkpt>
      <trkpt lat="28.664090" lon="-17.849095">
        <ele>866.291</ele>
        <time>2018-04-05T13:45:57Z</time>
      </trkpt>
      <trkpt lat="28.661894" lon="-17.850215">
        <ele>844.681</ele>
        <time>2018-04-05T13:49:39Z</time>
      </trkpt>
      <trkpt lat="28.661469" lon="-17.850242">
        <ele>845.660</ele>
        <time>2018-04-05T13:50:18Z</time>
      </trkpt>
      <trkpt lat="28.661299" lon="-17.851333">
        <ele>838.811</ele>
        <time>2018-04-05T13:52:00Z</time>
      </trkpt>
      <trkpt lat="28.661179" lon="-17.851456">
        <ele>838.831</ele>
        <time>2018-04-05T13:52:16Z</time>
      </trkpt>
      <trkpt lat="28.660795" lon="-17.851516">
        <ele>840.862</ele>
        <time>2018-04-05T13:53:00Z</time>
      </trkpt>
      <trkpt lat="28.659548" lon="-17.851301">
        <ele>838.426</ele>
        <time>2018-04-05T13:55:00Z</time>
      </trkpt>
      <trkpt lat="28.659211" lon="-17.851331">
        <ele>837.443</ele>
        <time>2018-04-05T13:55:31Z</time>
      </trkpt>
      <trkpt lat="28.654590" lon="-17.853223">
        <ele>851.364</ele>
        <time>2018-04-05T14:02:46Z</time>
      </trkpt>
      <trkpt lat="28.653925" lon="-17.862048">
        <ele>811.910</ele>
        <time>2018-04-05T14:15:08Z</time>
      </trkpt>
      <trkpt lat="28.654019" lon="-17.863324">
        <ele>807.608</ele>
        <time>2018-04-05T14:16:43Z</time>
      </trkpt>
      <trkpt lat="28.652607" lon="-17.862770">
        <ele>810.526</ele>
        <time>2018-04-05T14:21:08Z</time>
      </trkpt>
      <trkpt lat="28.652554" lon="-17.862522">
        <ele>805.218</ele>
        <time>2018-04-05T14:21:44Z</time>
      </trkpt>
      <trkpt lat="28.651894" lon="-17.862174">
        <ele>805.248</ele>
        <time>2018-04-05T14:22:43Z</time>
      </trkpt>
      <trkpt lat="28.651501" lon="-17.862190">
        <ele>804.267</ele>
        <time>2018-04-05T14:23:42Z</time>
      </trkpt>
    </trkseg>
  </trk></gpx>