<?xml version="1.0" encoding="UTF-8"?>
<gpx version="1.1" creator="Aventuras en Cada Paso" xmlns="http://www.topografix.com/GPX/1/1">
  <metadata>
    <name>Degollada de Facay</name>
    <desc>Una de las rutas más largas y exigentes del centro de Fuerteventura con 520 m de desnivel. Atraviesa paisajes volcánicos remotos con gran sensación de aislamiento.</desc>
    <author><name>Aventuras en Cada Paso</name></author>
    <time>2026-07-08T08:12:58.180Z</time>
    <keywords>Fuerteventura, Senderismo, Difícil, senderismo Canarias</keywords>
  </metadata>
  <wpt lat="28.35" lon="-14.0333">
    <name>Degollada de Facay</name>
    <desc>Una de las rutas más largas y exigentes del centro de Fuerteventura con 520 m de desnivel. Atraviesa paisajes volcánicos remotos con gran sensación de aislamiento. | Isla: Fuerteventura | Tipo: Senderismo | Dificultad: Difícil | Distancia: 17km | Duración: 4-8 horas</desc>
    <type>Senderismo</type>
    <extensions>
      <isla>Fuerteventura</isla>
      <dificultad>Difícil</dificultad>
      <distancia>17</distancia>
      <duracion>4-8 horas</duracion>
    </extensions>
  </wpt>
</gpx>