<?xml version="1.0" encoding="UTF-8"?>
<gpx creator="Wikiloc - https://www.wikiloc.com" version="1.1" xmlns="http://www.topografix.com/GPX/1/1" xmlns:xsi="http://www.w3.org/2001/XMLSchema-instance" xsi:schemaLocation="http://www.topografix.com/GPX/1/1 http://www.topografix.com/GPX/1/1/gpx.xsd">
  <metadata>
    <name>Wikiloc - 2017-05-02 DUNAS MASPALOMAS 12km (Playa del Inglés, Faro Mas...</name>
    <link href="https://www.wikiloc.com/hiking-trails/2017-05-02-dunas-maspalomas-12km-playa-del-ingles-faro-maspalomas-charca-dunas-maspalomas-61600122">
      <text>2017-05-02 DUNAS MASPALOMAS 12km (Playa del Inglés, Faro Mas... on Wikiloc</text>
    </link>
    <time>2017-03-29T14:28:07Z</time>
  </metadata>
  <trk>
    <name>2017-05-02 DUNAS MASPALOMAS 12km (Playa del Inglés, Faro Mas... - Wikiloc</name>
    <cmt></cmt>
    <desc></desc>
    <trkseg>
      <trkpt lat="27.759883" lon="-15.564737">
        <ele>23.156</ele>
        <time>2017-03-29T09:46:05Z</time>
      </trkpt>
      <trkpt lat="27.758555" lon="-15.566086">
        <ele>25.159</ele>
        <time>2017-03-29T09:49:22Z</time>
      </trkpt>
      <trkpt lat="27.757899" lon="-15.566084">
        <ele>9.414</ele>
        <time>2017-03-29T09:52:23Z</time>
      </trkpt>
      <trkpt lat="27.757678" lon="-15.565888">
        <ele>8.008</ele>
        <time>2017-03-29T09:52:58Z</time>
      </trkpt>
      <trkpt lat="27.757328" lon="-15.565988">
        <ele>11.641</ele>
        <time>2017-03-29T09:54:14Z</time>
      </trkpt>
      <trkpt lat="27.756846" lon="-15.565898">
        <ele>2.116</ele>
        <time>2017-03-29T09:55:07Z</time>
      </trkpt>
      <trkpt lat="27.756056" lon="-15.566044">
        <ele>0.051</ele>
        <time>2017-03-29T09:56:11Z</time>
      </trkpt>
      <trkpt lat="27.752974" lon="-15.567083">
        <ele>3.785</ele>
        <time>2017-03-29T10:00:35Z</time>
      </trkpt>
      <trkpt lat="27.749331" lon="-15.567840">
        <ele>4.965</ele>
        <time>2017-03-29T10:06:15Z</time>
      </trkpt>
      <trkpt lat="27.747495" lon="-15.568079">
        <ele>3.036</ele>
        <time>2017-03-29T10:08:41Z</time>
      </trkpt>
      <trkpt lat="27.744032" lon="-15.568233">
        <ele>1.737</ele>
        <time>2017-03-29T10:13:34Z</time>
      </trkpt>
      <trkpt lat="27.743511" lon="-15.568871">
        <ele>3.077</ele>
        <time>2017-03-29T10:14:49Z</time>
      </trkpt>
      <trkpt lat="27.743313" lon="-15.568913">
        <ele>3.182</ele>
        <time>2020-12-02T22:39:13Z</time>
      </trkpt>
      <trkpt lat="27.740466" lon="-15.568698">
        <ele>0.643</ele>
        <time>2017-03-29T10:38:38Z</time>
      </trkpt>
      <trkpt lat="27.739234" lon="-15.568880">
        <ele>0.017</ele>
        <time>2017-03-29T10:40:17Z</time>
      </trkpt>
      <trkpt lat="27.738567" lon="-15.569051">
        <ele>-0.608</ele>
        <time>2017-03-29T10:41:10Z</time>
      </trkpt>
      <trkpt lat="27.737919" lon="-15.569688">
        <ele>-0.624</ele>
        <time>2017-03-29T10:42:18Z</time>
      </trkpt>
      <trkpt lat="27.737587" lon="-15.570263">
        <ele>0.689</ele>
        <time>2017-03-29T10:43:05Z</time>
      </trkpt>
      <trkpt lat="27.737373" lon="-15.570976">
        <ele>4.854</ele>
        <time>2017-03-29T10:43:58Z</time>
      </trkpt>
      <trkpt lat="27.736614" lon="-15.575127">
        <ele>3.258</ele>
        <time>2017-03-29T10:49:01Z</time>
      </trkpt>
      <trkpt lat="27.735550" lon="-15.579561">
        <ele>3.898</ele>
        <time>2017-03-29T10:54:44Z</time>
      </trkpt>
      <trkpt lat="27.735583" lon="-15.584154">
        <ele>2.069</ele>
        <time>2017-03-29T11:02:02Z</time>
      </trkpt>
      <trkpt lat="27.736045" lon="-15.587702">
        <ele>1.870</ele>
        <time>2017-03-29T11:06:09Z</time>
      </trkpt>
      <trkpt lat="27.736215" lon="-15.590187">
        <ele>2.360</ele>
        <time>2017-03-29T11:09:05Z</time>
      </trkpt>
      <trkpt lat="27.735943" lon="-15.592661">
        <ele>-0.395</ele>
        <time>2017-03-29T11:12:06Z</time>
      </trkpt>
      <trkpt lat="27.735075" lon="-15.595986">
        <ele>2.849</ele>
        <time>2017-03-29T11:17:19Z</time>
      </trkpt>
      <trkpt lat="27.735061" lon="-15.597416">
        <ele>6.823</ele>
        <time>2017-03-29T11:19:15Z</time>
      </trkpt>
      <trkpt lat="27.735169" lon="-15.598063">
        <ele>7.608</ele>
        <time>2017-03-29T11:22:52Z</time>
      </trkpt>
      <trkpt lat="27.735089" lon="-15.598473">
        <ele>6.255</ele>
        <time>2017-03-29T11:23:29Z</time>
      </trkpt>
      <trkpt lat="27.735434" lon="-15.598639">
        <ele>5.810</ele>
        <time>2017-03-29T11:24:16Z</time>
      </trkpt>
      <trkpt lat="27.735460" lon="-15.599079">
        <ele>3.555</ele>
        <time>2017-03-29T11:24:52Z</time>
      </trkpt>
      <trkpt lat="27.735457" lon="-15.599201">
        <ele>3.349</ele>
        <time>2017-03-29T11:25:01Z</time>
      </trkpt>
      <trkpt lat="27.735167" lon="-15.599211">
        <ele>2.479</ele>
        <time>2017-03-29T11:25:35Z</time>
      </trkpt>
      <trkpt lat="27.735052" lon="-15.598500">
        <ele>6.150</ele>
        <time>2017-03-29T11:26:40Z</time>
      </trkpt>
      <trkpt lat="27.735270" lon="-15.597207">
        <ele>8.931</ele>
        <time>2017-03-29T11:28:32Z</time>
      </trkpt>
      <trkpt lat="27.735501" lon="-15.596500">
        <ele>6.361</ele>
        <time>2017-03-29T11:29:42Z</time>
      </trkpt>
      <trkpt lat="27.735750" lon="-15.596499">
        <ele>6.831</ele>
        <time>2017-03-29T11:30:26Z</time>
      </trkpt>
      <trkpt lat="27.736027" lon="-15.596041">
        <ele>7.361</ele>
        <time>2017-03-29T11:31:14Z</time>
      </trkpt>
      <trkpt lat="27.735920" lon="-15.595673">
        <ele>7.107</ele>
        <time>2017-03-29T11:31:52Z</time>
      </trkpt>
      <trkpt lat="27.736407" lon="-15.594828">
        <ele>5.908</ele>
        <time>2017-03-29T11:37:27Z</time>
      </trkpt>
      <trkpt lat="27.736986" lon="-15.594408">
        <ele>7.769</ele>
        <time>2017-03-29T11:38:21Z</time>
      </trkpt>
      <trkpt lat="27.737589" lon="-15.594332">
        <ele>7.414</ele>
        <time>2017-03-29T11:39:04Z</time>
      </trkpt>
      <trkpt lat="27.738039" lon="-15.594528">
        <ele>4.919</ele>
        <time>2017-03-29T11:39:38Z</time>
      </trkpt>
      <trkpt lat="27.738912" lon="-15.595239">
        <ele>5.763</ele>
        <time>2017-03-29T11:40:59Z</time>
      </trkpt>
      <trkpt lat="27.737918" lon="-15.594421">
        <ele>4.553</ele>
        <time>2017-03-29T12:55:30Z</time>
      </trkpt>
      <trkpt lat="27.737360" lon="-15.594352">
        <ele>8.824</ele>
        <time>2017-03-29T12:56:25Z</time>
      </trkpt>
      <trkpt lat="27.736520" lon="-15.594871">
        <ele>5.375</ele>
        <time>2017-03-29T12:57:48Z</time>
      </trkpt>
      <trkpt lat="27.736413" lon="-15.594781">
        <ele>5.875</ele>
        <time>2014-07-12T18:38:43Z</time>
      </trkpt>
      <trkpt lat="27.736832" lon="-15.592211">
        <ele>3.812</ele>
        <time>2014-07-12T18:34:50Z</time>
      </trkpt>
      <trkpt lat="27.737166" lon="-15.591863">
        <ele>1.232</ele>
        <time>2014-07-12T18:33:56Z</time>
      </trkpt>
      <trkpt lat="27.737723" lon="-15.591635">
        <ele>5.705</ele>
        <time>2014-07-12T18:32:37Z</time>
      </trkpt>
      <trkpt lat="27.737938" lon="-15.591847">
        <ele>5.608</ele>
        <time>2014-07-12T18:32:12Z</time>
      </trkpt>
      <trkpt lat="27.737883" lon="-15.592538">
        <ele>1.427</ele>
        <time>2014-07-12T18:31:06Z</time>
      </trkpt>
      <trkpt lat="27.738183" lon="-15.592789">
        <ele>2.412</ele>
        <time>2014-07-12T18:30:28Z</time>
      </trkpt>
      <trkpt lat="27.738587" lon="-15.592828">
        <ele>7.567</ele>
        <time>2014-07-12T18:28:37Z</time>
      </trkpt>
      <trkpt lat="27.738700" lon="-15.591696">
        <ele>5.331</ele>
        <time>2014-07-12T18:26:35Z</time>
      </trkpt>
      <trkpt lat="27.738949" lon="-15.590841">
        <ele>6.921</ele>
        <time>2014-07-12T18:25:00Z</time>
      </trkpt>
      <trkpt lat="27.738918" lon="-15.590269">
        <ele>4.112</ele>
        <time>2014-07-12T18:24:01Z</time>
      </trkpt>
      <trkpt lat="27.738994" lon="-15.590204">
        <ele>4.633</ele>
        <time>2014-07-12T18:23:52Z</time>
      </trkpt>
      <trkpt lat="27.739159" lon="-15.590357">
        <ele>4.013</ele>
        <time>2014-07-12T18:23:33Z</time>
      </trkpt>
      <trkpt lat="27.739328" lon="-15.590137">
        <ele>4.577</ele>
        <time>2014-07-12T18:22:43Z</time>
      </trkpt>
      <trkpt lat="27.739243" lon="-15.589568">
        <ele>8.961</ele>
        <time>2014-07-12T18:21:20Z</time>
      </trkpt>
      <trkpt lat="27.739343" lon="-15.588748">
        <ele>6.527</ele>
        <time>2014-07-12T18:19:58Z</time>
      </trkpt>
      <trkpt lat="27.739058" lon="-15.587813">
        <ele>1.408</ele>
        <time>2014-07-12T18:18:40Z</time>
      </trkpt>
      <trkpt lat="27.738915" lon="-15.586823">
        <ele>4.483</ele>
        <time>2014-07-12T18:17:21Z</time>
      </trkpt>
      <trkpt lat="27.738958" lon="-15.585732">
        <ele>2.878</ele>
        <time>2014-07-12T18:15:27Z</time>
      </trkpt>
      <trkpt lat="27.739262" lon="-15.585268">
        <ele>5.093</ele>
        <time>2014-07-12T18:14:41Z</time>
      </trkpt>
      <trkpt lat="27.739920" lon="-15.584825">
        <ele>5.837</ele>
        <time>2014-07-12T18:13:28Z</time>
      </trkpt>
      <trkpt lat="27.740440" lon="-15.584723">
        <ele>3.847</ele>
        <time>2014-07-12T18:12:35Z</time>
      </trkpt>
      <trkpt lat="27.741278" lon="-15.583885">
        <ele>-0.638</ele>
        <time>2014-07-12T18:10:59Z</time>
      </trkpt>
      <trkpt lat="27.741693" lon="-15.582920">
        <ele>0.699</ele>
        <time>2014-07-12T18:09:42Z</time>
      </trkpt>
      <trkpt lat="27.741875" lon="-15.581492">
        <ele>3.639</ele>
        <time>2014-07-12T18:07:55Z</time>
      </trkpt>
      <trkpt lat="27.742199" lon="-15.581072">
        <ele>2.943</ele>
        <time>2014-07-12T18:07:05Z</time>
      </trkpt>
      <trkpt lat="27.742831" lon="-15.580755">
        <ele>5.364</ele>
        <time>2014-07-12T18:05:46Z</time>
      </trkpt>
      <trkpt lat="27.743196" lon="-15.580304">
        <ele>5.110</ele>
        <time>2014-07-12T18:04:34Z</time>
      </trkpt>
      <trkpt lat="27.742946" lon="-15.580006">
        <ele>6.808</ele>
        <time>2014-07-12T18:03:43Z</time>
      </trkpt>
      <trkpt lat="27.742987" lon="-15.579659">
        <ele>8.450</ele>
        <time>2014-07-12T18:03:11Z</time>
      </trkpt>
      <trkpt lat="27.742746" lon="-15.578994">
        <ele>6.645</ele>
        <time>2014-07-12T18:01:51Z</time>
      </trkpt>
      <trkpt lat="27.742649" lon="-15.578056">
        <ele>6.140</ele>
        <time>2014-07-12T18:00:25Z</time>
      </trkpt>
      <trkpt lat="27.742185" lon="-15.577700">
        <ele>6.854</ele>
        <time>2014-07-12T17:59:20Z</time>
      </trkpt>
      <trkpt lat="27.742068" lon="-15.577473">
        <ele>9.224</ele>
        <time>2014-07-12T17:58:26Z</time>
      </trkpt>
      <trkpt lat="27.741589" lon="-15.577578">
        <ele>13.365</ele>
        <time>2014-07-12T17:57:13Z</time>
      </trkpt>
      <trkpt lat="27.741406" lon="-15.577497">
        <ele>15.856</ele>
        <time>2014-07-12T17:56:46Z</time>
      </trkpt>
      <trkpt lat="27.741110" lon="-15.576980">
        <ele>10.026</ele>
        <time>2014-07-12T17:55:43Z</time>
      </trkpt>
      <trkpt lat="27.740908" lon="-15.576905">
        <ele>7.878</ele>
        <time>2014-07-12T17:55:20Z</time>
      </trkpt>
      <trkpt lat="27.740859" lon="-15.576651">
        <ele>8.133</ele>
        <time>2020-12-03T03:05:13Z</time>
      </trkpt>
      <trkpt lat="27.741017" lon="-15.576337">
        <ele>9.226</ele>
        <time>2020-12-03T03:06:13Z</time>
      </trkpt>
      <trkpt lat="27.740876" lon="-15.575750">
        <ele>9.908</ele>
        <time>2020-12-03T03:08:13Z</time>
      </trkpt>
      <trkpt lat="27.741184" lon="-15.575099">
        <ele>9.523</ele>
        <time>2020-12-03T03:10:53Z</time>
      </trkpt>
      <trkpt lat="27.740967" lon="-15.574223">
        <ele>6.368</ele>
        <time>2020-12-03T03:12:53Z</time>
      </trkpt>
      <trkpt lat="27.741009" lon="-15.573836">
        <ele>5.753</ele>
        <time>2020-12-03T03:13:33Z</time>
      </trkpt>
      <trkpt lat="27.741181" lon="-15.573710">
        <ele>5.157</ele>
        <time>2020-12-03T03:14:33Z</time>
      </trkpt>
      <trkpt lat="27.741251" lon="-15.572964">
        <ele>-1.397</ele>
        <time>2020-12-03T03:16:13Z</time>
      </trkpt>
      <trkpt lat="27.741716" lon="-15.572351">
        <ele>-3.088</ele>
        <time>2020-12-03T03:19:13Z</time>
      </trkpt>
      <trkpt lat="27.742248" lon="-15.571978">
        <ele>-1.029</ele>
        <time>2020-12-03T03:21:53Z</time>
      </trkpt>
      <trkpt lat="27.742690" lon="-15.571339">
        <ele>5.839</ele>
        <time>2020-12-03T03:24:13Z</time>
      </trkpt>
      <trkpt lat="27.743571" lon="-15.568999">
        <ele>3.079</ele>
        <time>2020-12-03T03:30:13Z</time>
      </trkpt>
      <trkpt lat="27.743874" lon="-15.568708">
        <ele>2.105</ele>
        <time>2017-03-29T13:51:58Z</time>
      </trkpt>
      <trkpt lat="27.744164" lon="-15.568662">
        <ele>2.825</ele>
        <time>2017-03-29T13:52:25Z</time>
      </trkpt>
      <trkpt lat="27.749954" lon="-15.568240">
        <ele>2.208</ele>
        <time>2017-03-29T14:01:03Z</time>
      </trkpt>
      <trkpt lat="27.753767" lon="-15.567432">
        <ele>6.553</ele>
        <time>2017-03-29T14:07:03Z</time>
      </trkpt>
      <trkpt lat="27.757255" lon="-15.566170">
        <ele>12.028</ele>
        <time>2017-03-29T14:12:42Z</time>
      </trkpt>
      <trkpt lat="27.757626" lon="-15.566090">
        <ele>8.113</ele>
        <time>2017-03-29T14:13:21Z</time>
      </trkpt>
      <trkpt lat="27.758264" lon="-15.566167">
        <ele>18.947</ele>
        <time>2017-03-29T14:22:46Z</time>
      </trkpt>
      <trkpt lat="27.758529" lon="-15.566026">
        <ele>23.327</ele>
        <time>2017-03-29T14:23:34Z</time>
      </trkpt>
      <trkpt lat="27.758628" lon="-15.566124">
        <ele>27.328</ele>
        <time>2017-03-29T14:25:05Z</time>
      </trkpt>
      <trkpt lat="27.759917" lon="-15.564826">
        <ele>24.679</ele>
        <time>2017-03-29T14:28:07Z</time>
      </trkpt>
    </trkseg>
  </trk></gpx>