<?xml version="1.0" encoding="UTF-8"?>
<gpx version="1.1" creator="Aventuras en Cada Paso" xmlns="http://www.topografix.com/GPX/1/1">
  <metadata>
    <name>GR 131 El Hierro – Tramo Sur</name>
    <desc>Tramo sur del GR 131 desde La Restinga hasta El Pinar. Reserva Marina, bosques de pino canario y las cotas más altas del sur en un solo recorrido.</desc>
    <author><name>Aventuras en Cada Paso</name></author>
    <time>2026-07-08T08:12:58.205Z</time>
    <keywords>El Hierro, Senderismo, Difícil, senderismo Canarias</keywords>
  </metadata>
  <wpt lat="27.6411" lon="-17.9867">
    <name>GR 131 El Hierro – Tramo Sur</name>
    <desc>Tramo sur del GR 131 desde La Restinga hasta El Pinar. Reserva Marina, bosques de pino canario y las cotas más altas del sur en un solo recorrido. | Isla: El Hierro | Tipo: Senderismo | Dificultad: Difícil | Distancia: 22km | Duración: Día completo</desc>
    <type>Senderismo</type>
    <extensions>
      <isla>El Hierro</isla>
      <dificultad>Difícil</dificultad>
      <distancia>22</distancia>
      <duracion>Día completo</duracion>
    </extensions>
  </wpt>
</gpx>