<?xml version="1.0" encoding="UTF-8"?>
<gpx version="1.1" creator="Aventuras en Cada Paso" xmlns="http://www.topografix.com/GPX/1/1">
  <metadata>
    <name>El Golfo – Circular desde Las Puntas</name>
    <desc>Circular por el caldero volcánico de El Golfo, la bahía más hermosa de El Hierro. Vides, plataneras y el contraste entre la lava negra y el mar azul.</desc>
    <author><name>Aventuras en Cada Paso</name></author>
    <time>2026-07-08T08:12:58.203Z</time>
    <keywords>El Hierro, Senderismo, Media, senderismo Canarias</keywords>
  </metadata>
  <wpt lat="27.805" lon="-18.0694">
    <name>El Golfo – Circular desde Las Puntas</name>
    <desc>Circular por el caldero volcánico de El Golfo, la bahía más hermosa de El Hierro. Vides, plataneras y el contraste entre la lava negra y el mar azul. | Isla: El Hierro | Tipo: Senderismo | Dificultad: Media | Distancia: 10km | Duración: 4-8 horas</desc>
    <type>Senderismo</type>
    <extensions>
      <isla>El Hierro</isla>
      <dificultad>Media</dificultad>
      <distancia>10</distancia>
      <duracion>4-8 horas</duracion>
    </extensions>
  </wpt>
</gpx>