<?xml version="1.0" encoding="UTF-8"?>
<gpx version="1.1" creator="Aventuras en Cada Paso" xmlns="http://www.topografix.com/GPX/1/1">
  <metadata>
    <name>El Pinar – Circular por el Bosque</name>
    <desc>Circular por el bosque de pinos centenarios de El Pinar en el sur de El Hierro. La mayor masa forestal de la isla con gran variedad de flora endémica.</desc>
    <author><name>Aventuras en Cada Paso</name></author>
    <time>2026-07-08T08:12:58.207Z</time>
    <keywords>El Hierro, Senderismo, Fácil, senderismo Canarias</keywords>
  </metadata>
  <wpt lat="27.68" lon="-17.95">
    <name>El Pinar – Circular por el Bosque</name>
    <desc>Circular por el bosque de pinos centenarios de El Pinar en el sur de El Hierro. La mayor masa forestal de la isla con gran variedad de flora endémica. | Isla: El Hierro | Tipo: Senderismo | Dificultad: Fácil | Distancia: 8km | Duración: 2-4 horas</desc>
    <type>Senderismo</type>
    <extensions>
      <isla>El Hierro</isla>
      <dificultad>Fácil</dificultad>
      <distancia>8</distancia>
      <duracion>2-4 horas</duracion>
    </extensions>
  </wpt>
</gpx>