<?xml version="1.0" encoding="UTF-8"?>
<gpx version="1.1" creator="Aventuras en Cada Paso" xmlns="http://www.topografix.com/GPX/1/1">
  <metadata>
    <name>Ermita de Nuestra Señora de Los Reyes</name>
    <desc>Sendero de peregrinación hasta la ermita de la patrona de El Hierro. Bosque de sabinas y el silencio absoluto del extremo occidental de España.</desc>
    <author><name>Aventuras en Cada Paso</name></author>
    <time>2026-07-08T08:12:58.204Z</time>
    <keywords>El Hierro, Senderismo, Fácil, senderismo Canarias</keywords>
  </metadata>
  <wpt lat="27.76" lon="-18.16">
    <name>Ermita de Nuestra Señora de Los Reyes</name>
    <desc>Sendero de peregrinación hasta la ermita de la patrona de El Hierro. Bosque de sabinas y el silencio absoluto del extremo occidental de España. | Isla: El Hierro | Tipo: Senderismo | Dificultad: Fácil | Distancia: 5km | Duración: 2-4 horas</desc>
    <type>Senderismo</type>
    <extensions>
      <isla>El Hierro</isla>
      <dificultad>Fácil</dificultad>
      <distancia>5</distancia>
      <duracion>2-4 horas</duracion>
    </extensions>
  </wpt>
</gpx>