<?xml version="1.0" encoding="UTF-8"?>
<gpx version="1.1" creator="Aventuras en Cada Paso" xmlns="http://www.topografix.com/GPX/1/1">
  <metadata>
    <name>Risco de Famara – Mirador del Río</name>
    <desc>Bajada por el Risco de Famara desde el Mirador del Río de César Manrique hasta la playa. Vistas a La Graciosa y pendiente pronunciada.</desc>
    <author><name>Aventuras en Cada Paso</name></author>
    <time>2026-07-08T08:12:58.169Z</time>
    <keywords>Lanzarote, Senderismo, Media, senderismo Canarias</keywords>
  </metadata>
  <wpt lat="29.2133" lon="-13.4781">
    <name>Risco de Famara – Mirador del Río</name>
    <desc>Bajada por el Risco de Famara desde el Mirador del Río de César Manrique hasta la playa. Vistas a La Graciosa y pendiente pronunciada. | Isla: Lanzarote | Tipo: Senderismo | Dificultad: Media | Distancia: 5km | Duración: 2-4 horas</desc>
    <type>Senderismo</type>
    <extensions>
      <isla>Lanzarote</isla>
      <dificultad>Media</dificultad>
      <distancia>5</distancia>
      <duracion>2-4 horas</duracion>
    </extensions>
  </wpt>
</gpx>