<?xml version="1.0" encoding="UTF-8"?>
<gpx creator="Wikiloc - https://www.wikiloc.com" version="1.1" xmlns="http://www.topografix.com/GPX/1/1" xmlns:xsi="http://www.w3.org/2001/XMLSchema-instance" xsi:schemaLocation="http://www.topografix.com/GPX/1/1 http://www.topografix.com/GPX/1/1/gpx.xsd">
  <metadata>
    <name>Wikiloc - La Caleta - Playa de Famara - Cueva de las Cabras - Mirador ...</name>
    <link href="https://www.wikiloc.com/hiking-trails/la-caleta-playa-de-famara-cueva-de-las-cabras-mirador-del-bosquecillo-haria-247826632">
      <text>La Caleta - Playa de Famara - Cueva de las Cabras - Mirador ... on Wikiloc</text>
    </link>
    <time>2026-01-21T14:24:59.010Z</time>
  </metadata>
  <trk>
    <name>La Caleta - Playa de Famara - Cueva de las Cabras - Mirador ... - Wikiloc</name>
    <cmt></cmt>
    <desc></desc>
    <trkseg>
      <trkpt lat="29.116586" lon="-13.563978">
        <ele>8.859</ele>
        <time>2026-01-21T10:27:23.019Z</time>
      </trkpt>
      <trkpt lat="29.116684" lon="-13.563730">
        <ele>9.003</ele>
        <time>2026-01-21T10:28:04.017Z</time>
      </trkpt>
      <trkpt lat="29.116445" lon="-13.562626">
        <ele>4.023</ele>
        <time>2026-01-21T10:29:53.017Z</time>
      </trkpt>
      <trkpt lat="29.116161" lon="-13.562094">
        <ele>1.209</ele>
        <time>2026-01-21T10:30:45.017Z</time>
      </trkpt>
      <trkpt lat="29.115525" lon="-13.560256">
        <ele>8.267</ele>
        <time>2026-01-21T10:33:15.017Z</time>
      </trkpt>
      <trkpt lat="29.115552" lon="-13.559751">
        <ele>2.369</ele>
        <time>2026-01-21T10:34:21.017Z</time>
      </trkpt>
      <trkpt lat="29.115355" lon="-13.557848">
        <ele>5.662</ele>
        <time>2026-01-21T10:36:44.016Z</time>
      </trkpt>
      <trkpt lat="29.115403" lon="-13.557394">
        <ele>3.213</ele>
        <time>2026-01-21T10:37:20.016Z</time>
      </trkpt>
      <trkpt lat="29.116207" lon="-13.554697">
        <ele>4.657</ele>
        <time>2026-01-21T10:41:07.016Z</time>
      </trkpt>
      <trkpt lat="29.116526" lon="-13.553912">
        <ele>4.591</ele>
        <time>2026-01-21T10:42:33.016Z</time>
      </trkpt>
      <trkpt lat="29.117320" lon="-13.550810">
        <ele>4.031</ele>
        <time>2026-01-21T10:47:05.017Z</time>
      </trkpt>
      <trkpt lat="29.118263" lon="-13.548270">
        <ele>1.818</ele>
        <time>2026-01-21T10:50:54.015Z</time>
      </trkpt>
      <trkpt lat="29.118717" lon="-13.547308">
        <ele>2.577</ele>
        <time>2026-01-21T10:52:21.015Z</time>
      </trkpt>
      <trkpt lat="29.118709" lon="-13.547147">
        <ele>4.451</ele>
        <time>2026-01-21T10:52:33.015Z</time>
      </trkpt>
      <trkpt lat="29.120980" lon="-13.543315">
        <ele>3.601</ele>
        <time>2026-01-21T11:01:52.015Z</time>
      </trkpt>
      <trkpt lat="29.120666" lon="-13.542876">
        <ele>10.011</ele>
        <time>2026-01-21T11:02:46.015Z</time>
      </trkpt>
      <trkpt lat="29.120307" lon="-13.542632">
        <ele>9.609</ele>
        <time>2026-01-21T11:03:40.016Z</time>
      </trkpt>
      <trkpt lat="29.119966" lon="-13.542598">
        <ele>10.467</ele>
        <time>2026-01-21T11:04:13.015Z</time>
      </trkpt>
      <trkpt lat="29.119557" lon="-13.542021">
        <ele>15.049</ele>
        <time>2026-01-21T11:05:11.015Z</time>
      </trkpt>
      <trkpt lat="29.118087" lon="-13.541079">
        <ele>30.312</ele>
        <time>2026-01-21T11:07:43.015Z</time>
      </trkpt>
      <trkpt lat="29.117514" lon="-13.540240">
        <ele>38.553</ele>
        <time>2026-01-21T11:09:25.015Z</time>
      </trkpt>
      <trkpt lat="29.117178" lon="-13.540220">
        <ele>45.377</ele>
        <time>2026-01-21T11:10:16.015Z</time>
      </trkpt>
      <trkpt lat="29.116799" lon="-13.540737">
        <ele>43.051</ele>
        <time>2026-01-21T11:11:09.015Z</time>
      </trkpt>
      <trkpt lat="29.116728" lon="-13.541118">
        <ele>40.621</ele>
        <time>2026-01-21T11:11:39.015Z</time>
      </trkpt>
      <trkpt lat="29.116783" lon="-13.541503">
        <ele>40.298</ele>
        <time>2026-01-21T11:13:19.015Z</time>
      </trkpt>
      <trkpt lat="29.116169" lon="-13.542589">
        <ele>46.387</ele>
        <time>2026-01-21T11:15:01.016Z</time>
      </trkpt>
      <trkpt lat="29.115897" lon="-13.542835">
        <ele>50.587</ele>
        <time>2026-01-21T11:15:36.015Z</time>
      </trkpt>
      <trkpt lat="29.114605" lon="-13.543507">
        <ele>61.342</ele>
        <time>2026-01-21T11:19:02.015Z</time>
      </trkpt>
      <trkpt lat="29.113955" lon="-13.544060">
        <ele>58.626</ele>
        <time>2026-01-21T11:20:21.016Z</time>
      </trkpt>
      <trkpt lat="29.114069" lon="-13.543326">
        <ele>66.109</ele>
        <time>2026-01-21T11:22:07.014Z</time>
      </trkpt>
      <trkpt lat="29.113993" lon="-13.542834">
        <ele>71.650</ele>
        <time>2026-01-21T11:23:02.014Z</time>
      </trkpt>
      <trkpt lat="29.113811" lon="-13.542763">
        <ele>73.992</ele>
        <time>2026-01-21T11:23:29.014Z</time>
      </trkpt>
      <trkpt lat="29.113046" lon="-13.541639">
        <ele>90.445</ele>
        <time>2026-01-21T11:26:05.014Z</time>
      </trkpt>
      <trkpt lat="29.112901" lon="-13.541647">
        <ele>92.966</ele>
        <time>2026-01-21T11:26:29.014Z</time>
      </trkpt>
      <trkpt lat="29.112607" lon="-13.540893">
        <ele>101.280</ele>
        <time>2026-01-21T11:28:12.014Z</time>
      </trkpt>
      <trkpt lat="29.112684" lon="-13.540652">
        <ele>101.354</ele>
        <time>2026-01-21T11:28:39.014Z</time>
      </trkpt>
      <trkpt lat="29.112423" lon="-13.540559">
        <ele>108.954</ele>
        <time>2026-01-21T11:29:24.014Z</time>
      </trkpt>
      <trkpt lat="29.112326" lon="-13.540432">
        <ele>112.371</ele>
        <time>2026-01-21T11:29:44.014Z</time>
      </trkpt>
      <trkpt lat="29.112180" lon="-13.539552">
        <ele>115.880</ele>
        <time>2026-01-21T11:31:40.014Z</time>
      </trkpt>
      <trkpt lat="29.111528" lon="-13.538493">
        <ele>142.179</ele>
        <time>2026-01-21T11:35:37.015Z</time>
      </trkpt>
      <trkpt lat="29.111615" lon="-13.537933">
        <ele>146.205</ele>
        <time>2026-01-21T11:36:38.014Z</time>
      </trkpt>
      <trkpt lat="29.111472" lon="-13.537139">
        <ele>158.025</ele>
        <time>2026-01-21T11:38:26.015Z</time>
      </trkpt>
      <trkpt lat="29.111331" lon="-13.537141">
        <ele>160.909</ele>
        <time>2026-01-21T11:38:56.015Z</time>
      </trkpt>
      <trkpt lat="29.111076" lon="-13.537410">
        <ele>163.799</ele>
        <time>2026-01-21T11:39:33.015Z</time>
      </trkpt>
      <trkpt lat="29.110913" lon="-13.537324">
        <ele>168.291</ele>
        <time>2026-01-21T11:39:54.014Z</time>
      </trkpt>
      <trkpt lat="29.110819" lon="-13.536672">
        <ele>180.294</ele>
        <time>2026-01-21T11:41:49.013Z</time>
      </trkpt>
      <trkpt lat="29.110921" lon="-13.536356">
        <ele>184.515</ele>
        <time>2026-01-21T11:42:31.013Z</time>
      </trkpt>
      <trkpt lat="29.110811" lon="-13.536177">
        <ele>188.729</ele>
        <time>2026-01-21T11:42:56.013Z</time>
      </trkpt>
      <trkpt lat="29.110594" lon="-13.536145">
        <ele>192.923</ele>
        <time>2026-01-21T11:43:29.013Z</time>
      </trkpt>
      <trkpt lat="29.110695" lon="-13.535724">
        <ele>197.423</ele>
        <time>2026-01-21T11:44:23.013Z</time>
      </trkpt>
      <trkpt lat="29.110892" lon="-13.535483">
        <ele>201.440</ele>
        <time>2026-01-21T11:45:01.013Z</time>
      </trkpt>
      <trkpt lat="29.110890" lon="-13.535211">
        <ele>205.719</ele>
        <time>2026-01-21T11:45:46.014Z</time>
      </trkpt>
      <trkpt lat="29.111130" lon="-13.535149">
        <ele>207.086</ele>
        <time>2026-01-21T11:46:17.013Z</time>
      </trkpt>
      <trkpt lat="29.111304" lon="-13.534933">
        <ele>207.760</ele>
        <time>2026-01-21T11:46:45.013Z</time>
      </trkpt>
      <trkpt lat="29.112148" lon="-13.533685">
        <ele>226.426</ele>
        <time>2026-01-21T11:49:08.013Z</time>
      </trkpt>
      <trkpt lat="29.112340" lon="-13.533271">
        <ele>227.309</ele>
        <time>2026-01-21T11:49:58.013Z</time>
      </trkpt>
      <trkpt lat="29.112610" lon="-13.533034">
        <ele>224.330</ele>
        <time>2026-01-21T11:50:44.013Z</time>
      </trkpt>
      <trkpt lat="29.112690" lon="-13.532501">
        <ele>232.512</ele>
        <time>2026-01-21T11:51:52.013Z</time>
      </trkpt>
      <trkpt lat="29.112971" lon="-13.532458">
        <ele>227.355</ele>
        <time>2026-01-21T11:52:33.014Z</time>
      </trkpt>
      <trkpt lat="29.113270" lon="-13.532030">
        <ele>235.346</ele>
        <time>2026-01-21T11:53:46.013Z</time>
      </trkpt>
      <trkpt lat="29.113168" lon="-13.531915">
        <ele>240.730</ele>
        <time>2026-01-21T11:54:06.014Z</time>
      </trkpt>
      <trkpt lat="29.112551" lon="-13.531838">
        <ele>247.034</ele>
        <time>2026-01-21T11:55:22.013Z</time>
      </trkpt>
      <trkpt lat="29.112496" lon="-13.531752">
        <ele>249.924</ele>
        <time>2026-01-21T11:55:34.013Z</time>
      </trkpt>
      <trkpt lat="29.113039" lon="-13.531372">
        <ele>261.131</ele>
        <time>2026-01-21T11:57:19.013Z</time>
      </trkpt>
      <trkpt lat="29.113213" lon="-13.530859">
        <ele>264.180</ele>
        <time>2026-01-21T11:58:12.014Z</time>
      </trkpt>
      <trkpt lat="29.113635" lon="-13.530513">
        <ele>261.049</ele>
        <time>2026-01-21T11:59:12.013Z</time>
      </trkpt>
      <trkpt lat="29.113619" lon="-13.530343">
        <ele>265.302</ele>
        <time>2026-01-21T11:59:32.013Z</time>
      </trkpt>
      <trkpt lat="29.113778" lon="-13.529984">
        <ele>276.122</ele>
        <time>2026-01-21T12:00:14.013Z</time>
      </trkpt>
      <trkpt lat="29.114323" lon="-13.529561">
        <ele>286.109</ele>
        <time>2026-01-21T12:01:44.013Z</time>
      </trkpt>
      <trkpt lat="29.114346" lon="-13.529393">
        <ele>290.436</ele>
        <time>2026-01-21T12:02:08.014Z</time>
      </trkpt>
      <trkpt lat="29.114644" lon="-13.528929">
        <ele>306.578</ele>
        <time>2026-01-21T12:05:10.010Z</time>
      </trkpt>
      <trkpt lat="29.114636" lon="-13.528792">
        <ele>310.121</ele>
        <time>2026-01-21T12:05:51.010Z</time>
      </trkpt>
      <trkpt lat="29.114462" lon="-13.528845">
        <ele>308.522</ele>
        <time>2026-01-21T12:06:52.010Z</time>
      </trkpt>
      <trkpt lat="29.114595" lon="-13.528802">
        <ele>309.876</ele>
        <time>2026-01-21T12:07:10.010Z</time>
      </trkpt>
      <trkpt lat="29.114769" lon="-13.528322">
        <ele>319.510</ele>
        <time>2026-01-21T12:08:59.010Z</time>
      </trkpt>
      <trkpt lat="29.114655" lon="-13.528149">
        <ele>324.510</ele>
        <time>2026-01-21T12:09:21.010Z</time>
      </trkpt>
      <trkpt lat="29.114703" lon="-13.527904">
        <ele>330.967</ele>
        <time>2026-01-21T12:10:47.010Z</time>
      </trkpt>
      <trkpt lat="29.114963" lon="-13.528020">
        <ele>327.956</ele>
        <time>2026-01-21T12:12:17.010Z</time>
      </trkpt>
      <trkpt lat="29.114972" lon="-13.527897">
        <ele>331.097</ele>
        <time>2026-01-21T12:12:37.010Z</time>
      </trkpt>
      <trkpt lat="29.116135" lon="-13.527121">
        <ele>366.723</ele>
        <time>2026-01-21T12:17:55.010Z</time>
      </trkpt>
      <trkpt lat="29.116303" lon="-13.526868">
        <ele>377.425</ele>
        <time>2026-01-21T12:20:15.010Z</time>
      </trkpt>
      <trkpt lat="29.117000" lon="-13.526577">
        <ele>393.209</ele>
        <time>2026-01-21T12:22:46.010Z</time>
      </trkpt>
      <trkpt lat="29.117512" lon="-13.526585">
        <ele>415.761</ele>
        <time>2026-01-21T12:24:54.010Z</time>
      </trkpt>
      <trkpt lat="29.117789" lon="-13.526392">
        <ele>424.323</ele>
        <time>2026-01-21T12:26:03.010Z</time>
      </trkpt>
      <trkpt lat="29.117776" lon="-13.526269">
        <ele>426.666</ele>
        <time>2026-01-21T12:26:49.010Z</time>
      </trkpt>
      <trkpt lat="29.118011" lon="-13.526087">
        <ele>433.067</ele>
        <time>2026-01-21T12:29:27.010Z</time>
      </trkpt>
      <trkpt lat="29.117949" lon="-13.525892">
        <ele>437.681</ele>
        <time>2026-01-21T12:30:13.010Z</time>
      </trkpt>
      <trkpt lat="29.118043" lon="-13.525781">
        <ele>439.785</ele>
        <time>2026-01-21T12:30:48.010Z</time>
      </trkpt>
      <trkpt lat="29.118125" lon="-13.525831">
        <ele>439.375</ele>
        <time>2026-01-21T12:31:08.010Z</time>
      </trkpt>
      <trkpt lat="29.118121" lon="-13.525688">
        <ele>443.282</ele>
        <time>2026-01-21T12:31:52.010Z</time>
      </trkpt>
      <trkpt lat="29.118207" lon="-13.525635">
        <ele>446.021</ele>
        <time>2026-01-21T12:32:28.010Z</time>
      </trkpt>
      <trkpt lat="29.118385" lon="-13.525580">
        <ele>450.083</ele>
        <time>2026-01-21T12:33:03.010Z</time>
      </trkpt>
      <trkpt lat="29.118589" lon="-13.525668">
        <ele>452.225</ele>
        <time>2026-01-21T12:35:05.010Z</time>
      </trkpt>
      <trkpt lat="29.118719" lon="-13.525599">
        <ele>456.317</ele>
        <time>2026-01-21T12:35:37.010Z</time>
      </trkpt>
      <trkpt lat="29.119053" lon="-13.525675">
        <ele>466.409</ele>
        <time>2026-01-21T12:37:03.010Z</time>
      </trkpt>
      <trkpt lat="29.119277" lon="-13.525493">
        <ele>474.910</ele>
        <time>2026-01-21T12:38:23.010Z</time>
      </trkpt>
      <trkpt lat="29.119344" lon="-13.525274">
        <ele>479.782</ele>
        <time>2026-01-21T12:39:37.010Z</time>
      </trkpt>
      <trkpt lat="29.119435" lon="-13.525301">
        <ele>480.625</ele>
        <time>2026-01-21T12:39:54.010Z</time>
      </trkpt>
      <trkpt lat="29.119452" lon="-13.525159">
        <ele>486.896</ele>
        <time>2026-01-21T12:40:35.010Z</time>
      </trkpt>
      <trkpt lat="29.119840" lon="-13.525244">
        <ele>500.360</ele>
        <time>2026-01-21T12:42:37.010Z</time>
      </trkpt>
      <trkpt lat="29.119968" lon="-13.525184">
        <ele>509.524</ele>
        <time>2026-01-21T12:43:26.010Z</time>
      </trkpt>
      <trkpt lat="29.119899" lon="-13.525104">
        <ele>507.964</ele>
        <time>2026-01-21T12:43:39.010Z</time>
      </trkpt>
      <trkpt lat="29.120307" lon="-13.525056">
        <ele>527.831</ele>
        <time>2026-01-21T12:47:39.010Z</time>
      </trkpt>
      <trkpt lat="29.120635" lon="-13.524813">
        <ele>551.440</ele>
        <time>2026-01-21T12:50:48.010Z</time>
      </trkpt>
      <trkpt lat="29.120670" lon="-13.525023">
        <ele>547.164</ele>
        <time>2026-01-21T12:53:06.010Z</time>
      </trkpt>
      <trkpt lat="29.120789" lon="-13.525052">
        <ele>552.606</ele>
        <time>2026-01-21T12:54:41.010Z</time>
      </trkpt>
      <trkpt lat="29.120807" lon="-13.524849">
        <ele>557.716</ele>
        <time>2026-01-21T12:56:25.010Z</time>
      </trkpt>
      <trkpt lat="29.120852" lon="-13.524961">
        <ele>557.109</ele>
        <time>2026-01-21T12:56:48.010Z</time>
      </trkpt>
      <trkpt lat="29.120931" lon="-13.524897">
        <ele>563.028</ele>
        <time>2026-01-21T12:58:38.010Z</time>
      </trkpt>
      <trkpt lat="29.121081" lon="-13.525081">
        <ele>571.010</ele>
        <time>2026-01-21T13:00:48.010Z</time>
      </trkpt>
      <trkpt lat="29.121259" lon="-13.525091">
        <ele>581.243</ele>
        <time>2026-01-21T13:02:17.010Z</time>
      </trkpt>
      <trkpt lat="29.121926" lon="-13.524717">
        <ele>603.684</ele>
        <time>2026-01-21T13:05:23.010Z</time>
      </trkpt>
      <trkpt lat="29.121975" lon="-13.524628">
        <ele>605.568</ele>
        <time>2026-01-21T13:05:43.010Z</time>
      </trkpt>
      <trkpt lat="29.121909" lon="-13.524547">
        <ele>604.792</ele>
        <time>2026-01-21T13:06:02.010Z</time>
      </trkpt>
      <trkpt lat="29.122074" lon="-13.524441">
        <ele>608.912</ele>
        <time>2026-01-21T13:06:48.010Z</time>
      </trkpt>
      <trkpt lat="29.121998" lon="-13.524385">
        <ele>608.459</ele>
        <time>2026-01-21T13:07:07.010Z</time>
      </trkpt>
      <trkpt lat="29.122176" lon="-13.524308">
        <ele>612.498</ele>
        <time>2026-01-21T13:07:51.010Z</time>
      </trkpt>
      <trkpt lat="29.122032" lon="-13.524291">
        <ele>610.999</ele>
        <time>2026-01-21T13:08:13.010Z</time>
      </trkpt>
      <trkpt lat="29.122178" lon="-13.524108">
        <ele>614.307</ele>
        <time>2026-01-21T13:09:30.010Z</time>
      </trkpt>
      <trkpt lat="29.122366" lon="-13.524034">
        <ele>616.227</ele>
        <time>2026-01-21T13:10:07.010Z</time>
      </trkpt>
      <trkpt lat="29.122774" lon="-13.524143">
        <ele>619.209</ele>
        <time>2026-01-21T13:10:53.010Z</time>
      </trkpt>
      <trkpt lat="29.123360" lon="-13.523629">
        <ele>629.631</ele>
        <time>2026-01-21T13:12:13.010Z</time>
      </trkpt>
      <trkpt lat="29.123370" lon="-13.523794">
        <ele>627.633</ele>
        <time>2026-01-21T13:12:33.010Z</time>
      </trkpt>
      <trkpt lat="29.123648" lon="-13.524128">
        <ele>621.996</ele>
        <time>2026-01-21T13:13:15.010Z</time>
      </trkpt>
      <trkpt lat="29.123682" lon="-13.524739">
        <ele>628.037</ele>
        <time>2026-01-21T13:14:21.010Z</time>
      </trkpt>
      <trkpt lat="29.124019" lon="-13.525382">
        <ele>619.731</ele>
        <time>2026-01-21T13:15:26.010Z</time>
      </trkpt>
      <trkpt lat="29.124217" lon="-13.525242">
        <ele>616.585</ele>
        <time>2026-01-21T13:15:56.010Z</time>
      </trkpt>
      <trkpt lat="29.124594" lon="-13.525316">
        <ele>616.015</ele>
        <time>2026-01-21T13:16:38.010Z</time>
      </trkpt>
      <trkpt lat="29.124595" lon="-13.525473">
        <ele>615.512</ele>
        <time>2026-01-21T13:17:00.010Z</time>
      </trkpt>
      <trkpt lat="29.124695" lon="-13.525507">
        <ele>613.561</ele>
        <time>2026-01-21T13:17:27.010Z</time>
      </trkpt>
      <trkpt lat="29.125007" lon="-13.525435">
        <ele>604.173</ele>
        <time>2026-01-21T13:18:26.010Z</time>
      </trkpt>
      <trkpt lat="29.125059" lon="-13.524650">
        <ele>614.785</ele>
        <time>2026-01-21T13:19:50.010Z</time>
      </trkpt>
      <trkpt lat="29.125536" lon="-13.524161">
        <ele>605.113</ele>
        <time>2026-01-21T13:21:09.010Z</time>
      </trkpt>
      <trkpt lat="29.126097" lon="-13.523879">
        <ele>603.209</ele>
        <time>2026-01-21T13:22:37.010Z</time>
      </trkpt>
      <trkpt lat="29.126295" lon="-13.523878">
        <ele>601.119</ele>
        <time>2026-01-21T13:23:01.010Z</time>
      </trkpt>
      <trkpt lat="29.126514" lon="-13.524115">
        <ele>596.511</ele>
        <time>2026-01-21T13:23:37.010Z</time>
      </trkpt>
      <trkpt lat="29.126533" lon="-13.524432">
        <ele>589.154</ele>
        <time>2026-01-21T13:24:21.010Z</time>
      </trkpt>
      <trkpt lat="29.126276" lon="-13.524581">
        <ele>589.695</ele>
        <time>2026-01-21T13:25:12.010Z</time>
      </trkpt>
      <trkpt lat="29.126377" lon="-13.524558">
        <ele>590.369</ele>
        <time>2026-01-21T13:25:44.010Z</time>
      </trkpt>
      <trkpt lat="29.126720" lon="-13.524411">
        <ele>585.153</ele>
        <time>2026-01-21T13:26:38.010Z</time>
      </trkpt>
      <trkpt lat="29.126899" lon="-13.524204">
        <ele>595.613</ele>
        <time>2026-01-21T13:27:08.010Z</time>
      </trkpt>
      <trkpt lat="29.127024" lon="-13.523654">
        <ele>598.320</ele>
        <time>2026-01-21T13:27:57.010Z</time>
      </trkpt>
      <trkpt lat="29.127279" lon="-13.523105">
        <ele>592.449</ele>
        <time>2026-01-21T13:28:53.010Z</time>
      </trkpt>
      <trkpt lat="29.127528" lon="-13.523103">
        <ele>586.934</ele>
        <time>2026-01-21T13:29:19.010Z</time>
      </trkpt>
      <trkpt lat="29.128094" lon="-13.523293">
        <ele>578.355</ele>
        <time>2026-01-21T13:30:22.010Z</time>
      </trkpt>
      <trkpt lat="29.128029" lon="-13.522807">
        <ele>574.810</ele>
        <time>2026-01-21T13:31:07.010Z</time>
      </trkpt>
      <trkpt lat="29.128171" lon="-13.522333">
        <ele>576.409</ele>
        <time>2026-01-21T13:31:47.010Z</time>
      </trkpt>
      <trkpt lat="29.128197" lon="-13.521609">
        <ele>579.665</ele>
        <time>2026-01-21T13:32:44.010Z</time>
      </trkpt>
      <trkpt lat="29.128417" lon="-13.521378">
        <ele>577.657</ele>
        <time>2026-01-21T13:33:11.010Z</time>
      </trkpt>
      <trkpt lat="29.128692" lon="-13.520722">
        <ele>573.180</ele>
        <time>2026-01-21T13:34:13.010Z</time>
      </trkpt>
      <trkpt lat="29.128917" lon="-13.520804">
        <ele>564.381</ele>
        <time>2026-01-21T13:34:58.010Z</time>
      </trkpt>
      <trkpt lat="29.129339" lon="-13.520775">
        <ele>547.115</ele>
        <time>2026-01-21T13:36:29.010Z</time>
      </trkpt>
      <trkpt lat="29.129930" lon="-13.520260">
        <ele>535.149</ele>
        <time>2026-01-21T13:38:32.010Z</time>
      </trkpt>
      <trkpt lat="29.130077" lon="-13.520281">
        <ele>531.129</ele>
        <time>2026-01-21T13:39:11.010Z</time>
      </trkpt>
      <trkpt lat="29.130144" lon="-13.520206">
        <ele>531.046</ele>
        <time>2026-01-21T13:39:29.010Z</time>
      </trkpt>
      <trkpt lat="29.130164" lon="-13.520311">
        <ele>529.385</ele>
        <time>2026-01-21T13:39:50.010Z</time>
      </trkpt>
      <trkpt lat="29.130538" lon="-13.520039">
        <ele>525.799</ele>
        <time>2026-01-21T13:41:08.010Z</time>
      </trkpt>
      <trkpt lat="29.130915" lon="-13.519477">
        <ele>524.007</ele>
        <time>2026-01-21T13:42:37.010Z</time>
      </trkpt>
      <trkpt lat="29.130972" lon="-13.519571">
        <ele>523.527</ele>
        <time>2026-01-21T13:42:50.010Z</time>
      </trkpt>
      <trkpt lat="29.131031" lon="-13.519429">
        <ele>518.609</ele>
        <time>2026-01-21T13:43:02.010Z</time>
      </trkpt>
      <trkpt lat="29.131738" lon="-13.519294">
        <ele>492.981</ele>
        <time>2026-01-21T13:46:02.010Z</time>
      </trkpt>
      <trkpt lat="29.131845" lon="-13.519200">
        <ele>489.773</ele>
        <time>2026-01-21T13:46:30.010Z</time>
      </trkpt>
      <trkpt lat="29.131814" lon="-13.519352">
        <ele>490.516</ele>
        <time>2026-01-21T13:46:54.010Z</time>
      </trkpt>
      <trkpt lat="29.131929" lon="-13.519293">
        <ele>486.787</ele>
        <time>2026-01-21T13:47:20.010Z</time>
      </trkpt>
      <trkpt lat="29.131922" lon="-13.519460">
        <ele>485.311</ele>
        <time>2026-01-21T13:47:41.010Z</time>
      </trkpt>
      <trkpt lat="29.132073" lon="-13.519329">
        <ele>479.665</ele>
        <time>2026-01-21T13:48:14.010Z</time>
      </trkpt>
      <trkpt lat="29.132191" lon="-13.519409">
        <ele>473.045</ele>
        <time>2026-01-21T13:48:31.010Z</time>
      </trkpt>
      <trkpt lat="29.132366" lon="-13.519337">
        <ele>469.312</ele>
        <time>2026-01-21T13:50:37.010Z</time>
      </trkpt>
      <trkpt lat="29.132784" lon="-13.518185">
        <ele>443.481</ele>
        <time>2026-01-21T13:53:55.010Z</time>
      </trkpt>
      <trkpt lat="29.132968" lon="-13.517933">
        <ele>438.853</ele>
        <time>2026-01-21T13:54:33.010Z</time>
      </trkpt>
      <trkpt lat="29.133164" lon="-13.517263">
        <ele>427.704</ele>
        <time>2026-01-21T13:56:17.010Z</time>
      </trkpt>
      <trkpt lat="29.133970" lon="-13.516301">
        <ele>409.414</ele>
        <time>2026-01-21T13:58:28.010Z</time>
      </trkpt>
      <trkpt lat="29.134284" lon="-13.515595">
        <ele>403.909</ele>
        <time>2026-01-21T13:59:39.010Z</time>
      </trkpt>
      <trkpt lat="29.134279" lon="-13.515431">
        <ele>402.827</ele>
        <time>2026-01-21T13:59:58.010Z</time>
      </trkpt>
      <trkpt lat="29.134028" lon="-13.515268">
        <ele>398.359</ele>
        <time>2026-01-21T14:00:34.010Z</time>
      </trkpt>
      <trkpt lat="29.134009" lon="-13.515155">
        <ele>396.092</ele>
        <time>2026-01-21T14:00:44.010Z</time>
      </trkpt>
      <trkpt lat="29.134351" lon="-13.514548">
        <ele>391.433</ele>
        <time>2026-01-21T14:01:56.010Z</time>
      </trkpt>
      <trkpt lat="29.134345" lon="-13.514264">
        <ele>389.647</ele>
        <time>2026-01-21T14:02:35.010Z</time>
      </trkpt>
      <trkpt lat="29.134541" lon="-13.513879">
        <ele>385.381</ele>
        <time>2026-01-21T14:03:27.010Z</time>
      </trkpt>
      <trkpt lat="29.134562" lon="-13.513507">
        <ele>382.461</ele>
        <time>2026-01-21T14:04:21.010Z</time>
      </trkpt>
      <trkpt lat="29.134830" lon="-13.513064">
        <ele>377.758</ele>
        <time>2026-01-21T14:05:34.010Z</time>
      </trkpt>
      <trkpt lat="29.135080" lon="-13.512911">
        <ele>375.897</ele>
        <time>2026-01-21T14:06:12.010Z</time>
      </trkpt>
      <trkpt lat="29.135171" lon="-13.512637">
        <ele>374.345</ele>
        <time>2026-01-21T14:06:38.010Z</time>
      </trkpt>
      <trkpt lat="29.135673" lon="-13.512258">
        <ele>371.047</ele>
        <time>2026-01-21T14:07:32.010Z</time>
      </trkpt>
      <trkpt lat="29.135960" lon="-13.511725">
        <ele>361.811</ele>
        <time>2026-01-21T14:08:18.010Z</time>
      </trkpt>
      <trkpt lat="29.136194" lon="-13.511496">
        <ele>360.809</ele>
        <time>2026-01-21T14:08:48.010Z</time>
      </trkpt>
      <trkpt lat="29.136323" lon="-13.511017">
        <ele>357.536</ele>
        <time>2026-01-21T14:09:34.010Z</time>
      </trkpt>
      <trkpt lat="29.136677" lon="-13.510711">
        <ele>354.328</ele>
        <time>2026-01-21T14:10:19.010Z</time>
      </trkpt>
      <trkpt lat="29.137074" lon="-13.509853">
        <ele>346.761</ele>
        <time>2026-01-21T14:11:22.010Z</time>
      </trkpt>
      <trkpt lat="29.137676" lon="-13.509556">
        <ele>346.612</ele>
        <time>2026-01-21T14:12:10.010Z</time>
      </trkpt>
      <trkpt lat="29.138210" lon="-13.509108">
        <ele>337.526</ele>
        <time>2026-01-21T14:12:58.010Z</time>
      </trkpt>
      <trkpt lat="29.140065" lon="-13.506789">
        <ele>317.890</ele>
        <time>2026-01-21T14:16:23.010Z</time>
      </trkpt>
      <trkpt lat="29.140505" lon="-13.506430">
        <ele>314.920</ele>
        <time>2026-01-21T14:17:03.010Z</time>
      </trkpt>
      <trkpt lat="29.142708" lon="-13.503840">
        <ele>302.187</ele>
        <time>2026-01-21T14:21:25.010Z</time>
      </trkpt>
      <trkpt lat="29.143908" lon="-13.502600">
        <ele>292.926</ele>
        <time>2026-01-21T14:23:48.010Z</time>
      </trkpt>
      <trkpt lat="29.144662" lon="-13.502870">
        <ele>292.731</ele>
        <time>2026-01-21T14:24:59.010Z</time>
      </trkpt>
    </trkseg>
  </trk></gpx>