<?xml version="1.0" encoding="UTF-8"?>
<gpx creator="Wikiloc - https://www.wikiloc.com" version="1.1" xmlns="http://www.topografix.com/GPX/1/1" xmlns:xsi="http://www.w3.org/2001/XMLSchema-instance" xsi:schemaLocation="http://www.topografix.com/GPX/1/1 http://www.topografix.com/GPX/1/1/gpx.xsd">
  <metadata>
    <name>Wikiloc - Faro de orchilla, meridiano 0 y tubo volcánico.</name>
    <link href="https://www.wikiloc.com/hiking-trails/faro-de-orchilla-meridiano-0-y-tubo-volcanico-163721568">
      <text>Faro de orchilla, meridiano 0 y tubo volcánico. - Wikiloc on Wikiloc</text>
    </link>
    <time>2024-03-13T10:45:33.983Z</time>
  </metadata>
  <trk>
    <name>Faro de orchilla, meridiano 0 y tubo volcánico. - Wikiloc</name>
    <cmt></cmt>
    <desc></desc>
    <trkseg>
      <trkpt lat="27.711948" lon="-18.141697">
        <ele>145.427</ele>
        <time>2024-03-13T09:04:47.978Z</time>
      </trkpt>
      <trkpt lat="27.712259" lon="-18.141892">
        <ele>143.868</ele>
        <time>2024-03-13T09:05:32.978Z</time>
      </trkpt>
      <trkpt lat="27.712287" lon="-18.142039">
        <ele>144.614</ele>
        <time>2024-03-13T09:05:48.978Z</time>
      </trkpt>
      <trkpt lat="27.712223" lon="-18.142228">
        <ele>139.109</ele>
        <time>2024-03-13T09:06:08.978Z</time>
      </trkpt>
      <trkpt lat="27.712295" lon="-18.142398">
        <ele>137.593</ele>
        <time>2024-03-13T09:06:25.978Z</time>
      </trkpt>
      <trkpt lat="27.712584" lon="-18.142727">
        <ele>141.878</ele>
        <time>2024-03-13T09:07:02.977Z</time>
      </trkpt>
      <trkpt lat="27.712960" lon="-18.142870">
        <ele>144.875</ele>
        <time>2024-03-13T09:07:41.977Z</time>
      </trkpt>
      <trkpt lat="27.712945" lon="-18.143171">
        <ele>138.119</ele>
        <time>2024-03-13T09:08:23.977Z</time>
      </trkpt>
      <trkpt lat="27.713100" lon="-18.143353">
        <ele>140.024</ele>
        <time>2024-03-13T09:08:45.977Z</time>
      </trkpt>
      <trkpt lat="27.713158" lon="-18.143680">
        <ele>134.173</ele>
        <time>2024-03-13T09:09:13.977Z</time>
      </trkpt>
      <trkpt lat="27.713393" lon="-18.144264">
        <ele>134.357</ele>
        <time>2024-03-13T09:10:16.977Z</time>
      </trkpt>
      <trkpt lat="27.713445" lon="-18.144595">
        <ele>126.638</ele>
        <time>2024-03-13T09:10:52.977Z</time>
      </trkpt>
      <trkpt lat="27.713628" lon="-18.145012">
        <ele>119.450</ele>
        <time>2024-03-13T09:11:37.977Z</time>
      </trkpt>
      <trkpt lat="27.713433" lon="-18.146308">
        <ele>109.249</ele>
        <time>2024-03-13T09:13:21.977Z</time>
      </trkpt>
      <trkpt lat="27.713888" lon="-18.146930">
        <ele>111.902</ele>
        <time>2024-03-13T09:14:31.977Z</time>
      </trkpt>
      <trkpt lat="27.713976" lon="-18.147176">
        <ele>106.022</ele>
        <time>2024-03-13T09:14:52.977Z</time>
      </trkpt>
      <trkpt lat="27.714332" lon="-18.147576">
        <ele>102.809</ele>
        <time>2024-03-13T09:15:35.977Z</time>
      </trkpt>
      <trkpt lat="27.714392" lon="-18.147899">
        <ele>95.095</ele>
        <time>2024-03-13T09:16:08.977Z</time>
      </trkpt>
      <trkpt lat="27.714380" lon="-18.148012">
        <ele>95.180</ele>
        <time>2024-03-13T09:16:20.977Z</time>
      </trkpt>
      <trkpt lat="27.714057" lon="-18.148621">
        <ele>96.737</ele>
        <time>2024-03-13T09:17:52.976Z</time>
      </trkpt>
      <trkpt lat="27.714063" lon="-18.149257">
        <ele>92.511</ele>
        <time>2024-03-13T09:18:42.976Z</time>
      </trkpt>
      <trkpt lat="27.714017" lon="-18.149406">
        <ele>92.756</ele>
        <time>2024-03-13T09:18:51.976Z</time>
      </trkpt>
      <trkpt lat="27.714056" lon="-18.149691">
        <ele>92.665</ele>
        <time>2024-03-13T09:19:12.976Z</time>
      </trkpt>
      <trkpt lat="27.713988" lon="-18.150084">
        <ele>87.869</ele>
        <time>2024-03-13T09:19:41.976Z</time>
      </trkpt>
      <trkpt lat="27.714081" lon="-18.150191">
        <ele>88.020</ele>
        <time>2024-03-13T09:20:01.976Z</time>
      </trkpt>
      <trkpt lat="27.714019" lon="-18.150138">
        <ele>88.742</ele>
        <time>2024-03-13T09:22:05.976Z</time>
      </trkpt>
      <trkpt lat="27.713976" lon="-18.150170">
        <ele>88.789</ele>
        <time>2024-03-13T09:22:10.976Z</time>
      </trkpt>
      <trkpt lat="27.713683" lon="-18.150757">
        <ele>78.306</ele>
        <time>2024-03-13T09:23:01.976Z</time>
      </trkpt>
      <trkpt lat="27.713490" lon="-18.150978">
        <ele>75.926</ele>
        <time>2024-03-13T09:23:24.976Z</time>
      </trkpt>
      <trkpt lat="27.713418" lon="-18.151447">
        <ele>74.909</ele>
        <time>2024-03-13T09:24:01.976Z</time>
      </trkpt>
      <trkpt lat="27.713238" lon="-18.151522">
        <ele>73.069</ele>
        <time>2024-03-13T09:24:21.976Z</time>
      </trkpt>
      <trkpt lat="27.713152" lon="-18.151759">
        <ele>66.624</ele>
        <time>2024-03-13T09:25:09.976Z</time>
      </trkpt>
      <trkpt lat="27.713154" lon="-18.152007">
        <ele>67.781</ele>
        <time>2024-03-13T09:25:55.976Z</time>
      </trkpt>
      <trkpt lat="27.712943" lon="-18.152133">
        <ele>67.155</ele>
        <time>2024-03-13T09:26:49.975Z</time>
      </trkpt>
      <trkpt lat="27.712753" lon="-18.152422">
        <ele>63.710</ele>
        <time>2024-03-13T09:27:17.975Z</time>
      </trkpt>
      <trkpt lat="27.712408" lon="-18.153126">
        <ele>61.489</ele>
        <time>2024-03-13T09:28:22.975Z</time>
      </trkpt>
      <trkpt lat="27.712171" lon="-18.153392">
        <ele>59.963</ele>
        <time>2024-03-13T09:28:52.975Z</time>
      </trkpt>
      <trkpt lat="27.712243" lon="-18.153464">
        <ele>58.644</ele>
        <time>2024-03-13T09:32:17.975Z</time>
      </trkpt>
      <trkpt lat="27.712155" lon="-18.153414">
        <ele>58.656</ele>
        <time>2024-03-13T09:34:00.975Z</time>
      </trkpt>
      <trkpt lat="27.712182" lon="-18.153122">
        <ele>58.457</ele>
        <time>2024-03-13T09:34:24.975Z</time>
      </trkpt>
      <trkpt lat="27.712063" lon="-18.152668">
        <ele>56.900</ele>
        <time>2024-03-13T09:36:58.974Z</time>
      </trkpt>
      <trkpt lat="27.711703" lon="-18.152818">
        <ele>56.920</ele>
        <time>2024-03-13T09:37:48.974Z</time>
      </trkpt>
      <trkpt lat="27.711653" lon="-18.152725">
        <ele>56.609</ele>
        <time>2024-03-13T09:38:05.974Z</time>
      </trkpt>
      <trkpt lat="27.711690" lon="-18.152625">
        <ele>56.496</ele>
        <time>2024-03-13T09:38:24.974Z</time>
      </trkpt>
      <trkpt lat="27.711407" lon="-18.152306">
        <ele>57.081</ele>
        <time>2024-03-13T09:40:41.974Z</time>
      </trkpt>
      <trkpt lat="27.710864" lon="-18.151981">
        <ele>53.218</ele>
        <time>2024-03-13T09:42:25.974Z</time>
      </trkpt>
      <trkpt lat="27.710837" lon="-18.151615">
        <ele>53.132</ele>
        <time>2024-03-13T09:43:14.974Z</time>
      </trkpt>
      <trkpt lat="27.710641" lon="-18.151453">
        <ele>55.137</ele>
        <time>2024-03-13T09:43:47.974Z</time>
      </trkpt>
      <trkpt lat="27.710599" lon="-18.151180">
        <ele>56.026</ele>
        <time>2024-03-13T09:44:30.974Z</time>
      </trkpt>
      <trkpt lat="27.710312" lon="-18.150794">
        <ele>63.310</ele>
        <time>2024-03-13T09:45:58.974Z</time>
      </trkpt>
      <trkpt lat="27.710352" lon="-18.150540">
        <ele>68.531</ele>
        <time>2024-03-13T09:46:31.974Z</time>
      </trkpt>
      <trkpt lat="27.710222" lon="-18.150030">
        <ele>71.613</ele>
        <time>2024-03-13T09:47:39.973Z</time>
      </trkpt>
      <trkpt lat="27.709615" lon="-18.149215">
        <ele>90.392</ele>
        <time>2024-03-13T09:53:22.984Z</time>
      </trkpt>
      <trkpt lat="27.709415" lon="-18.149196">
        <ele>93.873</ele>
        <time>2024-03-13T09:53:51.984Z</time>
      </trkpt>
      <trkpt lat="27.708798" lon="-18.148578">
        <ele>95.620</ele>
        <time>2024-03-13T09:55:36.983Z</time>
      </trkpt>
      <trkpt lat="27.708502" lon="-18.148527">
        <ele>94.509</ele>
        <time>2024-03-13T09:56:21.983Z</time>
      </trkpt>
      <trkpt lat="27.708105" lon="-18.148205">
        <ele>94.080</ele>
        <time>2024-03-13T09:57:28.983Z</time>
      </trkpt>
      <trkpt lat="27.707868" lon="-18.148174">
        <ele>92.855</ele>
        <time>2024-03-13T09:57:57.983Z</time>
      </trkpt>
      <trkpt lat="27.707662" lon="-18.148032">
        <ele>93.682</ele>
        <time>2024-03-13T09:58:24.983Z</time>
      </trkpt>
      <trkpt lat="27.707516" lon="-18.148032">
        <ele>93.176</ele>
        <time>2024-03-13T09:58:43.983Z</time>
      </trkpt>
      <trkpt lat="27.707394" lon="-18.147959">
        <ele>90.871</ele>
        <time>2024-03-13T09:59:02.983Z</time>
      </trkpt>
      <trkpt lat="27.707174" lon="-18.147915">
        <ele>90.080</ele>
        <time>2024-03-13T10:00:00.983Z</time>
      </trkpt>
      <trkpt lat="27.707089" lon="-18.147967">
        <ele>90.044</ele>
        <time>2024-03-13T10:00:13.983Z</time>
      </trkpt>
      <trkpt lat="27.707022" lon="-18.147888">
        <ele>91.275</ele>
        <time>2024-03-13T10:00:36.983Z</time>
      </trkpt>
      <trkpt lat="27.706842" lon="-18.147905">
        <ele>93.647</ele>
        <time>2024-03-13T10:01:19.983Z</time>
      </trkpt>
      <trkpt lat="27.706770" lon="-18.147854">
        <ele>94.193</ele>
        <time>2024-03-13T10:03:07.983Z</time>
      </trkpt>
      <trkpt lat="27.706754" lon="-18.147707">
        <ele>104.065</ele>
        <time>2024-03-13T10:04:42.983Z</time>
      </trkpt>
      <trkpt lat="27.706536" lon="-18.147559">
        <ele>101.521</ele>
        <time>2024-03-13T10:05:14.983Z</time>
      </trkpt>
      <trkpt lat="27.706422" lon="-18.147250">
        <ele>107.809</ele>
        <time>2024-03-13T10:05:51.983Z</time>
      </trkpt>
      <trkpt lat="27.706404" lon="-18.147142">
        <ele>107.190</ele>
        <time>2024-03-13T10:06:00.983Z</time>
      </trkpt>
      <trkpt lat="27.706417" lon="-18.147089">
        <ele>107.055</ele>
        <time>2024-03-13T10:06:05.983Z</time>
      </trkpt>
      <trkpt lat="27.706457" lon="-18.147112">
        <ele>106.852</ele>
        <time>2024-03-13T10:06:12.983Z</time>
      </trkpt>
      <trkpt lat="27.706484" lon="-18.146968">
        <ele>127.876</ele>
        <time>2024-03-13T10:07:21.983Z</time>
      </trkpt>
      <trkpt lat="27.706411" lon="-18.146690">
        <ele>106.881</ele>
        <time>2024-03-13T10:08:15.983Z</time>
      </trkpt>
      <trkpt lat="27.706177" lon="-18.146499">
        <ele>107.470</ele>
        <time>2024-03-13T10:08:59.983Z</time>
      </trkpt>
      <trkpt lat="27.706091" lon="-18.146539">
        <ele>108.334</ele>
        <time>2024-03-13T10:09:13.983Z</time>
      </trkpt>
      <trkpt lat="27.705953" lon="-18.146511">
        <ele>109.145</ele>
        <time>2024-03-13T10:09:35.983Z</time>
      </trkpt>
      <trkpt lat="27.705856" lon="-18.146398">
        <ele>109.647</ele>
        <time>2024-03-13T10:10:12.983Z</time>
      </trkpt>
      <trkpt lat="27.705855" lon="-18.146297">
        <ele>110.125</ele>
        <time>2024-03-13T10:10:53.983Z</time>
      </trkpt>
      <trkpt lat="27.705813" lon="-18.146277">
        <ele>110.126</ele>
        <time>2024-03-13T10:11:01.983Z</time>
      </trkpt>
      <trkpt lat="27.705693" lon="-18.146408">
        <ele>113.808</ele>
        <time>2024-03-13T10:15:38.983Z</time>
      </trkpt>
      <trkpt lat="27.705652" lon="-18.146615">
        <ele>109.909</ele>
        <time>2024-03-13T10:16:02.983Z</time>
      </trkpt>
      <trkpt lat="27.705455" lon="-18.146751">
        <ele>107.353</ele>
        <time>2024-03-13T10:16:53.983Z</time>
      </trkpt>
      <trkpt lat="27.705412" lon="-18.146729">
        <ele>107.128</ele>
        <time>2024-03-13T10:17:26.983Z</time>
      </trkpt>
      <trkpt lat="27.705436" lon="-18.146827">
        <ele>110.625</ele>
        <time>2024-03-13T10:19:20.983Z</time>
      </trkpt>
      <trkpt lat="27.705777" lon="-18.146362">
        <ele>105.819</ele>
        <time>2024-03-13T10:21:21.983Z</time>
      </trkpt>
      <trkpt lat="27.706027" lon="-18.146357">
        <ele>105.664</ele>
        <time>2024-03-13T10:22:02.983Z</time>
      </trkpt>
      <trkpt lat="27.706261" lon="-18.146439">
        <ele>103.813</ele>
        <time>2024-03-13T10:22:29.983Z</time>
      </trkpt>
      <trkpt lat="27.706341" lon="-18.146373">
        <ele>104.757</ele>
        <time>2024-03-13T10:22:40.983Z</time>
      </trkpt>
      <trkpt lat="27.706381" lon="-18.146146">
        <ele>104.978</ele>
        <time>2024-03-13T10:23:01.983Z</time>
      </trkpt>
      <trkpt lat="27.706563" lon="-18.146096">
        <ele>105.350</ele>
        <time>2024-03-13T10:23:21.983Z</time>
      </trkpt>
      <trkpt lat="27.706773" lon="-18.146485">
        <ele>111.259</ele>
        <time>2024-03-13T10:24:08.983Z</time>
      </trkpt>
      <trkpt lat="27.707025" lon="-18.146749">
        <ele>117.103</ele>
        <time>2024-03-13T10:24:42.983Z</time>
      </trkpt>
      <trkpt lat="27.707763" lon="-18.147028">
        <ele>121.323</ele>
        <time>2024-03-13T10:25:55.983Z</time>
      </trkpt>
      <trkpt lat="27.708329" lon="-18.146936">
        <ele>126.009</ele>
        <time>2024-03-13T10:26:50.983Z</time>
      </trkpt>
      <trkpt lat="27.709048" lon="-18.147136">
        <ele>132.816</ele>
        <time>2024-03-13T10:28:25.983Z</time>
      </trkpt>
      <trkpt lat="27.709277" lon="-18.147592">
        <ele>131.081</ele>
        <time>2024-03-13T10:29:43.983Z</time>
      </trkpt>
      <trkpt lat="27.709245" lon="-18.147692">
        <ele>133.738</ele>
        <time>2024-03-13T10:31:10.983Z</time>
      </trkpt>
      <trkpt lat="27.709280" lon="-18.147602">
        <ele>134.582</ele>
        <time>2024-03-13T10:32:41.983Z</time>
      </trkpt>
      <trkpt lat="27.709238" lon="-18.147363">
        <ele>131.817</ele>
        <time>2024-03-13T10:34:12.983Z</time>
      </trkpt>
      <trkpt lat="27.709323" lon="-18.147049">
        <ele>131.016</ele>
        <time>2024-03-13T10:34:52.983Z</time>
      </trkpt>
      <trkpt lat="27.709867" lon="-18.146893">
        <ele>138.710</ele>
        <time>2024-03-13T10:35:50.983Z</time>
      </trkpt>
      <trkpt lat="27.710420" lon="-18.146365">
        <ele>136.721</ele>
        <time>2024-03-13T10:36:51.983Z</time>
      </trkpt>
      <trkpt lat="27.710997" lon="-18.144838">
        <ele>130.643</ele>
        <time>2024-03-13T10:38:58.983Z</time>
      </trkpt>
      <trkpt lat="27.711578" lon="-18.143732">
        <ele>133.166</ele>
        <time>2024-03-13T10:40:32.983Z</time>
      </trkpt>
      <trkpt lat="27.711836" lon="-18.142525">
        <ele>138.929</ele>
        <time>2024-03-13T10:42:02.983Z</time>
      </trkpt>
      <trkpt lat="27.711926" lon="-18.141766">
        <ele>140.421</ele>
        <time>2024-03-13T10:42:59.983Z</time>
      </trkpt>
      <trkpt lat="27.711849" lon="-18.141689">
        <ele>138.609</ele>
        <time>2024-03-13T10:45:33.983Z</time>
      </trkpt>
    </trkseg>
  </trk></gpx>