<?xml version="1.0" encoding="UTF-8"?>
<gpx creator="Wikiloc - https://www.wikiloc.com" version="1.1" xmlns="http://www.topografix.com/GPX/1/1" xmlns:xsi="http://www.w3.org/2001/XMLSchema-instance" xsi:schemaLocation="http://www.topografix.com/GPX/1/1 http://www.topografix.com/GPX/1/1/gpx.xsd">
  <metadata>
    <name>Wikiloc - Circular: Isla de Lobos - Playa de La Calera - Faro de Punta...</name>
    <link href="https://www.wikiloc.com/hiking-trails/corralejo-playa-de-la-calera-caleta-de-la-madera-el-puertito-179810759">
      <text>Circular: Isla de Lobos - Playa de La Calera - Faro de Punta... on Wikiloc</text>
    </link>
    <time>2026-08-03T11:18:36.981Z</time>
  </metadata>
  <trk>
    <name>Circular: Isla de Lobos - Playa de La Calera - Faro de Punta... - Wikiloc</name>
    <cmt></cmt>
    <desc></desc>
    <trkseg>
      <trkpt lat="28.737304" lon="-13.822046">
        <ele>5.576</ele>
        <time>2024-07-18T10:46:19.050Z</time>
      </trkpt>
      <trkpt lat="28.737328" lon="-13.821913">
        <ele>6.290</ele>
        <time>2024-07-18T10:47:11.050Z</time>
      </trkpt>
      <trkpt lat="28.737513" lon="-13.821946">
        <ele>6.019</ele>
        <time>2024-07-18T10:48:59.051Z</time>
      </trkpt>
      <trkpt lat="28.737848" lon="-13.822315">
        <ele>5.909</ele>
        <time>2024-07-18T10:55:10.051Z</time>
      </trkpt>
      <trkpt lat="28.738412" lon="-13.822626">
        <ele>10.528</ele>
        <time>2024-07-18T10:56:56.050Z</time>
      </trkpt>
      <trkpt lat="28.739240" lon="-13.822350">
        <ele>10.034</ele>
        <time>2024-07-18T11:03:01.050Z</time>
      </trkpt>
      <trkpt lat="28.739895" lon="-13.822346">
        <ele>7.756</ele>
        <time>2024-07-18T11:04:00.050Z</time>
      </trkpt>
      <trkpt lat="28.740173" lon="-13.822591">
        <ele>8.365</ele>
        <time>2024-07-18T11:04:49.050Z</time>
      </trkpt>
      <trkpt lat="28.740892" lon="-13.823548">
        <ele>8.438</ele>
        <time>2024-07-18T11:06:30.050Z</time>
      </trkpt>
      <trkpt lat="28.741239" lon="-13.824159">
        <ele>7.637</ele>
        <time>2024-07-18T11:09:21.050Z</time>
      </trkpt>
      <trkpt lat="28.741841" lon="-13.824312">
        <ele>8.794</ele>
        <time>2024-07-18T11:12:38.049Z</time>
      </trkpt>
      <trkpt lat="28.742115" lon="-13.824506">
        <ele>11.122</ele>
        <time>2024-07-18T11:13:04.049Z</time>
      </trkpt>
      <trkpt lat="28.742436" lon="-13.825113">
        <ele>6.576</ele>
        <time>2024-07-18T11:16:55.050Z</time>
      </trkpt>
      <trkpt lat="28.743118" lon="-13.825854">
        <ele>3.235</ele>
        <time>2024-07-18T11:18:27.049Z</time>
      </trkpt>
      <trkpt lat="28.743203" lon="-13.825802">
        <ele>3.686</ele>
        <time>2024-07-18T11:19:39.049Z</time>
      </trkpt>
      <trkpt lat="28.743727" lon="-13.826104">
        <ele>5.814</ele>
        <time>2024-07-18T11:22:38.049Z</time>
      </trkpt>
      <trkpt lat="28.744553" lon="-13.826355">
        <ele>7.509</ele>
        <time>2024-07-18T11:23:59.049Z</time>
      </trkpt>
      <trkpt lat="28.744955" lon="-13.826379">
        <ele>7.064</ele>
        <time>2024-07-18T11:24:31.049Z</time>
      </trkpt>
      <trkpt lat="28.747496" lon="-13.825926">
        <ele>17.320</ele>
        <time>2024-07-18T11:30:30.048Z</time>
      </trkpt>
      <trkpt lat="28.748024" lon="-13.825665">
        <ele>14.422</ele>
        <time>2024-07-18T11:31:19.048Z</time>
      </trkpt>
      <trkpt lat="28.748635" lon="-13.825148">
        <ele>17.661</ele>
        <time>2024-07-18T11:36:31.048Z</time>
      </trkpt>
      <trkpt lat="28.749355" lon="-13.823603">
        <ele>19.484</ele>
        <time>2024-07-18T11:40:32.047Z</time>
      </trkpt>
      <trkpt lat="28.750288" lon="-13.822892">
        <ele>19.143</ele>
        <time>2024-07-18T11:42:49.047Z</time>
      </trkpt>
      <trkpt lat="28.751299" lon="-13.822670">
        <ele>16.790</ele>
        <time>2024-07-18T11:52:39.046Z</time>
      </trkpt>
      <trkpt lat="28.753523" lon="-13.822515">
        <ele>21.688</ele>
        <time>2024-07-18T11:58:55.047Z</time>
      </trkpt>
      <trkpt lat="28.753738" lon="-13.822411">
        <ele>21.422</ele>
        <time>2024-07-18T11:59:15.046Z</time>
      </trkpt>
      <trkpt lat="28.754304" lon="-13.821805">
        <ele>25.367</ele>
        <time>2024-07-18T12:00:15.046Z</time>
      </trkpt>
      <trkpt lat="28.754538" lon="-13.821661">
        <ele>23.181</ele>
        <time>2024-07-18T12:00:35.046Z</time>
      </trkpt>
      <trkpt lat="28.758688" lon="-13.820831">
        <ele>13.719</ele>
        <time>2024-07-18T12:08:48.045Z</time>
      </trkpt>
      <trkpt lat="28.759751" lon="-13.819445">
        <ele>14.809</ele>
        <time>2024-07-18T12:11:04.045Z</time>
      </trkpt>
      <trkpt lat="28.760765" lon="-13.818404">
        <ele>17.287</ele>
        <time>2024-07-18T12:15:39.046Z</time>
      </trkpt>
      <trkpt lat="28.761411" lon="-13.817240">
        <ele>15.423</ele>
        <time>2024-07-18T12:18:21.044Z</time>
      </trkpt>
      <trkpt lat="28.763114" lon="-13.816438">
        <ele>15.985</ele>
        <time>2024-07-18T12:24:22.045Z</time>
      </trkpt>
      <trkpt lat="28.764098" lon="-13.816273">
        <ele>9.364</ele>
        <time>2024-07-18T12:29:22.043Z</time>
      </trkpt>
      <trkpt lat="28.764519" lon="-13.816281">
        <ele>11.267</ele>
        <time>2024-07-18T12:30:01.043Z</time>
      </trkpt>
      <trkpt lat="28.764403" lon="-13.815955">
        <ele>14.736</ele>
        <time>2024-07-18T12:30:31.043Z</time>
      </trkpt>
      <trkpt lat="28.764457" lon="-13.815690">
        <ele>15.963</ele>
        <time>2024-07-18T12:31:03.043Z</time>
      </trkpt>
      <trkpt lat="28.764851" lon="-13.814881">
        <ele>17.071</ele>
        <time>2024-07-18T12:37:16.042Z</time>
      </trkpt>
      <trkpt lat="28.764963" lon="-13.814899">
        <ele>15.025</ele>
        <time>2024-07-18T12:38:29.043Z</time>
      </trkpt>
      <trkpt lat="28.764916" lon="-13.815025">
        <ele>15.622</ele>
        <time>2024-07-18T12:38:45.042Z</time>
      </trkpt>
      <trkpt lat="28.764800" lon="-13.815042">
        <ele>18.062</ele>
        <time>2024-07-18T12:44:50.041Z</time>
      </trkpt>
      <trkpt lat="28.764456" lon="-13.815843">
        <ele>16.808</ele>
        <time>2024-07-18T12:46:04.041Z</time>
      </trkpt>
      <trkpt lat="28.764545" lon="-13.816262">
        <ele>11.209</ele>
        <time>2024-07-18T12:46:46.042Z</time>
      </trkpt>
      <trkpt lat="28.764491" lon="-13.816276">
        <ele>11.423</ele>
        <time>2024-07-18T12:47:05.041Z</time>
      </trkpt>
      <trkpt lat="28.763293" lon="-13.816292">
        <ele>13.739</ele>
        <time>2024-07-18T12:51:28.041Z</time>
      </trkpt>
      <trkpt lat="28.761891" lon="-13.815699">
        <ele>13.591</ele>
        <time>2024-07-18T12:53:40.040Z</time>
      </trkpt>
      <trkpt lat="28.761482" lon="-13.815422">
        <ele>14.380</ele>
        <time>2024-07-18T12:54:46.040Z</time>
      </trkpt>
      <trkpt lat="28.761187" lon="-13.815347">
        <ele>11.313</ele>
        <time>2024-07-18T12:55:42.040Z</time>
      </trkpt>
      <trkpt lat="28.760400" lon="-13.815445">
        <ele>14.472</ele>
        <time>2024-07-18T12:56:51.040Z</time>
      </trkpt>
      <trkpt lat="28.759884" lon="-13.815230">
        <ele>15.099</ele>
        <time>2024-07-18T12:57:38.040Z</time>
      </trkpt>
      <trkpt lat="28.759637" lon="-13.815036">
        <ele>14.217</ele>
        <time>2024-07-18T12:58:02.040Z</time>
      </trkpt>
      <trkpt lat="28.759420" lon="-13.815023">
        <ele>12.641</ele>
        <time>2024-07-18T12:58:51.040Z</time>
      </trkpt>
      <trkpt lat="28.758686" lon="-13.815268">
        <ele>11.783</ele>
        <time>2024-07-18T13:00:29.041Z</time>
      </trkpt>
      <trkpt lat="28.758470" lon="-13.815507">
        <ele>13.925</ele>
        <time>2024-07-18T13:00:53.040Z</time>
      </trkpt>
      <trkpt lat="28.757906" lon="-13.815741">
        <ele>15.517</ele>
        <time>2024-07-18T13:01:43.039Z</time>
      </trkpt>
      <trkpt lat="28.757593" lon="-13.816085">
        <ele>18.809</ele>
        <time>2024-07-18T13:02:19.039Z</time>
      </trkpt>
      <trkpt lat="28.756628" lon="-13.816674">
        <ele>16.499</ele>
        <time>2024-07-18T13:04:20.039Z</time>
      </trkpt>
      <trkpt lat="28.755922" lon="-13.816923">
        <ele>20.615</ele>
        <time>2024-07-18T13:06:16.039Z</time>
      </trkpt>
      <trkpt lat="28.755437" lon="-13.816730">
        <ele>21.517</ele>
        <time>2024-07-18T13:06:55.040Z</time>
      </trkpt>
      <trkpt lat="28.754913" lon="-13.816241">
        <ele>22.216</ele>
        <time>2024-07-18T13:10:39.038Z</time>
      </trkpt>
      <trkpt lat="28.753735" lon="-13.815541">
        <ele>23.019</ele>
        <time>2024-07-18T13:12:43.038Z</time>
      </trkpt>
      <trkpt lat="28.752996" lon="-13.815346">
        <ele>20.378</ele>
        <time>2024-07-18T13:13:56.039Z</time>
      </trkpt>
      <trkpt lat="28.752325" lon="-13.815301">
        <ele>17.545</ele>
        <time>2024-07-18T13:14:55.038Z</time>
      </trkpt>
      <trkpt lat="28.750891" lon="-13.815247">
        <ele>19.643</ele>
        <time>2024-07-18T13:17:00.039Z</time>
      </trkpt>
      <trkpt lat="28.750260" lon="-13.815528">
        <ele>17.117</ele>
        <time>2024-07-18T13:18:56.038Z</time>
      </trkpt>
      <trkpt lat="28.748826" lon="-13.815849">
        <ele>17.929</ele>
        <time>2024-07-18T13:21:00.037Z</time>
      </trkpt>
      <trkpt lat="28.748455" lon="-13.815993">
        <ele>14.800</ele>
        <time>2024-07-18T13:21:50.037Z</time>
      </trkpt>
      <trkpt lat="28.748160" lon="-13.816045">
        <ele>15.620</ele>
        <time>2024-07-18T13:22:17.038Z</time>
      </trkpt>
      <trkpt lat="28.747872" lon="-13.815927">
        <ele>12.109</ele>
        <time>2024-07-18T13:25:48.037Z</time>
      </trkpt>
      <trkpt lat="28.747720" lon="-13.815951">
        <ele>10.223</ele>
        <time>2024-07-18T13:26:04.037Z</time>
      </trkpt>
      <trkpt lat="28.747581" lon="-13.816099">
        <ele>8.259</ele>
        <time>2024-07-18T13:27:32.037Z</time>
      </trkpt>
      <trkpt lat="28.747580" lon="-13.816426">
        <ele>11.281</ele>
        <time>2024-07-18T13:28:04.037Z</time>
      </trkpt>
      <trkpt lat="28.747378" lon="-13.816568">
        <ele>8.490</ele>
        <time>2024-07-18T13:28:29.038Z</time>
      </trkpt>
      <trkpt lat="28.747036" lon="-13.816541">
        <ele>6.173</ele>
        <time>2024-07-18T13:29:48.037Z</time>
      </trkpt>
      <trkpt lat="28.746366" lon="-13.816348">
        <ele>7.182</ele>
        <time>2024-07-18T13:30:51.037Z</time>
      </trkpt>
      <trkpt lat="28.745976" lon="-13.815937">
        <ele>5.279</ele>
        <time>2024-07-18T13:31:31.036Z</time>
      </trkpt>
      <trkpt lat="28.745783" lon="-13.815875">
        <ele>4.977</ele>
        <time>2024-07-18T13:39:17.036Z</time>
      </trkpt>
      <trkpt lat="28.745327" lon="-13.816075">
        <ele>6.671</ele>
        <time>2024-07-18T13:40:04.035Z</time>
      </trkpt>
      <trkpt lat="28.744376" lon="-13.816117">
        <ele>9.717</ele>
        <time>2024-07-18T13:45:15.035Z</time>
      </trkpt>
      <trkpt lat="28.743794" lon="-13.816405">
        <ele>8.387</ele>
        <time>2024-07-18T13:48:35.034Z</time>
      </trkpt>
      <trkpt lat="28.743235" lon="-13.816111">
        <ele>8.615</ele>
        <time>2024-07-18T13:49:29.034Z</time>
      </trkpt>
      <trkpt lat="28.743117" lon="-13.815750">
        <ele>5.909</ele>
        <time>2024-07-18T13:49:58.035Z</time>
      </trkpt>
      <trkpt lat="28.742668" lon="-13.815178">
        <ele>8.582</ele>
        <time>2024-07-18T13:51:00.034Z</time>
      </trkpt>
      <trkpt lat="28.742252" lon="-13.815005">
        <ele>11.888</ele>
        <time>2024-07-18T13:51:42.034Z</time>
      </trkpt>
      <trkpt lat="28.741945" lon="-13.814712">
        <ele>8.920</ele>
        <time>2024-07-18T13:53:13.034Z</time>
      </trkpt>
      <trkpt lat="28.741775" lon="-13.814645">
        <ele>8.649</ele>
        <time>2024-07-18T13:54:43.034Z</time>
      </trkpt>
      <trkpt lat="28.741598" lon="-13.814823">
        <ele>10.822</ele>
        <time>2024-07-18T14:00:38.033Z</time>
      </trkpt>
      <trkpt lat="28.741315" lon="-13.814892">
        <ele>9.971</ele>
        <time>2024-07-18T14:01:07.033Z</time>
      </trkpt>
      <trkpt lat="28.741257" lon="-13.814968">
        <ele>9.818</ele>
        <time>2024-07-18T14:01:18.033Z</time>
      </trkpt>
      <trkpt lat="28.741140" lon="-13.815766">
        <ele>11.626</ele>
        <time>2024-07-18T14:06:12.032Z</time>
      </trkpt>
      <trkpt lat="28.740852" lon="-13.816060">
        <ele>4.420</ele>
        <time>2024-07-18T14:07:03.032Z</time>
      </trkpt>
      <trkpt lat="28.740862" lon="-13.816196">
        <ele>5.141</ele>
        <time>2024-07-18T14:08:02.032Z</time>
      </trkpt>
      <trkpt lat="28.740685" lon="-13.816540">
        <ele>6.581</ele>
        <time>2024-07-18T14:08:38.032Z</time>
      </trkpt>
      <trkpt lat="28.740406" lon="-13.816795">
        <ele>7.809</ele>
        <time>2024-07-18T14:09:11.032Z</time>
      </trkpt>
      <trkpt lat="28.739324" lon="-13.817437">
        <ele>6.909</ele>
        <time>2024-07-18T14:12:48.031Z</time>
      </trkpt>
      <trkpt lat="28.738573" lon="-13.816930">
        <ele>4.845</ele>
        <time>2024-07-18T14:14:39.031Z</time>
      </trkpt>
      <trkpt lat="28.738446" lon="-13.816962">
        <ele>4.661</ele>
        <time>2024-07-18T14:25:47.029Z</time>
      </trkpt>
      <trkpt lat="28.738266" lon="-13.817153">
        <ele>5.183</ele>
        <time>2024-07-18T14:27:34.029Z</time>
      </trkpt>
      <trkpt lat="28.738250" lon="-13.817420">
        <ele>7.512</ele>
        <time>2026-08-03T12:23:56.980Z</time>
      </trkpt>
      <trkpt lat="28.738102" lon="-13.817766">
        <ele>7.335</ele>
        <time>2026-08-03T12:24:36.980Z</time>
      </trkpt>
      <trkpt lat="28.738135" lon="-13.817924">
        <ele>7.324</ele>
        <time>2026-08-03T12:25:16.980Z</time>
      </trkpt>
      <trkpt lat="28.737990" lon="-13.818436">
        <ele>6.141</ele>
        <time>2026-08-03T12:25:56.980Z</time>
      </trkpt>
      <trkpt lat="28.737983" lon="-13.818709">
        <ele>7.499</ele>
        <time>2026-08-03T12:26:36.980Z</time>
      </trkpt>
      <trkpt lat="28.738069" lon="-13.818874">
        <ele>8.993</ele>
        <time>2026-08-03T12:27:16.980Z</time>
      </trkpt>
      <trkpt lat="28.738144" lon="-13.819480">
        <ele>8.631</ele>
        <time>2026-08-03T12:27:56.980Z</time>
      </trkpt>
      <trkpt lat="28.738420" lon="-13.819945">
        <ele>8.961</ele>
        <time>2026-08-03T12:28:36.980Z</time>
      </trkpt>
      <trkpt lat="28.738461" lon="-13.820134">
        <ele>8.107</ele>
        <time>2026-08-03T12:29:16.980Z</time>
      </trkpt>
      <trkpt lat="28.738200" lon="-13.820342">
        <ele>7.809</ele>
        <time>2026-08-03T12:29:56.980Z</time>
      </trkpt>
      <trkpt lat="28.738057" lon="-13.820838">
        <ele>6.094</ele>
        <time>2026-08-03T12:30:36.980Z</time>
      </trkpt>
      <trkpt lat="28.737774" lon="-13.821198">
        <ele>7.370</ele>
        <time>2026-08-03T12:31:16.980Z</time>
      </trkpt>
      <trkpt lat="28.737719" lon="-13.821581">
        <ele>7.532</ele>
        <time>2026-08-03T12:31:56.980Z</time>
      </trkpt>
      <trkpt lat="28.737456" lon="-13.821773">
        <ele>7.291</ele>
        <time>2026-08-03T12:32:36.980Z</time>
      </trkpt>
    </trkseg>
  </trk></gpx>