<?xml version="1.0" encoding="UTF-8"?>
<gpx version="1.1" creator="Aventuras en Cada Paso" xmlns="http://www.topografix.com/GPX/1/1">
  <metadata>
    <name>Barranco de Fataga – Parque Natural Ayagaures</name>
    <desc>Por el Parque Natural de Ayagaures en los alrededores del barranco de Fataga. Paisaje de palmeras canarias y acantilados ocres en el sur.</desc>
    <author><name>Aventuras en Cada Paso</name></author>
    <time>2026-07-08T08:12:58.164Z</time>
    <keywords>Gran Canaria, Senderismo, Fácil, senderismo Canarias</keywords>
  </metadata>
  <wpt lat="27.8381" lon="-15.5597">
    <name>Barranco de Fataga – Parque Natural Ayagaures</name>
    <desc>Por el Parque Natural de Ayagaures en los alrededores del barranco de Fataga. Paisaje de palmeras canarias y acantilados ocres en el sur. | Isla: Gran Canaria | Tipo: Senderismo | Dificultad: Fácil | Distancia: 6km | Duración: 2-4 horas</desc>
    <type>Senderismo</type>
    <extensions>
      <isla>Gran Canaria</isla>
      <dificultad>Fácil</dificultad>
      <distancia>6</distancia>
      <duracion>2-4 horas</duracion>
    </extensions>
  </wpt>
</gpx>