<?xml version="1.0" encoding="UTF-8"?>
<gpx version="1.1" creator="Aventuras en Cada Paso" xmlns="http://www.topografix.com/GPX/1/1">
  <metadata>
    <name>Circular de Firgas</name>
    <desc>Circular técnica por los alrededores de Firgas con tramos estrechos, expuestos y embarrados. Descargar mapa antes de salir. Paisaje muy variado.</desc>
    <author><name>Aventuras en Cada Paso</name></author>
    <time>2026-07-08T08:12:58.167Z</time>
    <keywords>Gran Canaria, Senderismo, Difícil, senderismo Canarias</keywords>
  </metadata>
  <wpt lat="28.0594" lon="-15.5044">
    <name>Circular de Firgas</name>
    <desc>Circular técnica por los alrededores de Firgas con tramos estrechos, expuestos y embarrados. Descargar mapa antes de salir. Paisaje muy variado. | Isla: Gran Canaria | Tipo: Senderismo | Dificultad: Difícil | Distancia: 12km | Duración: 4-8 horas</desc>
    <type>Senderismo</type>
    <extensions>
      <isla>Gran Canaria</isla>
      <dificultad>Difícil</dificultad>
      <distancia>12</distancia>
      <duracion>4-8 horas</duracion>
    </extensions>
  </wpt>
</gpx>