<?xml version="1.0" encoding="UTF-8"?>
<gpx version="1.1" creator="Aventuras en Cada Paso" xmlns="http://www.topografix.com/GPX/1/1">
  <metadata>
    <name>Patrimonio Arqueológico La Fortaleza</name>
    <desc>Ruta corta por el yacimiento arqueológico de La Fortaleza. Plantaciones de almendros y el lugar donde se conmemora la conquista de la isla.</desc>
    <author><name>Aventuras en Cada Paso</name></author>
    <time>2026-07-08T08:12:58.167Z</time>
    <keywords>Gran Canaria, Senderismo, Fácil, senderismo Canarias</keywords>
  </metadata>
  <wpt lat="27.9794" lon="-15.5622">
    <name>Patrimonio Arqueológico La Fortaleza</name>
    <desc>Ruta corta por el yacimiento arqueológico de La Fortaleza. Plantaciones de almendros y el lugar donde se conmemora la conquista de la isla. | Isla: Gran Canaria | Tipo: Senderismo | Dificultad: Fácil | Distancia: 3km | Duración: Menos de 2h</desc>
    <type>Senderismo</type>
    <extensions>
      <isla>Gran Canaria</isla>
      <dificultad>Fácil</dificultad>
      <distancia>3</distancia>
      <duracion>Menos de 2h</duracion>
    </extensions>
  </wpt>
</gpx>