<?xml version="1.0" encoding="UTF-8"?>
<gpx creator="Wikiloc - https://www.wikiloc.com" version="1.1" xmlns="http://www.topografix.com/GPX/1/1" xmlns:xsi="http://www.w3.org/2001/XMLSchema-instance" xsi:schemaLocation="http://www.topografix.com/GPX/1/1 http://www.topografix.com/GPX/1/1/gpx.xsd">
  <metadata>
    <name>Wikiloc - Parque Nacional Garajonay. Laguna grande - Alto de Garajonay...</name>
    <link href="https://www.wikiloc.com/hiking-trails/parque-nacional-garajonay-laguna-grande-alto-de-garajonay-12750386">
      <text>Parque Nacional Garajonay. Laguna grande - Alto de Garajonay... on Wikiloc</text>
    </link>
    <time>2016-03-28T13:28:41Z</time>
  </metadata>
  <trk>
    <name>Parque Nacional Garajonay. Laguna grande - Alto de Garajonay... - Wikiloc</name>
    <cmt></cmt>
    <desc></desc>
    <trkseg>
      <trkpt lat="28.125992" lon="-17.258205">
        <ele>1256.813</ele>
        <time>2016-03-28T10:17:29Z</time>
      </trkpt>
      <trkpt lat="28.125886" lon="-17.258315">
        <ele>1256.243</ele>
        <time>2016-03-28T10:17:50Z</time>
      </trkpt>
      <trkpt lat="28.125908" lon="-17.258590">
        <ele>1253.107</ele>
        <time>2016-03-28T10:18:13Z</time>
      </trkpt>
      <trkpt lat="28.125785" lon="-17.258937">
        <ele>1243.708</ele>
        <time>2016-03-28T10:19:32Z</time>
      </trkpt>
      <trkpt lat="28.125444" lon="-17.258927">
        <ele>1243.022</ele>
        <time>2016-03-28T10:21:00Z</time>
      </trkpt>
      <trkpt lat="28.125270" lon="-17.259027">
        <ele>1240.593</ele>
        <time>2016-03-28T10:21:23Z</time>
      </trkpt>
      <trkpt lat="28.124892" lon="-17.259408">
        <ele>1229.978</ele>
        <time>2016-03-28T10:22:25Z</time>
      </trkpt>
      <trkpt lat="28.125076" lon="-17.259472">
        <ele>1229.456</ele>
        <time>2016-03-28T10:22:56Z</time>
      </trkpt>
      <trkpt lat="28.123963" lon="-17.260620">
        <ele>1204.371</ele>
        <time>2016-03-28T10:26:14Z</time>
      </trkpt>
      <trkpt lat="28.123722" lon="-17.261058">
        <ele>1193.454</ele>
        <time>2016-03-28T10:27:11Z</time>
      </trkpt>
      <trkpt lat="28.123462" lon="-17.261837">
        <ele>1187.519</ele>
        <time>2016-03-28T10:28:03Z</time>
      </trkpt>
      <trkpt lat="28.123597" lon="-17.262264">
        <ele>1188.327</ele>
        <time>2016-03-28T10:28:55Z</time>
      </trkpt>
      <trkpt lat="28.123560" lon="-17.262958">
        <ele>1183.577</ele>
        <time>2016-03-28T10:29:52Z</time>
      </trkpt>
      <trkpt lat="28.123439" lon="-17.263407">
        <ele>1180.561</ele>
        <time>2016-03-28T10:30:27Z</time>
      </trkpt>
      <trkpt lat="28.123325" lon="-17.263679">
        <ele>1178.327</ele>
        <time>2016-03-28T10:30:51Z</time>
      </trkpt>
      <trkpt lat="28.123033" lon="-17.263948">
        <ele>1172.608</ele>
        <time>2016-03-28T10:31:35Z</time>
      </trkpt>
      <trkpt lat="28.122914" lon="-17.264243">
        <ele>1171.278</ele>
        <time>2016-03-28T10:32:05Z</time>
      </trkpt>
      <trkpt lat="28.122337" lon="-17.264611">
        <ele>1163.369</ele>
        <time>2016-03-28T10:33:22Z</time>
      </trkpt>
      <trkpt lat="28.122706" lon="-17.263803">
        <ele>1163.914</ele>
        <time>2016-03-28T10:34:40Z</time>
      </trkpt>
      <trkpt lat="28.122762" lon="-17.263036">
        <ele>1170.742</ele>
        <time>2016-03-28T10:35:42Z</time>
      </trkpt>
      <trkpt lat="28.122638" lon="-17.262070">
        <ele>1171.687</ele>
        <time>2016-03-28T10:37:00Z</time>
      </trkpt>
      <trkpt lat="28.122175" lon="-17.261124">
        <ele>1177.860</ele>
        <time>2016-03-28T10:38:26Z</time>
      </trkpt>
      <trkpt lat="28.122138" lon="-17.260473">
        <ele>1188.155</ele>
        <time>2016-03-28T10:39:33Z</time>
      </trkpt>
      <trkpt lat="28.121982" lon="-17.259858">
        <ele>1188.333</ele>
        <time>2016-03-28T10:40:36Z</time>
      </trkpt>
      <trkpt lat="28.121595" lon="-17.259392">
        <ele>1190.431</ele>
        <time>2016-03-28T10:41:46Z</time>
      </trkpt>
      <trkpt lat="28.121355" lon="-17.258912">
        <ele>1197.061</ele>
        <time>2016-03-28T10:42:32Z</time>
      </trkpt>
      <trkpt lat="28.121389" lon="-17.258755">
        <ele>1196.507</ele>
        <time>2016-03-28T10:42:45Z</time>
      </trkpt>
      <trkpt lat="28.121585" lon="-17.258586">
        <ele>1197.208</ele>
        <time>2016-03-28T10:42:57Z</time>
      </trkpt>
      <trkpt lat="28.121626" lon="-17.258302">
        <ele>1199.484</ele>
        <time>2016-03-28T10:43:35Z</time>
      </trkpt>
      <trkpt lat="28.121152" lon="-17.257310">
        <ele>1204.515</ele>
        <time>2016-03-28T10:45:54Z</time>
      </trkpt>
      <trkpt lat="28.121167" lon="-17.257063">
        <ele>1206.620</ele>
        <time>2016-03-28T10:46:24Z</time>
      </trkpt>
      <trkpt lat="28.121361" lon="-17.256621">
        <ele>1209.018</ele>
        <time>2016-03-28T10:47:09Z</time>
      </trkpt>
      <trkpt lat="28.121311" lon="-17.255966">
        <ele>1213.053</ele>
        <time>2016-03-28T10:48:04Z</time>
      </trkpt>
      <trkpt lat="28.120813" lon="-17.255377">
        <ele>1219.756</ele>
        <time>2016-03-28T10:49:27Z</time>
      </trkpt>
      <trkpt lat="28.120023" lon="-17.253490">
        <ele>1249.111</ele>
        <time>2016-03-28T10:53:01Z</time>
      </trkpt>
      <trkpt lat="28.119958" lon="-17.252520">
        <ele>1255.899</ele>
        <time>2016-03-28T10:55:53Z</time>
      </trkpt>
      <trkpt lat="28.120259" lon="-17.252034">
        <ele>1260.257</ele>
        <time>2016-03-28T10:57:54Z</time>
      </trkpt>
      <trkpt lat="28.120298" lon="-17.251796">
        <ele>1263.200</ele>
        <time>2016-03-28T11:00:05Z</time>
      </trkpt>
      <trkpt lat="28.120143" lon="-17.251955">
        <ele>1264.720</ele>
        <time>2016-03-28T11:00:42Z</time>
      </trkpt>
      <trkpt lat="28.119891" lon="-17.252511">
        <ele>1257.608</ele>
        <time>2016-03-28T11:01:41Z</time>
      </trkpt>
      <trkpt lat="28.119825" lon="-17.252952">
        <ele>1254.836</ele>
        <time>2016-03-28T11:02:11Z</time>
      </trkpt>
      <trkpt lat="28.119857" lon="-17.254365">
        <ele>1238.977</ele>
        <time>2016-03-28T11:03:53Z</time>
      </trkpt>
      <trkpt lat="28.119748" lon="-17.254459">
        <ele>1236.872</ele>
        <time>2016-03-28T11:04:07Z</time>
      </trkpt>
      <trkpt lat="28.119552" lon="-17.254431">
        <ele>1238.560</ele>
        <time>2016-03-28T11:04:22Z</time>
      </trkpt>
      <trkpt lat="28.119341" lon="-17.254297">
        <ele>1242.595</ele>
        <time>2016-03-28T11:04:43Z</time>
      </trkpt>
      <trkpt lat="28.119026" lon="-17.253617">
        <ele>1248.448</ele>
        <time>2016-03-28T11:05:47Z</time>
      </trkpt>
      <trkpt lat="28.118984" lon="-17.253422">
        <ele>1250.543</ele>
        <time>2016-03-28T11:06:04Z</time>
      </trkpt>
      <trkpt lat="28.119064" lon="-17.253053">
        <ele>1254.521</ele>
        <time>2016-03-28T11:06:36Z</time>
      </trkpt>
      <trkpt lat="28.118751" lon="-17.252649">
        <ele>1254.442</ele>
        <time>2016-03-28T11:07:23Z</time>
      </trkpt>
      <trkpt lat="28.118614" lon="-17.252218">
        <ele>1258.122</ele>
        <time>2016-03-28T11:08:01Z</time>
      </trkpt>
      <trkpt lat="28.118587" lon="-17.251818">
        <ele>1264.014</ele>
        <time>2016-03-28T11:08:38Z</time>
      </trkpt>
      <trkpt lat="28.118773" lon="-17.251243">
        <ele>1268.408</ele>
        <time>2016-03-28T11:09:27Z</time>
      </trkpt>
      <trkpt lat="28.118779" lon="-17.250900">
        <ele>1271.535</ele>
        <time>2016-03-28T11:09:58Z</time>
      </trkpt>
      <trkpt lat="28.118177" lon="-17.251080">
        <ele>1269.926</ele>
        <time>2016-03-28T11:10:58Z</time>
      </trkpt>
      <trkpt lat="28.118036" lon="-17.251043">
        <ele>1270.161</ele>
        <time>2016-03-28T11:11:12Z</time>
      </trkpt>
      <trkpt lat="28.117889" lon="-17.250709">
        <ele>1274.459</ele>
        <time>2016-03-28T11:11:45Z</time>
      </trkpt>
      <trkpt lat="28.117884" lon="-17.250489">
        <ele>1277.024</ele>
        <time>2016-03-28T11:12:03Z</time>
      </trkpt>
      <trkpt lat="28.118078" lon="-17.249526">
        <ele>1284.977</ele>
        <time>2016-03-28T11:13:26Z</time>
      </trkpt>
      <trkpt lat="28.118017" lon="-17.249486">
        <ele>1285.072</ele>
        <time>2016-03-28T11:13:33Z</time>
      </trkpt>
      <trkpt lat="28.117614" lon="-17.249750">
        <ele>1279.760</ele>
        <time>2016-03-28T11:14:18Z</time>
      </trkpt>
      <trkpt lat="28.117460" lon="-17.249762">
        <ele>1278.688</ele>
        <time>2016-03-28T11:14:33Z</time>
      </trkpt>
      <trkpt lat="28.117284" lon="-17.249211">
        <ele>1281.224</ele>
        <time>2016-03-28T11:15:26Z</time>
      </trkpt>
      <trkpt lat="28.116822" lon="-17.248740">
        <ele>1285.926</ele>
        <time>2016-03-28T11:16:34Z</time>
      </trkpt>
      <trkpt lat="28.116659" lon="-17.249416">
        <ele>1283.208</ele>
        <time>2016-03-28T11:17:26Z</time>
      </trkpt>
      <trkpt lat="28.116756" lon="-17.249986">
        <ele>1277.479</ele>
        <time>2016-03-28T11:18:08Z</time>
      </trkpt>
      <trkpt lat="28.116571" lon="-17.250215">
        <ele>1277.320</ele>
        <time>2016-03-28T11:18:31Z</time>
      </trkpt>
      <trkpt lat="28.116055" lon="-17.250295">
        <ele>1286.445</ele>
        <time>2016-03-28T11:19:19Z</time>
      </trkpt>
      <trkpt lat="28.116040" lon="-17.250396">
        <ele>1288.193</ele>
        <time>2016-03-28T11:19:27Z</time>
      </trkpt>
      <trkpt lat="28.116285" lon="-17.250884">
        <ele>1287.018</ele>
        <time>2016-03-28T11:20:14Z</time>
      </trkpt>
      <trkpt lat="28.116308" lon="-17.251174">
        <ele>1292.031</ele>
        <time>2016-03-28T11:20:53Z</time>
      </trkpt>
      <trkpt lat="28.116578" lon="-17.251484">
        <ele>1288.866</ele>
        <time>2016-03-28T11:21:49Z</time>
      </trkpt>
      <trkpt lat="28.116459" lon="-17.251812">
        <ele>1296.894</ele>
        <time>2016-03-28T11:22:30Z</time>
      </trkpt>
      <trkpt lat="28.116381" lon="-17.252576">
        <ele>1304.763</ele>
        <time>2016-03-28T11:23:31Z</time>
      </trkpt>
      <trkpt lat="28.116637" lon="-17.252932">
        <ele>1297.644</ele>
        <time>2016-03-28T11:24:31Z</time>
      </trkpt>
      <trkpt lat="28.116311" lon="-17.253434">
        <ele>1309.918</ele>
        <time>2016-03-28T11:25:38Z</time>
      </trkpt>
      <trkpt lat="28.116208" lon="-17.253877">
        <ele>1314.508</ele>
        <time>2016-03-28T11:27:53Z</time>
      </trkpt>
      <trkpt lat="28.116354" lon="-17.254602">
        <ele>1319.757</ele>
        <time>2016-03-28T11:29:16Z</time>
      </trkpt>
      <trkpt lat="28.116541" lon="-17.254906">
        <ele>1320.698</ele>
        <time>2016-03-28T11:29:58Z</time>
      </trkpt>
      <trkpt lat="28.116533" lon="-17.255121">
        <ele>1321.373</ele>
        <time>2016-03-28T11:31:48Z</time>
      </trkpt>
      <trkpt lat="28.116043" lon="-17.254750">
        <ele>1323.661</ele>
        <time>2016-03-28T11:33:20Z</time>
      </trkpt>
      <trkpt lat="28.115777" lon="-17.254395">
        <ele>1330.866</ele>
        <time>2016-03-28T11:34:08Z</time>
      </trkpt>
      <trkpt lat="28.115594" lon="-17.254442">
        <ele>1335.929</ele>
        <time>2016-03-28T11:34:45Z</time>
      </trkpt>
      <trkpt lat="28.115537" lon="-17.254117">
        <ele>1342.464</ele>
        <time>2016-03-28T11:35:38Z</time>
      </trkpt>
      <trkpt lat="28.115346" lon="-17.254116">
        <ele>1346.772</ele>
        <time>2016-03-28T11:36:52Z</time>
      </trkpt>
      <trkpt lat="28.115259" lon="-17.253430">
        <ele>1361.415</ele>
        <time>2016-03-28T11:38:31Z</time>
      </trkpt>
      <trkpt lat="28.115083" lon="-17.253698">
        <ele>1362.965</ele>
        <time>2016-03-28T11:39:35Z</time>
      </trkpt>
      <trkpt lat="28.114993" lon="-17.253353">
        <ele>1373.711</ele>
        <time>2016-03-28T11:40:41Z</time>
      </trkpt>
      <trkpt lat="28.114924" lon="-17.253404">
        <ele>1373.808</ele>
        <time>2016-03-28T11:40:53Z</time>
      </trkpt>
      <trkpt lat="28.114829" lon="-17.253298">
        <ele>1376.322</ele>
        <time>2016-03-28T11:41:27Z</time>
      </trkpt>
      <trkpt lat="28.114202" lon="-17.253138">
        <ele>1376.983</ele>
        <time>2016-03-28T11:42:48Z</time>
      </trkpt>
      <trkpt lat="28.113886" lon="-17.251952">
        <ele>1373.948</ele>
        <time>2016-03-28T11:44:26Z</time>
      </trkpt>
      <trkpt lat="28.113412" lon="-17.251248">
        <ele>1382.956</ele>
        <time>2016-03-28T11:46:00Z</time>
      </trkpt>
      <trkpt lat="28.113355" lon="-17.250997">
        <ele>1382.891</ele>
        <time>2016-03-28T11:46:30Z</time>
      </trkpt>
      <trkpt lat="28.113172" lon="-17.250884">
        <ele>1382.394</ele>
        <time>2016-03-28T11:46:54Z</time>
      </trkpt>
      <trkpt lat="28.113023" lon="-17.250898">
        <ele>1382.089</ele>
        <time>2016-03-28T11:47:07Z</time>
      </trkpt>
      <trkpt lat="28.112513" lon="-17.251114">
        <ele>1376.157</ele>
        <time>2016-03-28T11:48:07Z</time>
      </trkpt>
      <trkpt lat="28.112254" lon="-17.250432">
        <ele>1378.118</ele>
        <time>2016-03-28T11:49:09Z</time>
      </trkpt>
      <trkpt lat="28.112317" lon="-17.250067">
        <ele>1381.498</ele>
        <time>2016-03-28T11:49:42Z</time>
      </trkpt>
      <trkpt lat="28.112231" lon="-17.249392">
        <ele>1387.817</ele>
        <time>2016-03-28T11:50:48Z</time>
      </trkpt>
      <trkpt lat="28.112058" lon="-17.249023">
        <ele>1394.008</ele>
        <time>2016-03-28T11:51:31Z</time>
      </trkpt>
      <trkpt lat="28.111605" lon="-17.248487">
        <ele>1408.052</ele>
        <time>2016-03-28T11:53:08Z</time>
      </trkpt>
      <trkpt lat="28.111489" lon="-17.248100">
        <ele>1415.123</ele>
        <time>2016-03-28T11:54:13Z</time>
      </trkpt>
      <trkpt lat="28.111316" lon="-17.247906">
        <ele>1421.698</ele>
        <time>2016-03-28T11:55:02Z</time>
      </trkpt>
      <trkpt lat="28.111488" lon="-17.247522">
        <ele>1421.796</ele>
        <time>2016-03-28T11:56:24Z</time>
      </trkpt>
      <trkpt lat="28.111238" lon="-17.247140">
        <ele>1431.451</ele>
        <time>2016-03-28T11:57:37Z</time>
      </trkpt>
      <trkpt lat="28.111147" lon="-17.246247">
        <ele>1441.114</ele>
        <time>2016-03-28T11:58:46Z</time>
      </trkpt>
      <trkpt lat="28.111218" lon="-17.245982">
        <ele>1442.329</ele>
        <time>2016-03-28T11:59:28Z</time>
      </trkpt>
      <trkpt lat="28.111028" lon="-17.246232">
        <ele>1444.587</ele>
        <time>2016-03-28T12:00:01Z</time>
      </trkpt>
      <trkpt lat="28.110977" lon="-17.246987">
        <ele>1443.349</ele>
        <time>2016-03-28T12:01:18Z</time>
      </trkpt>
      <trkpt lat="28.110559" lon="-17.247371">
        <ele>1456.302</ele>
        <time>2016-03-28T12:02:20Z</time>
      </trkpt>
      <trkpt lat="28.110390" lon="-17.248126">
        <ele>1458.222</ele>
        <time>2016-03-28T12:03:42Z</time>
      </trkpt>
      <trkpt lat="28.110188" lon="-17.248616">
        <ele>1456.808</ele>
        <time>2016-03-28T12:04:37Z</time>
      </trkpt>
      <trkpt lat="28.109871" lon="-17.248820">
        <ele>1461.445</ele>
        <time>2016-03-28T12:05:21Z</time>
      </trkpt>
      <trkpt lat="28.109283" lon="-17.248562">
        <ele>1470.486</ele>
        <time>2016-03-28T12:06:48Z</time>
      </trkpt>
      <trkpt lat="28.109294" lon="-17.248334">
        <ele>1472.731</ele>
        <time>2016-03-28T12:07:14Z</time>
      </trkpt>
      <trkpt lat="28.109379" lon="-17.248313">
        <ele>1474.959</ele>
        <time>2016-03-28T12:07:23Z</time>
      </trkpt>
      <trkpt lat="28.109554" lon="-17.248463">
        <ele>1475.794</ele>
        <time>2016-03-28T12:07:49Z</time>
      </trkpt>
      <trkpt lat="28.109773" lon="-17.248399">
        <ele>1476.527</ele>
        <time>2016-03-28T12:28:28Z</time>
      </trkpt>
      <trkpt lat="28.110226" lon="-17.247280">
        <ele>1462.692</ele>
        <time>2016-03-28T12:31:15Z</time>
      </trkpt>
      <trkpt lat="28.110603" lon="-17.246672">
        <ele>1458.620</ele>
        <time>2016-03-28T12:32:11Z</time>
      </trkpt>
      <trkpt lat="28.110784" lon="-17.245740">
        <ele>1449.929</ele>
        <time>2016-03-28T12:34:20Z</time>
      </trkpt>
      <trkpt lat="28.110991" lon="-17.245423">
        <ele>1450.100</ele>
        <time>2016-03-28T12:35:17Z</time>
      </trkpt>
      <trkpt lat="28.111115" lon="-17.244836">
        <ele>1452.520</ele>
        <time>2016-03-28T12:36:05Z</time>
      </trkpt>
      <trkpt lat="28.111074" lon="-17.244664">
        <ele>1451.708</ele>
        <time>2016-03-28T12:36:24Z</time>
      </trkpt>
      <trkpt lat="28.111367" lon="-17.244202">
        <ele>1450.343</ele>
        <time>2016-03-28T12:37:08Z</time>
      </trkpt>
      <trkpt lat="28.111459" lon="-17.243615">
        <ele>1436.974</ele>
        <time>2016-03-28T12:38:06Z</time>
      </trkpt>
      <trkpt lat="28.111543" lon="-17.243728">
        <ele>1440.619</ele>
        <time>2016-03-28T12:38:39Z</time>
      </trkpt>
      <trkpt lat="28.111824" lon="-17.243552">
        <ele>1433.057</ele>
        <time>2016-03-28T12:39:33Z</time>
      </trkpt>
      <trkpt lat="28.112145" lon="-17.243571">
        <ele>1423.732</ele>
        <time>2016-03-28T12:40:06Z</time>
      </trkpt>
      <trkpt lat="28.112247" lon="-17.243695">
        <ele>1422.215</ele>
        <time>2016-03-28T12:40:28Z</time>
      </trkpt>
      <trkpt lat="28.112390" lon="-17.243640">
        <ele>1416.070</ele>
        <time>2016-03-28T12:40:48Z</time>
      </trkpt>
      <trkpt lat="28.112780" lon="-17.243722">
        <ele>1405.828</ele>
        <time>2016-03-28T12:41:32Z</time>
      </trkpt>
      <trkpt lat="28.113619" lon="-17.243690">
        <ele>1392.399</ele>
        <time>2016-03-28T12:43:16Z</time>
      </trkpt>
      <trkpt lat="28.114185" lon="-17.244074">
        <ele>1378.807</ele>
        <time>2016-03-28T12:44:13Z</time>
      </trkpt>
      <trkpt lat="28.114463" lon="-17.243885">
        <ele>1379.827</ele>
        <time>2016-03-28T12:44:41Z</time>
      </trkpt>
      <trkpt lat="28.114933" lon="-17.243751">
        <ele>1377.608</ele>
        <time>2016-03-28T12:45:21Z</time>
      </trkpt>
      <trkpt lat="28.115376" lon="-17.243788">
        <ele>1370.450</ele>
        <time>2016-03-28T12:45:56Z</time>
      </trkpt>
      <trkpt lat="28.115598" lon="-17.244163">
        <ele>1364.331</ele>
        <time>2016-03-28T12:46:46Z</time>
      </trkpt>
      <trkpt lat="28.115910" lon="-17.244386">
        <ele>1354.236</ele>
        <time>2016-03-28T12:47:38Z</time>
      </trkpt>
      <trkpt lat="28.116301" lon="-17.245121">
        <ele>1340.794</ele>
        <time>2016-03-28T12:49:44Z</time>
      </trkpt>
      <trkpt lat="28.116466" lon="-17.245273">
        <ele>1339.319</ele>
        <time>2016-03-28T12:50:11Z</time>
      </trkpt>
      <trkpt lat="28.116815" lon="-17.246125">
        <ele>1332.472</ele>
        <time>2016-03-28T12:51:19Z</time>
      </trkpt>
      <trkpt lat="28.117643" lon="-17.246811">
        <ele>1329.257</ele>
        <time>2016-03-28T12:53:16Z</time>
      </trkpt>
      <trkpt lat="28.117518" lon="-17.247087">
        <ele>1321.295</ele>
        <time>2016-03-28T12:53:40Z</time>
      </trkpt>
      <trkpt lat="28.118019" lon="-17.247042">
        <ele>1324.816</ele>
        <time>2016-03-28T12:54:34Z</time>
      </trkpt>
      <trkpt lat="28.118212" lon="-17.247112">
        <ele>1323.276</ele>
        <time>2016-03-28T12:54:53Z</time>
      </trkpt>
      <trkpt lat="28.118653" lon="-17.247818">
        <ele>1310.613</ele>
        <time>2016-03-28T12:55:52Z</time>
      </trkpt>
      <trkpt lat="28.118875" lon="-17.247883">
        <ele>1311.008</ele>
        <time>2016-03-28T12:56:12Z</time>
      </trkpt>
      <trkpt lat="28.119064" lon="-17.248135">
        <ele>1310.232</ele>
        <time>2016-03-28T12:56:36Z</time>
      </trkpt>
      <trkpt lat="28.119318" lon="-17.248246">
        <ele>1310.883</ele>
        <time>2016-03-28T12:57:12Z</time>
      </trkpt>
      <trkpt lat="28.119668" lon="-17.248835">
        <ele>1303.968</ele>
        <time>2016-03-28T12:58:02Z</time>
      </trkpt>
      <trkpt lat="28.120218" lon="-17.249261">
        <ele>1303.266</ele>
        <time>2016-03-28T12:59:13Z</time>
      </trkpt>
      <trkpt lat="28.120190" lon="-17.249735">
        <ele>1297.991</ele>
        <time>2016-03-28T12:59:51Z</time>
      </trkpt>
      <trkpt lat="28.120451" lon="-17.250378">
        <ele>1292.534</ele>
        <time>2016-03-28T13:00:54Z</time>
      </trkpt>
      <trkpt lat="28.120235" lon="-17.250890">
        <ele>1285.829</ele>
        <time>2016-03-28T13:01:38Z</time>
      </trkpt>
      <trkpt lat="28.120434" lon="-17.250855">
        <ele>1284.717</ele>
        <time>2016-03-28T13:02:09Z</time>
      </trkpt>
      <trkpt lat="28.120386" lon="-17.251748">
        <ele>1264.118</ele>
        <time>2016-03-28T13:03:48Z</time>
      </trkpt>
      <trkpt lat="28.120566" lon="-17.252110">
        <ele>1263.398</ele>
        <time>2016-03-28T13:04:31Z</time>
      </trkpt>
      <trkpt lat="28.120635" lon="-17.252724">
        <ele>1262.917</ele>
        <time>2016-03-28T13:05:16Z</time>
      </trkpt>
      <trkpt lat="28.121001" lon="-17.253766">
        <ele>1258.508</ele>
        <time>2016-03-28T13:06:37Z</time>
      </trkpt>
      <trkpt lat="28.121170" lon="-17.253993">
        <ele>1255.792</ele>
        <time>2016-03-28T13:06:58Z</time>
      </trkpt>
      <trkpt lat="28.121296" lon="-17.254032">
        <ele>1255.473</ele>
        <time>2016-03-28T13:07:08Z</time>
      </trkpt>
      <trkpt lat="28.121463" lon="-17.253934">
        <ele>1256.758</ele>
        <time>2016-03-28T13:07:25Z</time>
      </trkpt>
      <trkpt lat="28.121611" lon="-17.253114">
        <ele>1268.166</ele>
        <time>2016-03-28T13:08:25Z</time>
      </trkpt>
      <trkpt lat="28.122068" lon="-17.252394">
        <ele>1270.371</ele>
        <time>2016-03-28T13:09:25Z</time>
      </trkpt>
      <trkpt lat="28.122224" lon="-17.252313">
        <ele>1268.464</ele>
        <time>2016-03-28T13:09:40Z</time>
      </trkpt>
      <trkpt lat="28.122361" lon="-17.252380">
        <ele>1269.269</ele>
        <time>2016-03-28T13:09:50Z</time>
      </trkpt>
      <trkpt lat="28.122486" lon="-17.252853">
        <ele>1262.577</ele>
        <time>2016-03-28T13:10:25Z</time>
      </trkpt>
      <trkpt lat="28.122749" lon="-17.253167">
        <ele>1260.075</ele>
        <time>2016-03-28T13:10:56Z</time>
      </trkpt>
      <trkpt lat="28.122897" lon="-17.253196">
        <ele>1258.628</ele>
        <time>2016-03-28T13:11:09Z</time>
      </trkpt>
      <trkpt lat="28.123272" lon="-17.252770">
        <ele>1262.920</ele>
        <time>2016-03-28T13:11:56Z</time>
      </trkpt>
      <trkpt lat="28.123402" lon="-17.252063">
        <ele>1269.108</ele>
        <time>2016-03-28T13:12:46Z</time>
      </trkpt>
      <trkpt lat="28.123617" lon="-17.251942">
        <ele>1267.068</ele>
        <time>2016-03-28T13:13:13Z</time>
      </trkpt>
      <trkpt lat="28.123797" lon="-17.252025">
        <ele>1264.939</ele>
        <time>2016-03-28T13:13:27Z</time>
      </trkpt>
      <trkpt lat="28.124297" lon="-17.252784">
        <ele>1265.724</ele>
        <time>2016-03-28T13:14:34Z</time>
      </trkpt>
      <trkpt lat="28.124520" lon="-17.253448">
        <ele>1261.352</ele>
        <time>2016-03-28T13:15:40Z</time>
      </trkpt>
      <trkpt lat="28.124674" lon="-17.253476">
        <ele>1263.367</ele>
        <time>2016-03-28T13:16:00Z</time>
      </trkpt>
      <trkpt lat="28.125277" lon="-17.253292">
        <ele>1265.070</ele>
        <time>2016-03-28T13:16:49Z</time>
      </trkpt>
      <trkpt lat="28.125731" lon="-17.253425">
        <ele>1266.455</ele>
        <time>2016-03-28T13:17:30Z</time>
      </trkpt>
      <trkpt lat="28.125816" lon="-17.253665">
        <ele>1267.933</ele>
        <time>2016-03-28T13:17:58Z</time>
      </trkpt>
      <trkpt lat="28.125241" lon="-17.254971">
        <ele>1269.962</ele>
        <time>2016-03-28T13:19:58Z</time>
      </trkpt>
      <trkpt lat="28.125181" lon="-17.255348">
        <ele>1274.583</ele>
        <time>2016-03-28T13:20:35Z</time>
      </trkpt>
      <trkpt lat="28.124944" lon="-17.255629">
        <ele>1274.211</ele>
        <time>2016-03-28T13:21:05Z</time>
      </trkpt>
      <trkpt lat="28.125099" lon="-17.255989">
        <ele>1274.808</ele>
        <time>2016-03-28T13:21:53Z</time>
      </trkpt>
      <trkpt lat="28.125193" lon="-17.256029">
        <ele>1274.297</ele>
        <time>2016-03-28T13:22:50Z</time>
      </trkpt>
      <trkpt lat="28.125235" lon="-17.256604">
        <ele>1271.568</ele>
        <time>2016-03-28T13:25:24Z</time>
      </trkpt>
      <trkpt lat="28.125516" lon="-17.256740">
        <ele>1267.773</ele>
        <time>2016-03-28T13:26:20Z</time>
      </trkpt>
      <trkpt lat="28.126223" lon="-17.256772">
        <ele>1256.811</ele>
        <time>2016-03-28T13:27:46Z</time>
      </trkpt>
      <trkpt lat="28.126322" lon="-17.257427">
        <ele>1253.096</ele>
        <time>2016-03-28T13:28:41Z</time>
      </trkpt>
    </trkseg>
  </trk></gpx>