<?xml version="1.0" encoding="UTF-8"?>
<gpx creator="Wikiloc - https://www.wikiloc.com" version="1.1" xmlns="http://www.topografix.com/GPX/1/1" xmlns:xsi="http://www.w3.org/2001/XMLSchema-instance" xsi:schemaLocation="http://www.topografix.com/GPX/1/1 http://www.topografix.com/GPX/1/1/gpx.xsd">
  <metadata>
    <name>Wikiloc - GR 131 El Hierro: Tamaduste - Faro de Orchilla</name>
    <link href="https://www.wikiloc.com/hiking-trails/tamaduste-faro-de-orchilla-ruta-gr-131-91659334">
      <text>GR 131 El Hierro: Tamaduste - Faro de Orchilla - Wikiloc on Wikiloc</text>
    </link>
    <time>2021-12-27T19:22:39Z</time>
  </metadata>
  <trk>
    <name>GR 131 El Hierro: Tamaduste - Faro de Orchilla - Wikiloc</name>
    <cmt></cmt>
    <desc></desc>
    <trkseg>
      <trkpt lat="27.825078" lon="-17.896119">
        <ele>18.395</ele>
        <time>2021-12-27T08:02:33Z</time>
      </trkpt>
      <trkpt lat="27.824603" lon="-17.896006">
        <ele>17.649</ele>
        <time>2021-12-27T08:03:41Z</time>
      </trkpt>
      <trkpt lat="27.824035" lon="-17.896263">
        <ele>12.723</ele>
        <time>2021-12-27T08:04:33Z</time>
      </trkpt>
      <trkpt lat="27.823768" lon="-17.896130">
        <ele>14.508</ele>
        <time>2021-12-27T08:05:00Z</time>
      </trkpt>
      <trkpt lat="27.822970" lon="-17.896317">
        <ele>18.218</ele>
        <time>2021-12-27T08:07:18Z</time>
      </trkpt>
      <trkpt lat="27.822740" lon="-17.896145">
        <ele>23.460</ele>
        <time>2021-12-27T08:08:03Z</time>
      </trkpt>
      <trkpt lat="27.822607" lon="-17.896226">
        <ele>28.695</ele>
        <time>2021-12-27T08:08:15Z</time>
      </trkpt>
      <trkpt lat="27.822926" lon="-17.895693">
        <ele>48.694</ele>
        <time>2021-12-27T08:09:54Z</time>
      </trkpt>
      <trkpt lat="27.822181" lon="-17.895758">
        <ele>64.538</ele>
        <time>2021-12-27T08:11:54Z</time>
      </trkpt>
      <trkpt lat="27.822460" lon="-17.895208">
        <ele>81.932</ele>
        <time>2021-12-27T08:13:18Z</time>
      </trkpt>
      <trkpt lat="27.821833" lon="-17.894997">
        <ele>99.122</ele>
        <time>2021-12-27T08:14:56Z</time>
      </trkpt>
      <trkpt lat="27.821595" lon="-17.895342">
        <ele>102.563</ele>
        <time>2021-12-27T08:15:38Z</time>
      </trkpt>
      <trkpt lat="27.821373" lon="-17.896169">
        <ele>117.367</ele>
        <time>2021-12-27T08:17:05Z</time>
      </trkpt>
      <trkpt lat="27.821382" lon="-17.897173">
        <ele>130.381</ele>
        <time>2021-12-27T08:18:49Z</time>
      </trkpt>
      <trkpt lat="27.821107" lon="-17.898382">
        <ele>146.019</ele>
        <time>2021-12-27T08:20:56Z</time>
      </trkpt>
      <trkpt lat="27.820789" lon="-17.898530">
        <ele>157.008</ele>
        <time>2021-12-27T08:21:43Z</time>
      </trkpt>
      <trkpt lat="27.820700" lon="-17.898724">
        <ele>163.635</ele>
        <time>2021-12-27T08:25:41Z</time>
      </trkpt>
      <trkpt lat="27.820866" lon="-17.898720">
        <ele>167.357</ele>
        <time>2021-12-27T08:26:05Z</time>
      </trkpt>
      <trkpt lat="27.820980" lon="-17.898905">
        <ele>172.612</ele>
        <time>2021-12-27T08:26:40Z</time>
      </trkpt>
      <trkpt lat="27.820899" lon="-17.899017">
        <ele>175.731</ele>
        <time>2021-12-27T08:26:58Z</time>
      </trkpt>
      <trkpt lat="27.821133" lon="-17.899182">
        <ele>184.725</ele>
        <time>2021-12-27T08:27:35Z</time>
      </trkpt>
      <trkpt lat="27.821004" lon="-17.899880">
        <ele>202.659</ele>
        <time>2021-12-27T08:29:07Z</time>
      </trkpt>
      <trkpt lat="27.821138" lon="-17.900496">
        <ele>215.629</ele>
        <time>2021-12-27T08:33:01Z</time>
      </trkpt>
      <trkpt lat="27.820977" lon="-17.901040">
        <ele>221.370</ele>
        <time>2021-12-27T08:34:55Z</time>
      </trkpt>
      <trkpt lat="27.819491" lon="-17.902661">
        <ele>248.776</ele>
        <time>2021-12-27T08:39:26Z</time>
      </trkpt>
      <trkpt lat="27.819330" lon="-17.903150">
        <ele>258.290</ele>
        <time>2021-12-27T08:41:50Z</time>
      </trkpt>
      <trkpt lat="27.818855" lon="-17.903333">
        <ele>266.819</ele>
        <time>2021-12-27T08:42:55Z</time>
      </trkpt>
      <trkpt lat="27.818547" lon="-17.903678">
        <ele>274.408</ele>
        <time>2021-12-27T08:43:41Z</time>
      </trkpt>
      <trkpt lat="27.818370" lon="-17.904488">
        <ele>297.496</ele>
        <time>2021-12-27T08:46:53Z</time>
      </trkpt>
      <trkpt lat="27.817979" lon="-17.904549">
        <ele>310.388</ele>
        <time>2021-12-27T08:47:44Z</time>
      </trkpt>
      <trkpt lat="27.817175" lon="-17.905052">
        <ele>340.373</ele>
        <time>2021-12-27T08:50:18Z</time>
      </trkpt>
      <trkpt lat="27.817335" lon="-17.905680">
        <ele>357.182</ele>
        <time>2021-12-27T08:58:24Z</time>
      </trkpt>
      <trkpt lat="27.816945" lon="-17.906139">
        <ele>380.126</ele>
        <time>2021-12-27T09:00:32Z</time>
      </trkpt>
      <trkpt lat="27.816870" lon="-17.906714">
        <ele>401.250</ele>
        <time>2021-12-27T09:02:35Z</time>
      </trkpt>
      <trkpt lat="27.816728" lon="-17.906811">
        <ele>408.550</ele>
        <time>2021-12-27T09:03:15Z</time>
      </trkpt>
      <trkpt lat="27.816832" lon="-17.906920">
        <ele>413.961</ele>
        <time>2021-12-27T09:03:55Z</time>
      </trkpt>
      <trkpt lat="27.816512" lon="-17.907209">
        <ele>429.223</ele>
        <time>2021-12-27T09:05:11Z</time>
      </trkpt>
      <trkpt lat="27.816290" lon="-17.907681">
        <ele>446.183</ele>
        <time>2021-12-27T09:06:35Z</time>
      </trkpt>
      <trkpt lat="27.815428" lon="-17.907749">
        <ele>465.611</ele>
        <time>2021-12-27T09:08:20Z</time>
      </trkpt>
      <trkpt lat="27.814923" lon="-17.908920">
        <ele>487.208</ele>
        <time>2021-12-27T09:10:21Z</time>
      </trkpt>
      <trkpt lat="27.814147" lon="-17.909476">
        <ele>500.571</ele>
        <time>2021-12-27T09:11:44Z</time>
      </trkpt>
      <trkpt lat="27.813085" lon="-17.910972">
        <ele>524.263</ele>
        <time>2021-12-27T09:18:16Z</time>
      </trkpt>
      <trkpt lat="27.813232" lon="-17.911107">
        <ele>526.498</ele>
        <time>2021-12-27T09:27:39Z</time>
      </trkpt>
      <trkpt lat="27.813154" lon="-17.911258">
        <ele>526.787</ele>
        <time>2021-12-27T09:27:52Z</time>
      </trkpt>
      <trkpt lat="27.812431" lon="-17.912180">
        <ele>525.421</ele>
        <time>2021-12-27T09:29:17Z</time>
      </trkpt>
      <trkpt lat="27.810456" lon="-17.913984">
        <ele>536.165</ele>
        <time>2021-12-27T09:32:43Z</time>
      </trkpt>
      <trkpt lat="27.809425" lon="-17.913897">
        <ele>534.755</ele>
        <time>2021-12-27T09:34:09Z</time>
      </trkpt>
      <trkpt lat="27.808278" lon="-17.914725">
        <ele>551.686</ele>
        <time>2021-12-27T09:36:11Z</time>
      </trkpt>
      <trkpt lat="27.807735" lon="-17.914743">
        <ele>555.698</ele>
        <time>2021-12-27T09:36:57Z</time>
      </trkpt>
      <trkpt lat="27.807261" lon="-17.915136">
        <ele>565.315</ele>
        <time>2021-12-27T09:38:29Z</time>
      </trkpt>
      <trkpt lat="27.806957" lon="-17.915150">
        <ele>570.626</ele>
        <time>2021-12-27T09:39:15Z</time>
      </trkpt>
      <trkpt lat="27.807101" lon="-17.915216">
        <ele>572.708</ele>
        <time>2021-12-27T10:09:39Z</time>
      </trkpt>
      <trkpt lat="27.806901" lon="-17.915129">
        <ele>574.678</ele>
        <time>2021-12-27T10:11:14Z</time>
      </trkpt>
      <trkpt lat="27.806590" lon="-17.915351">
        <ele>575.850</ele>
        <time>2021-12-27T10:11:57Z</time>
      </trkpt>
      <trkpt lat="27.806262" lon="-17.915119">
        <ele>579.925</ele>
        <time>2021-12-27T10:12:30Z</time>
      </trkpt>
      <trkpt lat="27.806345" lon="-17.915380">
        <ele>581.034</ele>
        <time>2021-12-27T10:13:01Z</time>
      </trkpt>
      <trkpt lat="27.805797" lon="-17.915793">
        <ele>584.828</ele>
        <time>2021-12-27T10:13:53Z</time>
      </trkpt>
      <trkpt lat="27.805302" lon="-17.916683">
        <ele>599.122</ele>
        <time>2021-12-27T10:15:09Z</time>
      </trkpt>
      <trkpt lat="27.804994" lon="-17.916867">
        <ele>603.772</ele>
        <time>2021-12-27T10:15:47Z</time>
      </trkpt>
      <trkpt lat="27.805095" lon="-17.917226">
        <ele>611.823</ele>
        <time>2021-12-27T10:16:23Z</time>
      </trkpt>
      <trkpt lat="27.804936" lon="-17.917422">
        <ele>619.083</ele>
        <time>2021-12-27T10:16:44Z</time>
      </trkpt>
      <trkpt lat="27.804956" lon="-17.917938">
        <ele>630.225</ele>
        <time>2021-12-27T10:17:26Z</time>
      </trkpt>
      <trkpt lat="27.804593" lon="-17.917880">
        <ele>640.317</ele>
        <time>2021-12-27T10:18:08Z</time>
      </trkpt>
      <trkpt lat="27.804163" lon="-17.918107">
        <ele>643.008</ele>
        <time>2021-12-27T10:18:46Z</time>
      </trkpt>
      <trkpt lat="27.803977" lon="-17.918399">
        <ele>645.567</ele>
        <time>2021-12-27T10:19:58Z</time>
      </trkpt>
      <trkpt lat="27.803585" lon="-17.919928">
        <ele>670.349</ele>
        <time>2021-12-27T10:22:19Z</time>
      </trkpt>
      <trkpt lat="27.803245" lon="-17.920259">
        <ele>676.284</ele>
        <time>2021-12-27T10:22:58Z</time>
      </trkpt>
      <trkpt lat="27.803018" lon="-17.920919">
        <ele>684.293</ele>
        <time>2021-12-27T10:23:49Z</time>
      </trkpt>
      <trkpt lat="27.802421" lon="-17.920567">
        <ele>689.197</ele>
        <time>2021-12-27T10:24:51Z</time>
      </trkpt>
      <trkpt lat="27.801815" lon="-17.921117">
        <ele>700.311</ele>
        <time>2021-12-27T10:25:56Z</time>
      </trkpt>
      <trkpt lat="27.801363" lon="-17.921136">
        <ele>704.661</ele>
        <time>2021-12-27T10:26:38Z</time>
      </trkpt>
      <trkpt lat="27.801034" lon="-17.921500">
        <ele>710.632</ele>
        <time>2021-12-27T10:27:15Z</time>
      </trkpt>
      <trkpt lat="27.800798" lon="-17.921421">
        <ele>712.293</ele>
        <time>2021-12-27T10:27:34Z</time>
      </trkpt>
      <trkpt lat="27.800587" lon="-17.921542">
        <ele>712.765</ele>
        <time>2021-12-27T10:27:52Z</time>
      </trkpt>
      <trkpt lat="27.799673" lon="-17.921317">
        <ele>717.421</ele>
        <time>2021-12-27T10:29:15Z</time>
      </trkpt>
      <trkpt lat="27.799221" lon="-17.920878">
        <ele>729.608</ele>
        <time>2021-12-27T10:30:05Z</time>
      </trkpt>
      <trkpt lat="27.798926" lon="-17.920859">
        <ele>732.138</ele>
        <time>2021-12-27T10:30:34Z</time>
      </trkpt>
      <trkpt lat="27.799625" lon="-17.921800">
        <ele>744.930</ele>
        <time>2021-12-27T10:33:01Z</time>
      </trkpt>
      <trkpt lat="27.799740" lon="-17.922747">
        <ele>748.925</ele>
        <time>2021-12-27T10:34:01Z</time>
      </trkpt>
      <trkpt lat="27.799415" lon="-17.923334">
        <ele>749.594</ele>
        <time>2021-12-27T10:34:46Z</time>
      </trkpt>
      <trkpt lat="27.799356" lon="-17.923752">
        <ele>750.788</ele>
        <time>2021-12-27T10:35:11Z</time>
      </trkpt>
      <trkpt lat="27.798697" lon="-17.924263">
        <ele>761.912</ele>
        <time>2021-12-27T10:36:27Z</time>
      </trkpt>
      <trkpt lat="27.798313" lon="-17.924179">
        <ele>773.832</ele>
        <time>2021-12-27T10:37:01Z</time>
      </trkpt>
      <trkpt lat="27.797199" lon="-17.925020">
        <ele>790.723</ele>
        <time>2021-12-27T10:38:51Z</time>
      </trkpt>
      <trkpt lat="27.797513" lon="-17.925943">
        <ele>810.448</ele>
        <time>2021-12-27T10:41:04Z</time>
      </trkpt>
      <trkpt lat="27.797636" lon="-17.925655">
        <ele>818.661</ele>
        <time>2021-12-27T10:42:29Z</time>
      </trkpt>
      <trkpt lat="27.797625" lon="-17.926169">
        <ele>822.417</ele>
        <time>2021-12-27T10:43:09Z</time>
      </trkpt>
      <trkpt lat="27.797441" lon="-17.926195">
        <ele>826.408</ele>
        <time>2021-12-27T10:43:24Z</time>
      </trkpt>
      <trkpt lat="27.797099" lon="-17.925903">
        <ele>831.063</ele>
        <time>2021-12-27T10:43:56Z</time>
      </trkpt>
      <trkpt lat="27.796629" lon="-17.926504">
        <ele>837.055</ele>
        <time>2021-12-27T10:44:51Z</time>
      </trkpt>
      <trkpt lat="27.796016" lon="-17.926323">
        <ele>837.160</ele>
        <time>2021-12-27T10:45:38Z</time>
      </trkpt>
      <trkpt lat="27.795663" lon="-17.926748">
        <ele>841.089</ele>
        <time>2021-12-27T10:46:58Z</time>
      </trkpt>
      <trkpt lat="27.795319" lon="-17.926731">
        <ele>836.683</ele>
        <time>2021-12-27T10:47:22Z</time>
      </trkpt>
      <trkpt lat="27.794750" lon="-17.927383">
        <ele>845.037</ele>
        <time>2021-12-27T10:48:40Z</time>
      </trkpt>
      <trkpt lat="27.794643" lon="-17.927833">
        <ele>841.987</ele>
        <time>2021-12-27T10:49:11Z</time>
      </trkpt>
      <trkpt lat="27.794051" lon="-17.928007">
        <ele>843.948</ele>
        <time>2021-12-27T10:50:07Z</time>
      </trkpt>
      <trkpt lat="27.794019" lon="-17.928522">
        <ele>848.554</ele>
        <time>2021-12-27T10:50:42Z</time>
      </trkpt>
      <trkpt lat="27.793699" lon="-17.928686">
        <ele>850.856</ele>
        <time>2021-12-27T10:51:09Z</time>
      </trkpt>
      <trkpt lat="27.793543" lon="-17.929053">
        <ele>853.511</ele>
        <time>2021-12-27T10:51:38Z</time>
      </trkpt>
      <trkpt lat="27.793199" lon="-17.929135">
        <ele>856.608</ele>
        <time>2021-12-27T10:52:04Z</time>
      </trkpt>
      <trkpt lat="27.793074" lon="-17.929579">
        <ele>856.644</ele>
        <time>2021-12-27T10:52:37Z</time>
      </trkpt>
      <trkpt lat="27.792658" lon="-17.929410">
        <ele>854.536</ele>
        <time>2021-12-27T10:53:21Z</time>
      </trkpt>
      <trkpt lat="27.791397" lon="-17.930088">
        <ele>864.841</ele>
        <time>2021-12-27T10:55:08Z</time>
      </trkpt>
      <trkpt lat="27.790445" lon="-17.931578">
        <ele>885.860</ele>
        <time>2021-12-27T10:57:20Z</time>
      </trkpt>
      <trkpt lat="27.790097" lon="-17.931894">
        <ele>888.124</ele>
        <time>2021-12-27T10:57:52Z</time>
      </trkpt>
      <trkpt lat="27.789740" lon="-17.932665">
        <ele>891.748</ele>
        <time>2021-12-27T10:58:46Z</time>
      </trkpt>
      <trkpt lat="27.789499" lon="-17.932815">
        <ele>890.248</ele>
        <time>2021-12-27T10:59:12Z</time>
      </trkpt>
      <trkpt lat="27.789399" lon="-17.933301">
        <ele>889.559</ele>
        <time>2021-12-27T10:59:47Z</time>
      </trkpt>
      <trkpt lat="27.788579" lon="-17.933254">
        <ele>890.946</ele>
        <time>2021-12-27T11:00:49Z</time>
      </trkpt>
      <trkpt lat="27.787202" lon="-17.934490">
        <ele>920.388</ele>
        <time>2021-12-27T11:04:20Z</time>
      </trkpt>
      <trkpt lat="27.786362" lon="-17.935617">
        <ele>949.316</ele>
        <time>2021-12-27T11:06:34Z</time>
      </trkpt>
      <trkpt lat="27.786044" lon="-17.936498">
        <ele>963.508</ele>
        <time>2021-12-27T11:07:51Z</time>
      </trkpt>
      <trkpt lat="27.785533" lon="-17.937121">
        <ele>973.323</ele>
        <time>2021-12-27T11:09:01Z</time>
      </trkpt>
      <trkpt lat="27.785557" lon="-17.937472">
        <ele>976.475</ele>
        <time>2021-12-27T11:09:53Z</time>
      </trkpt>
      <trkpt lat="27.785166" lon="-17.938153">
        <ele>987.720</ele>
        <time>2021-12-27T11:10:48Z</time>
      </trkpt>
      <trkpt lat="27.785064" lon="-17.939843">
        <ele>998.599</ele>
        <time>2021-12-27T11:12:43Z</time>
      </trkpt>
      <trkpt lat="27.784891" lon="-17.940325">
        <ele>1002.533</ele>
        <time>2021-12-27T11:13:20Z</time>
      </trkpt>
      <trkpt lat="27.784989" lon="-17.941079">
        <ele>1014.237</ele>
        <time>2021-12-27T11:14:20Z</time>
      </trkpt>
      <trkpt lat="27.784713" lon="-17.941678">
        <ele>1020.857</ele>
        <time>2021-12-27T11:15:08Z</time>
      </trkpt>
      <trkpt lat="27.784752" lon="-17.942367">
        <ele>1024.568</ele>
        <time>2021-12-27T11:15:58Z</time>
      </trkpt>
      <trkpt lat="27.784073" lon="-17.943720">
        <ele>1011.486</ele>
        <time>2021-12-27T11:19:18Z</time>
      </trkpt>
      <trkpt lat="27.783864" lon="-17.944797">
        <ele>1012.760</ele>
        <time>2021-12-27T11:20:32Z</time>
      </trkpt>
      <trkpt lat="27.784012" lon="-17.946261">
        <ele>1013.826</ele>
        <time>2021-12-27T11:22:08Z</time>
      </trkpt>
      <trkpt lat="27.783001" lon="-17.947523">
        <ele>1013.008</ele>
        <time>2021-12-27T11:23:58Z</time>
      </trkpt>
      <trkpt lat="27.782830" lon="-17.948386">
        <ele>1012.167</ele>
        <time>2021-12-27T11:24:56Z</time>
      </trkpt>
      <trkpt lat="27.782883" lon="-17.948863">
        <ele>1010.299</ele>
        <time>2021-12-27T11:42:30Z</time>
      </trkpt>
      <trkpt lat="27.782604" lon="-17.949819">
        <ele>1009.094</ele>
        <time>2021-12-27T11:43:36Z</time>
      </trkpt>
      <trkpt lat="27.781775" lon="-17.951038">
        <ele>1011.713</ele>
        <time>2021-12-27T11:45:13Z</time>
      </trkpt>
      <trkpt lat="27.781620" lon="-17.951781">
        <ele>1014.287</ele>
        <time>2021-12-27T11:46:45Z</time>
      </trkpt>
      <trkpt lat="27.780984" lon="-17.952517">
        <ele>1009.121</ele>
        <time>2021-12-27T11:48:18Z</time>
      </trkpt>
      <trkpt lat="27.779830" lon="-17.953245">
        <ele>1001.061</ele>
        <time>2021-12-27T11:50:06Z</time>
      </trkpt>
      <trkpt lat="27.778953" lon="-17.954272">
        <ele>997.372</ele>
        <time>2021-12-27T11:51:33Z</time>
      </trkpt>
      <trkpt lat="27.777518" lon="-17.956549">
        <ele>1007.992</ele>
        <time>2021-12-27T11:54:44Z</time>
      </trkpt>
      <trkpt lat="27.777005" lon="-17.958167">
        <ele>1017.573</ele>
        <time>2021-12-27T11:56:41Z</time>
      </trkpt>
      <trkpt lat="27.775603" lon="-17.960092">
        <ele>1018.220</ele>
        <time>2021-12-27T11:59:40Z</time>
      </trkpt>
      <trkpt lat="27.774533" lon="-17.960382">
        <ele>1027.508</ele>
        <time>2021-12-27T12:01:06Z</time>
      </trkpt>
      <trkpt lat="27.772980" lon="-17.961544">
        <ele>1036.938</ele>
        <time>2021-12-27T12:03:23Z</time>
      </trkpt>
      <trkpt lat="27.772678" lon="-17.962280">
        <ele>1043.610</ele>
        <time>2021-12-27T12:04:18Z</time>
      </trkpt>
      <trkpt lat="27.770874" lon="-17.964631">
        <ele>1057.495</ele>
        <time>2021-12-27T12:08:18Z</time>
      </trkpt>
      <trkpt lat="27.769048" lon="-17.966163">
        <ele>1060.164</ele>
        <time>2021-12-27T12:10:59Z</time>
      </trkpt>
      <trkpt lat="27.767634" lon="-17.967780">
        <ele>1067.658</ele>
        <time>2021-12-27T12:13:24Z</time>
      </trkpt>
      <trkpt lat="27.765520" lon="-17.969447">
        <ele>1080.112</ele>
        <time>2021-12-27T12:16:42Z</time>
      </trkpt>
      <trkpt lat="27.764728" lon="-17.969899">
        <ele>1098.592</ele>
        <time>2021-12-27T12:18:26Z</time>
      </trkpt>
      <trkpt lat="27.764118" lon="-17.971073">
        <ele>1120.283</ele>
        <time>2021-12-27T12:20:52Z</time>
      </trkpt>
      <trkpt lat="27.763794" lon="-17.971020">
        <ele>1128.076</ele>
        <time>2021-12-27T12:21:47Z</time>
      </trkpt>
      <trkpt lat="27.763458" lon="-17.971418">
        <ele>1138.890</ele>
        <time>2021-12-27T12:22:47Z</time>
      </trkpt>
      <trkpt lat="27.762824" lon="-17.971731">
        <ele>1144.819</ele>
        <time>2021-12-27T12:23:54Z</time>
      </trkpt>
      <trkpt lat="27.762029" lon="-17.972711">
        <ele>1154.208</ele>
        <time>2021-12-27T12:25:27Z</time>
      </trkpt>
      <trkpt lat="27.761328" lon="-17.972941">
        <ele>1161.416</ele>
        <time>2021-12-27T12:26:25Z</time>
      </trkpt>
      <trkpt lat="27.759681" lon="-17.973839">
        <ele>1173.138</ele>
        <time>2021-12-27T12:28:51Z</time>
      </trkpt>
      <trkpt lat="27.759366" lon="-17.974357">
        <ele>1180.383</ele>
        <time>2021-12-27T12:29:37Z</time>
      </trkpt>
      <trkpt lat="27.758757" lon="-17.974653">
        <ele>1188.722</ele>
        <time>2021-12-27T12:30:35Z</time>
      </trkpt>
      <trkpt lat="27.757992" lon="-17.975359">
        <ele>1200.886</ele>
        <time>2021-12-27T12:32:03Z</time>
      </trkpt>
      <trkpt lat="27.757131" lon="-17.975499">
        <ele>1209.420</ele>
        <time>2021-12-27T12:33:17Z</time>
      </trkpt>
      <trkpt lat="27.756658" lon="-17.975771">
        <ele>1213.150</ele>
        <time>2021-12-27T12:34:00Z</time>
      </trkpt>
      <trkpt lat="27.755987" lon="-17.975691">
        <ele>1220.511</ele>
        <time>2021-12-27T12:34:58Z</time>
      </trkpt>
      <trkpt lat="27.754609" lon="-17.976526">
        <ele>1233.028</ele>
        <time>2021-12-27T12:37:42Z</time>
      </trkpt>
      <trkpt lat="27.753287" lon="-17.977616">
        <ele>1240.189</ele>
        <time>2021-12-27T12:39:42Z</time>
      </trkpt>
      <trkpt lat="27.752645" lon="-17.977871">
        <ele>1242.417</ele>
        <time>2021-12-27T12:40:30Z</time>
      </trkpt>
      <trkpt lat="27.751856" lon="-17.978469">
        <ele>1247.108</ele>
        <time>2021-12-27T12:41:41Z</time>
      </trkpt>
      <trkpt lat="27.750311" lon="-17.980242">
        <ele>1254.621</ele>
        <time>2021-12-27T12:44:24Z</time>
      </trkpt>
      <trkpt lat="27.749301" lon="-17.980739">
        <ele>1262.893</ele>
        <time>2021-12-27T12:45:50Z</time>
      </trkpt>
      <trkpt lat="27.747390" lon="-17.982637">
        <ele>1292.918</ele>
        <time>2021-12-27T12:49:22Z</time>
      </trkpt>
      <trkpt lat="27.746953" lon="-17.983449">
        <ele>1306.877</ele>
        <time>2021-12-27T12:50:31Z</time>
      </trkpt>
      <trkpt lat="27.746387" lon="-17.983965">
        <ele>1303.651</ele>
        <time>2021-12-27T12:51:26Z</time>
      </trkpt>
      <trkpt lat="27.746292" lon="-17.984316">
        <ele>1301.035</ele>
        <time>2021-12-27T12:51:50Z</time>
      </trkpt>
      <trkpt lat="27.745709" lon="-17.984826">
        <ele>1290.965</ele>
        <time>2021-12-27T12:52:50Z</time>
      </trkpt>
      <trkpt lat="27.745612" lon="-17.985490">
        <ele>1288.426</ele>
        <time>2021-12-27T12:53:34Z</time>
      </trkpt>
      <trkpt lat="27.744880" lon="-17.985714">
        <ele>1287.798</ele>
        <time>2021-12-27T12:54:35Z</time>
      </trkpt>
      <trkpt lat="27.744975" lon="-17.985879">
        <ele>1287.715</ele>
        <time>2021-12-27T12:55:03Z</time>
      </trkpt>
      <trkpt lat="27.744843" lon="-17.985958">
        <ele>1288.426</ele>
        <time>2021-12-27T12:55:17Z</time>
      </trkpt>
      <trkpt lat="27.743300" lon="-17.986219">
        <ele>1288.208</ele>
        <time>2021-12-27T12:57:07Z</time>
      </trkpt>
      <trkpt lat="27.743188" lon="-17.986580">
        <ele>1289.338</ele>
        <time>2021-12-27T12:57:31Z</time>
      </trkpt>
      <trkpt lat="27.742519" lon="-17.987109">
        <ele>1291.240</ele>
        <time>2021-12-27T12:58:34Z</time>
      </trkpt>
      <trkpt lat="27.740992" lon="-17.987658">
        <ele>1295.445</ele>
        <time>2021-12-27T13:00:35Z</time>
      </trkpt>
      <trkpt lat="27.740280" lon="-17.988113">
        <ele>1293.694</ele>
        <time>2021-12-27T13:01:36Z</time>
      </trkpt>
      <trkpt lat="27.739123" lon="-17.989994">
        <ele>1297.828</ele>
        <time>2021-12-27T13:04:15Z</time>
      </trkpt>
      <trkpt lat="27.738830" lon="-17.990916">
        <ele>1298.372</ele>
        <time>2021-12-27T13:05:21Z</time>
      </trkpt>
      <trkpt lat="27.738161" lon="-17.991681">
        <ele>1285.972</ele>
        <time>2021-12-27T13:06:43Z</time>
      </trkpt>
      <trkpt lat="27.738010" lon="-17.992362">
        <ele>1280.493</ele>
        <time>2021-12-27T13:07:29Z</time>
      </trkpt>
      <trkpt lat="27.737725" lon="-17.992811">
        <ele>1278.123</ele>
        <time>2021-12-27T13:09:19Z</time>
      </trkpt>
      <trkpt lat="27.737467" lon="-17.994058">
        <ele>1287.183</ele>
        <time>2021-12-27T13:10:46Z</time>
      </trkpt>
      <trkpt lat="27.737079" lon="-17.994418">
        <ele>1291.211</ele>
        <time>2021-12-27T13:11:47Z</time>
      </trkpt>
      <trkpt lat="27.736102" lon="-17.997201">
        <ele>1306.908</ele>
        <time>2021-12-27T13:17:14Z</time>
      </trkpt>
      <trkpt lat="27.735533" lon="-17.997402">
        <ele>1307.691</ele>
        <time>2021-12-27T13:18:35Z</time>
      </trkpt>
      <trkpt lat="27.734959" lon="-17.998185">
        <ele>1308.713</ele>
        <time>2021-12-27T13:19:43Z</time>
      </trkpt>
      <trkpt lat="27.734794" lon="-17.999871">
        <ele>1312.478</ele>
        <time>2021-12-27T13:21:32Z</time>
      </trkpt>
      <trkpt lat="27.734140" lon="-18.001835">
        <ele>1316.477</ele>
        <time>2021-12-27T13:23:45Z</time>
      </trkpt>
      <trkpt lat="27.732704" lon="-18.004291">
        <ele>1319.811</ele>
        <time>2021-12-27T13:26:53Z</time>
      </trkpt>
      <trkpt lat="27.732823" lon="-18.005161">
        <ele>1320.395</ele>
        <time>2021-12-27T13:28:25Z</time>
      </trkpt>
      <trkpt lat="27.732595" lon="-18.007331">
        <ele>1323.125</ele>
        <time>2021-12-27T13:30:49Z</time>
      </trkpt>
      <trkpt lat="27.731665" lon="-18.008195">
        <ele>1324.556</ele>
        <time>2021-12-27T13:36:03Z</time>
      </trkpt>
      <trkpt lat="27.731891" lon="-18.008709">
        <ele>1327.417</ele>
        <time>2021-12-27T13:37:04Z</time>
      </trkpt>
      <trkpt lat="27.730401" lon="-18.009335">
        <ele>1345.787</ele>
        <time>2021-12-27T13:39:02Z</time>
      </trkpt>
      <trkpt lat="27.729748" lon="-18.009999">
        <ele>1349.115</ele>
        <time>2021-12-27T13:40:07Z</time>
      </trkpt>
      <trkpt lat="27.729536" lon="-18.011453">
        <ele>1346.208</ele>
        <time>2021-12-27T13:41:39Z</time>
      </trkpt>
      <trkpt lat="27.727968" lon="-18.013330">
        <ele>1351.980</ele>
        <time>2021-12-27T13:44:25Z</time>
      </trkpt>
      <trkpt lat="27.727398" lon="-18.015368">
        <ele>1352.532</ele>
        <time>2021-12-27T13:46:38Z</time>
      </trkpt>
      <trkpt lat="27.727427" lon="-18.016284">
        <ele>1355.647</ele>
        <time>2021-12-27T13:47:39Z</time>
      </trkpt>
      <trkpt lat="27.728181" lon="-18.017632">
        <ele>1356.996</ele>
        <time>2021-12-27T13:49:22Z</time>
      </trkpt>
      <trkpt lat="27.727979" lon="-18.018613">
        <ele>1340.120</ele>
        <time>2021-12-27T13:50:34Z</time>
      </trkpt>
      <trkpt lat="27.728186" lon="-18.019552">
        <ele>1332.314</ele>
        <time>2021-12-27T13:51:38Z</time>
      </trkpt>
      <trkpt lat="27.728042" lon="-18.020024">
        <ele>1330.124</ele>
        <time>2021-12-27T13:52:21Z</time>
      </trkpt>
      <trkpt lat="27.728072" lon="-18.021156">
        <ele>1332.045</ele>
        <time>2021-12-27T13:54:18Z</time>
      </trkpt>
      <trkpt lat="27.728317" lon="-18.021578">
        <ele>1346.227</ele>
        <time>2021-12-27T13:55:23Z</time>
      </trkpt>
      <trkpt lat="27.727957" lon="-18.022396">
        <ele>1349.768</ele>
        <time>2021-12-27T13:56:31Z</time>
      </trkpt>
      <trkpt lat="27.727501" lon="-18.024163">
        <ele>1344.514</ele>
        <time>2021-12-27T13:58:36Z</time>
      </trkpt>
      <trkpt lat="27.727580" lon="-18.024693">
        <ele>1346.108</ele>
        <time>2021-12-27T13:59:11Z</time>
      </trkpt>
      <trkpt lat="27.727343" lon="-18.024894">
        <ele>1344.821</ele>
        <time>2021-12-27T13:59:39Z</time>
      </trkpt>
      <trkpt lat="27.727290" lon="-18.024761">
        <ele>1340.753</ele>
        <time>2021-12-27T14:48:41Z</time>
      </trkpt>
      <trkpt lat="27.726929" lon="-18.025543">
        <ele>1335.548</ele>
        <time>2021-12-27T14:50:29Z</time>
      </trkpt>
      <trkpt lat="27.727225" lon="-18.026657">
        <ele>1334.277</ele>
        <time>2021-12-27T14:55:19Z</time>
      </trkpt>
      <trkpt lat="27.727678" lon="-18.027377">
        <ele>1329.191</ele>
        <time>2021-12-27T14:56:32Z</time>
      </trkpt>
      <trkpt lat="27.727814" lon="-18.028093">
        <ele>1329.155</ele>
        <time>2021-12-27T14:57:25Z</time>
      </trkpt>
      <trkpt lat="27.728099" lon="-18.028340">
        <ele>1336.865</ele>
        <time>2021-12-27T14:58:03Z</time>
      </trkpt>
      <trkpt lat="27.728096" lon="-18.028862">
        <ele>1344.646</ele>
        <time>2021-12-27T14:58:59Z</time>
      </trkpt>
      <trkpt lat="27.728695" lon="-18.030699">
        <ele>1374.623</ele>
        <time>2021-12-27T15:02:01Z</time>
      </trkpt>
      <trkpt lat="27.728709" lon="-18.031052">
        <ele>1376.583</ele>
        <time>2021-12-27T15:02:27Z</time>
      </trkpt>
      <trkpt lat="27.728386" lon="-18.031558">
        <ele>1380.111</ele>
        <time>2021-12-27T15:03:15Z</time>
      </trkpt>
      <trkpt lat="27.728284" lon="-18.032441">
        <ele>1393.408</ele>
        <time>2021-12-27T15:04:39Z</time>
      </trkpt>
      <trkpt lat="27.727996" lon="-18.033265">
        <ele>1403.121</ele>
        <time>2021-12-27T15:05:46Z</time>
      </trkpt>
      <trkpt lat="27.727909" lon="-18.034342">
        <ele>1413.993</ele>
        <time>2021-12-27T15:07:32Z</time>
      </trkpt>
      <trkpt lat="27.728323" lon="-18.034708">
        <ele>1430.418</ele>
        <time>2021-12-27T15:10:38Z</time>
      </trkpt>
      <trkpt lat="27.727952" lon="-18.036296">
        <ele>1452.367</ele>
        <time>2021-12-27T15:13:20Z</time>
      </trkpt>
      <trkpt lat="27.727983" lon="-18.036910">
        <ele>1461.411</ele>
        <time>2021-12-27T15:14:50Z</time>
      </trkpt>
      <trkpt lat="27.728180" lon="-18.038168">
        <ele>1458.045</ele>
        <time>2021-12-27T15:16:27Z</time>
      </trkpt>
      <trkpt lat="27.728607" lon="-18.038417">
        <ele>1453.465</ele>
        <time>2021-12-27T15:17:31Z</time>
      </trkpt>
      <trkpt lat="27.728868" lon="-18.038808">
        <ele>1451.846</ele>
        <time>2021-12-27T15:18:06Z</time>
      </trkpt>
      <trkpt lat="27.728552" lon="-18.039332">
        <ele>1454.918</ele>
        <time>2021-12-27T15:18:50Z</time>
      </trkpt>
      <trkpt lat="27.728607" lon="-18.039731">
        <ele>1458.298</ele>
        <time>2021-12-27T15:19:21Z</time>
      </trkpt>
      <trkpt lat="27.728906" lon="-18.040270">
        <ele>1469.817</ele>
        <time>2021-12-27T15:20:11Z</time>
      </trkpt>
      <trkpt lat="27.729219" lon="-18.040406">
        <ele>1471.808</ele>
        <time>2021-12-27T15:20:55Z</time>
      </trkpt>
      <trkpt lat="27.728594" lon="-18.040869">
        <ele>1469.210</ele>
        <time>2021-12-27T15:34:24Z</time>
      </trkpt>
      <trkpt lat="27.728080" lon="-18.042237">
        <ele>1461.372</ele>
        <time>2021-12-27T15:36:13Z</time>
      </trkpt>
      <trkpt lat="27.728058" lon="-18.043105">
        <ele>1461.477</ele>
        <time>2021-12-27T15:37:16Z</time>
      </trkpt>
      <trkpt lat="27.727786" lon="-18.043730">
        <ele>1461.276</ele>
        <time>2021-12-27T15:38:04Z</time>
      </trkpt>
      <trkpt lat="27.727530" lon="-18.045817">
        <ele>1440.520</ele>
        <time>2021-12-27T15:40:33Z</time>
      </trkpt>
      <trkpt lat="27.726989" lon="-18.046859">
        <ele>1430.854</ele>
        <time>2021-12-27T15:42:02Z</time>
      </trkpt>
      <trkpt lat="27.726579" lon="-18.047313">
        <ele>1426.744</ele>
        <time>2021-12-27T15:42:46Z</time>
      </trkpt>
      <trkpt lat="27.726518" lon="-18.047645">
        <ele>1424.195</ele>
        <time>2021-12-27T15:43:12Z</time>
      </trkpt>
      <trkpt lat="27.725802" lon="-18.048552">
        <ele>1419.896</ele>
        <time>2021-12-27T15:44:41Z</time>
      </trkpt>
      <trkpt lat="27.725542" lon="-18.049229">
        <ele>1415.731</ele>
        <time>2021-12-27T15:45:38Z</time>
      </trkpt>
      <trkpt lat="27.725607" lon="-18.049823">
        <ele>1414.424</ele>
        <time>2021-12-27T15:46:24Z</time>
      </trkpt>
      <trkpt lat="27.724893" lon="-18.051944">
        <ele>1422.508</ele>
        <time>2021-12-27T15:48:59Z</time>
      </trkpt>
      <trkpt lat="27.724923" lon="-18.052905">
        <ele>1412.738</ele>
        <time>2021-12-27T15:50:12Z</time>
      </trkpt>
      <trkpt lat="27.724770" lon="-18.053790">
        <ele>1395.170</ele>
        <time>2021-12-27T15:51:32Z</time>
      </trkpt>
      <trkpt lat="27.724328" lon="-18.054725">
        <ele>1392.345</ele>
        <time>2021-12-27T15:52:44Z</time>
      </trkpt>
      <trkpt lat="27.724064" lon="-18.056465">
        <ele>1386.154</ele>
        <time>2021-12-27T15:54:47Z</time>
      </trkpt>
      <trkpt lat="27.724256" lon="-18.056882">
        <ele>1383.248</ele>
        <time>2021-12-27T15:55:19Z</time>
      </trkpt>
      <trkpt lat="27.724461" lon="-18.058514">
        <ele>1385.222</ele>
        <time>2021-12-27T15:57:23Z</time>
      </trkpt>
      <trkpt lat="27.724482" lon="-18.060499">
        <ele>1388.842</ele>
        <time>2021-12-27T15:59:45Z</time>
      </trkpt>
      <trkpt lat="27.725031" lon="-18.061668">
        <ele>1388.723</ele>
        <time>2021-12-27T16:01:15Z</time>
      </trkpt>
      <trkpt lat="27.725108" lon="-18.062925">
        <ele>1386.984</ele>
        <time>2021-12-27T16:02:42Z</time>
      </trkpt>
      <trkpt lat="27.725742" lon="-18.064488">
        <ele>1386.207</ele>
        <time>2021-12-27T16:04:41Z</time>
      </trkpt>
      <trkpt lat="27.725965" lon="-18.065593">
        <ele>1384.617</ele>
        <time>2021-12-27T16:12:56Z</time>
      </trkpt>
      <trkpt lat="27.725652" lon="-18.066118">
        <ele>1385.108</ele>
        <time>2021-12-27T16:13:40Z</time>
      </trkpt>
      <trkpt lat="27.725497" lon="-18.067026">
        <ele>1390.467</ele>
        <time>2021-12-27T16:14:44Z</time>
      </trkpt>
      <trkpt lat="27.725513" lon="-18.068279">
        <ele>1391.459</ele>
        <time>2021-12-27T16:16:13Z</time>
      </trkpt>
      <trkpt lat="27.725810" lon="-18.069327">
        <ele>1390.854</ele>
        <time>2021-12-27T16:17:28Z</time>
      </trkpt>
      <trkpt lat="27.725830" lon="-18.071277">
        <ele>1371.683</ele>
        <time>2021-12-27T16:19:51Z</time>
      </trkpt>
      <trkpt lat="27.726201" lon="-18.072915">
        <ele>1337.257</ele>
        <time>2021-12-27T16:24:45Z</time>
      </trkpt>
      <trkpt lat="27.725818" lon="-18.073481">
        <ele>1328.861</ele>
        <time>2021-12-27T16:25:36Z</time>
      </trkpt>
      <trkpt lat="27.725782" lon="-18.074536">
        <ele>1320.341</ele>
        <time>2021-12-27T16:26:48Z</time>
      </trkpt>
      <trkpt lat="27.726678" lon="-18.076468">
        <ele>1306.712</ele>
        <time>2021-12-27T16:29:26Z</time>
      </trkpt>
      <trkpt lat="27.726759" lon="-18.076905">
        <ele>1300.737</ele>
        <time>2021-12-27T16:29:57Z</time>
      </trkpt>
      <trkpt lat="27.726981" lon="-18.077142">
        <ele>1297.549</ele>
        <time>2021-12-27T16:30:27Z</time>
      </trkpt>
      <trkpt lat="27.727650" lon="-18.079720">
        <ele>1274.213</ele>
        <time>2021-12-27T16:33:57Z</time>
      </trkpt>
      <trkpt lat="27.728171" lon="-18.080142">
        <ele>1263.508</ele>
        <time>2021-12-27T16:35:04Z</time>
      </trkpt>
      <trkpt lat="27.728339" lon="-18.080478">
        <ele>1255.952</ele>
        <time>2021-12-27T16:35:36Z</time>
      </trkpt>
      <trkpt lat="27.728396" lon="-18.081594">
        <ele>1241.384</ele>
        <time>2021-12-27T16:36:58Z</time>
      </trkpt>
      <trkpt lat="27.728651" lon="-18.082778">
        <ele>1235.359</ele>
        <time>2021-12-27T16:38:26Z</time>
      </trkpt>
      <trkpt lat="27.729334" lon="-18.084287">
        <ele>1233.598</ele>
        <time>2021-12-27T16:40:25Z</time>
      </trkpt>
      <trkpt lat="27.729219" lon="-18.085625">
        <ele>1225.982</ele>
        <time>2021-12-27T16:41:58Z</time>
      </trkpt>
      <trkpt lat="27.729712" lon="-18.086814">
        <ele>1217.526</ele>
        <time>2021-12-27T16:43:32Z</time>
      </trkpt>
      <trkpt lat="27.729361" lon="-18.088313">
        <ele>1212.086</ele>
        <time>2021-12-27T16:45:16Z</time>
      </trkpt>
      <trkpt lat="27.729233" lon="-18.089644">
        <ele>1208.517</ele>
        <time>2021-12-27T16:46:47Z</time>
      </trkpt>
      <trkpt lat="27.729318" lon="-18.090129">
        <ele>1205.526</ele>
        <time>2021-12-27T16:47:18Z</time>
      </trkpt>
      <trkpt lat="27.730074" lon="-18.092101">
        <ele>1197.247</ele>
        <time>2021-12-27T16:50:50Z</time>
      </trkpt>
      <trkpt lat="27.731368" lon="-18.093784">
        <ele>1166.311</ele>
        <time>2021-12-27T16:54:14Z</time>
      </trkpt>
      <trkpt lat="27.731493" lon="-18.094133">
        <ele>1159.608</ele>
        <time>2021-12-27T16:55:03Z</time>
      </trkpt>
      <trkpt lat="27.732263" lon="-18.094603">
        <ele>1151.491</ele>
        <time>2021-12-27T16:56:32Z</time>
      </trkpt>
      <trkpt lat="27.732437" lon="-18.095111">
        <ele>1147.463</ele>
        <time>2021-12-27T16:57:12Z</time>
      </trkpt>
      <trkpt lat="27.733141" lon="-18.095539">
        <ele>1138.318</ele>
        <time>2021-12-27T16:58:17Z</time>
      </trkpt>
      <trkpt lat="27.733534" lon="-18.096172">
        <ele>1131.577</ele>
        <time>2021-12-27T16:59:10Z</time>
      </trkpt>
      <trkpt lat="27.734629" lon="-18.097071">
        <ele>1122.891</ele>
        <time>2021-12-27T17:00:53Z</time>
      </trkpt>
      <trkpt lat="27.734483" lon="-18.097620">
        <ele>1114.395</ele>
        <time>2021-12-27T17:01:49Z</time>
      </trkpt>
      <trkpt lat="27.735165" lon="-18.098226">
        <ele>1104.335</ele>
        <time>2021-12-27T17:03:05Z</time>
      </trkpt>
      <trkpt lat="27.734966" lon="-18.098932">
        <ele>1088.256</ele>
        <time>2021-12-27T17:04:13Z</time>
      </trkpt>
      <trkpt lat="27.735089" lon="-18.099376">
        <ele>1083.682</ele>
        <time>2021-12-27T17:04:48Z</time>
      </trkpt>
      <trkpt lat="27.735702" lon="-18.100186">
        <ele>1068.943</ele>
        <time>2021-12-27T17:06:15Z</time>
      </trkpt>
      <trkpt lat="27.736807" lon="-18.100978">
        <ele>1054.117</ele>
        <time>2021-12-27T17:08:11Z</time>
      </trkpt>
      <trkpt lat="27.737101" lon="-18.101692">
        <ele>1040.708</ele>
        <time>2021-12-27T17:09:13Z</time>
      </trkpt>
      <trkpt lat="27.737015" lon="-18.102001">
        <ele>1036.627</ele>
        <time>2021-12-27T17:09:43Z</time>
      </trkpt>
      <trkpt lat="27.737127" lon="-18.102439">
        <ele>1027.249</ele>
        <time>2021-12-27T17:10:30Z</time>
      </trkpt>
      <trkpt lat="27.737993" lon="-18.104494">
        <ele>993.424</ele>
        <time>2021-12-27T17:13:46Z</time>
      </trkpt>
      <trkpt lat="27.738288" lon="-18.104828">
        <ele>987.683</ele>
        <time>2021-12-27T17:14:22Z</time>
      </trkpt>
      <trkpt lat="27.738880" lon="-18.104928">
        <ele>979.177</ele>
        <time>2021-12-27T17:15:18Z</time>
      </trkpt>
      <trkpt lat="27.739297" lon="-18.105761">
        <ele>970.021</ele>
        <time>2021-12-27T17:16:35Z</time>
      </trkpt>
      <trkpt lat="27.739692" lon="-18.106062">
        <ele>962.891</ele>
        <time>2021-12-27T17:17:18Z</time>
      </trkpt>
      <trkpt lat="27.740107" lon="-18.106153">
        <ele>958.652</ele>
        <time>2021-12-27T17:19:28Z</time>
      </trkpt>
      <trkpt lat="27.740583" lon="-18.107185">
        <ele>944.341</ele>
        <time>2021-12-27T17:24:37Z</time>
      </trkpt>
      <trkpt lat="27.739368" lon="-18.106963">
        <ele>938.181</ele>
        <time>2021-12-27T17:26:21Z</time>
      </trkpt>
      <trkpt lat="27.738986" lon="-18.107196">
        <ele>933.309</ele>
        <time>2021-12-27T17:27:02Z</time>
      </trkpt>
      <trkpt lat="27.738816" lon="-18.107545">
        <ele>925.808</ele>
        <time>2021-12-27T17:27:39Z</time>
      </trkpt>
      <trkpt lat="27.738346" lon="-18.107722">
        <ele>916.913</ele>
        <time>2021-12-27T17:28:22Z</time>
      </trkpt>
      <trkpt lat="27.737521" lon="-18.107569">
        <ele>909.165</ele>
        <time>2021-12-27T17:29:35Z</time>
      </trkpt>
      <trkpt lat="27.737401" lon="-18.107661">
        <ele>906.850</ele>
        <time>2021-12-27T17:29:48Z</time>
      </trkpt>
      <trkpt lat="27.736446" lon="-18.109324">
        <ele>876.769</ele>
        <time>2021-12-27T17:32:51Z</time>
      </trkpt>
      <trkpt lat="27.736053" lon="-18.109563">
        <ele>870.363</ele>
        <time>2021-12-27T17:33:25Z</time>
      </trkpt>
      <trkpt lat="27.735596" lon="-18.110286">
        <ele>854.767</ele>
        <time>2021-12-27T17:34:50Z</time>
      </trkpt>
      <trkpt lat="27.735377" lon="-18.111043">
        <ele>841.717</ele>
        <time>2021-12-27T17:36:07Z</time>
      </trkpt>
      <trkpt lat="27.734612" lon="-18.112399">
        <ele>819.838</ele>
        <time>2021-12-27T17:38:17Z</time>
      </trkpt>
      <trkpt lat="27.734212" lon="-18.114196">
        <ele>788.439</ele>
        <time>2021-12-27T17:41:05Z</time>
      </trkpt>
      <trkpt lat="27.733911" lon="-18.114664">
        <ele>779.301</ele>
        <time>2021-12-27T17:42:30Z</time>
      </trkpt>
      <trkpt lat="27.733504" lon="-18.114716">
        <ele>773.021</ele>
        <time>2021-12-27T17:43:03Z</time>
      </trkpt>
      <trkpt lat="27.733130" lon="-18.115115">
        <ele>765.808</ele>
        <time>2021-12-27T17:43:46Z</time>
      </trkpt>
      <trkpt lat="27.732902" lon="-18.115981">
        <ele>755.592</ele>
        <time>2021-12-27T17:44:49Z</time>
      </trkpt>
      <trkpt lat="27.732413" lon="-18.116997">
        <ele>740.744</ele>
        <time>2021-12-27T17:46:22Z</time>
      </trkpt>
      <trkpt lat="27.731779" lon="-18.117603">
        <ele>720.599</ele>
        <time>2021-12-27T17:49:03Z</time>
      </trkpt>
      <trkpt lat="27.731388" lon="-18.118210">
        <ele>710.848</ele>
        <time>2021-12-27T17:49:52Z</time>
      </trkpt>
      <trkpt lat="27.730709" lon="-18.118190">
        <ele>709.762</ele>
        <time>2021-12-27T17:50:51Z</time>
      </trkpt>
      <trkpt lat="27.730155" lon="-18.118533">
        <ele>708.146</ele>
        <time>2021-12-27T17:51:44Z</time>
      </trkpt>
      <trkpt lat="27.730326" lon="-18.120156">
        <ele>700.736</ele>
        <time>2021-12-27T17:53:33Z</time>
      </trkpt>
      <trkpt lat="27.730137" lon="-18.120233">
        <ele>699.157</ele>
        <time>2021-12-27T17:53:52Z</time>
      </trkpt>
      <trkpt lat="27.729957" lon="-18.120634">
        <ele>690.956</ele>
        <time>2021-12-27T17:54:33Z</time>
      </trkpt>
      <trkpt lat="27.730096" lon="-18.120806">
        <ele>687.759</ele>
        <time>2021-12-27T17:55:07Z</time>
      </trkpt>
      <trkpt lat="27.729960" lon="-18.121147">
        <ele>684.314</ele>
        <time>2021-12-27T18:15:13Z</time>
      </trkpt>
      <trkpt lat="27.730211" lon="-18.121165">
        <ele>685.308</ele>
        <time>2021-12-27T18:15:41Z</time>
      </trkpt>
      <trkpt lat="27.730365" lon="-18.120793">
        <ele>689.074</ele>
        <time>2021-12-27T18:16:10Z</time>
      </trkpt>
      <trkpt lat="27.730616" lon="-18.121195">
        <ele>693.766</ele>
        <time>2021-12-27T18:16:52Z</time>
      </trkpt>
      <trkpt lat="27.731068" lon="-18.121287">
        <ele>693.841</ele>
        <time>2021-12-27T18:17:28Z</time>
      </trkpt>
      <trkpt lat="27.731039" lon="-18.122317">
        <ele>675.440</ele>
        <time>2021-12-27T18:19:50Z</time>
      </trkpt>
      <trkpt lat="27.730926" lon="-18.122571">
        <ele>670.864</ele>
        <time>2021-12-27T18:21:05Z</time>
      </trkpt>
      <trkpt lat="27.730627" lon="-18.122650">
        <ele>661.488</ele>
        <time>2021-12-27T18:21:35Z</time>
      </trkpt>
      <trkpt lat="27.730330" lon="-18.123224">
        <ele>649.268</ele>
        <time>2021-12-27T18:22:25Z</time>
      </trkpt>
      <trkpt lat="27.729402" lon="-18.123543">
        <ele>633.569</ele>
        <time>2021-12-27T18:23:36Z</time>
      </trkpt>
      <trkpt lat="27.728620" lon="-18.125177">
        <ele>610.862</ele>
        <time>2021-12-27T18:25:52Z</time>
      </trkpt>
      <trkpt lat="27.727907" lon="-18.125247">
        <ele>602.883</ele>
        <time>2021-12-27T18:26:48Z</time>
      </trkpt>
      <trkpt lat="27.726949" lon="-18.125651">
        <ele>593.111</ele>
        <time>2021-12-27T18:28:07Z</time>
      </trkpt>
      <trkpt lat="27.727105" lon="-18.126537">
        <ele>587.608</ele>
        <time>2021-12-27T18:29:08Z</time>
      </trkpt>
      <trkpt lat="27.727482" lon="-18.126981">
        <ele>583.175</ele>
        <time>2021-12-27T18:29:49Z</time>
      </trkpt>
      <trkpt lat="27.727464" lon="-18.127786">
        <ele>576.737</ele>
        <time>2021-12-27T18:30:43Z</time>
      </trkpt>
      <trkpt lat="27.728109" lon="-18.128196">
        <ele>569.292</ele>
        <time>2021-12-27T18:31:34Z</time>
      </trkpt>
      <trkpt lat="27.728175" lon="-18.128465">
        <ele>567.341</ele>
        <time>2021-12-27T18:31:51Z</time>
      </trkpt>
      <trkpt lat="27.727957" lon="-18.128809">
        <ele>563.815</ele>
        <time>2021-12-27T18:32:15Z</time>
      </trkpt>
      <trkpt lat="27.725898" lon="-18.130540">
        <ele>551.969</ele>
        <time>2021-12-27T18:35:50Z</time>
      </trkpt>
      <trkpt lat="27.725802" lon="-18.131538">
        <ele>546.339</ele>
        <time>2021-12-27T18:36:57Z</time>
      </trkpt>
      <trkpt lat="27.726250" lon="-18.132633">
        <ele>537.890</ele>
        <time>2021-12-27T18:38:17Z</time>
      </trkpt>
      <trkpt lat="27.725831" lon="-18.133019">
        <ele>529.086</ele>
        <time>2021-12-27T18:38:57Z</time>
      </trkpt>
      <trkpt lat="27.725529" lon="-18.132858">
        <ele>519.360</ele>
        <time>2021-12-27T18:39:52Z</time>
      </trkpt>
      <trkpt lat="27.725442" lon="-18.132632">
        <ele>515.026</ele>
        <time>2021-12-27T18:40:08Z</time>
      </trkpt>
      <trkpt lat="27.725062" lon="-18.132949">
        <ele>500.708</ele>
        <time>2021-12-27T18:41:11Z</time>
      </trkpt>
      <trkpt lat="27.725139" lon="-18.133591">
        <ele>491.577</ele>
        <time>2021-12-27T18:41:53Z</time>
      </trkpt>
      <trkpt lat="27.724623" lon="-18.134865">
        <ele>477.939</ele>
        <time>2021-12-27T18:43:20Z</time>
      </trkpt>
      <trkpt lat="27.723666" lon="-18.135402">
        <ele>463.754</ele>
        <time>2021-12-27T18:44:31Z</time>
      </trkpt>
      <trkpt lat="27.723228" lon="-18.135915">
        <ele>456.673</ele>
        <time>2021-12-27T18:45:15Z</time>
      </trkpt>
      <trkpt lat="27.722680" lon="-18.136093">
        <ele>445.497</ele>
        <time>2021-12-27T18:45:56Z</time>
      </trkpt>
      <trkpt lat="27.722641" lon="-18.136568">
        <ele>437.521</ele>
        <time>2021-12-27T18:46:33Z</time>
      </trkpt>
      <trkpt lat="27.721541" lon="-18.136971">
        <ele>416.251</ele>
        <time>2021-12-27T18:47:57Z</time>
      </trkpt>
      <trkpt lat="27.721180" lon="-18.137737">
        <ele>402.272</ele>
        <time>2021-12-27T18:48:55Z</time>
      </trkpt>
      <trkpt lat="27.721335" lon="-18.138145">
        <ele>394.364</ele>
        <time>2021-12-27T18:49:25Z</time>
      </trkpt>
      <trkpt lat="27.721278" lon="-18.138405">
        <ele>392.806</ele>
        <time>2021-12-27T18:49:41Z</time>
      </trkpt>
      <trkpt lat="27.720773" lon="-18.138092">
        <ele>387.316</ele>
        <time>2021-12-27T18:50:20Z</time>
      </trkpt>
      <trkpt lat="27.720738" lon="-18.137689">
        <ele>383.508</ele>
        <time>2021-12-27T18:50:45Z</time>
      </trkpt>
      <trkpt lat="27.720232" lon="-18.137886">
        <ele>366.815</ele>
        <time>2021-12-27T18:51:49Z</time>
      </trkpt>
      <trkpt lat="27.719790" lon="-18.137520">
        <ele>353.227</ele>
        <time>2021-12-27T18:52:37Z</time>
      </trkpt>
      <trkpt lat="27.719351" lon="-18.137585">
        <ele>349.272</ele>
        <time>2021-12-27T18:53:29Z</time>
      </trkpt>
      <trkpt lat="27.719515" lon="-18.138258">
        <ele>333.591</ele>
        <time>2021-12-27T18:54:25Z</time>
      </trkpt>
      <trkpt lat="27.719112" lon="-18.138234">
        <ele>324.145</ele>
        <time>2021-12-27T18:54:58Z</time>
      </trkpt>
      <trkpt lat="27.719149" lon="-18.138527">
        <ele>315.489</ele>
        <time>2021-12-27T18:55:32Z</time>
      </trkpt>
      <trkpt lat="27.718906" lon="-18.138487">
        <ele>310.749</ele>
        <time>2021-12-27T18:56:00Z</time>
      </trkpt>
      <trkpt lat="27.718889" lon="-18.138778">
        <ele>304.320</ele>
        <time>2021-12-27T18:57:03Z</time>
      </trkpt>
      <trkpt lat="27.718695" lon="-18.138882">
        <ele>296.974</ele>
        <time>2021-12-27T18:57:35Z</time>
      </trkpt>
      <trkpt lat="27.718753" lon="-18.139184">
        <ele>288.356</ele>
        <time>2021-12-27T18:58:09Z</time>
      </trkpt>
      <trkpt lat="27.718370" lon="-18.139129">
        <ele>280.821</ele>
        <time>2021-12-27T18:58:46Z</time>
      </trkpt>
      <trkpt lat="27.718392" lon="-18.139594">
        <ele>266.408</ele>
        <time>2021-12-27T18:59:38Z</time>
      </trkpt>
      <trkpt lat="27.718068" lon="-18.139732">
        <ele>257.656</ele>
        <time>2021-12-27T19:00:13Z</time>
      </trkpt>
      <trkpt lat="27.718034" lon="-18.140012">
        <ele>251.218</ele>
        <time>2021-12-27T19:00:32Z</time>
      </trkpt>
      <trkpt lat="27.717349" lon="-18.140673">
        <ele>229.333</ele>
        <time>2021-12-27T19:01:40Z</time>
      </trkpt>
      <trkpt lat="27.717316" lon="-18.140545">
        <ele>226.152</ele>
        <time>2021-12-27T19:01:54Z</time>
      </trkpt>
      <trkpt lat="27.716824" lon="-18.140587">
        <ele>212.026</ele>
        <time>2021-12-27T19:02:37Z</time>
      </trkpt>
      <trkpt lat="27.716209" lon="-18.140318">
        <ele>202.490</ele>
        <time>2021-12-27T19:03:25Z</time>
      </trkpt>
      <trkpt lat="27.715286" lon="-18.140915">
        <ele>189.310</ele>
        <time>2021-12-27T19:04:41Z</time>
      </trkpt>
      <trkpt lat="27.714507" lon="-18.141170">
        <ele>178.191</ele>
        <time>2021-12-27T19:05:43Z</time>
      </trkpt>
      <trkpt lat="27.714479" lon="-18.141422">
        <ele>176.298</ele>
        <time>2021-12-27T19:06:02Z</time>
      </trkpt>
      <trkpt lat="27.714246" lon="-18.141391">
        <ele>172.615</ele>
        <time>2021-12-27T19:06:21Z</time>
      </trkpt>
      <trkpt lat="27.713627" lon="-18.141923">
        <ele>158.726</ele>
        <time>2021-12-27T19:07:16Z</time>
      </trkpt>
      <trkpt lat="27.712234" lon="-18.141426">
        <ele>145.008</ele>
        <time>2021-12-27T19:08:53Z</time>
      </trkpt>
      <trkpt lat="27.712030" lon="-18.141744">
        <ele>143.018</ele>
        <time>2021-12-27T19:09:19Z</time>
      </trkpt>
      <trkpt lat="27.711596" lon="-18.143835">
        <ele>139.620</ele>
        <time>2021-12-27T19:11:13Z</time>
      </trkpt>
      <trkpt lat="27.710554" lon="-18.146241">
        <ele>139.475</ele>
        <time>2021-12-27T19:13:28Z</time>
      </trkpt>
      <trkpt lat="27.710214" lon="-18.146684">
        <ele>139.774</ele>
        <time>2021-12-27T19:13:58Z</time>
      </trkpt>
      <trkpt lat="27.709923" lon="-18.146909">
        <ele>140.468</ele>
        <time>2021-12-27T19:14:20Z</time>
      </trkpt>
      <trkpt lat="27.709025" lon="-18.147174">
        <ele>136.842</ele>
        <time>2021-12-27T19:15:12Z</time>
      </trkpt>
      <trkpt lat="27.708513" lon="-18.146961">
        <ele>132.932</ele>
        <time>2021-12-27T19:17:22Z</time>
      </trkpt>
      <trkpt lat="27.707678" lon="-18.147015">
        <ele>127.523</ele>
        <time>2021-12-27T19:17:58Z</time>
      </trkpt>
      <trkpt lat="27.706989" lon="-18.146733">
        <ele>121.534</ele>
        <time>2021-12-27T19:18:45Z</time>
      </trkpt>
      <trkpt lat="27.706701" lon="-18.146456">
        <ele>117.855</ele>
        <time>2021-12-27T19:19:11Z</time>
      </trkpt>
      <trkpt lat="27.706433" lon="-18.146594">
        <ele>113.310</ele>
        <time>2021-12-27T19:19:38Z</time>
      </trkpt>
      <trkpt lat="27.706520" lon="-18.147320">
        <ele>108.208</ele>
        <time>2021-12-27T19:22:39Z</time>
      </trkpt>
    </trkseg>
  </trk></gpx>