<?xml version="1.0" encoding="UTF-8"?>
<gpx version="1.1" creator="Aventuras en Cada Paso" xmlns="http://www.topografix.com/GPX/1/1">
  <metadata>
    <name>GR 131 Lanzarote – Travesía</name>
    <desc>Travesía completa de norte a sur por Lanzarote. Volcanes, malpaíses, viñedos y costas. La gran ruta de largo recorrido de la isla.</desc>
    <author><name>Aventuras en Cada Paso</name></author>
    <time>2026-07-08T08:12:58.175Z</time>
    <keywords>Lanzarote, Senderismo, Difícil, senderismo Canarias</keywords>
  </metadata>
  <wpt lat="29.0917" lon="-13.4883">
    <name>GR 131 Lanzarote – Travesía</name>
    <desc>Travesía completa de norte a sur por Lanzarote. Volcanes, malpaíses, viñedos y costas. La gran ruta de largo recorrido de la isla. | Isla: Lanzarote | Tipo: Senderismo | Dificultad: Difícil | Distancia: 80km | Duración: Varios días</desc>
    <type>Senderismo</type>
    <extensions>
      <isla>Lanzarote</isla>
      <dificultad>Difícil</dificultad>
      <distancia>80</distancia>
      <duracion>Varios días</duracion>
    </extensions>
  </wpt>
</gpx>