<?xml version="1.0" encoding="UTF-8"?>
<gpx version="1.1" creator="Aventuras en Cada Paso" xmlns="http://www.topografix.com/GPX/1/1">
  <metadata>
    <name>GR 132 La Gomera – Vuelta a la Costa</name>
    <desc>Gran ruta que rodea toda la isla por la costa norte. Acantilados, barrancos y pueblos remotos. Uno de los caminos más épicos de Canarias.</desc>
    <author><name>Aventuras en Cada Paso</name></author>
    <time>2026-07-08T08:12:58.197Z</time>
    <keywords>La Gomera, Senderismo, Difícil, senderismo Canarias</keywords>
  </metadata>
  <wpt lat="28.0833" lon="-17.1133">
    <name>GR 132 La Gomera – Vuelta a la Costa</name>
    <desc>Gran ruta que rodea toda la isla por la costa norte. Acantilados, barrancos y pueblos remotos. Uno de los caminos más épicos de Canarias. | Isla: La Gomera | Tipo: Senderismo | Dificultad: Difícil | Distancia: 130km | Duración: Varios días</desc>
    <type>Senderismo</type>
    <extensions>
      <isla>La Gomera</isla>
      <dificultad>Difícil</dificultad>
      <distancia>130</distancia>
      <duracion>Varios días</duracion>
    </extensions>
  </wpt>
</gpx>