<?xml version="1.0" encoding="UTF-8"?>
<gpx creator="Wikiloc - https://www.wikiloc.com" version="1.1" xmlns="http://www.topografix.com/GPX/1/1" xmlns:xsi="http://www.w3.org/2001/XMLSchema-instance" xsi:schemaLocation="http://www.topografix.com/GPX/1/1 http://www.topografix.com/GPX/1/1/gpx.xsd">
  <metadata>
    <name>Wikiloc - 'Caminando Canarias' FECAMON, La Gomera 2026 I : Vallehermos...</name>
    <link href="https://www.wikiloc.com/hiking-trails/caminando-canarias-fecamon-la-gomera-2026-i-vallehermoso-mirador-igualero-por-las-hayas-y-chipude-c-251671605">
      <text>'Caminando Canarias' FECAMON, La Gomera 2026 I : Vallehermos... on Wikiloc</text>
    </link>
    <time>2026-02-21T17:17:39.229Z</time>
  </metadata>
  <trk>
    <name>'Caminando Canarias' FECAMON, La Gomera 2026 I : Vallehermos... - Wikiloc</name>
    <cmt></cmt>
    <desc></desc>
    <trkseg>
      <trkpt lat="28.180585" lon="-17.264988">
        <ele>172.846</ele>
        <time>2026-02-21T07:47:02.436Z</time>
      </trkpt>
      <trkpt lat="28.179652" lon="-17.265967">
        <ele>183.788</ele>
        <time>2026-02-21T07:49:43.223Z</time>
      </trkpt>
      <trkpt lat="28.179123" lon="-17.266189">
        <ele>180.116</ele>
        <time>2026-02-21T07:53:41.225Z</time>
      </trkpt>
      <trkpt lat="28.178259" lon="-17.265408">
        <ele>182.709</ele>
        <time>2026-02-21T07:55:39.225Z</time>
      </trkpt>
      <trkpt lat="28.177836" lon="-17.265795">
        <ele>189.316</ele>
        <time>2026-02-21T07:56:26.225Z</time>
      </trkpt>
      <trkpt lat="28.177400" lon="-17.265755">
        <ele>188.729</ele>
        <time>2026-02-21T07:57:08.226Z</time>
      </trkpt>
      <trkpt lat="28.177263" lon="-17.264694">
        <ele>192.065</ele>
        <time>2026-02-21T07:58:37.226Z</time>
      </trkpt>
      <trkpt lat="28.176282" lon="-17.265087">
        <ele>207.810</ele>
        <time>2026-02-21T08:00:38.226Z</time>
      </trkpt>
      <trkpt lat="28.176639" lon="-17.264723">
        <ele>213.971</ele>
        <time>2026-02-21T08:01:27.226Z</time>
      </trkpt>
      <trkpt lat="28.176451" lon="-17.263845">
        <ele>220.875</ele>
        <time>2026-02-21T08:03:00.226Z</time>
      </trkpt>
      <trkpt lat="28.176089" lon="-17.263687">
        <ele>227.620</ele>
        <time>2026-02-21T08:03:46Z</time>
      </trkpt>
      <trkpt lat="28.175662" lon="-17.263247">
        <ele>244.164</ele>
        <time>2026-02-21T08:05:29.227Z</time>
      </trkpt>
      <trkpt lat="28.175618" lon="-17.262882">
        <ele>269.429</ele>
        <time>2026-02-21T08:07:13.227Z</time>
      </trkpt>
      <trkpt lat="28.175283" lon="-17.262556">
        <ele>280.786</ele>
        <time>2026-02-21T08:08:54.227Z</time>
      </trkpt>
      <trkpt lat="28.175393" lon="-17.262502">
        <ele>285.060</ele>
        <time>2026-02-21T08:09:20.227Z</time>
      </trkpt>
      <trkpt lat="28.175210" lon="-17.262153">
        <ele>300.926</ele>
        <time>2026-02-21T08:10:38.227Z</time>
      </trkpt>
      <trkpt lat="28.175262" lon="-17.261993">
        <ele>309.309</ele>
        <time>2026-02-21T08:11:36.228Z</time>
      </trkpt>
      <trkpt lat="28.174831" lon="-17.261752">
        <ele>312.420</ele>
        <time>2026-02-21T08:13:05.228Z</time>
      </trkpt>
      <trkpt lat="28.175091" lon="-17.261613">
        <ele>317.123</ele>
        <time>2026-02-21T08:14:18.228Z</time>
      </trkpt>
      <trkpt lat="28.174019" lon="-17.260579">
        <ele>353.299</ele>
        <time>2026-02-21T08:18:06.228Z</time>
      </trkpt>
      <trkpt lat="28.173694" lon="-17.260609">
        <ele>357.484</ele>
        <time>2026-02-21T08:19:02.228Z</time>
      </trkpt>
      <trkpt lat="28.173225" lon="-17.260314">
        <ele>374.685</ele>
        <time>2026-02-21T08:20:19.229Z</time>
      </trkpt>
      <trkpt lat="28.172310" lon="-17.260134">
        <ele>381.989</ele>
        <time>2026-02-21T08:22:07.229Z</time>
      </trkpt>
      <trkpt lat="28.171964" lon="-17.259438">
        <ele>384.554</ele>
        <time>2026-02-21T08:23:23.229Z</time>
      </trkpt>
      <trkpt lat="28.171521" lon="-17.259217">
        <ele>391.698</ele>
        <time>2026-02-21T08:24:21.229Z</time>
      </trkpt>
      <trkpt lat="28.171070" lon="-17.259159">
        <ele>405.553</ele>
        <time>2026-02-21T08:25:18.229Z</time>
      </trkpt>
      <trkpt lat="28.170495" lon="-17.259347">
        <ele>413.938</ele>
        <time>2026-02-21T08:26:38.229Z</time>
      </trkpt>
      <trkpt lat="28.170138" lon="-17.260206">
        <ele>403.970</ele>
        <time>2026-02-21T08:31:07.228Z</time>
      </trkpt>
      <trkpt lat="28.170406" lon="-17.259423">
        <ele>411.617</ele>
        <time>2026-02-21T08:32:56.229Z</time>
      </trkpt>
      <trkpt lat="28.170291" lon="-17.259503">
        <ele>410.309</ele>
        <time>2026-02-21T08:33:28Z</time>
      </trkpt>
      <trkpt lat="28.170313" lon="-17.259285">
        <ele>411.755</ele>
        <time>2026-02-21T08:33:53.229Z</time>
      </trkpt>
      <trkpt lat="28.170022" lon="-17.259490">
        <ele>402.548</ele>
        <time>2026-02-21T08:34:37.229Z</time>
      </trkpt>
      <trkpt lat="28.169922" lon="-17.259269">
        <ele>401.814</ele>
        <time>2026-02-21T08:35:33.229Z</time>
      </trkpt>
      <trkpt lat="28.169693" lon="-17.259642">
        <ele>389.859</ele>
        <time>2026-02-21T08:36:38.229Z</time>
      </trkpt>
      <trkpt lat="28.169286" lon="-17.259816">
        <ele>374.590</ele>
        <time>2026-02-21T08:37:55.229Z</time>
      </trkpt>
      <trkpt lat="28.169195" lon="-17.260135">
        <ele>365.244</ele>
        <time>2026-02-21T08:38:40.229Z</time>
      </trkpt>
      <trkpt lat="28.168755" lon="-17.260504">
        <ele>346.259</ele>
        <time>2026-02-21T08:40:54.230Z</time>
      </trkpt>
      <trkpt lat="28.168439" lon="-17.261289">
        <ele>331.633</ele>
        <time>2026-02-21T08:42:35.230Z</time>
      </trkpt>
      <trkpt lat="28.168096" lon="-17.261236">
        <ele>329.598</ele>
        <time>2026-02-21T08:43:49.230Z</time>
      </trkpt>
      <trkpt lat="28.167846" lon="-17.261045">
        <ele>337.433</ele>
        <time>2026-02-21T08:44:58.230Z</time>
      </trkpt>
      <trkpt lat="28.167069" lon="-17.261066">
        <ele>337.123</ele>
        <time>2026-02-21T08:46:11.230Z</time>
      </trkpt>
      <trkpt lat="28.166364" lon="-17.260310">
        <ele>346.015</ele>
        <time>2026-02-21T08:47:38.230Z</time>
      </trkpt>
      <trkpt lat="28.166124" lon="-17.260469">
        <ele>349.409</ele>
        <time>2026-02-21T08:48:08.230Z</time>
      </trkpt>
      <trkpt lat="28.166157" lon="-17.261341">
        <ele>335.435</ele>
        <time>2026-02-21T08:49:16.230Z</time>
      </trkpt>
      <trkpt lat="28.165851" lon="-17.261720">
        <ele>332.348</ele>
        <time>2026-02-21T08:50:11.230Z</time>
      </trkpt>
      <trkpt lat="28.164723" lon="-17.261453">
        <ele>340.934</ele>
        <time>2026-02-21T08:51:45.230Z</time>
      </trkpt>
      <trkpt lat="28.164273" lon="-17.261495">
        <ele>333.419</ele>
        <time>2026-02-21T08:52:33.230Z</time>
      </trkpt>
      <trkpt lat="28.164078" lon="-17.261679">
        <ele>336.940</ele>
        <time>2026-02-21T08:52:55.231Z</time>
      </trkpt>
      <trkpt lat="28.164060" lon="-17.261946">
        <ele>339.144</ele>
        <time>2026-02-21T08:53:15.231Z</time>
      </trkpt>
      <trkpt lat="28.164732" lon="-17.262324">
        <ele>332.849</ele>
        <time>2026-02-21T08:54:27.231Z</time>
      </trkpt>
      <trkpt lat="28.164796" lon="-17.262562">
        <ele>338.863</ele>
        <time>2026-02-21T08:54:56.231Z</time>
      </trkpt>
      <trkpt lat="28.165481" lon="-17.262755">
        <ele>340.848</ele>
        <time>2026-02-21T08:57:35.231Z</time>
      </trkpt>
      <trkpt lat="28.165059" lon="-17.262601">
        <ele>338.026</ele>
        <time>2026-02-21T09:05:40.229Z</time>
      </trkpt>
      <trkpt lat="28.164986" lon="-17.262738">
        <ele>342.047</ele>
        <time>2026-02-21T09:06:55.226Z</time>
      </trkpt>
      <trkpt lat="28.165006" lon="-17.262653">
        <ele>339.411</ele>
        <time>2026-02-21T09:07:39.226Z</time>
      </trkpt>
      <trkpt lat="28.165106" lon="-17.262757">
        <ele>342.109</ele>
        <time>2026-02-21T09:14:08.225Z</time>
      </trkpt>
      <trkpt lat="28.165002" lon="-17.262575">
        <ele>337.284</ele>
        <time>2026-02-21T09:19:53.231Z</time>
      </trkpt>
      <trkpt lat="28.164805" lon="-17.262569">
        <ele>338.977</ele>
        <time>2026-02-21T09:20:21.231Z</time>
      </trkpt>
      <trkpt lat="28.164980" lon="-17.262863">
        <ele>345.573</ele>
        <time>2026-02-21T09:21:07.231Z</time>
      </trkpt>
      <trkpt lat="28.164781" lon="-17.262926">
        <ele>347.618</ele>
        <time>2026-02-21T09:21:23.232Z</time>
      </trkpt>
      <trkpt lat="28.164343" lon="-17.262477">
        <ele>348.089</ele>
        <time>2026-02-21T09:22:18.232Z</time>
      </trkpt>
      <trkpt lat="28.164091" lon="-17.262467">
        <ele>348.913</ele>
        <time>2026-02-21T09:22:41.232Z</time>
      </trkpt>
      <trkpt lat="28.163955" lon="-17.262319">
        <ele>346.528</ele>
        <time>2026-02-21T09:22:58.232Z</time>
      </trkpt>
      <trkpt lat="28.163172" lon="-17.262315">
        <ele>365.062</ele>
        <time>2026-02-21T09:24:01.232Z</time>
      </trkpt>
      <trkpt lat="28.162997" lon="-17.262596">
        <ele>377.637</ele>
        <time>2026-02-21T09:24:30.232Z</time>
      </trkpt>
      <trkpt lat="28.162795" lon="-17.262659">
        <ele>379.914</ele>
        <time>2026-02-21T09:24:52.232Z</time>
      </trkpt>
      <trkpt lat="28.162263" lon="-17.262420">
        <ele>368.554</ele>
        <time>2026-02-21T09:25:47.232Z</time>
      </trkpt>
      <trkpt lat="28.161563" lon="-17.262541">
        <ele>379.309</ele>
        <time>2026-02-21T09:26:56.232Z</time>
      </trkpt>
      <trkpt lat="28.161552" lon="-17.262895">
        <ele>386.509</ele>
        <time>2026-02-21T09:27:34.232Z</time>
      </trkpt>
      <trkpt lat="28.161346" lon="-17.263259">
        <ele>389.883</ele>
        <time>2026-02-21T09:28:58.233Z</time>
      </trkpt>
      <trkpt lat="28.161638" lon="-17.263905">
        <ele>412.266</ele>
        <time>2026-02-21T09:32:02.233Z</time>
      </trkpt>
      <trkpt lat="28.161620" lon="-17.264593">
        <ele>442.292</ele>
        <time>2026-02-21T09:35:07.233Z</time>
      </trkpt>
      <trkpt lat="28.161267" lon="-17.265233">
        <ele>450.287</ele>
        <time>2026-02-21T09:36:43.234Z</time>
      </trkpt>
      <trkpt lat="28.161445" lon="-17.265441">
        <ele>464.328</ele>
        <time>2026-02-21T09:37:55.234Z</time>
      </trkpt>
      <trkpt lat="28.161384" lon="-17.265968">
        <ele>485.182</ele>
        <time>2026-02-21T09:39:31.234Z</time>
      </trkpt>
      <trkpt lat="28.161706" lon="-17.266020">
        <ele>515.417</ele>
        <time>2026-02-21T09:40:33.234Z</time>
      </trkpt>
      <trkpt lat="28.161761" lon="-17.266809">
        <ele>555.351</ele>
        <time>2026-02-21T09:43:43.235Z</time>
      </trkpt>
      <trkpt lat="28.161412" lon="-17.267984">
        <ele>555.776</ele>
        <time>2026-02-21T09:46:53.235Z</time>
      </trkpt>
      <trkpt lat="28.161249" lon="-17.267981">
        <ele>554.973</ele>
        <time>2026-02-21T09:49:03.224Z</time>
      </trkpt>
      <trkpt lat="28.161321" lon="-17.268176">
        <ele>556.985</ele>
        <time>2026-02-21T09:49:59.224Z</time>
      </trkpt>
      <trkpt lat="28.160599" lon="-17.268724">
        <ele>578.113</ele>
        <time>2026-02-21T09:52:54.224Z</time>
      </trkpt>
      <trkpt lat="28.160290" lon="-17.269397">
        <ele>598.609</ele>
        <time>2026-02-21T09:55:14.224Z</time>
      </trkpt>
      <trkpt lat="28.159884" lon="-17.269749">
        <ele>613.989</ele>
        <time>2026-02-21T09:56:48.224Z</time>
      </trkpt>
      <trkpt lat="28.159838" lon="-17.269972">
        <ele>617.452</ele>
        <time>2026-02-21T09:57:19.224Z</time>
      </trkpt>
      <trkpt lat="28.159962" lon="-17.270184">
        <ele>622.348</ele>
        <time>2026-02-21T09:57:45.224Z</time>
      </trkpt>
      <trkpt lat="28.159864" lon="-17.270917">
        <ele>632.393</ele>
        <time>2026-02-21T09:59:05.224Z</time>
      </trkpt>
      <trkpt lat="28.159641" lon="-17.271378">
        <ele>633.014</ele>
        <time>2026-02-21T09:59:48.225Z</time>
      </trkpt>
      <trkpt lat="28.158933" lon="-17.271755">
        <ele>627.958</ele>
        <time>2026-02-21T10:01:07.225Z</time>
      </trkpt>
      <trkpt lat="28.158809" lon="-17.272167">
        <ele>630.533</ele>
        <time>2026-02-21T10:01:45.225Z</time>
      </trkpt>
      <trkpt lat="28.158432" lon="-17.272543">
        <ele>623.047</ele>
        <time>2026-02-21T10:02:41.225Z</time>
      </trkpt>
      <trkpt lat="28.157605" lon="-17.272993">
        <ele>627.512</ele>
        <time>2026-02-21T10:04:18.225Z</time>
      </trkpt>
      <trkpt lat="28.157331" lon="-17.273220">
        <ele>644.616</ele>
        <time>2026-02-21T10:05:27.225Z</time>
      </trkpt>
      <trkpt lat="28.157250" lon="-17.273475">
        <ele>654.276</ele>
        <time>2026-02-21T10:06:38Z</time>
      </trkpt>
      <trkpt lat="28.156430" lon="-17.273480">
        <ele>674.413</ele>
        <time>2026-02-21T10:09:10.225Z</time>
      </trkpt>
      <trkpt lat="28.155705" lon="-17.274133">
        <ele>707.509</ele>
        <time>2026-02-21T10:11:28.225Z</time>
      </trkpt>
      <trkpt lat="28.155698" lon="-17.274333">
        <ele>713.473</ele>
        <time>2026-02-21T10:12:36.225Z</time>
      </trkpt>
      <trkpt lat="28.155201" lon="-17.274214">
        <ele>723.836</ele>
        <time>2026-02-21T10:13:45.225Z</time>
      </trkpt>
      <trkpt lat="28.154759" lon="-17.274537">
        <ele>728.942</ele>
        <time>2026-02-21T10:14:57.225Z</time>
      </trkpt>
      <trkpt lat="28.154606" lon="-17.274813">
        <ele>740.517</ele>
        <time>2026-02-21T10:15:25.225Z</time>
      </trkpt>
      <trkpt lat="28.154036" lon="-17.274934">
        <ele>729.988</ele>
        <time>2026-02-21T10:16:22.225Z</time>
      </trkpt>
      <trkpt lat="28.153547" lon="-17.275775">
        <ele>758.822</ele>
        <time>2026-02-21T10:18:01.226Z</time>
      </trkpt>
      <trkpt lat="28.153212" lon="-17.275728">
        <ele>746.397</ele>
        <time>2026-02-21T10:18:45.226Z</time>
      </trkpt>
      <trkpt lat="28.153225" lon="-17.276182">
        <ele>756.041</ele>
        <time>2026-02-21T10:19:30.226Z</time>
      </trkpt>
      <trkpt lat="28.152905" lon="-17.276609">
        <ele>752.476</ele>
        <time>2026-02-21T10:20:18.226Z</time>
      </trkpt>
      <trkpt lat="28.152863" lon="-17.277384">
        <ele>754.946</ele>
        <time>2026-02-21T10:21:47.226Z</time>
      </trkpt>
      <trkpt lat="28.152998" lon="-17.277841">
        <ele>739.188</ele>
        <time>2026-02-21T10:22:25.226Z</time>
      </trkpt>
      <trkpt lat="28.152779" lon="-17.278734">
        <ele>740.616</ele>
        <time>2026-02-21T10:23:37.226Z</time>
      </trkpt>
      <trkpt lat="28.152842" lon="-17.278871">
        <ele>740.009</ele>
        <time>2026-02-21T10:24:41.726Z</time>
      </trkpt>
      <trkpt lat="28.152759" lon="-17.278835">
        <ele>742.436</ele>
        <time>2026-02-21T10:37:53.222Z</time>
      </trkpt>
      <trkpt lat="28.152493" lon="-17.279406">
        <ele>746.539</ele>
        <time>2026-02-21T10:40:44.223Z</time>
      </trkpt>
      <trkpt lat="28.152643" lon="-17.280066">
        <ele>753.725</ele>
        <time>2026-02-21T10:42:02.223Z</time>
      </trkpt>
      <trkpt lat="28.152335" lon="-17.280785">
        <ele>774.320</ele>
        <time>2026-02-21T10:43:37.223Z</time>
      </trkpt>
      <trkpt lat="28.152337" lon="-17.280978">
        <ele>780.771</ele>
        <time>2026-02-21T10:44:00.223Z</time>
      </trkpt>
      <trkpt lat="28.152394" lon="-17.280883">
        <ele>777.435</ele>
        <time>2026-02-21T10:44:28.223Z</time>
      </trkpt>
      <trkpt lat="28.152509" lon="-17.281151">
        <ele>786.930</ele>
        <time>2026-02-21T10:45:25.223Z</time>
      </trkpt>
      <trkpt lat="28.152511" lon="-17.281668">
        <ele>811.744</ele>
        <time>2026-02-21T10:47:36.223Z</time>
      </trkpt>
      <trkpt lat="28.152288" lon="-17.281946">
        <ele>829.139</ele>
        <time>2026-02-21T10:49:52.234Z</time>
      </trkpt>
      <trkpt lat="28.152206" lon="-17.282365">
        <ele>839.319</ele>
        <time>2026-02-21T10:52:16.234Z</time>
      </trkpt>
      <trkpt lat="28.151109" lon="-17.283059">
        <ele>878.009</ele>
        <time>2026-02-21T10:56:01.234Z</time>
      </trkpt>
      <trkpt lat="28.151039" lon="-17.283425">
        <ele>879.319</ele>
        <time>2026-02-21T10:56:42.234Z</time>
      </trkpt>
      <trkpt lat="28.150679" lon="-17.283914">
        <ele>889.209</ele>
        <time>2026-02-21T10:57:43.234Z</time>
      </trkpt>
      <trkpt lat="28.149853" lon="-17.284215">
        <ele>897.843</ele>
        <time>2026-02-21T10:59:06.234Z</time>
      </trkpt>
      <trkpt lat="28.148485" lon="-17.284263">
        <ele>942.866</ele>
        <time>2026-02-21T11:05:49.234Z</time>
      </trkpt>
      <trkpt lat="28.147925" lon="-17.285920">
        <ele>1000.592</ele>
        <time>2026-02-21T11:10:52.234Z</time>
      </trkpt>
      <trkpt lat="28.147580" lon="-17.286030">
        <ele>1008.667</ele>
        <time>2026-02-21T11:12:53.235Z</time>
      </trkpt>
      <trkpt lat="28.147442" lon="-17.286289">
        <ele>1027.068</ele>
        <time>2026-02-21T11:17:26.229Z</time>
      </trkpt>
      <trkpt lat="28.145022" lon="-17.286198">
        <ele>1066.832</ele>
        <time>2026-02-21T11:32:48.228Z</time>
      </trkpt>
      <trkpt lat="28.144189" lon="-17.286006">
        <ele>1073.137</ele>
        <time>2026-02-21T11:34:42.228Z</time>
      </trkpt>
      <trkpt lat="28.143582" lon="-17.285766">
        <ele>1069.441</ele>
        <time>2026-02-21T11:35:46.228Z</time>
      </trkpt>
      <trkpt lat="28.142933" lon="-17.285227">
        <ele>1073.476</ele>
        <time>2026-02-21T11:38:41.225Z</time>
      </trkpt>
      <trkpt lat="28.139348" lon="-17.284444">
        <ele>1065.096</ele>
        <time>2026-02-21T11:48:46.227Z</time>
      </trkpt>
      <trkpt lat="28.139106" lon="-17.284124">
        <ele>1063.731</ele>
        <time>2026-02-21T11:50:07.226Z</time>
      </trkpt>
      <trkpt lat="28.139003" lon="-17.284226">
        <ele>1063.024</ele>
        <time>2026-02-21T11:54:22.230Z</time>
      </trkpt>
      <trkpt lat="28.139179" lon="-17.284203">
        <ele>1063.309</ele>
        <time>2026-02-21T12:20:12.235Z</time>
      </trkpt>
      <trkpt lat="28.139041" lon="-17.284126">
        <ele>1063.581</ele>
        <time>2026-02-21T12:24:03.236Z</time>
      </trkpt>
      <trkpt lat="28.139054" lon="-17.284475">
        <ele>1063.374</ele>
        <time>2026-02-21T12:25:46.236Z</time>
      </trkpt>
      <trkpt lat="28.139797" lon="-17.285266">
        <ele>1061.460</ele>
        <time>2026-02-21T12:27:16.236Z</time>
      </trkpt>
      <trkpt lat="28.140022" lon="-17.285766">
        <ele>1055.325</ele>
        <time>2026-02-21T12:27:58.236Z</time>
      </trkpt>
      <trkpt lat="28.140182" lon="-17.286550">
        <ele>1050.016</ele>
        <time>2026-02-21T12:28:55.236Z</time>
      </trkpt>
      <trkpt lat="28.140030" lon="-17.287421">
        <ele>1053.560</ele>
        <time>2026-02-21T12:29:50.236Z</time>
      </trkpt>
      <trkpt lat="28.140227" lon="-17.287715">
        <ele>1051.945</ele>
        <time>2026-02-21T12:30:19.236Z</time>
      </trkpt>
      <trkpt lat="28.140199" lon="-17.287910">
        <ele>1053.919</ele>
        <time>2026-02-21T12:30:32.236Z</time>
      </trkpt>
      <trkpt lat="28.138581" lon="-17.287742">
        <ele>1056.744</ele>
        <time>2026-02-21T12:32:55.236Z</time>
      </trkpt>
      <trkpt lat="28.138038" lon="-17.287485">
        <ele>1055.295</ele>
        <time>2026-02-21T12:34:03.236Z</time>
      </trkpt>
      <trkpt lat="28.137526" lon="-17.287566">
        <ele>1046.949</ele>
        <time>2026-02-21T12:34:50.236Z</time>
      </trkpt>
      <trkpt lat="28.137054" lon="-17.287414">
        <ele>1045.423</ele>
        <time>2026-02-21T12:35:26.236Z</time>
      </trkpt>
      <trkpt lat="28.136781" lon="-17.287238">
        <ele>1043.309</ele>
        <time>2026-02-21T12:35:52.236Z</time>
      </trkpt>
      <trkpt lat="28.136277" lon="-17.286501">
        <ele>1041.991</ele>
        <time>2026-02-21T12:37:45.236Z</time>
      </trkpt>
      <trkpt lat="28.134981" lon="-17.286760">
        <ele>1042.494</ele>
        <time>2026-02-21T12:41:07.236Z</time>
      </trkpt>
      <trkpt lat="28.134508" lon="-17.287639">
        <ele>1045.640</ele>
        <time>2026-02-21T12:42:25.236Z</time>
      </trkpt>
      <trkpt lat="28.134803" lon="-17.288053">
        <ele>1032.425</ele>
        <time>2026-02-21T12:43:10.236Z</time>
      </trkpt>
      <trkpt lat="28.134744" lon="-17.288588">
        <ele>1030.516</ele>
        <time>2026-02-21T12:43:46.236Z</time>
      </trkpt>
      <trkpt lat="28.134157" lon="-17.289181">
        <ele>1034.290</ele>
        <time>2026-02-21T12:44:55.236Z</time>
      </trkpt>
      <trkpt lat="28.134096" lon="-17.289676">
        <ele>1034.785</ele>
        <time>2026-02-21T12:46:14.236Z</time>
      </trkpt>
      <trkpt lat="28.132849" lon="-17.290209">
        <ele>1046.899</ele>
        <time>2026-02-21T12:52:07.228Z</time>
      </trkpt>
      <trkpt lat="28.132253" lon="-17.289906">
        <ele>1049.054</ele>
        <time>2026-02-21T12:53:14.228Z</time>
      </trkpt>
      <trkpt lat="28.132077" lon="-17.289505">
        <ele>1058.049</ele>
        <time>2026-02-21T12:53:50.228Z</time>
      </trkpt>
      <trkpt lat="28.130678" lon="-17.289469">
        <ele>1049.102</ele>
        <time>2026-02-21T12:56:12.228Z</time>
      </trkpt>
      <trkpt lat="28.130170" lon="-17.289840">
        <ele>1043.722</ele>
        <time>2026-02-21T12:57:19.228Z</time>
      </trkpt>
      <trkpt lat="28.129742" lon="-17.290974">
        <ele>1027.309</ele>
        <time>2026-02-21T12:59:55.228Z</time>
      </trkpt>
      <trkpt lat="28.129721" lon="-17.291422">
        <ele>1022.366</ele>
        <time>2026-02-21T13:00:39.228Z</time>
      </trkpt>
      <trkpt lat="28.129526" lon="-17.291883">
        <ele>1016.899</ele>
        <time>2026-02-21T13:01:26.228Z</time>
      </trkpt>
      <trkpt lat="28.129562" lon="-17.292409">
        <ele>1011.765</ele>
        <time>2026-02-21T13:02:07.228Z</time>
      </trkpt>
      <trkpt lat="28.129344" lon="-17.292876">
        <ele>1006.320</ele>
        <time>2026-02-21T13:03:07.228Z</time>
      </trkpt>
      <trkpt lat="28.128348" lon="-17.291983">
        <ele>1000.661</ele>
        <time>2026-02-21T13:04:55.228Z</time>
      </trkpt>
      <trkpt lat="28.128196" lon="-17.291470">
        <ele>997.095</ele>
        <time>2026-02-21T13:05:32.228Z</time>
      </trkpt>
      <trkpt lat="28.128213" lon="-17.290952">
        <ele>995.330</ele>
        <time>2026-02-21T13:06:08.228Z</time>
      </trkpt>
      <trkpt lat="28.128053" lon="-17.290660">
        <ele>991.324</ele>
        <time>2026-02-21T13:06:32.228Z</time>
      </trkpt>
      <trkpt lat="28.127207" lon="-17.290965">
        <ele>996.469</ele>
        <time>2026-02-21T13:07:45.228Z</time>
      </trkpt>
      <trkpt lat="28.126818" lon="-17.291338">
        <ele>997.411</ele>
        <time>2026-02-21T13:08:29.228Z</time>
      </trkpt>
      <trkpt lat="28.126488" lon="-17.291987">
        <ele>1004.521</ele>
        <time>2026-02-21T13:09:55.228Z</time>
      </trkpt>
      <trkpt lat="28.126088" lon="-17.291836">
        <ele>1009.803</ele>
        <time>2026-02-21T13:10:39.228Z</time>
      </trkpt>
      <trkpt lat="28.125722" lon="-17.291502">
        <ele>1009.409</ele>
        <time>2026-02-21T13:11:30.228Z</time>
      </trkpt>
      <trkpt lat="28.125100" lon="-17.291543">
        <ele>1008.953</ele>
        <time>2026-02-21T13:13:39.228Z</time>
      </trkpt>
      <trkpt lat="28.124554" lon="-17.291228">
        <ele>1008.066</ele>
        <time>2026-02-21T13:14:39.227Z</time>
      </trkpt>
      <trkpt lat="28.124238" lon="-17.290656">
        <ele>1013.082</ele>
        <time>2026-02-21T13:15:34.227Z</time>
      </trkpt>
      <trkpt lat="28.123365" lon="-17.289947">
        <ele>1016.877</ele>
        <time>2026-02-21T13:17:51.227Z</time>
      </trkpt>
      <trkpt lat="28.123251" lon="-17.289730">
        <ele>1008.918</ele>
        <time>2026-02-21T13:22:35.227Z</time>
      </trkpt>
      <trkpt lat="28.123276" lon="-17.289344">
        <ele>1008.172</ele>
        <time>2026-02-21T13:24:01.227Z</time>
      </trkpt>
      <trkpt lat="28.123074" lon="-17.289193">
        <ele>993.217</ele>
        <time>2026-02-21T13:25:15.227Z</time>
      </trkpt>
      <trkpt lat="28.123157" lon="-17.289486">
        <ele>998.431</ele>
        <time>2026-02-21T13:26:29.227Z</time>
      </trkpt>
      <trkpt lat="28.123055" lon="-17.289509">
        <ele>991.366</ele>
        <time>2026-02-21T13:27:12.227Z</time>
      </trkpt>
      <trkpt lat="28.122890" lon="-17.288789">
        <ele>983.142</ele>
        <time>2026-02-21T13:29:04.226Z</time>
      </trkpt>
      <trkpt lat="28.122972" lon="-17.288640">
        <ele>987.122</ele>
        <time>2026-02-21T13:29:40.226Z</time>
      </trkpt>
      <trkpt lat="28.122882" lon="-17.288633">
        <ele>981.014</ele>
        <time>2026-02-21T13:29:59Z</time>
      </trkpt>
      <trkpt lat="28.123311" lon="-17.287929">
        <ele>978.809</ele>
        <time>2026-02-21T13:32:01.225Z</time>
      </trkpt>
      <trkpt lat="28.123206" lon="-17.287819">
        <ele>969.996</ele>
        <time>2026-02-21T13:32:53.225Z</time>
      </trkpt>
      <trkpt lat="28.122323" lon="-17.287709">
        <ele>948.589</ele>
        <time>2026-02-21T13:35:07.225Z</time>
      </trkpt>
      <trkpt lat="28.121722" lon="-17.287397">
        <ele>947.815</ele>
        <time>2026-02-21T13:36:06.224Z</time>
      </trkpt>
      <trkpt lat="28.121298" lon="-17.286922">
        <ele>950.530</ele>
        <time>2026-02-21T13:37:07.224Z</time>
      </trkpt>
      <trkpt lat="28.121019" lon="-17.285903">
        <ele>957.931</ele>
        <time>2026-02-21T13:38:43.224Z</time>
      </trkpt>
      <trkpt lat="28.120607" lon="-17.286074">
        <ele>976.165</ele>
        <time>2026-02-21T13:40:27.224Z</time>
      </trkpt>
      <trkpt lat="28.120145" lon="-17.287263">
        <ele>990.210</ele>
        <time>2026-02-21T13:43:18.223Z</time>
      </trkpt>
      <trkpt lat="28.119890" lon="-17.286507">
        <ele>1013.984</ele>
        <time>2026-02-21T13:45:56.223Z</time>
      </trkpt>
      <trkpt lat="28.119582" lon="-17.286850">
        <ele>1023.269</ele>
        <time>2026-02-21T13:46:59.222Z</time>
      </trkpt>
      <trkpt lat="28.119260" lon="-17.286693">
        <ele>1031.184</ele>
        <time>2026-02-21T13:48:16.222Z</time>
      </trkpt>
      <trkpt lat="28.119247" lon="-17.286295">
        <ele>1035.307</ele>
        <time>2026-02-21T13:50:57.231Z</time>
      </trkpt>
      <trkpt lat="28.119162" lon="-17.286712">
        <ele>1031.517</ele>
        <time>2026-02-21T13:51:43.079Z</time>
      </trkpt>
      <trkpt lat="28.119069" lon="-17.286650">
        <ele>1031.109</ele>
        <time>2026-02-21T13:54:30.065Z</time>
      </trkpt>
      <trkpt lat="28.119169" lon="-17.286765">
        <ele>1030.910</ele>
        <time>2026-02-21T13:54:40.227Z</time>
      </trkpt>
      <trkpt lat="28.119089" lon="-17.286651">
        <ele>1031.393</ele>
        <time>2026-02-21T14:01:35.710Z</time>
      </trkpt>
      <trkpt lat="28.119205" lon="-17.286659">
        <ele>1031.899</ele>
        <time>2026-02-21T14:07:26.227Z</time>
      </trkpt>
      <trkpt lat="28.119010" lon="-17.286546">
        <ele>1031.244</ele>
        <time>2026-02-21T14:13:27.231Z</time>
      </trkpt>
      <trkpt lat="28.118283" lon="-17.285281">
        <ele>1022.335</ele>
        <time>2026-02-21T14:16:01.231Z</time>
      </trkpt>
      <trkpt lat="28.118183" lon="-17.284917">
        <ele>1023.149</ele>
        <time>2026-02-21T14:16:31.231Z</time>
      </trkpt>
      <trkpt lat="28.117456" lon="-17.284734">
        <ele>1022.954</ele>
        <time>2026-02-21T14:17:48.231Z</time>
      </trkpt>
      <trkpt lat="28.117357" lon="-17.285120">
        <ele>1020.828</ele>
        <time>2026-02-21T14:18:39.231Z</time>
      </trkpt>
      <trkpt lat="28.117224" lon="-17.285164">
        <ele>1022.853</ele>
        <time>2026-02-21T14:19:14.231Z</time>
      </trkpt>
      <trkpt lat="28.116924" lon="-17.284914">
        <ele>1031.018</ele>
        <time>2026-02-21T14:20:02.231Z</time>
      </trkpt>
      <trkpt lat="28.116225" lon="-17.283851">
        <ele>1058.998</ele>
        <time>2026-02-21T14:22:57.230Z</time>
      </trkpt>
      <trkpt lat="28.115648" lon="-17.283320">
        <ele>1061.517</ele>
        <time>2026-02-21T14:24:42.230Z</time>
      </trkpt>
      <trkpt lat="28.115636" lon="-17.282539">
        <ele>1053.509</ele>
        <time>2026-02-21T14:26:11.230Z</time>
      </trkpt>
      <trkpt lat="28.115396" lon="-17.281856">
        <ele>1034.423</ele>
        <time>2026-02-21T14:28:12.230Z</time>
      </trkpt>
      <trkpt lat="28.115141" lon="-17.281940">
        <ele>1027.096</ele>
        <time>2026-02-21T14:29:12.230Z</time>
      </trkpt>
      <trkpt lat="28.114826" lon="-17.281760">
        <ele>1015.512</ele>
        <time>2026-02-21T14:29:51.230Z</time>
      </trkpt>
      <trkpt lat="28.114477" lon="-17.281269">
        <ele>1009.297</ele>
        <time>2026-02-21T14:30:58.229Z</time>
      </trkpt>
      <trkpt lat="28.113639" lon="-17.281325">
        <ele>1023.278</ele>
        <time>2026-02-21T14:33:06.229Z</time>
      </trkpt>
      <trkpt lat="28.113089" lon="-17.281815">
        <ele>1025.432</ele>
        <time>2026-02-21T14:34:21.229Z</time>
      </trkpt>
      <trkpt lat="28.112952" lon="-17.282189">
        <ele>1026.627</ele>
        <time>2026-02-21T14:34:50.229Z</time>
      </trkpt>
      <trkpt lat="28.112395" lon="-17.282724">
        <ele>1033.421</ele>
        <time>2026-02-21T14:35:51.229Z</time>
      </trkpt>
      <trkpt lat="28.111806" lon="-17.282763">
        <ele>1038.966</ele>
        <time>2026-02-21T14:36:55.229Z</time>
      </trkpt>
      <trkpt lat="28.111393" lon="-17.283180">
        <ele>1039.629</ele>
        <time>2026-02-21T14:37:53.228Z</time>
      </trkpt>
      <trkpt lat="28.111131" lon="-17.283333">
        <ele>1043.500</ele>
        <time>2026-02-21T14:38:23Z</time>
      </trkpt>
      <trkpt lat="28.111089" lon="-17.283190">
        <ele>1047.720</ele>
        <time>2026-02-21T14:39:31.228Z</time>
      </trkpt>
      <trkpt lat="28.110957" lon="-17.283273">
        <ele>1050.409</ele>
        <time>2026-02-21T14:39:53.228Z</time>
      </trkpt>
      <trkpt lat="28.110408" lon="-17.282681">
        <ele>1068.374</ele>
        <time>2026-02-21T14:41:46.228Z</time>
      </trkpt>
      <trkpt lat="28.110099" lon="-17.281863">
        <ele>1081.597</ele>
        <time>2026-02-21T14:44:12.227Z</time>
      </trkpt>
      <trkpt lat="28.109696" lon="-17.281825">
        <ele>1081.763</ele>
        <time>2026-02-21T15:04:38.967Z</time>
      </trkpt>
      <trkpt lat="28.109892" lon="-17.281797">
        <ele>1083.298</ele>
        <time>2026-02-21T15:16:46.230Z</time>
      </trkpt>
      <trkpt lat="28.109897" lon="-17.281568">
        <ele>1085.259</ele>
        <time>2026-02-21T15:17:03.230Z</time>
      </trkpt>
      <trkpt lat="28.109553" lon="-17.280453">
        <ele>1085.223</ele>
        <time>2026-02-21T15:18:24.230Z</time>
      </trkpt>
      <trkpt lat="28.108435" lon="-17.279690">
        <ele>1096.248</ele>
        <time>2026-02-21T15:21:22.230Z</time>
      </trkpt>
      <trkpt lat="28.108096" lon="-17.278952">
        <ele>1089.942</ele>
        <time>2026-02-21T15:22:45.230Z</time>
      </trkpt>
      <trkpt lat="28.108016" lon="-17.278332">
        <ele>1085.617</ele>
        <time>2026-02-21T15:23:27.230Z</time>
      </trkpt>
      <trkpt lat="28.107208" lon="-17.277959">
        <ele>1097.668</ele>
        <time>2026-02-21T15:25:40.230Z</time>
      </trkpt>
      <trkpt lat="28.106545" lon="-17.276522">
        <ele>1094.942</ele>
        <time>2026-02-21T15:28:11.229Z</time>
      </trkpt>
      <trkpt lat="28.105998" lon="-17.276469">
        <ele>1092.626</ele>
        <time>2026-02-21T15:28:58.229Z</time>
      </trkpt>
      <trkpt lat="28.105204" lon="-17.275851">
        <ele>1083.409</ele>
        <time>2026-02-21T15:30:36.229Z</time>
      </trkpt>
      <trkpt lat="28.105048" lon="-17.275487">
        <ele>1079.518</ele>
        <time>2026-02-21T15:31:04.229Z</time>
      </trkpt>
      <trkpt lat="28.105298" lon="-17.274339">
        <ele>1083.471</ele>
        <time>2026-02-21T15:32:32.228Z</time>
      </trkpt>
      <trkpt lat="28.104178" lon="-17.275061">
        <ele>1075.697</ele>
        <time>2026-02-21T15:34:27Z</time>
      </trkpt>
      <trkpt lat="28.104011" lon="-17.275301">
        <ele>1074.552</ele>
        <time>2026-02-21T15:35:01.228Z</time>
      </trkpt>
      <trkpt lat="28.103483" lon="-17.275036">
        <ele>1090.653</ele>
        <time>2026-02-21T15:36:04.228Z</time>
      </trkpt>
      <trkpt lat="28.103397" lon="-17.274714">
        <ele>1094.557</ele>
        <time>2026-02-21T15:36:33Z</time>
      </trkpt>
      <trkpt lat="28.103482" lon="-17.274330">
        <ele>1101.152</ele>
        <time>2026-02-21T15:37:07.227Z</time>
      </trkpt>
      <trkpt lat="28.102720" lon="-17.273658">
        <ele>1114.196</ele>
        <time>2026-02-21T15:39:08Z</time>
      </trkpt>
      <trkpt lat="28.102411" lon="-17.273139">
        <ele>1118.971</ele>
        <time>2026-02-21T15:40:33.227Z</time>
      </trkpt>
      <trkpt lat="28.104773" lon="-17.269440">
        <ele>1177.264</ele>
        <time>2026-02-21T15:59:28.159Z</time>
      </trkpt>
      <trkpt lat="28.105620" lon="-17.268946">
        <ele>1183.506</ele>
        <time>2026-02-21T16:02:23.229Z</time>
      </trkpt>
      <trkpt lat="28.105869" lon="-17.268135">
        <ele>1177.416</ele>
        <time>2026-02-21T16:04:36.229Z</time>
      </trkpt>
      <trkpt lat="28.105881" lon="-17.267575">
        <ele>1169.909</ele>
        <time>2026-02-21T16:05:21.229Z</time>
      </trkpt>
      <trkpt lat="28.106090" lon="-17.267257">
        <ele>1176.348</ele>
        <time>2026-02-21T16:05:50.229Z</time>
      </trkpt>
      <trkpt lat="28.106188" lon="-17.266687">
        <ele>1156.461</ele>
        <time>2026-02-21T16:06:32.229Z</time>
      </trkpt>
      <trkpt lat="28.107172" lon="-17.266194">
        <ele>1155.457</ele>
        <time>2026-02-21T16:08:04.229Z</time>
      </trkpt>
      <trkpt lat="28.107665" lon="-17.265325">
        <ele>1137.612</ele>
        <time>2026-02-21T16:09:25.228Z</time>
      </trkpt>
      <trkpt lat="28.108007" lon="-17.265011">
        <ele>1131.313</ele>
        <time>2026-02-21T16:10:05.228Z</time>
      </trkpt>
      <trkpt lat="28.108447" lon="-17.264900">
        <ele>1137.687</ele>
        <time>2026-02-21T16:10:45.228Z</time>
      </trkpt>
      <trkpt lat="28.108473" lon="-17.264655">
        <ele>1129.992</ele>
        <time>2026-02-21T16:11:03.228Z</time>
      </trkpt>
      <trkpt lat="28.108703" lon="-17.264366">
        <ele>1131.726</ele>
        <time>2026-02-21T16:11:33.228Z</time>
      </trkpt>
      <trkpt lat="28.108591" lon="-17.263726">
        <ele>1134.351</ele>
        <time>2026-02-21T16:12:22.228Z</time>
      </trkpt>
      <trkpt lat="28.107855" lon="-17.263909">
        <ele>1128.961</ele>
        <time>2026-02-21T16:14:39.228Z</time>
      </trkpt>
      <trkpt lat="28.107597" lon="-17.263751">
        <ele>1138.921</ele>
        <time>2026-02-21T16:15:30.228Z</time>
      </trkpt>
      <trkpt lat="28.107117" lon="-17.263064">
        <ele>1166.413</ele>
        <time>2026-02-21T16:17:20.227Z</time>
      </trkpt>
      <trkpt lat="28.106376" lon="-17.262667">
        <ele>1171.509</ele>
        <time>2026-02-21T16:19:05.227Z</time>
      </trkpt>
      <trkpt lat="28.105698" lon="-17.262624">
        <ele>1176.658</ele>
        <time>2026-02-21T16:20:09.227Z</time>
      </trkpt>
      <trkpt lat="28.105184" lon="-17.262780">
        <ele>1171.641</ele>
        <time>2026-02-21T16:21:01.227Z</time>
      </trkpt>
      <trkpt lat="28.104831" lon="-17.262159">
        <ele>1185.197</ele>
        <time>2026-02-21T16:22:08.227Z</time>
      </trkpt>
      <trkpt lat="28.104758" lon="-17.261322">
        <ele>1203.772</ele>
        <time>2026-02-21T16:23:18.227Z</time>
      </trkpt>
      <trkpt lat="28.104366" lon="-17.261164">
        <ele>1186.753</ele>
        <time>2026-02-21T16:24:03.226Z</time>
      </trkpt>
      <trkpt lat="28.104413" lon="-17.260670">
        <ele>1201.687</ele>
        <time>2026-02-21T16:24:45.226Z</time>
      </trkpt>
      <trkpt lat="28.104098" lon="-17.260286">
        <ele>1188.762</ele>
        <time>2026-02-21T16:25:23.226Z</time>
      </trkpt>
      <trkpt lat="28.104100" lon="-17.259388">
        <ele>1232.796</ele>
        <time>2026-02-21T16:26:33.226Z</time>
      </trkpt>
      <trkpt lat="28.103665" lon="-17.259166">
        <ele>1223.451</ele>
        <time>2026-02-21T16:27:21.226Z</time>
      </trkpt>
      <trkpt lat="28.103196" lon="-17.259275">
        <ele>1190.624</ele>
        <time>2026-02-21T16:28:05.226Z</time>
      </trkpt>
      <trkpt lat="28.102907" lon="-17.258875">
        <ele>1197.604</ele>
        <time>2026-02-21T16:28:51Z</time>
      </trkpt>
      <trkpt lat="28.102668" lon="-17.258009">
        <ele>1202.814</ele>
        <time>2026-02-21T16:30:21.226Z</time>
      </trkpt>
      <trkpt lat="28.102480" lon="-17.257924">
        <ele>1205.409</ele>
        <time>2026-02-21T16:30:44.225Z</time>
      </trkpt>
      <trkpt lat="28.101164" lon="-17.258398">
        <ele>1187.294</ele>
        <time>2026-02-21T16:33:01.225Z</time>
      </trkpt>
      <trkpt lat="28.100740" lon="-17.256949">
        <ele>1239.467</ele>
        <time>2026-02-21T16:35:10.225Z</time>
      </trkpt>
      <trkpt lat="28.100452" lon="-17.257158">
        <ele>1217.013</ele>
        <time>2026-02-21T16:35:36.225Z</time>
      </trkpt>
      <trkpt lat="28.100121" lon="-17.257052">
        <ele>1221.168</ele>
        <time>2026-02-21T16:36:04.225Z</time>
      </trkpt>
      <trkpt lat="28.099866" lon="-17.257311">
        <ele>1200.269</ele>
        <time>2026-02-21T16:36:36.224Z</time>
      </trkpt>
      <trkpt lat="28.099543" lon="-17.257062">
        <ele>1226.293</ele>
        <time>2026-02-21T16:37:15.224Z</time>
      </trkpt>
      <trkpt lat="28.099381" lon="-17.257282">
        <ele>1212.998</ele>
        <time>2026-02-21T16:37:34.224Z</time>
      </trkpt>
      <trkpt lat="28.098791" lon="-17.257603">
        <ele>1190.392</ele>
        <time>2026-02-21T16:38:48.224Z</time>
      </trkpt>
      <trkpt lat="28.098739" lon="-17.257350">
        <ele>1209.897</ele>
        <time>2026-02-21T16:39:15Z</time>
      </trkpt>
      <trkpt lat="28.098107" lon="-17.256502">
        <ele>1243.349</ele>
        <time>2026-02-21T16:41:30.224Z</time>
      </trkpt>
      <trkpt lat="28.097866" lon="-17.256326">
        <ele>1248.902</ele>
        <time>2026-02-21T16:42:11.223Z</time>
      </trkpt>
      <trkpt lat="28.097238" lon="-17.256389">
        <ele>1235.222</ele>
        <time>2026-02-21T16:45:20.229Z</time>
      </trkpt>
      <trkpt lat="28.097756" lon="-17.255124">
        <ele>1259.309</ele>
        <time>2026-02-21T17:01:20.230Z</time>
      </trkpt>
      <trkpt lat="28.097772" lon="-17.254563">
        <ele>1259.736</ele>
        <time>2026-02-21T17:02:17.230Z</time>
      </trkpt>
      <trkpt lat="28.097955" lon="-17.254052">
        <ele>1264.259</ele>
        <time>2026-02-21T17:03:19Z</time>
      </trkpt>
      <trkpt lat="28.099189" lon="-17.253128">
        <ele>1279.435</ele>
        <time>2026-02-21T17:06:14.230Z</time>
      </trkpt>
      <trkpt lat="28.099173" lon="-17.253388">
        <ele>1283.340</ele>
        <time>2026-02-21T17:06:49.229Z</time>
      </trkpt>
      <trkpt lat="28.099352" lon="-17.253216">
        <ele>1283.861</ele>
        <time>2026-02-21T17:07:19.229Z</time>
      </trkpt>
      <trkpt lat="28.099544" lon="-17.253236">
        <ele>1288.425</ele>
        <time>2026-02-21T17:07:59.229Z</time>
      </trkpt>
      <trkpt lat="28.098612" lon="-17.254398">
        <ele>1296.580</ele>
        <time>2026-02-21T17:10:07.229Z</time>
      </trkpt>
      <trkpt lat="28.098636" lon="-17.255111">
        <ele>1305.494</ele>
        <time>2026-02-21T17:11:10.229Z</time>
      </trkpt>
      <trkpt lat="28.098468" lon="-17.255626">
        <ele>1300.679</ele>
        <time>2026-02-21T17:12:08.229Z</time>
      </trkpt>
      <trkpt lat="28.098576" lon="-17.255829">
        <ele>1302.726</ele>
        <time>2026-02-21T17:12:37.229Z</time>
      </trkpt>
      <trkpt lat="28.098757" lon="-17.255806">
        <ele>1306.647</ele>
        <time>2026-02-21T17:13:03.229Z</time>
      </trkpt>
      <trkpt lat="28.099241" lon="-17.254990">
        <ele>1318.011</ele>
        <time>2026-02-21T17:14:41.229Z</time>
      </trkpt>
      <trkpt lat="28.099631" lon="-17.254595">
        <ele>1316.109</ele>
        <time>2026-02-21T17:15:53Z</time>
      </trkpt>
      <trkpt lat="28.099465" lon="-17.254966">
        <ele>1317.584</ele>
        <time>2026-02-21T17:16:41.229Z</time>
      </trkpt>
      <trkpt lat="28.099516" lon="-17.255399">
        <ele>1313.287</ele>
        <time>2026-02-21T17:17:39.229Z</time>
      </trkpt>
    </trkseg>
  </trk></gpx>