<?xml version="1.0" encoding="UTF-8"?>
<gpx version="1.1" creator="Aventuras en Cada Paso" xmlns="http://www.topografix.com/GPX/1/1">
  <metadata>
    <name>Gran Tarajal – Caleta del Muerto</name>
    <desc>Ruta costera por acantilados volcánicos del sureste desde Gran Tarajal. Calas solitarias, colores rojizos y el silencio de la costa menos visitada.</desc>
    <author><name>Aventuras en Cada Paso</name></author>
    <time>2026-07-08T08:12:58.182Z</time>
    <keywords>Fuerteventura, Senderismo, Media, senderismo Canarias</keywords>
  </metadata>
  <wpt lat="28.2017" lon="-14.0017">
    <name>Gran Tarajal – Caleta del Muerto</name>
    <desc>Ruta costera por acantilados volcánicos del sureste desde Gran Tarajal. Calas solitarias, colores rojizos y el silencio de la costa menos visitada. | Isla: Fuerteventura | Tipo: Senderismo | Dificultad: Media | Distancia: 8km | Duración: 2-4 horas</desc>
    <type>Senderismo</type>
    <extensions>
      <isla>Fuerteventura</isla>
      <dificultad>Media</dificultad>
      <distancia>8</distancia>
      <duracion>2-4 horas</duracion>
    </extensions>
  </wpt>
</gpx>