<?xml version="1.0" encoding="UTF-8"?>
<gpx version="1.1" creator="Aventuras en Cada Paso" xmlns="http://www.topografix.com/GPX/1/1">
  <metadata>
    <name>GR 131 Lanzarote – Tramo Norte</name>
    <desc>Tramo del GR 131 entre Guatiza y Famara por campos de cactus, malpaíses y el paisaje lunar del norte. Ruta oficial bien señalizada.</desc>
    <author><name>Aventuras en Cada Paso</name></author>
    <time>2026-07-08T08:12:58.170Z</time>
    <keywords>Lanzarote, Senderismo, Media, senderismo Canarias</keywords>
  </metadata>
  <wpt lat="29.0917" lon="-13.4883">
    <name>GR 131 Lanzarote – Tramo Norte</name>
    <desc>Tramo del GR 131 entre Guatiza y Famara por campos de cactus, malpaíses y el paisaje lunar del norte. Ruta oficial bien señalizada. | Isla: Lanzarote | Tipo: Senderismo | Dificultad: Media | Distancia: 11km | Duración: 4-8 horas</desc>
    <type>Senderismo</type>
    <extensions>
      <isla>Lanzarote</isla>
      <dificultad>Media</dificultad>
      <distancia>11</distancia>
      <duracion>4-8 horas</duracion>
    </extensions>
  </wpt>
</gpx>