<?xml version="1.0" encoding="UTF-8"?>
<gpx version="1.1" creator="Aventuras en Cada Paso" xmlns="http://www.topografix.com/GPX/1/1">
  <metadata>
    <name>Haría – Subida al Mirador</name>
    <desc>Desde el pueblo blanco de Haría hasta un mirador con vistas al océano. Camino cómodo con paisaje de palmeras canarias y vegetación norteña.</desc>
    <author><name>Aventuras en Cada Paso</name></author>
    <time>2026-07-08T08:12:58.170Z</time>
    <keywords>Lanzarote, Senderismo, Fácil, senderismo Canarias</keywords>
  </metadata>
  <wpt lat="29.1317" lon="-13.4919">
    <name>Haría – Subida al Mirador</name>
    <desc>Desde el pueblo blanco de Haría hasta un mirador con vistas al océano. Camino cómodo con paisaje de palmeras canarias y vegetación norteña. | Isla: Lanzarote | Tipo: Senderismo | Dificultad: Fácil | Distancia: 5km | Duración: 2-4 horas</desc>
    <type>Senderismo</type>
    <extensions>
      <isla>Lanzarote</isla>
      <dificultad>Fácil</dificultad>
      <distancia>5</distancia>
      <duracion>2-4 horas</duracion>
    </extensions>
  </wpt>
</gpx>