<?xml version="1.0" encoding="UTF-8"?>
<gpx creator="Wikiloc - https://www.wikiloc.com" version="1.1" xmlns="http://www.topografix.com/GPX/1/1" xmlns:xsi="http://www.w3.org/2001/XMLSchema-instance" xsi:schemaLocation="http://www.topografix.com/GPX/1/1 http://www.topografix.com/GPX/1/1/gpx.xsd">
  <metadata>
    <name>Wikiloc - Mirador de Haría - Bosquecillo - Mirador del risco de Famara...</name>
    <link href="https://www.wikiloc.com/hiking-trails/mirador-de-haria-bosquecillo-mirador-del-risco-de-famara-ermita-de-las-nieves-mirador-de-haria-128853603">
      <text>Mirador de Haría - Bosquecillo - Mirador del risco de Famara... on Wikiloc</text>
    </link>
    <time>2023-03-19T17:19:42Z</time>
  </metadata>
  <trk>
    <name>Mirador de Haría - Bosquecillo - Mirador del risco de Famara... - Wikiloc</name>
    <cmt></cmt>
    <desc></desc>
    <trkseg>
      <trkpt lat="29.127615" lon="-13.514062">
        <ele>554.587</ele>
        <time>2023-03-19T14:24:33Z</time>
      </trkpt>
      <trkpt lat="29.127425" lon="-13.514296">
        <ele>556.142</ele>
        <time>2023-03-19T14:24:49Z</time>
      </trkpt>
      <trkpt lat="29.127225" lon="-13.514280">
        <ele>557.426</ele>
        <time>2023-03-19T14:25:07Z</time>
      </trkpt>
      <trkpt lat="29.126979" lon="-13.514436">
        <ele>558.509</ele>
        <time>2023-03-19T14:25:26Z</time>
      </trkpt>
      <trkpt lat="29.126456" lon="-13.514575">
        <ele>562.439</ele>
        <time>2023-03-19T14:26:12Z</time>
      </trkpt>
      <trkpt lat="29.125871" lon="-13.514964">
        <ele>565.280</ele>
        <time>2023-03-19T14:27:02Z</time>
      </trkpt>
      <trkpt lat="29.125508" lon="-13.515357">
        <ele>571.146</ele>
        <time>2023-03-19T14:27:51Z</time>
      </trkpt>
      <trkpt lat="29.124497" lon="-13.515820">
        <ele>581.516</ele>
        <time>2023-03-19T14:29:21Z</time>
      </trkpt>
      <trkpt lat="29.122939" lon="-13.516199">
        <ele>595.123</ele>
        <time>2023-03-19T14:32:13Z</time>
      </trkpt>
      <trkpt lat="29.122891" lon="-13.516304">
        <ele>598.971</ele>
        <time>2023-03-19T14:32:29Z</time>
      </trkpt>
      <trkpt lat="29.122933" lon="-13.516414">
        <ele>598.954</ele>
        <time>2023-03-19T14:32:41Z</time>
      </trkpt>
      <trkpt lat="29.123169" lon="-13.516492">
        <ele>597.758</ele>
        <time>2023-03-19T14:33:00Z</time>
      </trkpt>
      <trkpt lat="29.123509" lon="-13.516743">
        <ele>598.441</ele>
        <time>2023-03-19T14:33:34Z</time>
      </trkpt>
      <trkpt lat="29.123559" lon="-13.517070">
        <ele>601.459</ele>
        <time>2023-03-19T14:34:01Z</time>
      </trkpt>
      <trkpt lat="29.124105" lon="-13.517509">
        <ele>607.803</ele>
        <time>2023-03-19T14:34:59Z</time>
      </trkpt>
      <trkpt lat="29.124393" lon="-13.518201">
        <ele>612.123</ele>
        <time>2023-03-19T14:36:59Z</time>
      </trkpt>
      <trkpt lat="29.125116" lon="-13.518621">
        <ele>612.509</ele>
        <time>2023-03-19T14:38:09Z</time>
      </trkpt>
      <trkpt lat="29.125791" lon="-13.519343">
        <ele>611.346</ele>
        <time>2023-03-19T14:39:30Z</time>
      </trkpt>
      <trkpt lat="29.125812" lon="-13.520285">
        <ele>608.797</ele>
        <time>2023-03-19T14:40:34Z</time>
      </trkpt>
      <trkpt lat="29.125926" lon="-13.521081">
        <ele>602.883</ele>
        <time>2023-03-19T14:41:29Z</time>
      </trkpt>
      <trkpt lat="29.125976" lon="-13.521256">
        <ele>602.513</ele>
        <time>2023-03-19T14:41:42Z</time>
      </trkpt>
      <trkpt lat="29.126112" lon="-13.521352">
        <ele>601.820</ele>
        <time>2023-03-19T14:41:55Z</time>
      </trkpt>
      <trkpt lat="29.126206" lon="-13.521821">
        <ele>599.998</ele>
        <time>2023-03-19T14:42:30Z</time>
      </trkpt>
      <trkpt lat="29.126045" lon="-13.522707">
        <ele>596.751</ele>
        <time>2023-03-19T14:43:37Z</time>
      </trkpt>
      <trkpt lat="29.126117" lon="-13.523679">
        <ele>594.175</ele>
        <time>2023-03-19T14:44:52Z</time>
      </trkpt>
      <trkpt lat="29.126341" lon="-13.524163">
        <ele>592.318</ele>
        <time>2023-03-19T14:48:41Z</time>
      </trkpt>
      <trkpt lat="29.126692" lon="-13.524463">
        <ele>588.681</ele>
        <time>2023-03-19T14:56:25Z</time>
      </trkpt>
      <trkpt lat="29.126597" lon="-13.524167">
        <ele>593.861</ele>
        <time>2023-03-19T14:58:22Z</time>
      </trkpt>
      <trkpt lat="29.126410" lon="-13.523952">
        <ele>594.717</ele>
        <time>2023-03-19T14:58:47Z</time>
      </trkpt>
      <trkpt lat="29.126103" lon="-13.523755">
        <ele>595.609</ele>
        <time>2023-03-19T14:59:24Z</time>
      </trkpt>
      <trkpt lat="29.126001" lon="-13.523765">
        <ele>595.989</ele>
        <time>2023-03-19T14:59:34Z</time>
      </trkpt>
      <trkpt lat="29.125202" lon="-13.524567">
        <ele>605.540</ele>
        <time>2023-03-19T15:01:23Z</time>
      </trkpt>
      <trkpt lat="29.124904" lon="-13.525510">
        <ele>610.156</ele>
        <time>2023-03-19T15:02:48Z</time>
      </trkpt>
      <trkpt lat="29.124479" lon="-13.525451">
        <ele>616.836</ele>
        <time>2023-03-19T15:04:25Z</time>
      </trkpt>
      <trkpt lat="29.124157" lon="-13.525592">
        <ele>616.583</ele>
        <time>2023-03-19T15:04:57Z</time>
      </trkpt>
      <trkpt lat="29.123661" lon="-13.525640">
        <ele>620.961</ele>
        <time>2023-03-19T15:05:43Z</time>
      </trkpt>
      <trkpt lat="29.123469" lon="-13.525839">
        <ele>624.014</ele>
        <time>2023-03-19T15:06:03Z</time>
      </trkpt>
      <trkpt lat="29.123259" lon="-13.526279">
        <ele>624.918</ele>
        <time>2023-03-19T15:06:50Z</time>
      </trkpt>
      <trkpt lat="29.122453" lon="-13.526940">
        <ele>623.141</ele>
        <time>2023-03-19T15:08:33Z</time>
      </trkpt>
      <trkpt lat="29.122312" lon="-13.526997">
        <ele>624.235</ele>
        <time>2023-03-19T15:10:09Z</time>
      </trkpt>
      <trkpt lat="29.122122" lon="-13.526920">
        <ele>624.286</ele>
        <time>2023-03-19T15:10:29Z</time>
      </trkpt>
      <trkpt lat="29.121942" lon="-13.526995">
        <ele>623.114</ele>
        <time>2023-03-19T15:11:36Z</time>
      </trkpt>
      <trkpt lat="29.121804" lon="-13.526955">
        <ele>620.809</ele>
        <time>2023-03-19T15:12:10Z</time>
      </trkpt>
      <trkpt lat="29.121717" lon="-13.526895">
        <ele>619.594</ele>
        <time>2023-03-19T15:12:52Z</time>
      </trkpt>
      <trkpt lat="29.121630" lon="-13.526263">
        <ele>617.425</ele>
        <time>2023-03-19T15:13:53Z</time>
      </trkpt>
      <trkpt lat="29.122007" lon="-13.526061">
        <ele>614.931</ele>
        <time>2023-03-19T15:14:25Z</time>
      </trkpt>
      <trkpt lat="29.122071" lon="-13.525956">
        <ele>615.391</ele>
        <time>2023-03-19T15:14:34Z</time>
      </trkpt>
      <trkpt lat="29.122203" lon="-13.525323">
        <ele>615.068</ele>
        <time>2023-03-19T15:15:18Z</time>
      </trkpt>
      <trkpt lat="29.122610" lon="-13.524495">
        <ele>613.996</ele>
        <time>2023-03-19T15:16:20Z</time>
      </trkpt>
      <trkpt lat="29.122591" lon="-13.524156">
        <ele>614.569</ele>
        <time>2023-03-19T15:16:43Z</time>
      </trkpt>
      <trkpt lat="29.122457" lon="-13.524082">
        <ele>614.923</ele>
        <time>2023-03-19T15:16:56Z</time>
      </trkpt>
      <trkpt lat="29.122055" lon="-13.524142">
        <ele>614.736</ele>
        <time>2023-03-19T15:17:30Z</time>
      </trkpt>
      <trkpt lat="29.121628" lon="-13.523567">
        <ele>616.794</ele>
        <time>2023-03-19T15:18:22Z</time>
      </trkpt>
      <trkpt lat="29.121482" lon="-13.523544">
        <ele>616.857</ele>
        <time>2023-03-19T15:18:35Z</time>
      </trkpt>
      <trkpt lat="29.121179" lon="-13.523672">
        <ele>614.622</ele>
        <time>2023-03-19T15:19:00Z</time>
      </trkpt>
      <trkpt lat="29.120579" lon="-13.523538">
        <ele>612.609</ele>
        <time>2023-03-19T15:20:22Z</time>
      </trkpt>
      <trkpt lat="29.120070" lon="-13.523270">
        <ele>611.440</ele>
        <time>2023-03-19T15:21:07Z</time>
      </trkpt>
      <trkpt lat="29.119210" lon="-13.523033">
        <ele>607.621</ele>
        <time>2023-03-19T15:22:41Z</time>
      </trkpt>
      <trkpt lat="29.118867" lon="-13.522780">
        <ele>605.257</ele>
        <time>2023-03-19T15:23:12Z</time>
      </trkpt>
      <trkpt lat="29.118538" lon="-13.522660">
        <ele>601.037</ele>
        <time>2023-03-19T15:23:45Z</time>
      </trkpt>
      <trkpt lat="29.118236" lon="-13.522735">
        <ele>600.874</ele>
        <time>2023-03-19T15:24:14Z</time>
      </trkpt>
      <trkpt lat="29.117644" lon="-13.522659">
        <ele>595.882</ele>
        <time>2023-03-19T15:25:58Z</time>
      </trkpt>
      <trkpt lat="29.117037" lon="-13.522849">
        <ele>591.345</ele>
        <time>2023-03-19T15:30:55Z</time>
      </trkpt>
      <trkpt lat="29.117112" lon="-13.522199">
        <ele>601.199</ele>
        <time>2023-03-19T15:32:21Z</time>
      </trkpt>
      <trkpt lat="29.117030" lon="-13.522071">
        <ele>604.552</ele>
        <time>2023-03-19T15:32:59Z</time>
      </trkpt>
      <trkpt lat="29.117101" lon="-13.521924">
        <ele>605.589</ele>
        <time>2023-03-19T15:33:14Z</time>
      </trkpt>
      <trkpt lat="29.117061" lon="-13.521545">
        <ele>610.406</ele>
        <time>2023-03-19T15:34:15Z</time>
      </trkpt>
      <trkpt lat="29.117193" lon="-13.520899">
        <ele>620.626</ele>
        <time>2023-03-19T15:36:51Z</time>
      </trkpt>
      <trkpt lat="29.117148" lon="-13.520688">
        <ele>625.509</ele>
        <time>2023-03-19T15:37:45Z</time>
      </trkpt>
      <trkpt lat="29.117237" lon="-13.520449">
        <ele>630.829</ele>
        <time>2023-03-19T15:39:46Z</time>
      </trkpt>
      <trkpt lat="29.117143" lon="-13.520267">
        <ele>626.650</ele>
        <time>2023-03-19T15:40:57Z</time>
      </trkpt>
      <trkpt lat="29.117186" lon="-13.519084">
        <ele>615.596</ele>
        <time>2023-03-19T15:43:24Z</time>
      </trkpt>
      <trkpt lat="29.117125" lon="-13.518999">
        <ele>613.486</ele>
        <time>2023-03-19T15:43:32Z</time>
      </trkpt>
      <trkpt lat="29.116742" lon="-13.519168">
        <ele>612.693</ele>
        <time>2023-03-19T15:45:02Z</time>
      </trkpt>
      <trkpt lat="29.116371" lon="-13.519552">
        <ele>612.381</ele>
        <time>2023-03-19T15:45:56Z</time>
      </trkpt>
      <trkpt lat="29.115481" lon="-13.520161">
        <ele>610.124</ele>
        <time>2023-03-19T15:47:29Z</time>
      </trkpt>
      <trkpt lat="29.114951" lon="-13.520683">
        <ele>606.568</ele>
        <time>2023-03-19T15:48:28Z</time>
      </trkpt>
      <trkpt lat="29.113733" lon="-13.521335">
        <ele>601.921</ele>
        <time>2023-03-19T15:50:36Z</time>
      </trkpt>
      <trkpt lat="29.112976" lon="-13.522134">
        <ele>596.734</ele>
        <time>2023-03-19T15:54:32Z</time>
      </trkpt>
      <trkpt lat="29.111867" lon="-13.523056">
        <ele>593.355</ele>
        <time>2023-03-19T15:56:35Z</time>
      </trkpt>
      <trkpt lat="29.110631" lon="-13.524733">
        <ele>580.010</ele>
        <time>2023-03-19T15:59:19Z</time>
      </trkpt>
      <trkpt lat="29.110182" lon="-13.525704">
        <ele>579.609</ele>
        <time>2023-03-19T16:00:38Z</time>
      </trkpt>
      <trkpt lat="29.110056" lon="-13.526189">
        <ele>577.894</ele>
        <time>2023-03-19T16:01:25Z</time>
      </trkpt>
      <trkpt lat="29.109919" lon="-13.526060">
        <ele>577.355</ele>
        <time>2023-03-19T16:04:45Z</time>
      </trkpt>
      <trkpt lat="29.109506" lon="-13.526140">
        <ele>576.381</ele>
        <time>2023-03-19T16:05:53Z</time>
      </trkpt>
      <trkpt lat="29.109269" lon="-13.526042">
        <ele>576.681</ele>
        <time>2023-03-19T16:06:17Z</time>
      </trkpt>
      <trkpt lat="29.108663" lon="-13.526412">
        <ele>577.088</ele>
        <time>2023-03-19T16:07:15Z</time>
      </trkpt>
      <trkpt lat="29.108506" lon="-13.526651">
        <ele>576.786</ele>
        <time>2023-03-19T16:07:36Z</time>
      </trkpt>
      <trkpt lat="29.108123" lon="-13.526865">
        <ele>575.729</ele>
        <time>2023-03-19T16:08:12Z</time>
      </trkpt>
      <trkpt lat="29.107225" lon="-13.527088">
        <ele>581.963</ele>
        <time>2023-03-19T16:09:34Z</time>
      </trkpt>
      <trkpt lat="29.106579" lon="-13.527559">
        <ele>589.516</ele>
        <time>2023-03-19T16:10:40Z</time>
      </trkpt>
      <trkpt lat="29.106441" lon="-13.527738">
        <ele>591.346</ele>
        <time>2023-03-19T16:10:58Z</time>
      </trkpt>
      <trkpt lat="29.106356" lon="-13.528074">
        <ele>593.488</ele>
        <time>2023-03-19T16:11:23Z</time>
      </trkpt>
      <trkpt lat="29.106391" lon="-13.528180">
        <ele>593.516</ele>
        <time>2023-03-19T16:11:34Z</time>
      </trkpt>
      <trkpt lat="29.106457" lon="-13.528160">
        <ele>594.309</ele>
        <time>2023-03-19T16:13:24Z</time>
      </trkpt>
      <trkpt lat="29.106284" lon="-13.528665">
        <ele>593.815</ele>
        <time>2023-03-19T16:33:57Z</time>
      </trkpt>
      <trkpt lat="29.106251" lon="-13.529055">
        <ele>591.556</ele>
        <time>2023-03-19T16:34:32Z</time>
      </trkpt>
      <trkpt lat="29.105903" lon="-13.528518">
        <ele>590.232</ele>
        <time>2023-03-19T16:35:44Z</time>
      </trkpt>
      <trkpt lat="29.105768" lon="-13.528494">
        <ele>589.862</ele>
        <time>2023-03-19T16:36:35Z</time>
      </trkpt>
      <trkpt lat="29.105153" lon="-13.529248">
        <ele>580.629</ele>
        <time>2023-03-19T16:38:07Z</time>
      </trkpt>
      <trkpt lat="29.105060" lon="-13.529506">
        <ele>577.967</ele>
        <time>2023-03-19T16:38:46Z</time>
      </trkpt>
      <trkpt lat="29.105256" lon="-13.529083">
        <ele>579.040</ele>
        <time>2023-03-19T16:40:42Z</time>
      </trkpt>
      <trkpt lat="29.106151" lon="-13.528134">
        <ele>590.834</ele>
        <time>2023-03-19T16:42:39Z</time>
      </trkpt>
      <trkpt lat="29.106575" lon="-13.527469">
        <ele>590.367</ele>
        <time>2023-03-19T16:43:57Z</time>
      </trkpt>
      <trkpt lat="29.107215" lon="-13.527009">
        <ele>584.121</ele>
        <time>2023-03-19T16:44:57Z</time>
      </trkpt>
      <trkpt lat="29.107918" lon="-13.526869">
        <ele>578.241</ele>
        <time>2023-03-19T16:45:57Z</time>
      </trkpt>
      <trkpt lat="29.108307" lon="-13.526707">
        <ele>576.105</ele>
        <time>2023-03-19T16:46:31Z</time>
      </trkpt>
      <trkpt lat="29.108631" lon="-13.526320">
        <ele>576.209</ele>
        <time>2023-03-19T16:47:44Z</time>
      </trkpt>
      <trkpt lat="29.108939" lon="-13.526265">
        <ele>577.873</ele>
        <time>2023-03-19T16:48:12Z</time>
      </trkpt>
      <trkpt lat="29.109453" lon="-13.525846">
        <ele>579.894</ele>
        <time>2023-03-19T16:49:02Z</time>
      </trkpt>
      <trkpt lat="29.110024" lon="-13.525601">
        <ele>581.170</ele>
        <time>2023-03-19T16:49:52Z</time>
      </trkpt>
      <trkpt lat="29.111404" lon="-13.523501">
        <ele>590.690</ele>
        <time>2023-03-19T16:53:52Z</time>
      </trkpt>
      <trkpt lat="29.111884" lon="-13.522972">
        <ele>593.147</ele>
        <time>2023-03-19T16:54:51Z</time>
      </trkpt>
      <trkpt lat="29.112944" lon="-13.522130">
        <ele>597.845</ele>
        <time>2023-03-19T16:56:50Z</time>
      </trkpt>
      <trkpt lat="29.113642" lon="-13.521405">
        <ele>602.418</ele>
        <time>2023-03-19T16:58:11Z</time>
      </trkpt>
      <trkpt lat="29.114891" lon="-13.520684">
        <ele>607.632</ele>
        <time>2023-03-19T17:00:20Z</time>
      </trkpt>
      <trkpt lat="29.116857" lon="-13.519108">
        <ele>614.195</ele>
        <time>2023-03-19T17:03:21Z</time>
      </trkpt>
      <trkpt lat="29.118401" lon="-13.518325">
        <ele>615.152</ele>
        <time>2023-03-19T17:05:41Z</time>
      </trkpt>
      <trkpt lat="29.119554" lon="-13.517347">
        <ele>609.753</ele>
        <time>2023-03-19T17:07:41Z</time>
      </trkpt>
      <trkpt lat="29.121366" lon="-13.516307">
        <ele>603.008</ele>
        <time>2023-03-19T17:10:52Z</time>
      </trkpt>
      <trkpt lat="29.122102" lon="-13.516143">
        <ele>600.709</ele>
        <time>2023-03-19T17:11:41Z</time>
      </trkpt>
      <trkpt lat="29.123951" lon="-13.515935">
        <ele>592.876</ele>
        <time>2023-03-19T17:14:16Z</time>
      </trkpt>
      <trkpt lat="29.124526" lon="-13.515783">
        <ele>588.427</ele>
        <time>2023-03-19T17:15:02Z</time>
      </trkpt>
      <trkpt lat="29.125534" lon="-13.515275">
        <ele>577.853</ele>
        <time>2023-03-19T17:16:19Z</time>
      </trkpt>
      <trkpt lat="29.125797" lon="-13.514970">
        <ele>574.323</ele>
        <time>2023-03-19T17:16:43Z</time>
      </trkpt>
      <trkpt lat="29.126481" lon="-13.514559">
        <ele>568.870</ele>
        <time>2023-03-19T17:17:41Z</time>
      </trkpt>
      <trkpt lat="29.127525" lon="-13.514291">
        <ele>562.468</ele>
        <time>2023-03-19T17:19:10Z</time>
      </trkpt>
      <trkpt lat="29.127615" lon="-13.514067">
        <ele>560.431</ele>
        <time>2023-03-19T17:19:42Z</time>
      </trkpt>
    </trkseg>
  </trk></gpx>