<?xml version="1.0" encoding="UTF-8"?>
<gpx version="1.1" creator="Aventuras en Cada Paso" xmlns="http://www.topografix.com/GPX/1/1">
  <metadata>
    <name>Cráter del Hoyo Negro – Ruta Volcanes</name>
    <desc>Tramo central de la Ruta de los Volcanes con el imponente Cráter del Hoyo Negro. Colores negros y rojizos, lava solidificada y el silencio de los volcanes.</desc>
    <author><name>Aventuras en Cada Paso</name></author>
    <time>2026-07-08T08:12:58.194Z</time>
    <keywords>La Palma, Senderismo, Media, senderismo Canarias</keywords>
  </metadata>
  <wpt lat="28.51" lon="-17.8433">
    <name>Cráter del Hoyo Negro – Ruta Volcanes</name>
    <desc>Tramo central de la Ruta de los Volcanes con el imponente Cráter del Hoyo Negro. Colores negros y rojizos, lava solidificada y el silencio de los volcanes. | Isla: La Palma | Tipo: Senderismo | Dificultad: Media | Distancia: 10km | Duración: 4-8 horas</desc>
    <type>Senderismo</type>
    <extensions>
      <isla>La Palma</isla>
      <dificultad>Media</dificultad>
      <distancia>10</distancia>
      <duracion>4-8 horas</duracion>
    </extensions>
  </wpt>
</gpx>