<?xml version="1.0" encoding="UTF-8"?>
<gpx version="1.1" creator="Aventuras en Cada Paso" xmlns="http://www.topografix.com/GPX/1/1">
  <metadata>
    <name>Igualero – Alto de Garajonay</name>
    <desc>Ascenso al Alto de Garajonay desde Igualero por el GR 131 y el Camino El Contadero. Vistas a La Palma, Tenerife, El Hierro y La Palma desde la cima.</desc>
    <author><name>Aventuras en Cada Paso</name></author>
    <time>2026-07-08T08:12:58.199Z</time>
    <keywords>La Gomera, Senderismo, Media, senderismo Canarias</keywords>
  </metadata>
  <wpt lat="28.11" lon="-17.25">
    <name>Igualero – Alto de Garajonay</name>
    <desc>Ascenso al Alto de Garajonay desde Igualero por el GR 131 y el Camino El Contadero. Vistas a La Palma, Tenerife, El Hierro y La Palma desde la cima. | Isla: La Gomera | Tipo: Senderismo | Dificultad: Media | Distancia: 5km | Duración: 2-4 horas</desc>
    <type>Senderismo</type>
    <extensions>
      <isla>La Gomera</isla>
      <dificultad>Media</dificultad>
      <distancia>5</distancia>
      <duracion>2-4 horas</duracion>
    </extensions>
  </wpt>
</gpx>