<?xml version="1.0" encoding="UTF-8"?>
<gpx creator="Wikiloc - https://www.wikiloc.com" version="1.1" xmlns="http://www.topografix.com/GPX/1/1" xmlns:xsi="http://www.w3.org/2001/XMLSchema-instance" xsi:schemaLocation="http://www.topografix.com/GPX/1/1 http://www.topografix.com/GPX/1/1/gpx.xsd">
  <metadata>
    <name>Wikiloc - 2021-12-05 Costa Norte. Corralejo-El Cotillo</name>
    <link href="https://www.wikiloc.com/hiking-trails/2021-12-05-costa-norte-corralejo-el-cotillo-135408527">
      <text>2021-12-05 Costa Norte. Corralejo-El Cotillo - Wikiloc on Wikiloc</text>
    </link>
    <time>2021-12-05T16:50:26Z</time>
  </metadata>
  <trk>
    <name>2021-12-05 Costa Norte. Corralejo-El Cotillo - Wikiloc</name>
    <cmt></cmt>
    <desc></desc>
    <trkseg>
      <trkpt lat="28.741075" lon="-13.870968">
        <ele>-44.669</ele>
        <time>2021-12-05T09:21:33Z</time>
      </trkpt>
      <trkpt lat="28.741231" lon="-13.871087">
        <ele>16.404</ele>
        <time>2021-12-05T09:23:55Z</time>
      </trkpt>
      <trkpt lat="28.742443" lon="-13.871182">
        <ele>13.124</ele>
        <time>2021-12-05T09:25:46Z</time>
      </trkpt>
      <trkpt lat="28.742140" lon="-13.871729">
        <ele>11.609</ele>
        <time>2021-12-05T09:26:45Z</time>
      </trkpt>
      <trkpt lat="28.741832" lon="-13.872992">
        <ele>11.157</ele>
        <time>2021-12-05T09:28:33Z</time>
      </trkpt>
      <trkpt lat="28.742295" lon="-13.874377">
        <ele>11.199</ele>
        <time>2021-12-05T09:30:18Z</time>
      </trkpt>
      <trkpt lat="28.742650" lon="-13.874922">
        <ele>11.121</ele>
        <time>2021-12-05T09:31:06Z</time>
      </trkpt>
      <trkpt lat="28.742914" lon="-13.874978">
        <ele>11.650</ele>
        <time>2021-12-05T09:31:28Z</time>
      </trkpt>
      <trkpt lat="28.743733" lon="-13.874752">
        <ele>17.996</ele>
        <time>2021-12-05T09:32:42Z</time>
      </trkpt>
      <trkpt lat="28.745620" lon="-13.875583">
        <ele>18.884</ele>
        <time>2021-12-05T09:35:26Z</time>
      </trkpt>
      <trkpt lat="28.746849" lon="-13.875262">
        <ele>18.821</ele>
        <time>2021-12-05T09:37:09Z</time>
      </trkpt>
      <trkpt lat="28.747301" lon="-13.875335">
        <ele>17.478</ele>
        <time>2021-12-05T09:37:47Z</time>
      </trkpt>
      <trkpt lat="28.747817" lon="-13.875569">
        <ele>16.993</ele>
        <time>2021-12-05T09:38:38Z</time>
      </trkpt>
      <trkpt lat="28.749042" lon="-13.877299">
        <ele>19.325</ele>
        <time>2021-12-05T09:41:27Z</time>
      </trkpt>
      <trkpt lat="28.751411" lon="-13.877592">
        <ele>16.926</ele>
        <time>2021-12-05T09:46:12Z</time>
      </trkpt>
      <trkpt lat="28.751792" lon="-13.878704">
        <ele>18.408</ele>
        <time>2021-12-05T09:50:33Z</time>
      </trkpt>
      <trkpt lat="28.751789" lon="-13.878986">
        <ele>17.909</ele>
        <time>2021-12-05T09:51:15Z</time>
      </trkpt>
      <trkpt lat="28.751549" lon="-13.879027">
        <ele>19.383</ele>
        <time>2021-12-05T09:51:42Z</time>
      </trkpt>
      <trkpt lat="28.751500" lon="-13.879430">
        <ele>19.865</ele>
        <time>2021-12-05T09:52:18Z</time>
      </trkpt>
      <trkpt lat="28.751073" lon="-13.879461">
        <ele>22.727</ele>
        <time>2021-12-05T09:53:07Z</time>
      </trkpt>
      <trkpt lat="28.751197" lon="-13.879602">
        <ele>23.666</ele>
        <time>2021-12-05T09:53:28Z</time>
      </trkpt>
      <trkpt lat="28.751041" lon="-13.879443">
        <ele>23.222</ele>
        <time>2021-12-05T09:53:57Z</time>
      </trkpt>
      <trkpt lat="28.750847" lon="-13.879474">
        <ele>23.610</ele>
        <time>2021-12-05T09:54:14Z</time>
      </trkpt>
      <trkpt lat="28.750981" lon="-13.879730">
        <ele>26.537</ele>
        <time>2021-12-05T09:54:47Z</time>
      </trkpt>
      <trkpt lat="28.750833" lon="-13.879511">
        <ele>22.754</ele>
        <time>2021-12-05T09:55:19Z</time>
      </trkpt>
      <trkpt lat="28.750651" lon="-13.879496">
        <ele>23.669</ele>
        <time>2021-12-05T09:55:36Z</time>
      </trkpt>
      <trkpt lat="28.749670" lon="-13.879936">
        <ele>27.079</ele>
        <time>2021-12-05T09:57:04Z</time>
      </trkpt>
      <trkpt lat="28.750235" lon="-13.881789">
        <ele>25.605</ele>
        <time>2021-12-05T09:59:25Z</time>
      </trkpt>
      <trkpt lat="28.750011" lon="-13.882880">
        <ele>18.425</ele>
        <time>2021-12-05T10:00:50Z</time>
      </trkpt>
      <trkpt lat="28.750658" lon="-13.883378">
        <ele>18.409</ele>
        <time>2021-12-05T10:01:53Z</time>
      </trkpt>
      <trkpt lat="28.751326" lon="-13.883410">
        <ele>18.418</ele>
        <time>2021-12-05T10:02:45Z</time>
      </trkpt>
      <trkpt lat="28.752771" lon="-13.884098">
        <ele>16.060</ele>
        <time>2021-12-05T10:04:46Z</time>
      </trkpt>
      <trkpt lat="28.752951" lon="-13.884080">
        <ele>14.532</ele>
        <time>2021-12-05T10:05:02Z</time>
      </trkpt>
      <trkpt lat="28.753142" lon="-13.883713">
        <ele>16.491</ele>
        <time>2021-12-05T10:05:39Z</time>
      </trkpt>
      <trkpt lat="28.753312" lon="-13.884057">
        <ele>18.877</ele>
        <time>2021-12-05T10:06:18Z</time>
      </trkpt>
      <trkpt lat="28.753661" lon="-13.884264">
        <ele>20.355</ele>
        <time>2021-12-05T10:06:53Z</time>
      </trkpt>
      <trkpt lat="28.753756" lon="-13.884664">
        <ele>17.992</ele>
        <time>2021-12-05T10:07:26Z</time>
      </trkpt>
      <trkpt lat="28.754538" lon="-13.885718">
        <ele>18.479</ele>
        <time>2021-12-05T10:09:31Z</time>
      </trkpt>
      <trkpt lat="28.755811" lon="-13.887082">
        <ele>18.894</ele>
        <time>2021-12-05T10:14:09Z</time>
      </trkpt>
      <trkpt lat="28.756185" lon="-13.888745">
        <ele>16.929</ele>
        <time>2021-12-05T10:17:19Z</time>
      </trkpt>
      <trkpt lat="28.755530" lon="-13.889787">
        <ele>21.200</ele>
        <time>2021-12-05T10:19:15Z</time>
      </trkpt>
      <trkpt lat="28.756089" lon="-13.890178">
        <ele>18.820</ele>
        <time>2021-12-05T10:20:21Z</time>
      </trkpt>
      <trkpt lat="28.756502" lon="-13.890917">
        <ele>20.309</ele>
        <time>2021-12-05T10:22:37Z</time>
      </trkpt>
      <trkpt lat="28.756053" lon="-13.891295">
        <ele>20.353</ele>
        <time>2021-12-05T10:24:53Z</time>
      </trkpt>
      <trkpt lat="28.756099" lon="-13.892027">
        <ele>22.745</ele>
        <time>2021-12-05T10:26:15Z</time>
      </trkpt>
      <trkpt lat="28.755878" lon="-13.892730">
        <ele>23.297</ele>
        <time>2021-12-05T10:27:56Z</time>
      </trkpt>
      <trkpt lat="28.755310" lon="-13.892974">
        <ele>19.866</ele>
        <time>2021-12-05T10:29:30Z</time>
      </trkpt>
      <trkpt lat="28.754746" lon="-13.893449">
        <ele>19.832</ele>
        <time>2021-12-05T10:30:47Z</time>
      </trkpt>
      <trkpt lat="28.754570" lon="-13.893420">
        <ele>19.330</ele>
        <time>2021-12-05T10:31:11Z</time>
      </trkpt>
      <trkpt lat="28.754274" lon="-13.893710">
        <ele>23.257</ele>
        <time>2021-12-05T10:32:14Z</time>
      </trkpt>
      <trkpt lat="28.754023" lon="-13.893757">
        <ele>24.164</ele>
        <time>2021-12-05T10:33:02Z</time>
      </trkpt>
      <trkpt lat="28.753765" lon="-13.893328">
        <ele>28.059</ele>
        <time>2021-12-05T10:34:05Z</time>
      </trkpt>
      <trkpt lat="28.753141" lon="-13.893578">
        <ele>28.963</ele>
        <time>2021-12-05T10:35:06Z</time>
      </trkpt>
      <trkpt lat="28.752652" lon="-13.894284">
        <ele>24.644</ele>
        <time>2021-12-05T10:36:10Z</time>
      </trkpt>
      <trkpt lat="28.751851" lon="-13.895826">
        <ele>23.218</ele>
        <time>2021-12-05T10:38:17Z</time>
      </trkpt>
      <trkpt lat="28.751896" lon="-13.896463">
        <ele>24.609</ele>
        <time>2021-12-05T10:39:06Z</time>
      </trkpt>
      <trkpt lat="28.751651" lon="-13.897174">
        <ele>23.267</ele>
        <time>2021-12-05T10:39:59Z</time>
      </trkpt>
      <trkpt lat="28.751753" lon="-13.898232">
        <ele>22.219</ele>
        <time>2021-12-05T10:41:15Z</time>
      </trkpt>
      <trkpt lat="28.752318" lon="-13.899034">
        <ele>20.841</ele>
        <time>2021-12-05T10:43:47Z</time>
      </trkpt>
      <trkpt lat="28.752498" lon="-13.898972">
        <ele>19.820</ele>
        <time>2021-12-05T10:44:09Z</time>
      </trkpt>
      <trkpt lat="28.752464" lon="-13.899134">
        <ele>19.876</ele>
        <time>2021-12-05T10:44:41Z</time>
      </trkpt>
      <trkpt lat="28.752805" lon="-13.899353">
        <ele>17.994</ele>
        <time>2021-12-05T10:45:57Z</time>
      </trkpt>
      <trkpt lat="28.752765" lon="-13.899867">
        <ele>17.951</ele>
        <time>2021-12-05T10:47:10Z</time>
      </trkpt>
      <trkpt lat="28.752432" lon="-13.900470">
        <ele>19.398</ele>
        <time>2021-12-05T10:48:46Z</time>
      </trkpt>
      <trkpt lat="28.751830" lon="-13.901033">
        <ele>21.733</ele>
        <time>2021-12-05T10:50:23Z</time>
      </trkpt>
      <trkpt lat="28.751275" lon="-13.901356">
        <ele>22.215</ele>
        <time>2021-12-05T10:51:28Z</time>
      </trkpt>
      <trkpt lat="28.748770" lon="-13.903587">
        <ele>24.665</ele>
        <time>2021-12-05T10:56:13Z</time>
      </trkpt>
      <trkpt lat="28.748268" lon="-13.904516">
        <ele>25.611</ele>
        <time>2021-12-05T10:57:32Z</time>
      </trkpt>
      <trkpt lat="28.748177" lon="-13.905695">
        <ele>23.209</ele>
        <time>2021-12-05T10:58:55Z</time>
      </trkpt>
      <trkpt lat="28.747632" lon="-13.906955">
        <ele>22.262</ele>
        <time>2021-12-05T11:00:35Z</time>
      </trkpt>
      <trkpt lat="28.746467" lon="-13.907795">
        <ele>19.324</ele>
        <time>2021-12-05T11:02:34Z</time>
      </trkpt>
      <trkpt lat="28.746009" lon="-13.908418">
        <ele>19.336</ele>
        <time>2021-12-05T11:03:31Z</time>
      </trkpt>
      <trkpt lat="28.746112" lon="-13.909800">
        <ele>18.485</ele>
        <time>2021-12-05T11:05:13Z</time>
      </trkpt>
      <trkpt lat="28.746377" lon="-13.910286">
        <ele>18.851</ele>
        <time>2021-12-05T11:05:53Z</time>
      </trkpt>
      <trkpt lat="28.746411" lon="-13.911113">
        <ele>18.489</ele>
        <time>2021-12-05T11:06:53Z</time>
      </trkpt>
      <trkpt lat="28.746636" lon="-13.911352">
        <ele>20.396</ele>
        <time>2021-12-05T11:07:41Z</time>
      </trkpt>
      <trkpt lat="28.746378" lon="-13.912279">
        <ele>18.493</ele>
        <time>2021-12-05T11:08:55Z</time>
      </trkpt>
      <trkpt lat="28.746441" lon="-13.913472">
        <ele>17.498</ele>
        <time>2021-12-05T11:10:57Z</time>
      </trkpt>
      <trkpt lat="28.745870" lon="-13.914429">
        <ele>17.491</ele>
        <time>2021-12-05T11:12:26Z</time>
      </trkpt>
      <trkpt lat="28.745626" lon="-13.914560">
        <ele>16.981</ele>
        <time>2021-12-05T11:12:52Z</time>
      </trkpt>
      <trkpt lat="28.745415" lon="-13.914369">
        <ele>16.419</ele>
        <time>2021-12-05T11:13:16Z</time>
      </trkpt>
      <trkpt lat="28.745048" lon="-13.914354">
        <ele>18.409</ele>
        <time>2021-12-05T11:13:48Z</time>
      </trkpt>
      <trkpt lat="28.744809" lon="-13.914685">
        <ele>17.420</ele>
        <time>2021-12-05T11:14:20Z</time>
      </trkpt>
      <trkpt lat="28.744271" lon="-13.915026">
        <ele>18.432</ele>
        <time>2021-12-05T11:15:22Z</time>
      </trkpt>
      <trkpt lat="28.744134" lon="-13.915580">
        <ele>17.434</ele>
        <time>2021-12-05T11:16:18Z</time>
      </trkpt>
      <trkpt lat="28.743805" lon="-13.915935">
        <ele>18.483</ele>
        <time>2021-12-05T11:17:01Z</time>
      </trkpt>
      <trkpt lat="28.743663" lon="-13.917657">
        <ele>26.019</ele>
        <time>2021-12-05T11:19:18Z</time>
      </trkpt>
      <trkpt lat="28.743024" lon="-13.918819">
        <ele>27.077</ele>
        <time>2021-12-05T11:20:55Z</time>
      </trkpt>
      <trkpt lat="28.743039" lon="-13.919769">
        <ele>28.074</ele>
        <time>2021-12-05T11:22:08Z</time>
      </trkpt>
      <trkpt lat="28.741810" lon="-13.922327">
        <ele>28.571</ele>
        <time>2021-12-05T11:25:33Z</time>
      </trkpt>
      <trkpt lat="28.741527" lon="-13.925231">
        <ele>28.996</ele>
        <time>2021-12-05T11:28:58Z</time>
      </trkpt>
      <trkpt lat="28.740813" lon="-13.926908">
        <ele>29.414</ele>
        <time>2021-12-05T11:31:14Z</time>
      </trkpt>
      <trkpt lat="28.740488" lon="-13.928096">
        <ele>29.954</ele>
        <time>2021-12-05T11:32:38Z</time>
      </trkpt>
      <trkpt lat="28.739705" lon="-13.929226">
        <ele>30.409</ele>
        <time>2021-12-05T11:34:20Z</time>
      </trkpt>
      <trkpt lat="28.739814" lon="-13.931079">
        <ele>28.909</ele>
        <time>2021-12-05T11:36:32Z</time>
      </trkpt>
      <trkpt lat="28.740205" lon="-13.932094">
        <ele>28.032</ele>
        <time>2021-12-05T11:37:49Z</time>
      </trkpt>
      <trkpt lat="28.740269" lon="-13.933297">
        <ele>25.184</ele>
        <time>2021-12-05T11:39:12Z</time>
      </trkpt>
      <trkpt lat="28.739998" lon="-13.935030">
        <ele>22.216</ele>
        <time>2021-12-05T11:41:19Z</time>
      </trkpt>
      <trkpt lat="28.739624" lon="-13.935752">
        <ele>21.245</ele>
        <time>2021-12-05T11:42:19Z</time>
      </trkpt>
      <trkpt lat="28.739506" lon="-13.936490">
        <ele>18.861</ele>
        <time>2021-12-05T11:43:14Z</time>
      </trkpt>
      <trkpt lat="28.738815" lon="-13.937132">
        <ele>18.829</ele>
        <time>2021-12-05T11:45:25Z</time>
      </trkpt>
      <trkpt lat="28.738649" lon="-13.937529">
        <ele>19.346</ele>
        <time>2021-12-05T11:46:04Z</time>
      </trkpt>
      <trkpt lat="28.738716" lon="-13.939451">
        <ele>20.863</ele>
        <time>2021-12-05T11:48:40Z</time>
      </trkpt>
      <trkpt lat="28.739018" lon="-13.939755">
        <ele>22.788</ele>
        <time>2021-12-05T11:49:16Z</time>
      </trkpt>
      <trkpt lat="28.739288" lon="-13.939818">
        <ele>25.624</ele>
        <time>2021-12-05T11:49:52Z</time>
      </trkpt>
      <trkpt lat="28.739227" lon="-13.939913">
        <ele>26.004</ele>
        <time>2021-12-05T11:50:04Z</time>
      </trkpt>
      <trkpt lat="28.739789" lon="-13.939846">
        <ele>26.514</ele>
        <time>2021-12-05T11:51:08Z</time>
      </trkpt>
      <trkpt lat="28.740818" lon="-13.940504">
        <ele>22.209</ele>
        <time>2021-12-05T11:54:09Z</time>
      </trkpt>
      <trkpt lat="28.742052" lon="-13.942756">
        <ele>18.483</ele>
        <time>2021-12-05T11:57:11Z</time>
      </trkpt>
      <trkpt lat="28.742373" lon="-13.944669">
        <ele>18.825</ele>
        <time>2021-12-05T11:59:25Z</time>
      </trkpt>
      <trkpt lat="28.742364" lon="-13.945460">
        <ele>18.497</ele>
        <time>2021-12-05T12:00:20Z</time>
      </trkpt>
      <trkpt lat="28.742737" lon="-13.945633">
        <ele>19.316</ele>
        <time>2021-12-05T12:01:13Z</time>
      </trkpt>
      <trkpt lat="28.742276" lon="-13.945977">
        <ele>18.432</ele>
        <time>2021-12-05T12:02:19Z</time>
      </trkpt>
      <trkpt lat="28.741843" lon="-13.947089">
        <ele>20.380</ele>
        <time>2021-12-05T12:04:00Z</time>
      </trkpt>
      <trkpt lat="28.741516" lon="-13.947472">
        <ele>19.317</ele>
        <time>2021-12-05T12:04:40Z</time>
      </trkpt>
      <trkpt lat="28.741144" lon="-13.948463">
        <ele>18.424</ele>
        <time>2021-12-05T12:06:00Z</time>
      </trkpt>
      <trkpt lat="28.741284" lon="-13.948863">
        <ele>20.379</ele>
        <time>2021-12-05T12:06:34Z</time>
      </trkpt>
      <trkpt lat="28.741164" lon="-13.949465">
        <ele>16.945</ele>
        <time>2021-12-05T12:17:55Z</time>
      </trkpt>
      <trkpt lat="28.740498" lon="-13.950929">
        <ele>17.447</ele>
        <time>2021-12-05T12:21:02Z</time>
      </trkpt>
      <trkpt lat="28.740035" lon="-13.951334">
        <ele>18.411</ele>
        <time>2021-12-05T12:22:01Z</time>
      </trkpt>
      <trkpt lat="28.739398" lon="-13.951541">
        <ele>17.409</ele>
        <time>2021-12-05T12:23:07Z</time>
      </trkpt>
      <trkpt lat="28.737728" lon="-13.953050">
        <ele>21.265</ele>
        <time>2021-12-05T12:27:12Z</time>
      </trkpt>
      <trkpt lat="28.737252" lon="-13.953168">
        <ele>22.227</ele>
        <time>2021-12-05T12:28:03Z</time>
      </trkpt>
      <trkpt lat="28.737068" lon="-13.953660">
        <ele>28.069</ele>
        <time>2021-12-05T12:28:46Z</time>
      </trkpt>
      <trkpt lat="28.735417" lon="-13.955304">
        <ele>22.238</ele>
        <time>2021-12-05T12:32:05Z</time>
      </trkpt>
      <trkpt lat="28.735130" lon="-13.956013">
        <ele>21.274</ele>
        <time>2021-12-05T12:33:00Z</time>
      </trkpt>
      <trkpt lat="28.734585" lon="-13.956809">
        <ele>21.732</ele>
        <time>2021-12-05T12:34:09Z</time>
      </trkpt>
      <trkpt lat="28.734537" lon="-13.957269">
        <ele>22.219</ele>
        <time>2021-12-05T12:34:40Z</time>
      </trkpt>
      <trkpt lat="28.734720" lon="-13.957788">
        <ele>23.256</ele>
        <time>2021-12-05T12:35:19Z</time>
      </trkpt>
      <trkpt lat="28.735899" lon="-13.958478">
        <ele>23.241</ele>
        <time>2021-12-05T12:37:12Z</time>
      </trkpt>
      <trkpt lat="28.735916" lon="-13.958788">
        <ele>23.642</ele>
        <time>2021-12-05T12:37:38Z</time>
      </trkpt>
      <trkpt lat="28.735620" lon="-13.959374">
        <ele>22.222</ele>
        <time>2021-12-05T12:38:26Z</time>
      </trkpt>
      <trkpt lat="28.735780" lon="-13.960373">
        <ele>23.614</ele>
        <time>2021-12-05T12:39:36Z</time>
      </trkpt>
      <trkpt lat="28.735425" lon="-13.960969">
        <ele>23.609</ele>
        <time>2021-12-05T12:40:27Z</time>
      </trkpt>
      <trkpt lat="28.733847" lon="-13.961781">
        <ele>19.395</ele>
        <time>2021-12-05T12:42:44Z</time>
      </trkpt>
      <trkpt lat="28.733568" lon="-13.962963">
        <ele>19.827</ele>
        <time>2021-12-05T12:44:08Z</time>
      </trkpt>
      <trkpt lat="28.732870" lon="-13.964657">
        <ele>23.279</ele>
        <time>2021-12-05T12:46:22Z</time>
      </trkpt>
      <trkpt lat="28.733012" lon="-13.964913">
        <ele>19.328</ele>
        <time>2021-12-05T12:46:56Z</time>
      </trkpt>
      <trkpt lat="28.732970" lon="-13.965460">
        <ele>20.814</ele>
        <time>2021-12-05T12:47:37Z</time>
      </trkpt>
      <trkpt lat="28.733377" lon="-13.968139">
        <ele>21.792</ele>
        <time>2021-12-05T12:50:53Z</time>
      </trkpt>
      <trkpt lat="28.732910" lon="-13.968978">
        <ele>19.359</ele>
        <time>2021-12-05T12:52:02Z</time>
      </trkpt>
      <trkpt lat="28.732272" lon="-13.969745">
        <ele>19.816</ele>
        <time>2021-12-05T12:53:15Z</time>
      </trkpt>
      <trkpt lat="28.731062" lon="-13.970552">
        <ele>18.851</ele>
        <time>2021-12-05T12:56:34Z</time>
      </trkpt>
      <trkpt lat="28.730724" lon="-13.971441">
        <ele>18.484</ele>
        <time>2021-12-05T12:57:39Z</time>
      </trkpt>
      <trkpt lat="28.730774" lon="-13.972648">
        <ele>17.907</ele>
        <time>2021-12-05T12:59:04Z</time>
      </trkpt>
      <trkpt lat="28.731251" lon="-13.973456">
        <ele>18.817</ele>
        <time>2021-12-05T13:00:09Z</time>
      </trkpt>
      <trkpt lat="28.731545" lon="-13.974707">
        <ele>19.309</ele>
        <time>2021-12-05T13:01:37Z</time>
      </trkpt>
      <trkpt lat="28.731347" lon="-13.975642">
        <ele>19.849</ele>
        <time>2021-12-05T13:02:42Z</time>
      </trkpt>
      <trkpt lat="28.730914" lon="-13.976340">
        <ele>17.981</ele>
        <time>2021-12-05T13:03:43Z</time>
      </trkpt>
      <trkpt lat="28.730490" lon="-13.976717">
        <ele>15.573</ele>
        <time>2021-12-05T13:04:32Z</time>
      </trkpt>
      <trkpt lat="28.730960" lon="-13.979033">
        <ele>19.812</ele>
        <time>2021-12-05T13:07:34Z</time>
      </trkpt>
      <trkpt lat="28.730844" lon="-13.979890">
        <ele>19.848</ele>
        <time>2021-12-05T13:08:39Z</time>
      </trkpt>
      <trkpt lat="28.730521" lon="-13.980298">
        <ele>20.366</ele>
        <time>2021-12-05T13:09:21Z</time>
      </trkpt>
      <trkpt lat="28.729367" lon="-13.980739">
        <ele>16.473</ele>
        <time>2021-12-05T13:11:03Z</time>
      </trkpt>
      <trkpt lat="28.728863" lon="-13.980440">
        <ele>15.510</ele>
        <time>2021-12-05T13:11:52Z</time>
      </trkpt>
      <trkpt lat="28.728452" lon="-13.979969">
        <ele>14.525</ele>
        <time>2021-12-05T13:12:41Z</time>
      </trkpt>
      <trkpt lat="28.728092" lon="-13.979848">
        <ele>16.433</ele>
        <time>2021-12-05T13:13:15Z</time>
      </trkpt>
      <trkpt lat="28.727015" lon="-13.980831">
        <ele>15.523</ele>
        <time>2021-12-05T13:16:33Z</time>
      </trkpt>
      <trkpt lat="28.726989" lon="-13.982153">
        <ele>17.415</ele>
        <time>2021-12-05T13:18:17Z</time>
      </trkpt>
      <trkpt lat="28.726806" lon="-13.982925">
        <ele>18.409</ele>
        <time>2021-12-05T13:19:12Z</time>
      </trkpt>
      <trkpt lat="28.727021" lon="-13.984694">
        <ele>19.874</ele>
        <time>2021-12-05T13:21:13Z</time>
      </trkpt>
      <trkpt lat="28.726176" lon="-13.985908">
        <ele>19.376</ele>
        <time>2021-12-05T13:23:14Z</time>
      </trkpt>
      <trkpt lat="28.725868" lon="-13.986688">
        <ele>19.838</ele>
        <time>2021-12-05T13:24:20Z</time>
      </trkpt>
      <trkpt lat="28.725116" lon="-13.986796">
        <ele>17.467</ele>
        <time>2021-12-05T13:25:34Z</time>
      </trkpt>
      <trkpt lat="28.724585" lon="-13.987047">
        <ele>19.863</ele>
        <time>2021-12-05T13:26:56Z</time>
      </trkpt>
      <trkpt lat="28.723667" lon="-13.988823">
        <ele>17.481</ele>
        <time>2021-12-05T13:29:28Z</time>
      </trkpt>
      <trkpt lat="28.723562" lon="-13.990035">
        <ele>19.328</ele>
        <time>2021-12-05T13:30:55Z</time>
      </trkpt>
      <trkpt lat="28.722957" lon="-13.992674">
        <ele>18.445</ele>
        <time>2021-12-05T13:34:15Z</time>
      </trkpt>
      <trkpt lat="28.722950" lon="-13.994137">
        <ele>16.030</ele>
        <time>2021-12-05T13:36:21Z</time>
      </trkpt>
      <trkpt lat="28.722742" lon="-13.995842">
        <ele>16.911</ele>
        <time>2021-12-05T13:38:52Z</time>
      </trkpt>
      <trkpt lat="28.721555" lon="-13.997061">
        <ele>18.821</ele>
        <time>2021-12-05T13:42:02Z</time>
      </trkpt>
      <trkpt lat="28.721011" lon="-13.997228">
        <ele>19.803</ele>
        <time>2021-12-05T13:42:56Z</time>
      </trkpt>
      <trkpt lat="28.720768" lon="-13.997102">
        <ele>19.809</ele>
        <time>2021-12-05T13:43:24Z</time>
      </trkpt>
      <trkpt lat="28.720209" lon="-13.997283">
        <ele>15.042</ele>
        <time>2021-12-05T13:44:15Z</time>
      </trkpt>
      <trkpt lat="28.719820" lon="-13.997582">
        <ele>16.084</ele>
        <time>2021-12-05T13:44:56Z</time>
      </trkpt>
      <trkpt lat="28.718421" lon="-13.999610">
        <ele>19.846</ele>
        <time>2021-12-05T13:48:15Z</time>
      </trkpt>
      <trkpt lat="28.717003" lon="-14.001307">
        <ele>18.815</ele>
        <time>2021-12-05T13:51:14Z</time>
      </trkpt>
      <trkpt lat="28.716392" lon="-14.001811">
        <ele>17.941</ele>
        <time>2021-12-05T13:52:23Z</time>
      </trkpt>
      <trkpt lat="28.715347" lon="-14.002498">
        <ele>18.419</ele>
        <time>2021-12-05T13:54:48Z</time>
      </trkpt>
      <trkpt lat="28.712836" lon="-14.003592">
        <ele>17.986</ele>
        <time>2021-12-05T13:59:54Z</time>
      </trkpt>
      <trkpt lat="28.712338" lon="-14.004051">
        <ele>17.953</ele>
        <time>2021-12-05T14:01:15Z</time>
      </trkpt>
      <trkpt lat="28.711662" lon="-14.004154">
        <ele>18.838</ele>
        <time>2021-12-05T14:02:18Z</time>
      </trkpt>
      <trkpt lat="28.710731" lon="-14.004934">
        <ele>19.336</ele>
        <time>2021-12-05T14:03:55Z</time>
      </trkpt>
      <trkpt lat="28.710424" lon="-14.006591">
        <ele>18.817</ele>
        <time>2021-12-05T14:06:29Z</time>
      </trkpt>
      <trkpt lat="28.710489" lon="-14.007369">
        <ele>19.318</ele>
        <time>2021-12-05T14:07:25Z</time>
      </trkpt>
      <trkpt lat="28.710745" lon="-14.007930">
        <ele>21.709</ele>
        <time>2021-12-05T14:08:16Z</time>
      </trkpt>
      <trkpt lat="28.710750" lon="-14.009231">
        <ele>18.434</ele>
        <time>2021-12-05T14:09:52Z</time>
      </trkpt>
      <trkpt lat="28.711194" lon="-14.010276">
        <ele>20.386</ele>
        <time>2021-12-05T14:11:35Z</time>
      </trkpt>
      <trkpt lat="28.711736" lon="-14.010687">
        <ele>17.958</ele>
        <time>2021-12-05T14:12:42Z</time>
      </trkpt>
      <trkpt lat="28.711914" lon="-14.010637">
        <ele>18.467</ele>
        <time>2021-12-05T14:13:31Z</time>
      </trkpt>
      <trkpt lat="28.711851" lon="-14.010940">
        <ele>17.923</ele>
        <time>2021-12-05T14:13:59Z</time>
      </trkpt>
      <trkpt lat="28.711293" lon="-14.011660">
        <ele>17.921</ele>
        <time>2021-12-05T14:15:22Z</time>
      </trkpt>
      <trkpt lat="28.711290" lon="-14.012303">
        <ele>19.388</ele>
        <time>2021-12-05T14:16:17Z</time>
      </trkpt>
      <trkpt lat="28.711757" lon="-14.012547">
        <ele>18.815</ele>
        <time>2021-12-05T14:18:09Z</time>
      </trkpt>
      <trkpt lat="28.711800" lon="-14.012757">
        <ele>19.380</ele>
        <time>2021-12-05T14:18:27Z</time>
      </trkpt>
      <trkpt lat="28.712291" lon="-14.013132">
        <ele>18.856</ele>
        <time>2021-12-05T14:19:21Z</time>
      </trkpt>
      <trkpt lat="28.713701" lon="-14.012909">
        <ele>18.859</ele>
        <time>2021-12-05T14:21:27Z</time>
      </trkpt>
      <trkpt lat="28.714160" lon="-14.013242">
        <ele>19.314</ele>
        <time>2021-12-05T14:22:38Z</time>
      </trkpt>
      <trkpt lat="28.714740" lon="-14.013162">
        <ele>12.109</ele>
        <time>2021-12-05T14:23:27Z</time>
      </trkpt>
      <trkpt lat="28.715805" lon="-14.013673">
        <ele>19.396</ele>
        <time>2021-12-05T15:06:24Z</time>
      </trkpt>
      <trkpt lat="28.716080" lon="-14.013539">
        <ele>17.488</ele>
        <time>2021-12-05T15:07:48Z</time>
      </trkpt>
      <trkpt lat="28.715936" lon="-14.014245">
        <ele>18.420</ele>
        <time>2021-12-05T15:09:07Z</time>
      </trkpt>
      <trkpt lat="28.715335" lon="-14.015055">
        <ele>19.839</ele>
        <time>2021-12-05T15:10:40Z</time>
      </trkpt>
      <trkpt lat="28.714698" lon="-14.015508">
        <ele>18.485</ele>
        <time>2021-12-05T15:11:53Z</time>
      </trkpt>
      <trkpt lat="28.714327" lon="-14.015592">
        <ele>18.483</ele>
        <time>2021-12-05T15:12:39Z</time>
      </trkpt>
      <trkpt lat="28.714281" lon="-14.015021">
        <ele>16.910</ele>
        <time>2021-12-05T15:14:41Z</time>
      </trkpt>
      <trkpt lat="28.713941" lon="-14.014659">
        <ele>17.427</ele>
        <time>2021-12-05T15:15:21Z</time>
      </trkpt>
      <trkpt lat="28.713806" lon="-14.014152">
        <ele>17.462</ele>
        <time>2021-12-05T15:16:04Z</time>
      </trkpt>
      <trkpt lat="28.712932" lon="-14.013433">
        <ele>17.912</ele>
        <time>2021-12-05T15:17:38Z</time>
      </trkpt>
      <trkpt lat="28.711371" lon="-14.013228">
        <ele>19.332</ele>
        <time>2021-12-05T15:22:07Z</time>
      </trkpt>
      <trkpt lat="28.709824" lon="-14.012759">
        <ele>16.005</ele>
        <time>2021-12-05T15:24:27Z</time>
      </trkpt>
      <trkpt lat="28.705028" lon="-14.012199">
        <ele>16.009</ele>
        <time>2021-12-05T15:31:06Z</time>
      </trkpt>
      <trkpt lat="28.703143" lon="-14.012208">
        <ele>15.522</ele>
        <time>2021-12-05T15:33:36Z</time>
      </trkpt>
      <trkpt lat="28.701990" lon="-14.012737">
        <ele>15.594</ele>
        <time>2021-12-05T15:35:16Z</time>
      </trkpt>
      <trkpt lat="28.700517" lon="-14.013982">
        <ele>20.876</ele>
        <time>2021-12-05T15:37:42Z</time>
      </trkpt>
      <trkpt lat="28.699169" lon="-14.014671">
        <ele>19.855</ele>
        <time>2021-12-05T15:39:39Z</time>
      </trkpt>
      <trkpt lat="28.698320" lon="-14.014896">
        <ele>17.971</ele>
        <time>2021-12-05T15:40:49Z</time>
      </trkpt>
      <trkpt lat="28.695206" lon="-14.014705">
        <ele>15.099</ele>
        <time>2021-12-05T15:45:40Z</time>
      </trkpt>
      <trkpt lat="28.694095" lon="-14.016434">
        <ele>9.746</ele>
        <time>2021-12-05T15:49:10Z</time>
      </trkpt>
      <trkpt lat="28.694171" lon="-14.017142">
        <ele>9.763</ele>
        <time>2021-12-05T15:51:12Z</time>
      </trkpt>
      <trkpt lat="28.693999" lon="-14.016470">
        <ele>10.238</ele>
        <time>2021-12-05T15:53:20Z</time>
      </trkpt>
      <trkpt lat="28.693183" lon="-14.015492">
        <ele>10.789</ele>
        <time>2021-12-05T15:57:58Z</time>
      </trkpt>
      <trkpt lat="28.693091" lon="-14.014859">
        <ele>13.106</ele>
        <time>2021-12-05T15:58:53Z</time>
      </trkpt>
      <trkpt lat="28.692768" lon="-14.014101">
        <ele>15.026</ele>
        <time>2021-12-05T16:00:09Z</time>
      </trkpt>
      <trkpt lat="28.692080" lon="-14.012983">
        <ele>11.609</ele>
        <time>2021-12-05T16:02:20Z</time>
      </trkpt>
      <trkpt lat="28.690033" lon="-14.012005">
        <ele>10.289</ele>
        <time>2021-12-05T16:06:05Z</time>
      </trkpt>
      <trkpt lat="28.689739" lon="-14.012044">
        <ele>10.241</ele>
        <time>2021-12-05T16:06:32Z</time>
      </trkpt>
      <trkpt lat="28.689233" lon="-14.012481">
        <ele>12.683</ele>
        <time>2021-12-05T16:07:40Z</time>
      </trkpt>
      <trkpt lat="28.688699" lon="-14.012596">
        <ele>13.662</ele>
        <time>2021-12-05T16:09:40Z</time>
      </trkpt>
      <trkpt lat="28.687870" lon="-14.012311">
        <ele>13.658</ele>
        <time>2021-12-05T16:11:03Z</time>
      </trkpt>
      <trkpt lat="28.687470" lon="-14.012397">
        <ele>12.166</ele>
        <time>2021-12-05T16:11:37Z</time>
      </trkpt>
      <trkpt lat="28.686437" lon="-14.012231">
        <ele>15.513</ele>
        <time>2021-12-05T16:13:04Z</time>
      </trkpt>
      <trkpt lat="28.686148" lon="-14.011750">
        <ele>16.020</ele>
        <time>2021-12-05T16:13:54Z</time>
      </trkpt>
      <trkpt lat="28.685786" lon="-14.011754">
        <ele>14.575</ele>
        <time>2021-12-05T16:14:38Z</time>
      </trkpt>
      <trkpt lat="28.685560" lon="-14.011193">
        <ele>14.549</ele>
        <time>2021-12-05T16:15:27Z</time>
      </trkpt>
      <trkpt lat="28.684702" lon="-14.011647">
        <ele>14.502</ele>
        <time>2021-12-05T16:17:18Z</time>
      </trkpt>
      <trkpt lat="28.684424" lon="-14.011660">
        <ele>15.522</ele>
        <time>2021-12-05T16:17:52Z</time>
      </trkpt>
      <trkpt lat="28.684332" lon="-14.011897">
        <ele>15.009</ele>
        <time>2021-12-05T16:18:14Z</time>
      </trkpt>
      <trkpt lat="28.684127" lon="-14.011989">
        <ele>14.015</ele>
        <time>2021-12-05T16:18:43Z</time>
      </trkpt>
      <trkpt lat="28.684211" lon="-14.011679">
        <ele>14.567</ele>
        <time>2021-12-05T16:19:21Z</time>
      </trkpt>
      <trkpt lat="28.684087" lon="-14.011391">
        <ele>12.659</ele>
        <time>2021-12-05T16:20:00Z</time>
      </trkpt>
      <trkpt lat="28.683317" lon="-14.010964">
        <ele>18.828</ele>
        <time>2021-12-05T16:21:47Z</time>
      </trkpt>
      <trkpt lat="28.683669" lon="-14.011020">
        <ele>18.424</ele>
        <time>2021-12-05T16:22:44Z</time>
      </trkpt>
      <trkpt lat="28.683687" lon="-14.010695">
        <ele>20.342</ele>
        <time>2021-12-05T16:23:26Z</time>
      </trkpt>
      <trkpt lat="28.683309" lon="-14.010498">
        <ele>23.219</ele>
        <time>2021-12-05T16:24:06Z</time>
      </trkpt>
      <trkpt lat="28.683094" lon="-14.010557">
        <ele>22.766</ele>
        <time>2021-12-05T16:24:27Z</time>
      </trkpt>
      <trkpt lat="28.682969" lon="-14.010361">
        <ele>24.181</ele>
        <time>2021-12-05T16:25:35Z</time>
      </trkpt>
      <trkpt lat="28.682790" lon="-14.010680">
        <ele>25.694</ele>
        <time>2021-12-05T16:45:18Z</time>
      </trkpt>
      <trkpt lat="28.682581" lon="-14.010706">
        <ele>24.657</ele>
        <time>2021-12-05T16:45:40Z</time>
      </trkpt>
      <trkpt lat="28.682193" lon="-14.010305">
        <ele>26.022</ele>
        <time>2021-12-05T16:46:29Z</time>
      </trkpt>
      <trkpt lat="28.681994" lon="-14.009779">
        <ele>26.509</ele>
        <time>2021-12-05T16:47:17Z</time>
      </trkpt>
      <trkpt lat="28.681111" lon="-14.009701">
        <ele>28.560</ele>
        <time>2021-12-05T16:48:41Z</time>
      </trkpt>
      <trkpt lat="28.680836" lon="-14.008654">
        <ele>28.562</ele>
        <time>2021-12-05T16:50:26Z</time>
      </trkpt>
    </trkseg>
  </trk></gpx>