<?xml version="1.0" encoding="UTF-8"?>
<gpx creator="Wikiloc - https://www.wikiloc.com" version="1.1" xmlns="http://www.topografix.com/GPX/1/1" xmlns:xsi="http://www.w3.org/2001/XMLSchema-instance" xsi:schemaLocation="http://www.topografix.com/GPX/1/1 http://www.topografix.com/GPX/1/1/gpx.xsd">
  <metadata>
    <name>Wikiloc - La Palma. GR 130. Los Llanos de Aridane - Jedey</name>
    <link href="https://www.wikiloc.com/hiking-trails/la-palma-gr-130-los-llanos-de-aridane-jedey-31702129">
      <text>La Palma. GR 130. Los Llanos de Aridane - Jedey - Wikiloc on Wikiloc</text>
    </link>
    <time>2018-12-28T14:41:16Z</time>
  </metadata>
  <trk>
    <name>La Palma. GR 130. Los Llanos de Aridane - Jedey - Wikiloc</name>
    <cmt></cmt>
    <desc></desc>
    <trkseg>
      <trkpt lat="28.661146" lon="-17.918844">
        <ele>358.743</ele>
        <time>2018-12-28T11:10:38Z</time>
      </trkpt>
      <trkpt lat="28.661143" lon="-17.917142">
        <ele>350.564</ele>
        <time>2018-12-28T11:13:48Z</time>
      </trkpt>
      <trkpt lat="28.660695" lon="-17.916755">
        <ele>347.610</ele>
        <time>2018-12-28T11:14:37Z</time>
      </trkpt>
      <trkpt lat="28.660666" lon="-17.916582">
        <ele>348.608</ele>
        <time>2018-12-28T11:14:48Z</time>
      </trkpt>
      <trkpt lat="28.660398" lon="-17.916430">
        <ele>348.617</ele>
        <time>2018-12-28T11:15:16Z</time>
      </trkpt>
      <trkpt lat="28.660183" lon="-17.914325">
        <ele>354.385</ele>
        <time>2018-12-28T11:17:43Z</time>
      </trkpt>
      <trkpt lat="28.660054" lon="-17.913823">
        <ele>356.311</ele>
        <time>2018-12-28T11:18:17Z</time>
      </trkpt>
      <trkpt lat="28.659646" lon="-17.913664">
        <ele>356.354</ele>
        <time>2018-12-28T11:18:56Z</time>
      </trkpt>
      <trkpt lat="28.659396" lon="-17.913663">
        <ele>357.726</ele>
        <time>2018-12-28T11:19:21Z</time>
      </trkpt>
      <trkpt lat="28.659261" lon="-17.913393">
        <ele>359.655</ele>
        <time>2018-12-28T11:19:41Z</time>
      </trkpt>
      <trkpt lat="28.658806" lon="-17.913041">
        <ele>359.196</ele>
        <time>2018-12-28T11:21:53Z</time>
      </trkpt>
      <trkpt lat="28.658450" lon="-17.911585">
        <ele>365.463</ele>
        <time>2018-12-28T11:24:57Z</time>
      </trkpt>
      <trkpt lat="28.657448" lon="-17.911273">
        <ele>365.948</ele>
        <time>2018-12-28T11:26:36Z</time>
      </trkpt>
      <trkpt lat="28.656836" lon="-17.910853">
        <ele>366.461</ele>
        <time>2018-12-28T11:27:37Z</time>
      </trkpt>
      <trkpt lat="28.656486" lon="-17.910419">
        <ele>366.417</ele>
        <time>2018-12-28T11:28:17Z</time>
      </trkpt>
      <trkpt lat="28.656131" lon="-17.910473">
        <ele>367.308</ele>
        <time>2018-12-28T11:29:03Z</time>
      </trkpt>
      <trkpt lat="28.656025" lon="-17.910361">
        <ele>367.887</ele>
        <time>2018-12-28T11:29:22Z</time>
      </trkpt>
      <trkpt lat="28.655505" lon="-17.912093">
        <ele>356.735</ele>
        <time>2018-12-28T11:31:28Z</time>
      </trkpt>
      <trkpt lat="28.655404" lon="-17.912333">
        <ele>355.321</ele>
        <time>2018-12-28T11:31:45Z</time>
      </trkpt>
      <trkpt lat="28.655281" lon="-17.912312">
        <ele>354.834</ele>
        <time>2018-12-28T11:31:58Z</time>
      </trkpt>
      <trkpt lat="28.653348" lon="-17.911310">
        <ele>355.326</ele>
        <time>2018-12-28T11:34:44Z</time>
      </trkpt>
      <trkpt lat="28.653272" lon="-17.911144">
        <ele>354.875</ele>
        <time>2018-12-28T11:34:56Z</time>
      </trkpt>
      <trkpt lat="28.653098" lon="-17.911202">
        <ele>354.356</ele>
        <time>2018-12-28T11:35:05Z</time>
      </trkpt>
      <trkpt lat="28.652839" lon="-17.911106">
        <ele>353.953</ele>
        <time>2018-12-28T11:35:23Z</time>
      </trkpt>
      <trkpt lat="28.652425" lon="-17.910793">
        <ele>352.464</ele>
        <time>2018-12-28T11:36:04Z</time>
      </trkpt>
      <trkpt lat="28.652285" lon="-17.910828">
        <ele>352.406</ele>
        <time>2018-12-28T11:36:08Z</time>
      </trkpt>
      <trkpt lat="28.651886" lon="-17.910529">
        <ele>351.016</ele>
        <time>2018-12-28T11:36:46Z</time>
      </trkpt>
      <trkpt lat="28.651126" lon="-17.910266">
        <ele>351.008</ele>
        <time>2018-12-28T11:37:38Z</time>
      </trkpt>
      <trkpt lat="28.650599" lon="-17.909896">
        <ele>350.519</ele>
        <time>2018-12-28T11:38:43Z</time>
      </trkpt>
      <trkpt lat="28.650256" lon="-17.909841">
        <ele>348.627</ele>
        <time>2018-12-28T11:39:00Z</time>
      </trkpt>
      <trkpt lat="28.649842" lon="-17.909570">
        <ele>349.183</ele>
        <time>2018-12-28T11:39:48Z</time>
      </trkpt>
      <trkpt lat="28.649778" lon="-17.909637">
        <ele>349.196</ele>
        <time>2018-12-28T11:40:41Z</time>
      </trkpt>
      <trkpt lat="28.650262" lon="-17.908629">
        <ele>355.318</ele>
        <time>2018-12-28T11:42:45Z</time>
      </trkpt>
      <trkpt lat="28.650192" lon="-17.908524">
        <ele>354.837</ele>
        <time>2018-12-28T11:42:58Z</time>
      </trkpt>
      <trkpt lat="28.649866" lon="-17.908458">
        <ele>353.988</ele>
        <time>2018-12-28T11:43:25Z</time>
      </trkpt>
      <trkpt lat="28.649461" lon="-17.908529">
        <ele>351.065</ele>
        <time>2018-12-28T11:44:07Z</time>
      </trkpt>
      <trkpt lat="28.648945" lon="-17.908285">
        <ele>345.268</ele>
        <time>2018-12-28T11:45:14Z</time>
      </trkpt>
      <trkpt lat="28.648167" lon="-17.907652">
        <ele>343.342</ele>
        <time>2018-12-28T11:46:32Z</time>
      </trkpt>
      <trkpt lat="28.647425" lon="-17.907608">
        <ele>348.126</ele>
        <time>2018-12-28T11:47:27Z</time>
      </trkpt>
      <trkpt lat="28.645533" lon="-17.905862">
        <ele>351.908</ele>
        <time>2018-12-28T11:50:24Z</time>
      </trkpt>
      <trkpt lat="28.644236" lon="-17.905182">
        <ele>360.169</ele>
        <time>2018-12-28T11:52:14Z</time>
      </trkpt>
      <trkpt lat="28.643707" lon="-17.905020">
        <ele>364.927</ele>
        <time>2018-12-28T11:52:54Z</time>
      </trkpt>
      <trkpt lat="28.642962" lon="-17.905052">
        <ele>364.913</ele>
        <time>2018-12-28T11:54:24Z</time>
      </trkpt>
      <trkpt lat="28.642215" lon="-17.904909">
        <ele>366.456</ele>
        <time>2018-12-28T11:55:34Z</time>
      </trkpt>
      <trkpt lat="28.641851" lon="-17.904752">
        <ele>365.948</ele>
        <time>2018-12-28T11:56:06Z</time>
      </trkpt>
      <trkpt lat="28.641414" lon="-17.904413">
        <ele>364.427</ele>
        <time>2018-12-28T11:56:50Z</time>
      </trkpt>
      <trkpt lat="28.641249" lon="-17.904523">
        <ele>366.828</ele>
        <time>2018-12-28T11:57:37Z</time>
      </trkpt>
      <trkpt lat="28.640572" lon="-17.904495">
        <ele>363.515</ele>
        <time>2018-12-28T11:59:17Z</time>
      </trkpt>
      <trkpt lat="28.639983" lon="-17.904801">
        <ele>359.189</ele>
        <time>2018-12-28T12:00:32Z</time>
      </trkpt>
      <trkpt lat="28.639845" lon="-17.905038">
        <ele>356.306</ele>
        <time>2018-12-28T12:00:51Z</time>
      </trkpt>
      <trkpt lat="28.639732" lon="-17.905095">
        <ele>356.326</ele>
        <time>2018-12-28T12:01:20Z</time>
      </trkpt>
      <trkpt lat="28.639595" lon="-17.905025">
        <ele>356.708</ele>
        <time>2018-12-28T12:01:32Z</time>
      </trkpt>
      <trkpt lat="28.639205" lon="-17.904443">
        <ele>360.681</ele>
        <time>2018-12-28T12:02:21Z</time>
      </trkpt>
      <trkpt lat="28.638858" lon="-17.904134">
        <ele>361.599</ele>
        <time>2018-12-28T12:02:58Z</time>
      </trkpt>
      <trkpt lat="28.638443" lon="-17.903423">
        <ele>368.825</ele>
        <time>2018-12-28T12:03:59Z</time>
      </trkpt>
      <trkpt lat="28.637621" lon="-17.902796">
        <ele>377.448</ele>
        <time>2018-12-28T12:06:47Z</time>
      </trkpt>
      <trkpt lat="28.637116" lon="-17.901843">
        <ele>385.180</ele>
        <time>2018-12-28T12:08:29Z</time>
      </trkpt>
      <trkpt lat="28.636806" lon="-17.901525">
        <ele>385.639</ele>
        <time>2018-12-28T12:09:01Z</time>
      </trkpt>
      <trkpt lat="28.636411" lon="-17.901352">
        <ele>385.660</ele>
        <time>2018-12-28T12:09:33Z</time>
      </trkpt>
      <trkpt lat="28.635504" lon="-17.900248">
        <ele>391.827</ele>
        <time>2018-12-28T12:11:13Z</time>
      </trkpt>
      <trkpt lat="28.635359" lon="-17.899650">
        <ele>396.614</ele>
        <time>2018-12-28T12:24:49Z</time>
      </trkpt>
      <trkpt lat="28.634668" lon="-17.898934">
        <ele>400.054</ele>
        <time>2018-12-28T12:26:01Z</time>
      </trkpt>
      <trkpt lat="28.634246" lon="-17.898765">
        <ele>401.009</ele>
        <time>2018-12-28T12:26:40Z</time>
      </trkpt>
      <trkpt lat="28.634129" lon="-17.898326">
        <ele>396.608</ele>
        <time>2018-12-28T12:27:16Z</time>
      </trkpt>
      <trkpt lat="28.633848" lon="-17.898045">
        <ele>398.684</ele>
        <time>2018-12-28T12:27:45Z</time>
      </trkpt>
      <trkpt lat="28.633455" lon="-17.897826">
        <ele>399.562</ele>
        <time>2018-12-28T12:28:19Z</time>
      </trkpt>
      <trkpt lat="28.633083" lon="-17.897796">
        <ele>404.318</ele>
        <time>2018-12-28T12:29:01Z</time>
      </trkpt>
      <trkpt lat="28.631732" lon="-17.896783">
        <ele>411.121</ele>
        <time>2018-12-28T12:32:13Z</time>
      </trkpt>
      <trkpt lat="28.630469" lon="-17.896282">
        <ele>418.713</ele>
        <time>2018-12-28T12:33:59Z</time>
      </trkpt>
      <trkpt lat="28.629517" lon="-17.895573">
        <ele>421.182</ele>
        <time>2018-12-28T12:35:32Z</time>
      </trkpt>
      <trkpt lat="28.629016" lon="-17.895504">
        <ele>426.963</ele>
        <time>2018-12-28T12:36:14Z</time>
      </trkpt>
      <trkpt lat="28.628229" lon="-17.894734">
        <ele>432.290</ele>
        <time>2018-12-28T12:38:28Z</time>
      </trkpt>
      <trkpt lat="28.628013" lon="-17.894638">
        <ele>432.239</ele>
        <time>2018-12-28T12:38:49Z</time>
      </trkpt>
      <trkpt lat="28.627255" lon="-17.894554">
        <ele>430.801</ele>
        <time>2018-12-28T12:40:21Z</time>
      </trkpt>
      <trkpt lat="28.625825" lon="-17.894606">
        <ele>436.121</ele>
        <time>2018-12-28T12:42:09Z</time>
      </trkpt>
      <trkpt lat="28.625222" lon="-17.894508">
        <ele>436.508</ele>
        <time>2018-12-28T12:42:58Z</time>
      </trkpt>
      <trkpt lat="28.623945" lon="-17.893989">
        <ele>438.986</ele>
        <time>2018-12-28T12:47:20Z</time>
      </trkpt>
      <trkpt lat="28.623110" lon="-17.893831">
        <ele>440.434</ele>
        <time>2018-12-28T12:48:27Z</time>
      </trkpt>
      <trkpt lat="28.622447" lon="-17.893567">
        <ele>442.360</ele>
        <time>2018-12-28T12:49:18Z</time>
      </trkpt>
      <trkpt lat="28.622286" lon="-17.893429">
        <ele>443.313</ele>
        <time>2018-12-28T12:49:33Z</time>
      </trkpt>
      <trkpt lat="28.622064" lon="-17.892866">
        <ele>447.645</ele>
        <time>2018-12-28T12:50:16Z</time>
      </trkpt>
      <trkpt lat="28.621682" lon="-17.892552">
        <ele>451.044</ele>
        <time>2018-12-28T12:51:43Z</time>
      </trkpt>
      <trkpt lat="28.621420" lon="-17.891860">
        <ele>453.435</ele>
        <time>2018-12-28T12:54:09Z</time>
      </trkpt>
      <trkpt lat="28.621361" lon="-17.891181">
        <ele>458.272</ele>
        <time>2018-12-28T12:56:56Z</time>
      </trkpt>
      <trkpt lat="28.621087" lon="-17.890772">
        <ele>461.545</ele>
        <time>2018-12-28T12:57:55Z</time>
      </trkpt>
      <trkpt lat="28.620558" lon="-17.890277">
        <ele>468.747</ele>
        <time>2018-12-28T12:58:49Z</time>
      </trkpt>
      <trkpt lat="28.620321" lon="-17.889727">
        <ele>471.611</ele>
        <time>2018-12-28T12:59:30Z</time>
      </trkpt>
      <trkpt lat="28.619912" lon="-17.889570">
        <ele>474.508</ele>
        <time>2018-12-28T13:00:03Z</time>
      </trkpt>
      <trkpt lat="28.619598" lon="-17.889675">
        <ele>480.337</ele>
        <time>2018-12-28T13:01:45Z</time>
      </trkpt>
      <trkpt lat="28.619336" lon="-17.889649">
        <ele>481.265</ele>
        <time>2018-12-28T13:02:38Z</time>
      </trkpt>
      <trkpt lat="28.618342" lon="-17.889049">
        <ele>488.911</ele>
        <time>2018-12-28T13:04:08Z</time>
      </trkpt>
      <trkpt lat="28.617234" lon="-17.888898">
        <ele>487.554</ele>
        <time>2018-12-28T13:05:32Z</time>
      </trkpt>
      <trkpt lat="28.616938" lon="-17.888799">
        <ele>488.066</ele>
        <time>2018-12-28T13:05:57Z</time>
      </trkpt>
      <trkpt lat="28.615905" lon="-17.888143">
        <ele>499.545</ele>
        <time>2018-12-28T13:07:33Z</time>
      </trkpt>
      <trkpt lat="28.615414" lon="-17.888148">
        <ele>501.926</ele>
        <time>2018-12-28T13:08:19Z</time>
      </trkpt>
      <trkpt lat="28.615445" lon="-17.888003">
        <ele>503.383</ele>
        <time>2018-12-28T13:12:26Z</time>
      </trkpt>
      <trkpt lat="28.614983" lon="-17.887764">
        <ele>506.216</ele>
        <time>2018-12-28T13:13:24Z</time>
      </trkpt>
      <trkpt lat="28.614455" lon="-17.887129">
        <ele>517.376</ele>
        <time>2018-12-28T13:14:36Z</time>
      </trkpt>
      <trkpt lat="28.613820" lon="-17.886020">
        <ele>530.713</ele>
        <time>2018-12-28T13:17:03Z</time>
      </trkpt>
      <trkpt lat="28.613363" lon="-17.885717">
        <ele>537.008</ele>
        <time>2018-12-28T13:18:15Z</time>
      </trkpt>
      <trkpt lat="28.612150" lon="-17.884641">
        <ele>551.914</ele>
        <time>2018-12-28T13:21:47Z</time>
      </trkpt>
      <trkpt lat="28.611240" lon="-17.884408">
        <ele>568.212</ele>
        <time>2018-12-28T13:24:24Z</time>
      </trkpt>
      <trkpt lat="28.610929" lon="-17.884015">
        <ele>575.978</ele>
        <time>2018-12-28T13:25:06Z</time>
      </trkpt>
      <trkpt lat="28.610675" lon="-17.883961">
        <ele>577.831</ele>
        <time>2018-12-28T13:25:59Z</time>
      </trkpt>
      <trkpt lat="28.610179" lon="-17.883622">
        <ele>580.243</ele>
        <time>2018-12-28T13:26:45Z</time>
      </trkpt>
      <trkpt lat="28.609708" lon="-17.883567">
        <ele>583.122</ele>
        <time>2018-12-28T13:28:35Z</time>
      </trkpt>
      <trkpt lat="28.609009" lon="-17.883207">
        <ele>587.983</ele>
        <time>2018-12-28T13:30:56Z</time>
      </trkpt>
      <trkpt lat="28.608486" lon="-17.883115">
        <ele>592.730</ele>
        <time>2018-12-28T13:32:00Z</time>
      </trkpt>
      <trkpt lat="28.607859" lon="-17.882771">
        <ele>597.152</ele>
        <time>2018-12-28T13:32:51Z</time>
      </trkpt>
      <trkpt lat="28.607100" lon="-17.882567">
        <ele>600.053</ele>
        <time>2018-12-28T13:33:48Z</time>
      </trkpt>
      <trkpt lat="28.606342" lon="-17.882242">
        <ele>607.208</ele>
        <time>2018-12-28T13:34:47Z</time>
      </trkpt>
      <trkpt lat="28.605526" lon="-17.882101">
        <ele>612.008</ele>
        <time>2018-12-28T13:36:00Z</time>
      </trkpt>
      <trkpt lat="28.605332" lon="-17.881892">
        <ele>611.538</ele>
        <time>2018-12-28T13:37:53Z</time>
      </trkpt>
      <trkpt lat="28.605193" lon="-17.881924">
        <ele>610.556</ele>
        <time>2018-12-28T13:38:39Z</time>
      </trkpt>
      <trkpt lat="28.604957" lon="-17.881425">
        <ele>613.442</ele>
        <time>2018-12-28T13:39:38Z</time>
      </trkpt>
      <trkpt lat="28.605126" lon="-17.880988">
        <ele>618.755</ele>
        <time>2018-12-28T13:40:18Z</time>
      </trkpt>
      <trkpt lat="28.605109" lon="-17.880692">
        <ele>621.167</ele>
        <time>2018-12-28T13:51:02Z</time>
      </trkpt>
      <trkpt lat="28.605293" lon="-17.880555">
        <ele>624.566</ele>
        <time>2018-12-28T13:52:30Z</time>
      </trkpt>
      <trkpt lat="28.605128" lon="-17.879922">
        <ele>629.367</ele>
        <time>2018-12-28T13:53:43Z</time>
      </trkpt>
      <trkpt lat="28.605378" lon="-17.879513">
        <ele>636.564</ele>
        <time>2018-12-28T13:54:28Z</time>
      </trkpt>
      <trkpt lat="28.605346" lon="-17.879244">
        <ele>639.866</ele>
        <time>2018-12-28T13:56:11Z</time>
      </trkpt>
      <trkpt lat="28.604330" lon="-17.880204">
        <ele>630.729</ele>
        <time>2018-12-28T13:59:12Z</time>
      </trkpt>
      <trkpt lat="28.602799" lon="-17.880996">
        <ele>619.221</ele>
        <time>2018-12-28T14:01:27Z</time>
      </trkpt>
      <trkpt lat="28.602551" lon="-17.880989">
        <ele>620.608</ele>
        <time>2018-12-28T14:01:47Z</time>
      </trkpt>
      <trkpt lat="28.602455" lon="-17.881121">
        <ele>620.679</ele>
        <time>2018-12-28T14:02:01Z</time>
      </trkpt>
      <trkpt lat="28.601524" lon="-17.880966">
        <ele>621.147</ele>
        <time>2018-12-28T14:03:40Z</time>
      </trkpt>
      <trkpt lat="28.600944" lon="-17.880661">
        <ele>618.753</ele>
        <time>2018-12-28T14:04:29Z</time>
      </trkpt>
      <trkpt lat="28.600465" lon="-17.880627">
        <ele>618.226</ele>
        <time>2018-12-28T14:05:05Z</time>
      </trkpt>
      <trkpt lat="28.600060" lon="-17.880654">
        <ele>619.258</ele>
        <time>2018-12-28T14:05:53Z</time>
      </trkpt>
      <trkpt lat="28.599182" lon="-17.880953">
        <ele>620.647</ele>
        <time>2018-12-28T14:08:09Z</time>
      </trkpt>
      <trkpt lat="28.598466" lon="-17.880720">
        <ele>622.188</ele>
        <time>2018-12-28T14:09:21Z</time>
      </trkpt>
      <trkpt lat="28.598004" lon="-17.880342">
        <ele>620.195</ele>
        <time>2018-12-28T14:11:27Z</time>
      </trkpt>
      <trkpt lat="28.597626" lon="-17.880385">
        <ele>618.268</ele>
        <time>2018-12-28T14:11:59Z</time>
      </trkpt>
      <trkpt lat="28.596973" lon="-17.880655">
        <ele>614.442</ele>
        <time>2018-12-28T14:13:18Z</time>
      </trkpt>
      <trkpt lat="28.596603" lon="-17.880635">
        <ele>608.126</ele>
        <time>2018-12-28T14:14:19Z</time>
      </trkpt>
      <trkpt lat="28.596237" lon="-17.880415">
        <ele>601.408</ele>
        <time>2018-12-28T14:15:21Z</time>
      </trkpt>
      <trkpt lat="28.595956" lon="-17.880075">
        <ele>596.669</ele>
        <time>2018-12-28T14:15:56Z</time>
      </trkpt>
      <trkpt lat="28.595706" lon="-17.879979">
        <ele>595.617</ele>
        <time>2018-12-28T14:16:17Z</time>
      </trkpt>
      <trkpt lat="28.595468" lon="-17.879969">
        <ele>591.333</ele>
        <time>2018-12-28T14:16:42Z</time>
      </trkpt>
      <trkpt lat="28.594703" lon="-17.880298">
        <ele>594.216</ele>
        <time>2018-12-28T14:18:25Z</time>
      </trkpt>
      <trkpt lat="28.594051" lon="-17.880464">
        <ele>597.118</ele>
        <time>2018-12-28T14:19:18Z</time>
      </trkpt>
      <trkpt lat="28.592852" lon="-17.880368">
        <ele>600.947</ele>
        <time>2018-12-28T14:22:07Z</time>
      </trkpt>
      <trkpt lat="28.592574" lon="-17.880290">
        <ele>603.378</ele>
        <time>2018-12-28T14:22:34Z</time>
      </trkpt>
      <trkpt lat="28.592102" lon="-17.879811">
        <ele>610.095</ele>
        <time>2018-12-28T14:23:52Z</time>
      </trkpt>
      <trkpt lat="28.591633" lon="-17.879766">
        <ele>614.473</ele>
        <time>2018-12-28T14:24:29Z</time>
      </trkpt>
      <trkpt lat="28.590932" lon="-17.879870">
        <ele>623.085</ele>
        <time>2018-12-28T14:26:17Z</time>
      </trkpt>
      <trkpt lat="28.590853" lon="-17.879703">
        <ele>622.113</ele>
        <time>2018-12-28T14:27:14Z</time>
      </trkpt>
      <trkpt lat="28.590187" lon="-17.879385">
        <ele>623.508</ele>
        <time>2018-12-28T14:28:08Z</time>
      </trkpt>
      <trkpt lat="28.589673" lon="-17.879444">
        <ele>628.380</ele>
        <time>2018-12-28T14:29:00Z</time>
      </trkpt>
      <trkpt lat="28.589112" lon="-17.879938">
        <ele>634.198</ele>
        <time>2018-12-28T14:32:52Z</time>
      </trkpt>
      <trkpt lat="28.588629" lon="-17.880100">
        <ele>635.514</ele>
        <time>2018-12-28T14:33:32Z</time>
      </trkpt>
      <trkpt lat="28.588293" lon="-17.880068">
        <ele>637.987</ele>
        <time>2018-12-28T14:34:00Z</time>
      </trkpt>
      <trkpt lat="28.587395" lon="-17.879667">
        <ele>630.759</ele>
        <time>2018-12-28T14:36:23Z</time>
      </trkpt>
      <trkpt lat="28.586957" lon="-17.879670">
        <ele>630.768</ele>
        <time>2018-12-28T14:36:58Z</time>
      </trkpt>
      <trkpt lat="28.586973" lon="-17.879970">
        <ele>626.419</ele>
        <time>2018-12-28T14:37:21Z</time>
      </trkpt>
      <trkpt lat="28.586422" lon="-17.880319">
        <ele>624.566</ele>
        <time>2018-12-28T14:38:13Z</time>
      </trkpt>
      <trkpt lat="28.586329" lon="-17.880468">
        <ele>624.565</ele>
        <time>2018-12-28T14:39:19Z</time>
      </trkpt>
      <trkpt lat="28.586216" lon="-17.880537">
        <ele>623.568</ele>
        <time>2018-12-28T14:39:43Z</time>
      </trkpt>
      <trkpt lat="28.585659" lon="-17.880506">
        <ele>624.014</ele>
        <time>2018-12-28T14:41:16Z</time>
      </trkpt>
    </trkseg>
  </trk></gpx>