<?xml version="1.0" encoding="UTF-8"?>
<gpx creator="Wikiloc - https://www.wikiloc.com" version="1.1" xmlns="http://www.topografix.com/GPX/1/1" xmlns:xsi="http://www.w3.org/2001/XMLSchema-instance" xsi:schemaLocation="http://www.topografix.com/GPX/1/1 http://www.topografix.com/GPX/1/1/gpx.xsd">
  <metadata>
    <name>Wikiloc - 02/04/2015 playa santiago gomera</name>
    <link href="https://www.wikiloc.com/kayaking-canoeing-trails/02-04-2015-playa-santiago-gomera-9283039">
      <text>02/04/2015 playa santiago gomera - Wikiloc on Wikiloc</text>
    </link>
    <time>2015-04-02T11:43:31Z</time>
  </metadata>
  <trk>
    <name>02/04/2015 playa santiago gomera - Wikiloc</name>
    <cmt></cmt>
    <desc></desc>
    <trkseg>
      <trkpt lat="28.026225" lon="-17.197567">
        <ele>28.646</ele>
        <time>2015-04-02T06:26:42Z</time>
      </trkpt>
      <trkpt lat="28.026327" lon="-17.197396">
        <ele>2.988</ele>
        <time>2015-04-02T06:27:26Z</time>
      </trkpt>
      <trkpt lat="28.026218" lon="-17.197559">
        <ele>3.816</ele>
        <time>2015-04-02T06:28:15Z</time>
      </trkpt>
      <trkpt lat="28.026114" lon="-17.197729">
        <ele>6.407</ele>
        <time>2015-04-02T06:28:44Z</time>
      </trkpt>
      <trkpt lat="28.025993" lon="-17.197882">
        <ele>4.943</ele>
        <time>2015-04-02T06:29:07Z</time>
      </trkpt>
      <trkpt lat="28.025884" lon="-17.198051">
        <ele>8.516</ele>
        <time>2015-04-02T06:29:30Z</time>
      </trkpt>
      <trkpt lat="28.025842" lon="-17.198250">
        <ele>7.272</ele>
        <time>2015-04-02T06:29:54Z</time>
      </trkpt>
      <trkpt lat="28.025975" lon="-17.198392">
        <ele>11.887</ele>
        <time>2015-04-02T06:30:19Z</time>
      </trkpt>
      <trkpt lat="28.026148" lon="-17.198467">
        <ele>0.334</ele>
        <time>2015-04-02T06:30:53Z</time>
      </trkpt>
      <trkpt lat="28.026297" lon="-17.198594">
        <ele>5.357</ele>
        <time>2015-04-02T06:31:19Z</time>
      </trkpt>
      <trkpt lat="28.026431" lon="-17.198732">
        <ele>-0.223</ele>
        <time>2015-04-02T06:31:48Z</time>
      </trkpt>
      <trkpt lat="28.026613" lon="-17.198744">
        <ele>0.474</ele>
        <time>2015-04-02T06:32:06Z</time>
      </trkpt>
      <trkpt lat="28.026796" lon="-17.198745">
        <ele>0.256</ele>
        <time>2015-04-02T06:32:29Z</time>
      </trkpt>
      <trkpt lat="28.026941" lon="-17.198618">
        <ele>3.421</ele>
        <time>2015-04-02T06:32:49Z</time>
      </trkpt>
      <trkpt lat="28.027021" lon="-17.198428">
        <ele>6.307</ele>
        <time>2015-04-02T06:32:59Z</time>
      </trkpt>
      <trkpt lat="28.027090" lon="-17.198635">
        <ele>6.816</ele>
        <time>2015-04-02T06:33:13Z</time>
      </trkpt>
      <trkpt lat="28.027259" lon="-17.198562">
        <ele>8.339</ele>
        <time>2015-04-02T06:33:39Z</time>
      </trkpt>
      <trkpt lat="28.027420" lon="-17.198470">
        <ele>8.275</ele>
        <time>2015-04-02T06:33:59Z</time>
      </trkpt>
      <trkpt lat="28.027592" lon="-17.198387">
        <ele>5.880</ele>
        <time>2015-04-02T06:34:33Z</time>
      </trkpt>
      <trkpt lat="28.027757" lon="-17.198298">
        <ele>4.897</ele>
        <time>2015-04-02T06:35:03Z</time>
      </trkpt>
      <trkpt lat="28.027930" lon="-17.198236">
        <ele>2.850</ele>
        <time>2015-04-02T06:36:13Z</time>
      </trkpt>
      <trkpt lat="28.027751" lon="-17.198283">
        <ele>3.336</ele>
        <time>2015-04-02T06:37:08Z</time>
      </trkpt>
      <trkpt lat="28.027578" lon="-17.198344">
        <ele>3.537</ele>
        <time>2015-04-02T06:37:27Z</time>
      </trkpt>
      <trkpt lat="28.027409" lon="-17.198416">
        <ele>5.849</ele>
        <time>2015-04-02T06:37:43Z</time>
      </trkpt>
      <trkpt lat="28.027253" lon="-17.198525">
        <ele>0.313</ele>
        <time>2015-04-02T06:38:01Z</time>
      </trkpt>
      <trkpt lat="28.027099" lon="-17.198643">
        <ele>-1.507</ele>
        <time>2015-04-02T06:38:19Z</time>
      </trkpt>
      <trkpt lat="28.026924" lon="-17.198708">
        <ele>-3.312</ele>
        <time>2015-04-02T06:38:37Z</time>
      </trkpt>
      <trkpt lat="28.026743" lon="-17.198721">
        <ele>-2.435</ele>
        <time>2015-04-02T06:38:53Z</time>
      </trkpt>
      <trkpt lat="28.026559" lon="-17.198743">
        <ele>-4.661</ele>
        <time>2015-04-02T06:39:11Z</time>
      </trkpt>
      <trkpt lat="28.026415" lon="-17.198617">
        <ele>0.156</ele>
        <time>2015-04-02T06:39:25Z</time>
      </trkpt>
      <trkpt lat="28.026279" lon="-17.198469">
        <ele>4.573</ele>
        <time>2015-04-02T06:39:39Z</time>
      </trkpt>
      <trkpt lat="28.026112" lon="-17.198365">
        <ele>4.666</ele>
        <time>2015-04-02T06:39:56Z</time>
      </trkpt>
      <trkpt lat="28.025978" lon="-17.198212">
        <ele>5.122</ele>
        <time>2015-04-02T06:40:14Z</time>
      </trkpt>
      <trkpt lat="28.025826" lon="-17.198092">
        <ele>6.554</ele>
        <time>2015-04-02T06:40:33Z</time>
      </trkpt>
      <trkpt lat="28.025923" lon="-17.198267">
        <ele>7.656</ele>
        <time>2015-04-02T06:42:32Z</time>
      </trkpt>
      <trkpt lat="28.026084" lon="-17.198360">
        <ele>17.211</ele>
        <time>2015-04-02T06:43:36Z</time>
      </trkpt>
      <trkpt lat="28.026242" lon="-17.198479">
        <ele>10.507</ele>
        <time>2015-04-02T06:57:00Z</time>
      </trkpt>
      <trkpt lat="28.026380" lon="-17.198616">
        <ele>13.884</ele>
        <time>2015-04-02T06:57:17Z</time>
      </trkpt>
      <trkpt lat="28.026545" lon="-17.198746">
        <ele>13.227</ele>
        <time>2015-04-02T06:57:37Z</time>
      </trkpt>
      <trkpt lat="28.026710" lon="-17.198661">
        <ele>11.393</ele>
        <time>2015-04-02T06:58:13Z</time>
      </trkpt>
      <trkpt lat="28.026879" lon="-17.198583">
        <ele>11.868</ele>
        <time>2015-04-02T06:58:23Z</time>
      </trkpt>
      <trkpt lat="28.027066" lon="-17.198626">
        <ele>19.425</ele>
        <time>2015-04-02T06:58:34Z</time>
      </trkpt>
      <trkpt lat="28.027236" lon="-17.198545">
        <ele>17.348</ele>
        <time>2015-04-02T06:58:43Z</time>
      </trkpt>
      <trkpt lat="28.027405" lon="-17.198468">
        <ele>14.144</ele>
        <time>2015-04-02T06:59:02Z</time>
      </trkpt>
      <trkpt lat="28.027586" lon="-17.198419">
        <ele>11.991</ele>
        <time>2015-04-02T06:59:22Z</time>
      </trkpt>
      <trkpt lat="28.027748" lon="-17.198311">
        <ele>8.481</ele>
        <time>2015-04-02T06:59:45Z</time>
      </trkpt>
      <trkpt lat="28.027860" lon="-17.198149">
        <ele>5.119</ele>
        <time>2015-04-02T07:00:00Z</time>
      </trkpt>
      <trkpt lat="28.027977" lon="-17.197995">
        <ele>5.007</ele>
        <time>2015-04-02T07:00:44Z</time>
      </trkpt>
      <trkpt lat="28.028075" lon="-17.197822">
        <ele>5.058</ele>
        <time>2015-04-02T07:01:00Z</time>
      </trkpt>
      <trkpt lat="28.028186" lon="-17.197658">
        <ele>3.881</ele>
        <time>2015-04-02T07:01:17Z</time>
      </trkpt>
      <trkpt lat="28.028283" lon="-17.197483">
        <ele>4.077</ele>
        <time>2015-04-02T07:01:34Z</time>
      </trkpt>
      <trkpt lat="28.028380" lon="-17.197302">
        <ele>4.322</ele>
        <time>2015-04-02T07:01:52Z</time>
      </trkpt>
      <trkpt lat="28.028474" lon="-17.197126">
        <ele>4.939</ele>
        <time>2015-04-02T07:02:08Z</time>
      </trkpt>
      <trkpt lat="28.028592" lon="-17.196962">
        <ele>4.692</ele>
        <time>2015-04-02T07:02:26Z</time>
      </trkpt>
      <trkpt lat="28.028677" lon="-17.196782">
        <ele>3.948</ele>
        <time>2015-04-02T07:02:46Z</time>
      </trkpt>
      <trkpt lat="28.028775" lon="-17.196598">
        <ele>0.592</ele>
        <time>2015-04-02T07:03:11Z</time>
      </trkpt>
      <trkpt lat="28.028915" lon="-17.196469">
        <ele>-1.473</ele>
        <time>2015-04-02T07:03:47Z</time>
      </trkpt>
      <trkpt lat="28.028973" lon="-17.196269">
        <ele>-1.520</ele>
        <time>2015-04-02T07:04:06Z</time>
      </trkpt>
      <trkpt lat="28.029016" lon="-17.196067">
        <ele>1.107</ele>
        <time>2015-04-02T07:04:34Z</time>
      </trkpt>
      <trkpt lat="28.029071" lon="-17.195868">
        <ele>2.318</ele>
        <time>2015-04-02T07:04:53Z</time>
      </trkpt>
      <trkpt lat="28.029165" lon="-17.195685">
        <ele>1.861</ele>
        <time>2015-04-02T07:06:47Z</time>
      </trkpt>
      <trkpt lat="28.029207" lon="-17.195481">
        <ele>4.577</ele>
        <time>2015-04-02T07:07:05Z</time>
      </trkpt>
      <trkpt lat="28.029239" lon="-17.195270">
        <ele>2.522</ele>
        <time>2015-04-02T07:07:24Z</time>
      </trkpt>
      <trkpt lat="28.029332" lon="-17.195092">
        <ele>3.649</ele>
        <time>2015-04-02T07:07:39Z</time>
      </trkpt>
      <trkpt lat="28.029435" lon="-17.194919">
        <ele>6.092</ele>
        <time>2015-04-02T07:07:56Z</time>
      </trkpt>
      <trkpt lat="28.029617" lon="-17.194990">
        <ele>4.688</ele>
        <time>2015-04-02T07:09:15Z</time>
      </trkpt>
      <trkpt lat="28.029801" lon="-17.195035">
        <ele>2.257</ele>
        <time>2015-04-02T07:09:33Z</time>
      </trkpt>
      <trkpt lat="28.029989" lon="-17.195028">
        <ele>0.100</ele>
        <time>2015-04-02T07:09:49Z</time>
      </trkpt>
      <trkpt lat="28.030109" lon="-17.194860">
        <ele>1.320</ele>
        <time>2015-04-02T07:10:05Z</time>
      </trkpt>
      <trkpt lat="28.030227" lon="-17.194696">
        <ele>2.807</ele>
        <time>2015-04-02T07:10:20Z</time>
      </trkpt>
      <trkpt lat="28.030305" lon="-17.194509">
        <ele>5.464</ele>
        <time>2015-04-02T07:10:38Z</time>
      </trkpt>
      <trkpt lat="28.030143" lon="-17.194401">
        <ele>8.117</ele>
        <time>2015-04-02T07:10:56Z</time>
      </trkpt>
      <trkpt lat="28.030013" lon="-17.194259">
        <ele>8.453</ele>
        <time>2015-04-02T07:11:13Z</time>
      </trkpt>
      <trkpt lat="28.029862" lon="-17.194121">
        <ele>6.928</ele>
        <time>2015-04-02T07:11:27Z</time>
      </trkpt>
      <trkpt lat="28.029727" lon="-17.193985">
        <ele>4.985</ele>
        <time>2015-04-02T07:12:10Z</time>
      </trkpt>
      <trkpt lat="28.029791" lon="-17.193794">
        <ele>5.338</ele>
        <time>2015-04-02T07:12:24Z</time>
      </trkpt>
      <trkpt lat="28.029874" lon="-17.193606">
        <ele>5.394</ele>
        <time>2015-04-02T07:12:40Z</time>
      </trkpt>
      <trkpt lat="28.029940" lon="-17.193413">
        <ele>6.667</ele>
        <time>2015-04-02T07:12:56Z</time>
      </trkpt>
      <trkpt lat="28.029981" lon="-17.193213">
        <ele>5.281</ele>
        <time>2015-04-02T07:13:11Z</time>
      </trkpt>
      <trkpt lat="28.030047" lon="-17.193020">
        <ele>5.319</ele>
        <time>2015-04-02T07:13:41Z</time>
      </trkpt>
      <trkpt lat="28.030074" lon="-17.192808">
        <ele>4.107</ele>
        <time>2015-04-02T07:14:01Z</time>
      </trkpt>
      <trkpt lat="28.030071" lon="-17.192604">
        <ele>2.795</ele>
        <time>2015-04-02T07:14:31Z</time>
      </trkpt>
      <trkpt lat="28.030057" lon="-17.192396">
        <ele>2.898</ele>
        <time>2015-04-02T07:14:46Z</time>
      </trkpt>
      <trkpt lat="28.029980" lon="-17.192208">
        <ele>3.834</ele>
        <time>2015-04-02T07:15:29Z</time>
      </trkpt>
      <trkpt lat="28.029988" lon="-17.192002">
        <ele>3.819</ele>
        <time>2015-04-02T07:15:44Z</time>
      </trkpt>
      <trkpt lat="28.030015" lon="-17.191791">
        <ele>4.256</ele>
        <time>2015-04-02T07:16:00Z</time>
      </trkpt>
      <trkpt lat="28.030036" lon="-17.191578">
        <ele>1.959</ele>
        <time>2015-04-02T07:16:17Z</time>
      </trkpt>
      <trkpt lat="28.030045" lon="-17.191370">
        <ele>6.495</ele>
        <time>2015-04-02T07:16:39Z</time>
      </trkpt>
      <trkpt lat="28.030228" lon="-17.191339">
        <ele>5.858</ele>
        <time>2015-04-02T07:17:24Z</time>
      </trkpt>
      <trkpt lat="28.030375" lon="-17.191211">
        <ele>7.452</ele>
        <time>2015-04-02T07:19:35Z</time>
      </trkpt>
      <trkpt lat="28.030439" lon="-17.191018">
        <ele>7.717</ele>
        <time>2015-04-02T07:20:26Z</time>
      </trkpt>
      <trkpt lat="28.030291" lon="-17.191147">
        <ele>13.207</ele>
        <time>2015-04-02T07:46:59Z</time>
      </trkpt>
      <trkpt lat="28.030154" lon="-17.191280">
        <ele>15.694</ele>
        <time>2015-04-02T07:47:25Z</time>
      </trkpt>
      <trkpt lat="28.030058" lon="-17.191458">
        <ele>12.267</ele>
        <time>2015-04-02T07:47:41Z</time>
      </trkpt>
      <trkpt lat="28.030025" lon="-17.191665">
        <ele>12.943</ele>
        <time>2015-04-02T07:47:56Z</time>
      </trkpt>
      <trkpt lat="28.029985" lon="-17.191875">
        <ele>15.838</ele>
        <time>2015-04-02T07:48:14Z</time>
      </trkpt>
      <trkpt lat="28.029963" lon="-17.192089">
        <ele>15.725</ele>
        <time>2015-04-02T07:48:29Z</time>
      </trkpt>
      <trkpt lat="28.030027" lon="-17.192291">
        <ele>11.298</ele>
        <time>2015-04-02T07:48:51Z</time>
      </trkpt>
      <trkpt lat="28.030052" lon="-17.192503">
        <ele>12.734</ele>
        <time>2015-04-02T07:49:18Z</time>
      </trkpt>
      <trkpt lat="28.030029" lon="-17.192709">
        <ele>11.167</ele>
        <time>2015-04-02T07:49:33Z</time>
      </trkpt>
      <trkpt lat="28.030036" lon="-17.192918">
        <ele>12.481</ele>
        <time>2015-04-02T07:49:49Z</time>
      </trkpt>
      <trkpt lat="28.029992" lon="-17.193123">
        <ele>13.019</ele>
        <time>2015-04-02T07:50:04Z</time>
      </trkpt>
      <trkpt lat="28.029958" lon="-17.193332">
        <ele>15.107</ele>
        <time>2015-04-02T07:50:19Z</time>
      </trkpt>
      <trkpt lat="28.029900" lon="-17.193541">
        <ele>14.815</ele>
        <time>2015-04-02T07:50:35Z</time>
      </trkpt>
      <trkpt lat="28.029827" lon="-17.193740">
        <ele>9.978</ele>
        <time>2015-04-02T07:50:50Z</time>
      </trkpt>
      <trkpt lat="28.029768" lon="-17.193946">
        <ele>10.824</ele>
        <time>2015-04-02T07:51:06Z</time>
      </trkpt>
      <trkpt lat="28.029888" lon="-17.194115">
        <ele>7.429</ele>
        <time>2015-04-02T07:51:23Z</time>
      </trkpt>
      <trkpt lat="28.029988" lon="-17.194284">
        <ele>4.746</ele>
        <time>2015-04-02T07:51:40Z</time>
      </trkpt>
      <trkpt lat="28.030135" lon="-17.194416">
        <ele>5.629</ele>
        <time>2015-04-02T07:51:54Z</time>
      </trkpt>
      <trkpt lat="28.030288" lon="-17.194538">
        <ele>8.675</ele>
        <time>2015-04-02T07:52:10Z</time>
      </trkpt>
      <trkpt lat="28.030200" lon="-17.194721">
        <ele>5.949</ele>
        <time>2015-04-02T07:52:36Z</time>
      </trkpt>
      <trkpt lat="28.030093" lon="-17.194896">
        <ele>5.002</ele>
        <time>2015-04-02T07:52:50Z</time>
      </trkpt>
      <trkpt lat="28.029913" lon="-17.194970">
        <ele>6.122</ele>
        <time>2015-04-02T07:53:04Z</time>
      </trkpt>
      <trkpt lat="28.029730" lon="-17.194967">
        <ele>5.607</ele>
        <time>2015-04-02T07:53:18Z</time>
      </trkpt>
      <trkpt lat="28.029549" lon="-17.194951">
        <ele>3.193</ele>
        <time>2015-04-02T07:53:35Z</time>
      </trkpt>
      <trkpt lat="28.029373" lon="-17.195004">
        <ele>1.436</ele>
        <time>2015-04-02T07:53:51Z</time>
      </trkpt>
      <trkpt lat="28.029317" lon="-17.195199">
        <ele>-0.272</ele>
        <time>2015-04-02T07:54:08Z</time>
      </trkpt>
      <trkpt lat="28.029253" lon="-17.195402">
        <ele>0.017</ele>
        <time>2015-04-02T07:54:28Z</time>
      </trkpt>
      <trkpt lat="28.029179" lon="-17.195593">
        <ele>-0.414</ele>
        <time>2015-04-02T07:54:42Z</time>
      </trkpt>
      <trkpt lat="28.029128" lon="-17.195797">
        <ele>1.987</ele>
        <time>2015-04-02T07:54:56Z</time>
      </trkpt>
      <trkpt lat="28.029066" lon="-17.195990">
        <ele>3.863</ele>
        <time>2015-04-02T07:55:10Z</time>
      </trkpt>
      <trkpt lat="28.029001" lon="-17.196191">
        <ele>4.659</ele>
        <time>2015-04-02T07:55:25Z</time>
      </trkpt>
      <trkpt lat="28.028942" lon="-17.196386">
        <ele>3.903</ele>
        <time>2015-04-02T07:55:38Z</time>
      </trkpt>
      <trkpt lat="28.028860" lon="-17.196570">
        <ele>2.223</ele>
        <time>2015-04-02T07:55:52Z</time>
      </trkpt>
      <trkpt lat="28.028722" lon="-17.196709">
        <ele>0.107</ele>
        <time>2015-04-02T07:56:07Z</time>
      </trkpt>
      <trkpt lat="28.028638" lon="-17.196890">
        <ele>0.874</ele>
        <time>2015-04-02T07:56:24Z</time>
      </trkpt>
      <trkpt lat="28.028537" lon="-17.197067">
        <ele>0.577</ele>
        <time>2015-04-02T07:56:39Z</time>
      </trkpt>
      <trkpt lat="28.028438" lon="-17.197244">
        <ele>0.773</ele>
        <time>2015-04-02T07:56:53Z</time>
      </trkpt>
      <trkpt lat="28.028341" lon="-17.197418">
        <ele>0.358</ele>
        <time>2015-04-02T07:57:08Z</time>
      </trkpt>
      <trkpt lat="28.028244" lon="-17.197604">
        <ele>-1.145</ele>
        <time>2015-04-02T07:57:23Z</time>
      </trkpt>
      <trkpt lat="28.028137" lon="-17.197778">
        <ele>1.578</ele>
        <time>2015-04-02T07:57:37Z</time>
      </trkpt>
      <trkpt lat="28.028027" lon="-17.197956">
        <ele>3.134</ele>
        <time>2015-04-02T07:57:52Z</time>
      </trkpt>
      <trkpt lat="28.028006" lon="-17.198159">
        <ele>4.821</ele>
        <time>2015-04-02T07:58:11Z</time>
      </trkpt>
      <trkpt lat="28.028205" lon="-17.198659">
        <ele>6.541</ele>
        <time>2015-04-02T08:00:22Z</time>
      </trkpt>
      <trkpt lat="28.028014" lon="-17.198242">
        <ele>8.405</ele>
        <time>2015-04-02T08:10:43Z</time>
      </trkpt>
      <trkpt lat="28.027844" lon="-17.198316">
        <ele>7.607</ele>
        <time>2015-04-02T08:11:07Z</time>
      </trkpt>
      <trkpt lat="28.027665" lon="-17.198362">
        <ele>9.891</ele>
        <time>2015-04-02T08:11:25Z</time>
      </trkpt>
      <trkpt lat="28.027480" lon="-17.198398">
        <ele>6.984</ele>
        <time>2015-04-02T08:11:40Z</time>
      </trkpt>
      <trkpt lat="28.027373" lon="-17.198232">
        <ele>5.540</ele>
        <time>2015-04-02T08:13:38Z</time>
      </trkpt>
      <trkpt lat="28.027248" lon="-17.198079">
        <ele>3.945</ele>
        <time>2015-04-02T08:22:58Z</time>
      </trkpt>
      <trkpt lat="28.027136" lon="-17.197910">
        <ele>4.042</ele>
        <time>2015-04-02T08:23:11Z</time>
      </trkpt>
      <trkpt lat="28.027032" lon="-17.197742">
        <ele>2.755</ele>
        <time>2015-04-02T08:23:24Z</time>
      </trkpt>
      <trkpt lat="28.026960" lon="-17.197550">
        <ele>3.241</ele>
        <time>2015-04-02T08:23:46Z</time>
      </trkpt>
      <trkpt lat="28.026955" lon="-17.197334">
        <ele>2.564</ele>
        <time>2015-04-02T08:24:04Z</time>
      </trkpt>
      <trkpt lat="28.026981" lon="-17.197131">
        <ele>2.606</ele>
        <time>2015-04-02T08:24:19Z</time>
      </trkpt>
      <trkpt lat="28.027048" lon="-17.196940">
        <ele>3.716</ele>
        <time>2015-04-02T08:24:38Z</time>
      </trkpt>
      <trkpt lat="28.027130" lon="-17.196752">
        <ele>2.807</ele>
        <time>2015-04-02T08:24:53Z</time>
      </trkpt>
      <trkpt lat="28.027265" lon="-17.196605">
        <ele>1.115</ele>
        <time>2015-04-02T08:25:09Z</time>
      </trkpt>
      <trkpt lat="28.027444" lon="-17.196549">
        <ele>2.188</ele>
        <time>2015-04-02T08:25:31Z</time>
      </trkpt>
      <trkpt lat="28.027473" lon="-17.196337">
        <ele>2.964</ele>
        <time>2015-04-02T08:25:46Z</time>
      </trkpt>
      <trkpt lat="28.027418" lon="-17.196143">
        <ele>3.049</ele>
        <time>2015-04-02T08:26:01Z</time>
      </trkpt>
      <trkpt lat="28.027571" lon="-17.196011">
        <ele>0.996</ele>
        <time>2015-04-02T08:26:22Z</time>
      </trkpt>
      <trkpt lat="28.027745" lon="-17.195913">
        <ele>-1.699</ele>
        <time>2015-04-02T08:26:34Z</time>
      </trkpt>
      <trkpt lat="28.027836" lon="-17.195734">
        <ele>1.185</ele>
        <time>2015-04-02T08:26:47Z</time>
      </trkpt>
      <trkpt lat="28.027862" lon="-17.195522">
        <ele>2.042</ele>
        <time>2015-04-02T08:27:01Z</time>
      </trkpt>
      <trkpt lat="28.027878" lon="-17.195317">
        <ele>2.522</ele>
        <time>2015-04-02T08:27:20Z</time>
      </trkpt>
      <trkpt lat="28.028030" lon="-17.195203">
        <ele>1.114</ele>
        <time>2015-04-02T08:27:34Z</time>
      </trkpt>
      <trkpt lat="28.028138" lon="-17.195027">
        <ele>0.207</ele>
        <time>2015-04-02T08:27:52Z</time>
      </trkpt>
      <trkpt lat="28.028087" lon="-17.194829">
        <ele>1.423</ele>
        <time>2015-04-02T08:28:07Z</time>
      </trkpt>
      <trkpt lat="28.028148" lon="-17.194624">
        <ele>2.596</ele>
        <time>2015-04-02T08:28:25Z</time>
      </trkpt>
      <trkpt lat="28.028133" lon="-17.194419">
        <ele>4.032</ele>
        <time>2015-04-02T08:28:38Z</time>
      </trkpt>
      <trkpt lat="28.028106" lon="-17.194210">
        <ele>2.027</ele>
        <time>2015-04-02T08:28:55Z</time>
      </trkpt>
      <trkpt lat="28.028136" lon="-17.194005">
        <ele>2.134</ele>
        <time>2015-04-02T08:29:10Z</time>
      </trkpt>
      <trkpt lat="28.028202" lon="-17.193809">
        <ele>1.637</ele>
        <time>2015-04-02T08:29:26Z</time>
      </trkpt>
      <trkpt lat="28.028275" lon="-17.193611">
        <ele>2.933</ele>
        <time>2015-04-02T08:29:42Z</time>
      </trkpt>
      <trkpt lat="28.028339" lon="-17.193418">
        <ele>2.675</ele>
        <time>2015-04-02T08:29:55Z</time>
      </trkpt>
      <trkpt lat="28.028334" lon="-17.193203">
        <ele>3.628</ele>
        <time>2015-04-02T08:30:11Z</time>
      </trkpt>
      <trkpt lat="28.028352" lon="-17.192993">
        <ele>2.620</ele>
        <time>2015-04-02T08:30:28Z</time>
      </trkpt>
      <trkpt lat="28.028375" lon="-17.192782">
        <ele>3.007</ele>
        <time>2015-04-02T08:30:46Z</time>
      </trkpt>
      <trkpt lat="28.028390" lon="-17.192566">
        <ele>4.246</ele>
        <time>2015-04-02T08:31:01Z</time>
      </trkpt>
      <trkpt lat="28.028416" lon="-17.192351">
        <ele>4.919</ele>
        <time>2015-04-02T08:31:20Z</time>
      </trkpt>
      <trkpt lat="28.028386" lon="-17.192140">
        <ele>3.645</ele>
        <time>2015-04-02T08:31:35Z</time>
      </trkpt>
      <trkpt lat="28.028464" lon="-17.191952">
        <ele>3.460</ele>
        <time>2015-04-02T08:31:51Z</time>
      </trkpt>
      <trkpt lat="28.028442" lon="-17.191746">
        <ele>4.097</ele>
        <time>2015-04-02T08:32:04Z</time>
      </trkpt>
      <trkpt lat="28.028482" lon="-17.191539">
        <ele>3.110</ele>
        <time>2015-04-02T08:32:22Z</time>
      </trkpt>
      <trkpt lat="28.028620" lon="-17.191397">
        <ele>4.146</ele>
        <time>2015-04-02T08:32:38Z</time>
      </trkpt>
      <trkpt lat="28.028677" lon="-17.191201">
        <ele>3.616</ele>
        <time>2015-04-02T08:32:52Z</time>
      </trkpt>
      <trkpt lat="28.028653" lon="-17.190997">
        <ele>2.576</ele>
        <time>2015-04-02T08:33:06Z</time>
      </trkpt>
      <trkpt lat="28.028649" lon="-17.190781">
        <ele>3.213</ele>
        <time>2015-04-02T08:33:24Z</time>
      </trkpt>
      <trkpt lat="28.028743" lon="-17.190605">
        <ele>3.807</ele>
        <time>2015-04-02T08:33:36Z</time>
      </trkpt>
      <trkpt lat="28.028818" lon="-17.190418">
        <ele>3.860</ele>
        <time>2015-04-02T08:33:51Z</time>
      </trkpt>
      <trkpt lat="28.028770" lon="-17.190217">
        <ele>3.613</ele>
        <time>2015-04-02T08:34:05Z</time>
      </trkpt>
      <trkpt lat="28.028735" lon="-17.190014">
        <ele>3.679</ele>
        <time>2015-04-02T08:34:21Z</time>
      </trkpt>
      <trkpt lat="28.028716" lon="-17.189804">
        <ele>3.464</ele>
        <time>2015-04-02T08:34:38Z</time>
      </trkpt>
      <trkpt lat="28.028671" lon="-17.189600">
        <ele>3.981</ele>
        <time>2015-04-02T08:34:55Z</time>
      </trkpt>
      <trkpt lat="28.028647" lon="-17.189388">
        <ele>3.944</ele>
        <time>2015-04-02T08:35:10Z</time>
      </trkpt>
      <trkpt lat="28.028641" lon="-17.189172">
        <ele>4.130</ele>
        <time>2015-04-02T08:35:28Z</time>
      </trkpt>
      <trkpt lat="28.028617" lon="-17.188966">
        <ele>6.179</ele>
        <time>2015-04-02T08:35:43Z</time>
      </trkpt>
      <trkpt lat="28.028616" lon="-17.188758">
        <ele>4.105</ele>
        <time>2015-04-02T08:36:00Z</time>
      </trkpt>
      <trkpt lat="28.028667" lon="-17.188561">
        <ele>4.925</ele>
        <time>2015-04-02T08:36:16Z</time>
      </trkpt>
      <trkpt lat="28.028729" lon="-17.188363">
        <ele>5.307</ele>
        <time>2015-04-02T08:36:29Z</time>
      </trkpt>
      <trkpt lat="28.028713" lon="-17.188152">
        <ele>4.536</ele>
        <time>2015-04-02T08:36:42Z</time>
      </trkpt>
      <trkpt lat="28.028669" lon="-17.187951">
        <ele>5.239</ele>
        <time>2015-04-02T08:36:59Z</time>
      </trkpt>
      <trkpt lat="28.028693" lon="-17.187737">
        <ele>5.985</ele>
        <time>2015-04-02T08:37:19Z</time>
      </trkpt>
      <trkpt lat="28.028703" lon="-17.187526">
        <ele>5.260</ele>
        <time>2015-04-02T08:37:33Z</time>
      </trkpt>
      <trkpt lat="28.028795" lon="-17.187343">
        <ele>6.627</ele>
        <time>2015-04-02T08:37:48Z</time>
      </trkpt>
      <trkpt lat="28.028909" lon="-17.187179">
        <ele>5.560</ele>
        <time>2015-04-02T08:38:04Z</time>
      </trkpt>
      <trkpt lat="28.028910" lon="-17.186974">
        <ele>5.126</ele>
        <time>2015-04-02T08:38:18Z</time>
      </trkpt>
      <trkpt lat="28.028917" lon="-17.186770">
        <ele>5.885</ele>
        <time>2015-04-02T08:38:33Z</time>
      </trkpt>
      <trkpt lat="28.028908" lon="-17.186563">
        <ele>6.089</ele>
        <time>2015-04-02T08:38:51Z</time>
      </trkpt>
      <trkpt lat="28.028931" lon="-17.186354">
        <ele>3.817</ele>
        <time>2015-04-02T08:39:09Z</time>
      </trkpt>
      <trkpt lat="28.029004" lon="-17.186166">
        <ele>5.507</ele>
        <time>2015-04-02T08:39:23Z</time>
      </trkpt>
      <trkpt lat="28.029114" lon="-17.185984">
        <ele>5.697</ele>
        <time>2015-04-02T08:39:37Z</time>
      </trkpt>
      <trkpt lat="28.029188" lon="-17.185788">
        <ele>5.310</ele>
        <time>2015-04-02T08:39:51Z</time>
      </trkpt>
      <trkpt lat="28.029296" lon="-17.185610">
        <ele>5.926</ele>
        <time>2015-04-02T08:40:06Z</time>
      </trkpt>
      <trkpt lat="28.029402" lon="-17.185439">
        <ele>5.521</ele>
        <time>2015-04-02T08:40:20Z</time>
      </trkpt>
      <trkpt lat="28.029460" lon="-17.185241">
        <ele>6.948</ele>
        <time>2015-04-02T08:40:36Z</time>
      </trkpt>
      <trkpt lat="28.029574" lon="-17.185075">
        <ele>5.511</ele>
        <time>2015-04-02T08:40:52Z</time>
      </trkpt>
      <trkpt lat="28.029662" lon="-17.184893">
        <ele>7.147</ele>
        <time>2015-04-02T08:41:06Z</time>
      </trkpt>
      <trkpt lat="28.029771" lon="-17.184729">
        <ele>5.478</ele>
        <time>2015-04-02T08:41:24Z</time>
      </trkpt>
      <trkpt lat="28.029930" lon="-17.184626">
        <ele>5.333</ele>
        <time>2015-04-02T08:41:41Z</time>
      </trkpt>
      <trkpt lat="28.030027" lon="-17.184450">
        <ele>5.926</ele>
        <time>2015-04-02T08:41:57Z</time>
      </trkpt>
      <trkpt lat="28.030145" lon="-17.184285">
        <ele>6.307</ele>
        <time>2015-04-02T08:42:13Z</time>
      </trkpt>
      <trkpt lat="28.030300" lon="-17.184173">
        <ele>5.066</ele>
        <time>2015-04-02T08:42:30Z</time>
      </trkpt>
      <trkpt lat="28.030413" lon="-17.184012">
        <ele>4.829</ele>
        <time>2015-04-02T08:42:44Z</time>
      </trkpt>
      <trkpt lat="28.030529" lon="-17.183844">
        <ele>5.525</ele>
        <time>2015-04-02T08:43:00Z</time>
      </trkpt>
      <trkpt lat="28.030693" lon="-17.183754">
        <ele>5.860</ele>
        <time>2015-04-02T08:43:17Z</time>
      </trkpt>
      <trkpt lat="28.030849" lon="-17.183637">
        <ele>5.037</ele>
        <time>2015-04-02T08:43:33Z</time>
      </trkpt>
      <trkpt lat="28.031002" lon="-17.183510">
        <ele>6.560</ele>
        <time>2015-04-02T08:43:50Z</time>
      </trkpt>
      <trkpt lat="28.031074" lon="-17.183321">
        <ele>8.926</ele>
        <time>2015-04-02T08:44:03Z</time>
      </trkpt>
      <trkpt lat="28.031227" lon="-17.183207">
        <ele>8.738</ele>
        <time>2015-04-02T08:44:19Z</time>
      </trkpt>
      <trkpt lat="28.031358" lon="-17.183057">
        <ele>9.670</ele>
        <time>2015-04-02T08:44:36Z</time>
      </trkpt>
      <trkpt lat="28.031518" lon="-17.182940">
        <ele>6.117</ele>
        <time>2015-04-02T08:44:53Z</time>
      </trkpt>
      <trkpt lat="28.031699" lon="-17.182918">
        <ele>3.707</ele>
        <time>2015-04-02T08:45:10Z</time>
      </trkpt>
      <trkpt lat="28.031887" lon="-17.182920">
        <ele>2.692</ele>
        <time>2015-04-02T08:45:28Z</time>
      </trkpt>
      <trkpt lat="28.032068" lon="-17.182929">
        <ele>4.845</ele>
        <time>2015-04-02T08:45:46Z</time>
      </trkpt>
      <trkpt lat="28.032202" lon="-17.182786">
        <ele>8.351</ele>
        <time>2015-04-02T08:46:11Z</time>
      </trkpt>
      <trkpt lat="28.032368" lon="-17.182677">
        <ele>7.836</ele>
        <time>2015-04-02T08:46:28Z</time>
      </trkpt>
      <trkpt lat="28.032499" lon="-17.182525">
        <ele>8.513</ele>
        <time>2015-04-02T08:46:40Z</time>
      </trkpt>
      <trkpt lat="28.032639" lon="-17.182391">
        <ele>5.976</ele>
        <time>2015-04-02T08:46:53Z</time>
      </trkpt>
      <trkpt lat="28.032805" lon="-17.182302">
        <ele>4.662</ele>
        <time>2015-04-02T08:47:09Z</time>
      </trkpt>
      <trkpt lat="28.032970" lon="-17.182191">
        <ele>4.078</ele>
        <time>2015-04-02T08:47:23Z</time>
      </trkpt>
      <trkpt lat="28.033100" lon="-17.182047">
        <ele>6.533</ele>
        <time>2015-04-02T08:47:39Z</time>
      </trkpt>
      <trkpt lat="28.033264" lon="-17.181927">
        <ele>5.526</ele>
        <time>2015-04-02T08:47:53Z</time>
      </trkpt>
      <trkpt lat="28.033452" lon="-17.181900">
        <ele>4.007</ele>
        <time>2015-04-02T08:48:07Z</time>
      </trkpt>
      <trkpt lat="28.033592" lon="-17.181771">
        <ele>4.836</ele>
        <time>2015-04-02T08:48:24Z</time>
      </trkpt>
      <trkpt lat="28.033689" lon="-17.181595">
        <ele>5.459</ele>
        <time>2015-04-02T08:48:52Z</time>
      </trkpt>
      <trkpt lat="28.033751" lon="-17.181400">
        <ele>4.085</ele>
        <time>2015-04-02T08:49:16Z</time>
      </trkpt>
      <trkpt lat="28.033888" lon="-17.181267">
        <ele>4.830</ele>
        <time>2015-04-02T08:49:31Z</time>
      </trkpt>
      <trkpt lat="28.034069" lon="-17.181237">
        <ele>2.247</ele>
        <time>2015-04-02T08:49:46Z</time>
      </trkpt>
      <trkpt lat="28.034259" lon="-17.181222">
        <ele>1.550</ele>
        <time>2015-04-02T08:50:04Z</time>
      </trkpt>
      <trkpt lat="28.034431" lon="-17.181138">
        <ele>1.956</ele>
        <time>2015-04-02T08:50:23Z</time>
      </trkpt>
      <trkpt lat="28.034586" lon="-17.181013">
        <ele>3.766</ele>
        <time>2015-04-02T08:50:42Z</time>
      </trkpt>
      <trkpt lat="28.034768" lon="-17.180963">
        <ele>3.129</ele>
        <time>2015-04-02T08:50:54Z</time>
      </trkpt>
      <trkpt lat="28.034950" lon="-17.180942">
        <ele>2.321</ele>
        <time>2015-04-02T08:51:10Z</time>
      </trkpt>
      <trkpt lat="28.035137" lon="-17.180927">
        <ele>3.307</ele>
        <time>2015-04-02T08:51:26Z</time>
      </trkpt>
      <trkpt lat="28.035319" lon="-17.180911">
        <ele>2.475</ele>
        <time>2015-04-02T08:51:41Z</time>
      </trkpt>
      <trkpt lat="28.035510" lon="-17.180891">
        <ele>2.138</ele>
        <time>2015-04-02T08:52:00Z</time>
      </trkpt>
      <trkpt lat="28.035690" lon="-17.180897">
        <ele>5.414</ele>
        <time>2015-04-02T08:52:16Z</time>
      </trkpt>
      <trkpt lat="28.035873" lon="-17.180905">
        <ele>5.989</ele>
        <time>2015-04-02T08:52:32Z</time>
      </trkpt>
      <trkpt lat="28.036059" lon="-17.180929">
        <ele>5.236</ele>
        <time>2015-04-02T08:52:47Z</time>
      </trkpt>
      <trkpt lat="28.036243" lon="-17.180979">
        <ele>1.559</ele>
        <time>2015-04-02T08:53:04Z</time>
      </trkpt>
      <trkpt lat="28.036421" lon="-17.180951">
        <ele>4.855</ele>
        <time>2015-04-02T08:53:20Z</time>
      </trkpt>
      <trkpt lat="28.036607" lon="-17.181005">
        <ele>5.661</ele>
        <time>2015-04-02T08:53:36Z</time>
      </trkpt>
      <trkpt lat="28.036787" lon="-17.180987">
        <ele>2.021</ele>
        <time>2015-04-02T08:53:54Z</time>
      </trkpt>
      <trkpt lat="28.036883" lon="-17.180812">
        <ele>4.613</ele>
        <time>2015-04-02T08:54:11Z</time>
      </trkpt>
      <trkpt lat="28.036997" lon="-17.180653">
        <ele>4.607</ele>
        <time>2015-04-02T08:54:27Z</time>
      </trkpt>
      <trkpt lat="28.037152" lon="-17.180541">
        <ele>2.975</ele>
        <time>2015-04-02T08:54:42Z</time>
      </trkpt>
      <trkpt lat="28.037328" lon="-17.180469">
        <ele>2.518</ele>
        <time>2015-04-02T08:54:57Z</time>
      </trkpt>
      <trkpt lat="28.037485" lon="-17.180368">
        <ele>5.694</ele>
        <time>2015-04-02T08:55:11Z</time>
      </trkpt>
      <trkpt lat="28.037675" lon="-17.180338">
        <ele>4.179</ele>
        <time>2015-04-02T08:55:25Z</time>
      </trkpt>
      <trkpt lat="28.037848" lon="-17.180397">
        <ele>2.546</ele>
        <time>2015-04-02T08:57:03Z</time>
      </trkpt>
      <trkpt lat="28.037686" lon="-17.180301">
        <ele>11.329</ele>
        <time>2015-04-02T10:25:44Z</time>
      </trkpt>
      <trkpt lat="28.037511" lon="-17.180379">
        <ele>10.535</ele>
        <time>2015-04-02T10:26:04Z</time>
      </trkpt>
      <trkpt lat="28.037322" lon="-17.180376">
        <ele>6.125</ele>
        <time>2015-04-02T10:26:19Z</time>
      </trkpt>
      <trkpt lat="28.037167" lon="-17.180481">
        <ele>8.226</ele>
        <time>2015-04-02T10:26:33Z</time>
      </trkpt>
      <trkpt lat="28.036990" lon="-17.180566">
        <ele>8.508</ele>
        <time>2015-04-02T10:26:48Z</time>
      </trkpt>
      <trkpt lat="28.036809" lon="-17.180601">
        <ele>7.607</ele>
        <time>2015-04-02T10:27:02Z</time>
      </trkpt>
      <trkpt lat="28.036625" lon="-17.180627">
        <ele>7.431</ele>
        <time>2015-04-02T10:27:16Z</time>
      </trkpt>
      <trkpt lat="28.036454" lon="-17.180717">
        <ele>11.984</ele>
        <time>2015-04-02T10:27:33Z</time>
      </trkpt>
      <trkpt lat="28.036271" lon="-17.180702">
        <ele>5.490</ele>
        <time>2015-04-02T10:27:49Z</time>
      </trkpt>
      <trkpt lat="28.036086" lon="-17.180743">
        <ele>10.475</ele>
        <time>2015-04-02T10:28:06Z</time>
      </trkpt>
      <trkpt lat="28.035906" lon="-17.180790">
        <ele>8.362</ele>
        <time>2015-04-02T10:28:22Z</time>
      </trkpt>
      <trkpt lat="28.035726" lon="-17.180860">
        <ele>11.445</ele>
        <time>2015-04-02T10:28:42Z</time>
      </trkpt>
      <trkpt lat="28.035552" lon="-17.180922">
        <ele>9.051</ele>
        <time>2015-04-02T10:28:57Z</time>
      </trkpt>
      <trkpt lat="28.035377" lon="-17.181005">
        <ele>15.737</ele>
        <time>2015-04-02T10:29:14Z</time>
      </trkpt>
      <trkpt lat="28.035225" lon="-17.181114">
        <ele>15.849</ele>
        <time>2015-04-02T10:29:30Z</time>
      </trkpt>
      <trkpt lat="28.035047" lon="-17.181154">
        <ele>13.213</ele>
        <time>2015-04-02T10:29:46Z</time>
      </trkpt>
      <trkpt lat="28.034942" lon="-17.181322">
        <ele>14.207</ele>
        <time>2015-04-02T10:30:02Z</time>
      </trkpt>
      <trkpt lat="28.034768" lon="-17.181385">
        <ele>11.342</ele>
        <time>2015-04-02T10:30:19Z</time>
      </trkpt>
      <trkpt lat="28.034638" lon="-17.181529">
        <ele>11.965</ele>
        <time>2015-04-02T10:30:36Z</time>
      </trkpt>
      <trkpt lat="28.034452" lon="-17.181562">
        <ele>9.381</ele>
        <time>2015-04-02T10:30:53Z</time>
      </trkpt>
      <trkpt lat="28.034317" lon="-17.181704">
        <ele>11.336</ele>
        <time>2015-04-02T10:31:08Z</time>
      </trkpt>
      <trkpt lat="28.034141" lon="-17.181746">
        <ele>10.383</ele>
        <time>2015-04-02T10:31:25Z</time>
      </trkpt>
      <trkpt lat="28.033984" lon="-17.181866">
        <ele>9.566</ele>
        <time>2015-04-02T10:31:42Z</time>
      </trkpt>
      <trkpt lat="28.033802" lon="-17.181910">
        <ele>9.242</ele>
        <time>2015-04-02T10:32:00Z</time>
      </trkpt>
      <trkpt lat="28.033662" lon="-17.182043">
        <ele>10.885</ele>
        <time>2015-04-02T10:32:16Z</time>
      </trkpt>
      <trkpt lat="28.033486" lon="-17.182093">
        <ele>10.989</ele>
        <time>2015-04-02T10:32:34Z</time>
      </trkpt>
      <trkpt lat="28.033318" lon="-17.182166">
        <ele>14.717</ele>
        <time>2015-04-02T10:32:54Z</time>
      </trkpt>
      <trkpt lat="28.033146" lon="-17.182243">
        <ele>16.407</ele>
        <time>2015-04-02T10:33:12Z</time>
      </trkpt>
      <trkpt lat="28.032961" lon="-17.182290">
        <ele>12.457</ele>
        <time>2015-04-02T10:33:29Z</time>
      </trkpt>
      <trkpt lat="28.032799" lon="-17.182386">
        <ele>17.010</ele>
        <time>2015-04-02T10:33:46Z</time>
      </trkpt>
      <trkpt lat="28.032620" lon="-17.182442">
        <ele>13.456</ele>
        <time>2015-04-02T10:34:04Z</time>
      </trkpt>
      <trkpt lat="28.032451" lon="-17.182526">
        <ele>11.161</ele>
        <time>2015-04-02T10:34:21Z</time>
      </trkpt>
      <trkpt lat="28.032272" lon="-17.182508">
        <ele>6.998</ele>
        <time>2015-04-02T10:34:37Z</time>
      </trkpt>
      <trkpt lat="28.032098" lon="-17.182571">
        <ele>6.771</ele>
        <time>2015-04-02T10:34:54Z</time>
      </trkpt>
      <trkpt lat="28.031924" lon="-17.182649">
        <ele>8.857</ele>
        <time>2015-04-02T10:35:16Z</time>
      </trkpt>
      <trkpt lat="28.031752" lon="-17.182723">
        <ele>13.195</ele>
        <time>2015-04-02T10:35:35Z</time>
      </trkpt>
      <trkpt lat="28.031596" lon="-17.182844">
        <ele>17.649</ele>
        <time>2015-04-02T10:35:54Z</time>
      </trkpt>
      <trkpt lat="28.031450" lon="-17.182962">
        <ele>21.523</ele>
        <time>2015-04-02T10:36:11Z</time>
      </trkpt>
      <trkpt lat="28.031297" lon="-17.183073">
        <ele>24.207</ele>
        <time>2015-04-02T10:36:30Z</time>
      </trkpt>
      <trkpt lat="28.031190" lon="-17.183239">
        <ele>25.958</ele>
        <time>2015-04-02T10:36:48Z</time>
      </trkpt>
      <trkpt lat="28.031034" lon="-17.183355">
        <ele>25.481</ele>
        <time>2015-04-02T10:37:06Z</time>
      </trkpt>
      <trkpt lat="28.030910" lon="-17.183509">
        <ele>27.047</ele>
        <time>2015-04-02T10:37:25Z</time>
      </trkpt>
      <trkpt lat="28.030783" lon="-17.183655">
        <ele>28.542</ele>
        <time>2015-04-02T10:37:42Z</time>
      </trkpt>
      <trkpt lat="28.030608" lon="-17.183711">
        <ele>24.089</ele>
        <time>2015-04-02T10:38:02Z</time>
      </trkpt>
      <trkpt lat="28.030517" lon="-17.183891">
        <ele>21.552</ele>
        <time>2015-04-02T10:38:18Z</time>
      </trkpt>
      <trkpt lat="28.030371" lon="-17.184024">
        <ele>21.398</ele>
        <time>2015-04-02T10:38:36Z</time>
      </trkpt>
      <trkpt lat="28.030270" lon="-17.184199">
        <ele>21.134</ele>
        <time>2015-04-02T10:38:53Z</time>
      </trkpt>
      <trkpt lat="28.030100" lon="-17.184285">
        <ele>17.555</ele>
        <time>2015-04-02T10:39:12Z</time>
      </trkpt>
      <trkpt lat="28.029985" lon="-17.184442">
        <ele>17.910</ele>
        <time>2015-04-02T10:39:28Z</time>
      </trkpt>
      <trkpt lat="28.029844" lon="-17.184572">
        <ele>21.907</ele>
        <time>2015-04-02T10:39:46Z</time>
      </trkpt>
      <trkpt lat="28.029756" lon="-17.184750">
        <ele>17.692</ele>
        <time>2015-04-02T10:40:00Z</time>
      </trkpt>
      <trkpt lat="28.029620" lon="-17.184884">
        <ele>20.625</ele>
        <time>2015-04-02T10:40:17Z</time>
      </trkpt>
      <trkpt lat="28.029575" lon="-17.185085">
        <ele>14.091</ele>
        <time>2015-04-02T10:40:37Z</time>
      </trkpt>
      <trkpt lat="28.029479" lon="-17.185259">
        <ele>14.066</ele>
        <time>2015-04-02T10:40:54Z</time>
      </trkpt>
      <trkpt lat="28.029354" lon="-17.185408">
        <ele>19.373</ele>
        <time>2015-04-02T10:41:11Z</time>
      </trkpt>
      <trkpt lat="28.029304" lon="-17.185607">
        <ele>12.726</ele>
        <time>2015-04-02T10:41:30Z</time>
      </trkpt>
      <trkpt lat="28.029216" lon="-17.185787">
        <ele>11.482</ele>
        <time>2015-04-02T10:41:47Z</time>
      </trkpt>
      <trkpt lat="28.029167" lon="-17.185985">
        <ele>9.081</ele>
        <time>2015-04-02T10:42:05Z</time>
      </trkpt>
      <trkpt lat="28.029109" lon="-17.186190">
        <ele>9.361</ele>
        <time>2015-04-02T10:42:23Z</time>
      </trkpt>
      <trkpt lat="28.029023" lon="-17.186369">
        <ele>9.017</ele>
        <time>2015-04-02T10:42:42Z</time>
      </trkpt>
      <trkpt lat="28.029001" lon="-17.186578">
        <ele>9.307</ele>
        <time>2015-04-02T10:43:03Z</time>
      </trkpt>
      <trkpt lat="28.028895" lon="-17.186748">
        <ele>8.677</ele>
        <time>2015-04-02T10:43:22Z</time>
      </trkpt>
      <trkpt lat="28.028888" lon="-17.186953">
        <ele>7.620</ele>
        <time>2015-04-02T10:43:43Z</time>
      </trkpt>
      <trkpt lat="28.028869" lon="-17.187163">
        <ele>8.346</ele>
        <time>2015-04-02T10:44:02Z</time>
      </trkpt>
      <trkpt lat="28.028825" lon="-17.187361">
        <ele>9.251</ele>
        <time>2015-04-02T10:44:21Z</time>
      </trkpt>
      <trkpt lat="28.028791" lon="-17.187565">
        <ele>11.578</ele>
        <time>2015-04-02T10:44:40Z</time>
      </trkpt>
      <trkpt lat="28.028738" lon="-17.187763">
        <ele>10.791</ele>
        <time>2015-04-02T10:44:59Z</time>
      </trkpt>
      <trkpt lat="28.028680" lon="-17.187957">
        <ele>11.057</ele>
        <time>2015-04-02T10:45:18Z</time>
      </trkpt>
      <trkpt lat="28.028658" lon="-17.188164">
        <ele>7.934</ele>
        <time>2015-04-02T10:45:39Z</time>
      </trkpt>
      <trkpt lat="28.028584" lon="-17.188354">
        <ele>8.055</ele>
        <time>2015-04-02T10:45:59Z</time>
      </trkpt>
      <trkpt lat="28.028543" lon="-17.188557">
        <ele>6.910</ele>
        <time>2015-04-02T10:46:17Z</time>
      </trkpt>
      <trkpt lat="28.028494" lon="-17.188762">
        <ele>7.207</ele>
        <time>2015-04-02T10:46:35Z</time>
      </trkpt>
      <trkpt lat="28.028506" lon="-17.188970">
        <ele>6.762</ele>
        <time>2015-04-02T10:46:52Z</time>
      </trkpt>
      <trkpt lat="28.028450" lon="-17.189175">
        <ele>6.435</ele>
        <time>2015-04-02T10:47:12Z</time>
      </trkpt>
      <trkpt lat="28.028394" lon="-17.189374">
        <ele>4.631</ele>
        <time>2015-04-02T10:47:27Z</time>
      </trkpt>
      <trkpt lat="28.028290" lon="-17.189545">
        <ele>2.986</ele>
        <time>2015-04-02T10:47:44Z</time>
      </trkpt>
      <trkpt lat="28.028232" lon="-17.189744">
        <ele>3.553</ele>
        <time>2015-04-02T10:48:00Z</time>
      </trkpt>
      <trkpt lat="28.028146" lon="-17.189932">
        <ele>3.686</ele>
        <time>2015-04-02T10:48:16Z</time>
      </trkpt>
      <trkpt lat="28.028197" lon="-17.190134">
        <ele>3.332</ele>
        <time>2015-04-02T10:48:31Z</time>
      </trkpt>
      <trkpt lat="28.028190" lon="-17.190340">
        <ele>4.757</ele>
        <time>2015-04-02T10:48:46Z</time>
      </trkpt>
      <trkpt lat="28.028109" lon="-17.190526">
        <ele>5.800</ele>
        <time>2015-04-02T10:49:09Z</time>
      </trkpt>
      <trkpt lat="28.028053" lon="-17.190720">
        <ele>5.820</ele>
        <time>2015-04-02T10:49:27Z</time>
      </trkpt>
      <trkpt lat="28.028039" lon="-17.190933">
        <ele>4.807</ele>
        <time>2015-04-02T10:49:49Z</time>
      </trkpt>
      <trkpt lat="28.028076" lon="-17.191145">
        <ele>3.664</ele>
        <time>2015-04-02T10:50:07Z</time>
      </trkpt>
      <trkpt lat="28.028011" lon="-17.191343">
        <ele>1.697</ele>
        <time>2015-04-02T10:50:21Z</time>
      </trkpt>
      <trkpt lat="28.028039" lon="-17.191551">
        <ele>3.673</ele>
        <time>2015-04-02T10:50:40Z</time>
      </trkpt>
      <trkpt lat="28.028058" lon="-17.191760">
        <ele>4.878</ele>
        <time>2015-04-02T10:50:59Z</time>
      </trkpt>
      <trkpt lat="28.027968" lon="-17.191943">
        <ele>5.355</ele>
        <time>2015-04-02T10:51:18Z</time>
      </trkpt>
      <trkpt lat="28.027927" lon="-17.192145">
        <ele>3.398</ele>
        <time>2015-04-02T10:51:35Z</time>
      </trkpt>
      <trkpt lat="28.027853" lon="-17.192340">
        <ele>5.064</ele>
        <time>2015-04-02T10:51:51Z</time>
      </trkpt>
      <trkpt lat="28.027849" lon="-17.192548">
        <ele>4.333</ele>
        <time>2015-04-02T10:52:08Z</time>
      </trkpt>
      <trkpt lat="28.027766" lon="-17.192739">
        <ele>3.823</ele>
        <time>2015-04-02T10:52:25Z</time>
      </trkpt>
      <trkpt lat="28.027721" lon="-17.192939">
        <ele>2.715</ele>
        <time>2015-04-02T10:52:41Z</time>
      </trkpt>
      <trkpt lat="28.027720" lon="-17.193148">
        <ele>1.107</ele>
        <time>2015-04-02T10:52:56Z</time>
      </trkpt>
      <trkpt lat="28.027624" lon="-17.193324">
        <ele>4.122</ele>
        <time>2015-04-02T10:53:12Z</time>
      </trkpt>
      <trkpt lat="28.027596" lon="-17.193531">
        <ele>3.865</ele>
        <time>2015-04-02T10:53:28Z</time>
      </trkpt>
      <trkpt lat="28.027522" lon="-17.193720">
        <ele>2.841</ele>
        <time>2015-04-02T10:53:47Z</time>
      </trkpt>
      <trkpt lat="28.027469" lon="-17.193920">
        <ele>2.896</ele>
        <time>2015-04-02T10:54:07Z</time>
      </trkpt>
      <trkpt lat="28.027431" lon="-17.194123">
        <ele>2.183</ele>
        <time>2015-04-02T10:54:27Z</time>
      </trkpt>
      <trkpt lat="28.027375" lon="-17.194319">
        <ele>2.366</ele>
        <time>2015-04-02T10:54:46Z</time>
      </trkpt>
      <trkpt lat="28.027352" lon="-17.194529">
        <ele>1.742</ele>
        <time>2015-04-02T10:55:03Z</time>
      </trkpt>
      <trkpt lat="28.027307" lon="-17.194737">
        <ele>2.647</ele>
        <time>2015-04-02T10:55:19Z</time>
      </trkpt>
      <trkpt lat="28.027279" lon="-17.194943">
        <ele>0.129</ele>
        <time>2015-04-02T10:55:38Z</time>
      </trkpt>
      <trkpt lat="28.027288" lon="-17.195158">
        <ele>-0.121</ele>
        <time>2015-04-02T10:55:56Z</time>
      </trkpt>
      <trkpt lat="28.027264" lon="-17.195367">
        <ele>-0.307</ele>
        <time>2015-04-02T10:56:13Z</time>
      </trkpt>
      <trkpt lat="28.027232" lon="-17.195580">
        <ele>0.883</ele>
        <time>2015-04-02T10:56:29Z</time>
      </trkpt>
      <trkpt lat="28.027200" lon="-17.195790">
        <ele>0.596</ele>
        <time>2015-04-02T10:56:45Z</time>
      </trkpt>
      <trkpt lat="28.027142" lon="-17.195990">
        <ele>3.072</ele>
        <time>2015-04-02T10:57:04Z</time>
      </trkpt>
      <trkpt lat="28.027116" lon="-17.196204">
        <ele>1.627</ele>
        <time>2015-04-02T10:57:23Z</time>
      </trkpt>
      <trkpt lat="28.027053" lon="-17.196395">
        <ele>3.044</ele>
        <time>2015-04-02T10:57:40Z</time>
      </trkpt>
      <trkpt lat="28.027043" lon="-17.196612">
        <ele>2.747</ele>
        <time>2015-04-02T10:57:59Z</time>
      </trkpt>
      <trkpt lat="28.027011" lon="-17.196823">
        <ele>2.063</ele>
        <time>2015-04-02T10:58:18Z</time>
      </trkpt>
      <trkpt lat="28.027006" lon="-17.197029">
        <ele>2.939</ele>
        <time>2015-04-02T10:58:36Z</time>
      </trkpt>
      <trkpt lat="28.026975" lon="-17.197230">
        <ele>3.701</ele>
        <time>2015-04-02T10:58:54Z</time>
      </trkpt>
      <trkpt lat="28.026966" lon="-17.197435">
        <ele>2.821</ele>
        <time>2015-04-02T10:59:12Z</time>
      </trkpt>
      <trkpt lat="28.027006" lon="-17.197639">
        <ele>2.307</ele>
        <time>2015-04-02T10:59:29Z</time>
      </trkpt>
      <trkpt lat="28.027099" lon="-17.197823">
        <ele>5.562</ele>
        <time>2015-04-02T10:59:44Z</time>
      </trkpt>
      <trkpt lat="28.027201" lon="-17.197993">
        <ele>5.225</ele>
        <time>2015-04-02T11:00:02Z</time>
      </trkpt>
      <trkpt lat="28.027281" lon="-17.198179">
        <ele>7.121</ele>
        <time>2015-04-02T11:01:06Z</time>
      </trkpt>
      <trkpt lat="28.027393" lon="-17.198343">
        <ele>10.776</ele>
        <time>2015-04-02T11:02:45Z</time>
      </trkpt>
      <trkpt lat="28.027569" lon="-17.198388">
        <ele>18.343</ele>
        <time>2015-04-02T11:03:12Z</time>
      </trkpt>
      <trkpt lat="28.027750" lon="-17.198354">
        <ele>19.666</ele>
        <time>2015-04-02T11:03:39Z</time>
      </trkpt>
      <trkpt lat="28.027889" lon="-17.198223">
        <ele>18.312</ele>
        <time>2015-04-02T11:03:59Z</time>
      </trkpt>
      <trkpt lat="28.027991" lon="-17.198053">
        <ele>13.664</ele>
        <time>2015-04-02T11:04:15Z</time>
      </trkpt>
      <trkpt lat="28.028091" lon="-17.197876">
        <ele>15.706</ele>
        <time>2015-04-02T11:04:32Z</time>
      </trkpt>
      <trkpt lat="28.028200" lon="-17.197709">
        <ele>14.416</ele>
        <time>2015-04-02T11:04:50Z</time>
      </trkpt>
      <trkpt lat="28.028297" lon="-17.197529">
        <ele>13.807</ele>
        <time>2015-04-02T11:05:09Z</time>
      </trkpt>
      <trkpt lat="28.028385" lon="-17.197343">
        <ele>16.635</ele>
        <time>2015-04-02T11:06:33Z</time>
      </trkpt>
      <trkpt lat="28.028486" lon="-17.197171">
        <ele>18.968</ele>
        <time>2015-04-02T11:06:57Z</time>
      </trkpt>
      <trkpt lat="28.028582" lon="-17.196992">
        <ele>20.264</ele>
        <time>2015-04-02T11:07:15Z</time>
      </trkpt>
      <trkpt lat="28.028689" lon="-17.196822">
        <ele>16.479</ele>
        <time>2015-04-02T11:07:32Z</time>
      </trkpt>
      <trkpt lat="28.028793" lon="-17.196656">
        <ele>14.016</ele>
        <time>2015-04-02T11:07:50Z</time>
      </trkpt>
      <trkpt lat="28.028920" lon="-17.196500">
        <ele>13.449</ele>
        <time>2015-04-02T11:08:09Z</time>
      </trkpt>
      <trkpt lat="28.028975" lon="-17.196303">
        <ele>14.595</ele>
        <time>2015-04-02T11:08:27Z</time>
      </trkpt>
      <trkpt lat="28.029035" lon="-17.196109">
        <ele>14.592</ele>
        <time>2015-04-02T11:08:44Z</time>
      </trkpt>
      <trkpt lat="28.029091" lon="-17.195906">
        <ele>11.273</ele>
        <time>2015-04-02T11:09:00Z</time>
      </trkpt>
      <trkpt lat="28.029147" lon="-17.195701">
        <ele>13.620</ele>
        <time>2015-04-02T11:09:19Z</time>
      </trkpt>
      <trkpt lat="28.029201" lon="-17.195502">
        <ele>12.907</ele>
        <time>2015-04-02T11:09:35Z</time>
      </trkpt>
      <trkpt lat="28.029262" lon="-17.195300">
        <ele>9.928</ele>
        <time>2015-04-02T11:09:53Z</time>
      </trkpt>
      <trkpt lat="28.029357" lon="-17.195118">
        <ele>2.161</ele>
        <time>2015-04-02T11:10:12Z</time>
      </trkpt>
      <trkpt lat="28.029505" lon="-17.195000">
        <ele>5.387</ele>
        <time>2015-04-02T11:10:32Z</time>
      </trkpt>
      <trkpt lat="28.029685" lon="-17.195019">
        <ele>11.822</ele>
        <time>2015-04-02T11:10:51Z</time>
      </trkpt>
      <trkpt lat="28.029863" lon="-17.195068">
        <ele>18.779</ele>
        <time>2015-04-02T11:11:11Z</time>
      </trkpt>
      <trkpt lat="28.030048" lon="-17.195009">
        <ele>15.142</ele>
        <time>2015-04-02T11:11:28Z</time>
      </trkpt>
      <trkpt lat="28.030171" lon="-17.194848">
        <ele>13.168</ele>
        <time>2015-04-02T11:11:43Z</time>
      </trkpt>
      <trkpt lat="28.030267" lon="-17.194672">
        <ele>12.495</ele>
        <time>2015-04-02T11:12:01Z</time>
      </trkpt>
      <trkpt lat="28.030254" lon="-17.194465">
        <ele>12.649</ele>
        <time>2015-04-02T11:12:21Z</time>
      </trkpt>
      <trkpt lat="28.030118" lon="-17.194329">
        <ele>9.923</ele>
        <time>2015-04-02T11:12:40Z</time>
      </trkpt>
      <trkpt lat="28.029973" lon="-17.194204">
        <ele>11.307</ele>
        <time>2015-04-02T11:12:59Z</time>
      </trkpt>
      <trkpt lat="28.029841" lon="-17.194065">
        <ele>9.858</ele>
        <time>2015-04-02T11:13:17Z</time>
      </trkpt>
      <trkpt lat="28.029835" lon="-17.193849">
        <ele>7.341</ele>
        <time>2015-04-02T11:13:40Z</time>
      </trkpt>
      <trkpt lat="28.029876" lon="-17.193646">
        <ele>6.657</ele>
        <time>2015-04-02T11:14:00Z</time>
      </trkpt>
      <trkpt lat="28.029931" lon="-17.193443">
        <ele>8.822</ele>
        <time>2015-04-02T11:14:20Z</time>
      </trkpt>
      <trkpt lat="28.029993" lon="-17.193248">
        <ele>11.919</ele>
        <time>2015-04-02T11:14:36Z</time>
      </trkpt>
      <trkpt lat="28.030069" lon="-17.193058">
        <ele>12.192</ele>
        <time>2015-04-02T11:14:52Z</time>
      </trkpt>
      <trkpt lat="28.030082" lon="-17.192849">
        <ele>10.468</ele>
        <time>2015-04-02T11:15:07Z</time>
      </trkpt>
      <trkpt lat="28.030074" lon="-17.192639">
        <ele>10.615</ele>
        <time>2015-04-02T11:15:23Z</time>
      </trkpt>
      <trkpt lat="28.030092" lon="-17.192432">
        <ele>8.165</ele>
        <time>2015-04-02T11:15:54Z</time>
      </trkpt>
      <trkpt lat="28.030013" lon="-17.192239">
        <ele>10.411</ele>
        <time>2015-04-02T11:16:19Z</time>
      </trkpt>
      <trkpt lat="28.030017" lon="-17.192026">
        <ele>8.707</ele>
        <time>2015-04-02T11:16:35Z</time>
      </trkpt>
      <trkpt lat="28.030019" lon="-17.191820">
        <ele>7.590</ele>
        <time>2015-04-02T11:16:53Z</time>
      </trkpt>
      <trkpt lat="28.030025" lon="-17.191609">
        <ele>9.593</ele>
        <time>2015-04-02T11:17:11Z</time>
      </trkpt>
      <trkpt lat="28.030015" lon="-17.191404">
        <ele>12.089</ele>
        <time>2015-04-02T11:17:29Z</time>
      </trkpt>
      <trkpt lat="28.030186" lon="-17.191340">
        <ele>11.324</ele>
        <time>2015-04-02T11:17:52Z</time>
      </trkpt>
      <trkpt lat="28.030320" lon="-17.191203">
        <ele>12.931</ele>
        <time>2015-04-02T11:18:21Z</time>
      </trkpt>
      <trkpt lat="28.030345" lon="-17.190998">
        <ele>12.474</ele>
        <time>2015-04-02T11:18:44Z</time>
      </trkpt>
      <trkpt lat="28.030346" lon="-17.191208">
        <ele>22.430</ele>
        <time>2015-04-02T11:30:17Z</time>
      </trkpt>
      <trkpt lat="28.030221" lon="-17.191368">
        <ele>22.092</ele>
        <time>2015-04-02T11:30:53Z</time>
      </trkpt>
      <trkpt lat="28.030153" lon="-17.191565">
        <ele>24.273</ele>
        <time>2015-04-02T11:31:09Z</time>
      </trkpt>
      <trkpt lat="28.030101" lon="-17.191774">
        <ele>28.420</ele>
        <time>2015-04-02T11:31:31Z</time>
      </trkpt>
      <trkpt lat="28.030130" lon="-17.191984">
        <ele>29.107</ele>
        <time>2015-04-02T11:31:52Z</time>
      </trkpt>
      <trkpt lat="28.030058" lon="-17.192173">
        <ele>23.338</ele>
        <time>2015-04-02T11:32:04Z</time>
      </trkpt>
      <trkpt lat="28.030041" lon="-17.192382">
        <ele>30.011</ele>
        <time>2015-04-02T11:32:31Z</time>
      </trkpt>
      <trkpt lat="28.030079" lon="-17.192592">
        <ele>32.437</ele>
        <time>2015-04-02T11:32:52Z</time>
      </trkpt>
      <trkpt lat="28.030104" lon="-17.192801">
        <ele>29.932</ele>
        <time>2015-04-02T11:33:16Z</time>
      </trkpt>
      <trkpt lat="28.030130" lon="-17.193017">
        <ele>25.699</ele>
        <time>2015-04-02T11:33:28Z</time>
      </trkpt>
      <trkpt lat="28.030032" lon="-17.193194">
        <ele>21.812</ele>
        <time>2015-04-02T11:33:38Z</time>
      </trkpt>
      <trkpt lat="28.030070" lon="-17.193398">
        <ele>20.518</ele>
        <time>2015-04-02T11:34:00Z</time>
      </trkpt>
      <trkpt lat="28.030007" lon="-17.193604">
        <ele>13.388</ele>
        <time>2015-04-02T11:34:13Z</time>
      </trkpt>
      <trkpt lat="28.029930" lon="-17.193793">
        <ele>10.424</ele>
        <time>2015-04-02T11:34:28Z</time>
      </trkpt>
      <trkpt lat="28.029840" lon="-17.193979">
        <ele>9.926</ele>
        <time>2015-04-02T11:34:42Z</time>
      </trkpt>
      <trkpt lat="28.029747" lon="-17.194153">
        <ele>18.407</ele>
        <time>2015-04-02T11:43:31Z</time>
      </trkpt>
    </trkseg>
  </trk></gpx>