<?xml version="1.0" encoding="UTF-8"?>
<gpx version="1.1" creator="Aventuras en Cada Paso" xmlns="http://www.topografix.com/GPX/1/1">
  <metadata>
    <name>Kayak – Vuelta a Isla de Lobos</name>
    <desc>Vuelta completa al islote en kayak desde Corralejo. Fondos cristalinos, cuevas marinas y la impresionante perspectiva de Lobos desde el agua.</desc>
    <author><name>Aventuras en Cada Paso</name></author>
    <time>2026-07-08T08:12:58.213Z</time>
    <keywords>Isla de Lobos, Kayak, Media, senderismo Canarias</keywords>
  </metadata>
  <wpt lat="28.7506" lon="-13.8167">
    <name>Kayak – Vuelta a Isla de Lobos</name>
    <desc>Vuelta completa al islote en kayak desde Corralejo. Fondos cristalinos, cuevas marinas y la impresionante perspectiva de Lobos desde el agua. | Isla: Isla de Lobos | Tipo: Kayak | Dificultad: Media | Distancia: 12km | Duración: 4-8 horas</desc>
    <type>Kayak</type>
    <extensions>
      <isla>Isla de Lobos</isla>
      <dificultad>Media</dificultad>
      <distancia>12</distancia>
      <duracion>4-8 horas</duracion>
    </extensions>
  </wpt>
</gpx>