<?xml version="1.0" encoding="UTF-8"?>
<gpx creator="Wikiloc - https://www.wikiloc.com" version="1.1" xmlns="http://www.topografix.com/GPX/1/1" xmlns:xsi="http://www.w3.org/2001/XMLSchema-instance" xsi:schemaLocation="http://www.topografix.com/GPX/1/1 http://www.topografix.com/GPX/1/1/gpx.xsd">
  <metadata>
    <name>Wikiloc - Lanzarote - Ruta de kayak y snorkel en Papagayo</name>
    <link href="https://www.wikiloc.com/kayaking-canoeing-trails/lanzarote-ruta-de-kayak-y-snorkel-en-papagayo-99237516">
      <text>Lanzarote - Ruta de kayak y snorkel en Papagayo - Wikiloc on Wikiloc</text>
    </link>
    <time>2026-07-29T11:04:47.897Z</time>
  </metadata>
  <trk>
    <name>Lanzarote - Ruta de kayak y snorkel en Papagayo - Wikiloc</name>
    <cmt></cmt>
    <desc></desc>
    <trkseg>
      <trkpt lat="28.858957" lon="-13.801811">
        <ele>0.054</ele>
        <time>2026-07-29T11:04:47.897Z</time>
      </trkpt>
      <trkpt lat="28.857886" lon="-13.800266">
        <ele>0.056</ele>
        <time>2026-07-29T11:05:07.897Z</time>
      </trkpt>
      <trkpt lat="28.857303" lon="-13.799386">
        <ele>0.211</ele>
        <time>2026-07-29T11:05:27.897Z</time>
      </trkpt>
      <trkpt lat="28.856683" lon="-13.799064">
        <ele>0.108</ele>
        <time>2026-07-29T11:05:47.897Z</time>
      </trkpt>
      <trkpt lat="28.855631" lon="-13.798871">
        <ele>1.584</ele>
        <time>2026-07-29T11:06:07.897Z</time>
      </trkpt>
      <trkpt lat="28.855011" lon="-13.798807">
        <ele>2.634</ele>
        <time>2026-07-29T11:06:27.897Z</time>
      </trkpt>
      <trkpt lat="28.854390" lon="-13.798442">
        <ele>2.517</ele>
        <time>2026-07-29T11:06:47.897Z</time>
      </trkpt>
      <trkpt lat="28.854184" lon="-13.797841">
        <ele>7.638</ele>
        <time>2026-07-29T11:07:07.897Z</time>
      </trkpt>
      <trkpt lat="28.854447" lon="-13.797004">
        <ele>13.472</ele>
        <time>2026-07-29T11:07:27.897Z</time>
      </trkpt>
      <trkpt lat="28.854635" lon="-13.796167">
        <ele>1.190</ele>
        <time>2026-07-29T11:07:47.897Z</time>
      </trkpt>
      <trkpt lat="28.854353" lon="-13.795202">
        <ele>3.796</ele>
        <time>2026-07-29T11:08:07.897Z</time>
      </trkpt>
      <trkpt lat="28.853488" lon="-13.794580">
        <ele>0.371</ele>
        <time>2026-07-29T11:08:27.897Z</time>
      </trkpt>
      <trkpt lat="28.852887" lon="-13.793936">
        <ele>0.011</ele>
        <time>2026-07-29T11:08:47.897Z</time>
      </trkpt>
      <trkpt lat="28.851853" lon="-13.793249">
        <ele>0.021</ele>
        <time>2026-07-29T11:09:07.897Z</time>
      </trkpt>
      <trkpt lat="28.851026" lon="-13.792713">
        <ele>0.003</ele>
        <time>2026-07-29T11:09:27.897Z</time>
      </trkpt>
      <trkpt lat="28.850030" lon="-13.792326">
        <ele>0.008</ele>
        <time>2026-07-29T11:09:47.897Z</time>
      </trkpt>
      <trkpt lat="28.848865" lon="-13.791962">
        <ele>0.090</ele>
        <time>2026-07-29T11:10:07.897Z</time>
      </trkpt>
      <trkpt lat="28.847888" lon="-13.791168">
        <ele>0.030</ele>
        <time>2026-07-29T11:10:27.897Z</time>
      </trkpt>
      <trkpt lat="28.846760" lon="-13.790588">
        <ele>0.033</ele>
        <time>2026-07-29T11:10:47.897Z</time>
      </trkpt>
      <trkpt lat="28.845707" lon="-13.790224">
        <ele>0.044</ele>
        <time>2026-07-29T11:11:07.897Z</time>
      </trkpt>
      <trkpt lat="28.844956" lon="-13.790052">
        <ele>0.078</ele>
        <time>2026-07-29T11:11:27.897Z</time>
      </trkpt>
      <trkpt lat="28.844035" lon="-13.790073">
        <ele>0.086</ele>
        <time>2026-07-29T11:11:47.897Z</time>
      </trkpt>
      <trkpt lat="28.843527" lon="-13.789902">
        <ele>0.072</ele>
        <time>2026-07-29T11:12:07.897Z</time>
      </trkpt>
      <trkpt lat="28.842832" lon="-13.789816">
        <ele>0.027</ele>
        <time>2026-07-29T11:12:27.897Z</time>
      </trkpt>
      <trkpt lat="28.842475" lon="-13.789322">
        <ele>1.456</ele>
        <time>2026-07-29T11:12:47.897Z</time>
      </trkpt>
      <trkpt lat="28.842456" lon="-13.788507">
        <ele>-0.559</ele>
        <time>2026-07-29T11:13:07.897Z</time>
      </trkpt>
      <trkpt lat="28.842381" lon="-13.788679">
        <ele>-1.614</ele>
        <time>2026-07-29T11:13:27.897Z</time>
      </trkpt>
      <trkpt lat="28.842381" lon="-13.789194">
        <ele>1.908</ele>
        <time>2026-07-29T11:13:47.897Z</time>
      </trkpt>
      <trkpt lat="28.842475" lon="-13.789644">
        <ele>0.314</ele>
        <time>2026-07-29T11:14:07.897Z</time>
      </trkpt>
      <trkpt lat="28.842982" lon="-13.790030">
        <ele>0.094</ele>
        <time>2026-07-29T11:14:27.897Z</time>
      </trkpt>
      <trkpt lat="28.844223" lon="-13.790224">
        <ele>0.047</ele>
        <time>2026-07-29T11:14:47.897Z</time>
      </trkpt>
      <trkpt lat="28.845501" lon="-13.790438">
        <ele>0.088</ele>
        <time>2026-07-29T11:15:07.897Z</time>
      </trkpt>
      <trkpt lat="28.846854" lon="-13.790867">
        <ele>0.092</ele>
        <time>2026-07-29T11:15:27.897Z</time>
      </trkpt>
      <trkpt lat="28.847869" lon="-13.791425">
        <ele>0.070</ele>
        <time>2026-07-29T11:15:47.897Z</time>
      </trkpt>
      <trkpt lat="28.848790" lon="-13.792155">
        <ele>0.016</ele>
        <time>2026-07-29T11:16:07.897Z</time>
      </trkpt>
      <trkpt lat="28.850782" lon="-13.792777">
        <ele>0.081</ele>
        <time>2026-07-29T11:16:27.897Z</time>
      </trkpt>
      <trkpt lat="28.852210" lon="-13.793721">
        <ele>0.032</ele>
        <time>2026-07-29T11:16:47.897Z</time>
      </trkpt>
      <trkpt lat="28.853470" lon="-13.794773">
        <ele>0.092</ele>
        <time>2026-07-29T11:17:07.897Z</time>
      </trkpt>
      <trkpt lat="28.854259" lon="-13.795373">
        <ele>3.411</ele>
        <time>2026-07-29T11:17:27.897Z</time>
      </trkpt>
      <trkpt lat="28.854428" lon="-13.796318">
        <ele>3.708</ele>
        <time>2026-07-29T11:17:47.897Z</time>
      </trkpt>
      <trkpt lat="28.854052" lon="-13.797648">
        <ele>5.552</ele>
        <time>2026-07-29T11:18:07.897Z</time>
      </trkpt>
      <trkpt lat="28.854015" lon="-13.798141">
        <ele>0.652</ele>
        <time>2026-07-29T11:18:27.897Z</time>
      </trkpt>
      <trkpt lat="28.854729" lon="-13.798978">
        <ele>0.065</ele>
        <time>2026-07-29T11:18:47.897Z</time>
      </trkpt>
      <trkpt lat="28.856213" lon="-13.799257">
        <ele>0.016</ele>
        <time>2026-07-29T11:19:07.897Z</time>
      </trkpt>
      <trkpt lat="28.857097" lon="-13.799601">
        <ele>0.040</ele>
        <time>2026-07-29T11:19:27.897Z</time>
      </trkpt>
      <trkpt lat="28.857754" lon="-13.800502">
        <ele>0.978</ele>
        <time>2026-07-29T11:19:47.897Z</time>
      </trkpt>
      <trkpt lat="28.858299" lon="-13.801231">
        <ele>4.824</ele>
        <time>2026-07-29T11:20:07.897Z</time>
      </trkpt>
      <trkpt lat="28.858600" lon="-13.801875">
        <ele>-2.119</ele>
        <time>2026-07-29T11:20:27.897Z</time>
      </trkpt>
      <trkpt lat="28.859108" lon="-13.802283">
        <ele>3.422</ele>
        <time>2026-07-29T11:20:47.897Z</time>
      </trkpt>
    </trkseg>
  </trk></gpx>