<?xml version="1.0" encoding="UTF-8"?>
<gpx version="1.1" creator="Aventuras en Cada Paso" xmlns="http://www.topografix.com/GPX/1/1">
  <metadata>
    <name>Kitesurf – Laguna de Sotavento</name>
    <desc>Sede del Mundial de Windsurf y Kitesurf. Laguna con aguas tranquilas y viento constante. Uno de los mejores spots de estos deportes en el mundo.</desc>
    <author><name>Aventuras en Cada Paso</name></author>
    <time>2026-07-08T08:12:58.178Z</time>
    <keywords>Fuerteventura, Surf, Media, senderismo Canarias</keywords>
  </metadata>
  <wpt lat="28.1294" lon="-14.2292">
    <name>Kitesurf – Laguna de Sotavento</name>
    <desc>Sede del Mundial de Windsurf y Kitesurf. Laguna con aguas tranquilas y viento constante. Uno de los mejores spots de estos deportes en el mundo. | Isla: Fuerteventura | Tipo: Surf | Dificultad: Media | Distancia: km | Duración: Menos de 2h</desc>
    <type>Surf</type>
    <extensions>
      <isla>Fuerteventura</isla>
      <dificultad>Media</dificultad>
      <distancia></distancia>
      <duracion>Menos de 2h</duracion>
    </extensions>
  </wpt>
</gpx>