<?xml version="1.0" encoding="UTF-8"?>
<gpx version="1.1" creator="Aventuras en Cada Paso" xmlns="http://www.topografix.com/GPX/1/1">
  <metadata>
    <name>La Geria – Viñedos Volcánicos</name>
    <desc>Ruta por la zona vinícola única en el mundo: uvas cultivadas en hoyos de ceniza volcánica negra. Combina senderismo y enoturismo en bodegas.</desc>
    <author><name>Aventuras en Cada Paso</name></author>
    <time>2026-07-08T08:12:58.170Z</time>
    <keywords>Lanzarote, Senderismo, Fácil, senderismo Canarias</keywords>
  </metadata>
  <wpt lat="28.9819" lon="-13.6614">
    <name>La Geria – Viñedos Volcánicos</name>
    <desc>Ruta por la zona vinícola única en el mundo: uvas cultivadas en hoyos de ceniza volcánica negra. Combina senderismo y enoturismo en bodegas. | Isla: Lanzarote | Tipo: Senderismo | Dificultad: Fácil | Distancia: 9km | Duración: 2-4 horas</desc>
    <type>Senderismo</type>
    <extensions>
      <isla>Lanzarote</isla>
      <dificultad>Fácil</dificultad>
      <distancia>9</distancia>
      <duracion>2-4 horas</duracion>
    </extensions>
  </wpt>
</gpx>