<?xml version="1.0" encoding="UTF-8"?>
<gpx version="1.1" creator="Aventuras en Cada Paso" xmlns="http://www.topografix.com/GPX/1/1">
  <metadata>
    <name>La Santa – Tenesar</name>
    <desc>Recorrido de 7 km por paisaje volcánico con acantilados pronunciados desde La Santa hasta Tenesar. Tranquilidad total y vistas al Atlántico.</desc>
    <author><name>Aventuras en Cada Paso</name></author>
    <time>2026-07-08T08:12:58.174Z</time>
    <keywords>Lanzarote, Senderismo, Media, senderismo Canarias</keywords>
  </metadata>
  <wpt lat="29.0694" lon="-13.6533">
    <name>La Santa – Tenesar</name>
    <desc>Recorrido de 7 km por paisaje volcánico con acantilados pronunciados desde La Santa hasta Tenesar. Tranquilidad total y vistas al Atlántico. | Isla: Lanzarote | Tipo: Senderismo | Dificultad: Media | Distancia: 7km | Duración: 2-4 horas</desc>
    <type>Senderismo</type>
    <extensions>
      <isla>Lanzarote</isla>
      <dificultad>Media</dificultad>
      <distancia>7</distancia>
      <duracion>2-4 horas</duracion>
    </extensions>
  </wpt>
</gpx>