<?xml version="1.0" encoding="UTF-8"?>
<gpx creator="Wikiloc - https://www.wikiloc.com" version="1.1" xmlns="http://www.topografix.com/GPX/1/1" xmlns:xsi="http://www.w3.org/2001/XMLSchema-instance" xsi:schemaLocation="http://www.topografix.com/GPX/1/1 http://www.topografix.com/GPX/1/1/gpx.xsd">
  <metadata>
    <name>Wikiloc - Mirador Roque de Agando - Barranco de Benchijigua - Pastrana...</name>
    <link href="https://www.wikiloc.com/hiking-trails/mirador-roque-de-agando-barranco-de-benchijigua-pastrana-playa-de-san-sebastian-132462062">
      <text>Mirador Roque de Agando - Barranco de Benchijigua - Pastrana... on Wikiloc</text>
    </link>
    <time>2023-04-22T14:58:56Z</time>
  </metadata>
  <trk>
    <name>Mirador Roque de Agando - Barranco de Benchijigua - Pastrana... - Wikiloc</name>
    <cmt></cmt>
    <desc></desc>
    <trkseg>
      <trkpt lat="28.109043" lon="-17.214422">
        <ele>1160.273</ele>
        <time>2023-04-22T10:27:35Z</time>
      </trkpt>
      <trkpt lat="28.109082" lon="-17.214472">
        <ele>1160.285</ele>
        <time>2023-04-22T10:29:03Z</time>
      </trkpt>
      <trkpt lat="28.109168" lon="-17.214327">
        <ele>1153.313</ele>
        <time>2023-04-22T10:30:32Z</time>
      </trkpt>
      <trkpt lat="28.108738" lon="-17.214208">
        <ele>1149.809</ele>
        <time>2023-04-22T10:32:10Z</time>
      </trkpt>
      <trkpt lat="28.108174" lon="-17.213726">
        <ele>1135.828</ele>
        <time>2023-04-22T10:33:59Z</time>
      </trkpt>
      <trkpt lat="28.107682" lon="-17.213736">
        <ele>1131.270</ele>
        <time>2023-04-22T10:34:58Z</time>
      </trkpt>
      <trkpt lat="28.107681" lon="-17.213626">
        <ele>1126.729</ele>
        <time>2023-04-22T10:35:14Z</time>
      </trkpt>
      <trkpt lat="28.107354" lon="-17.213564">
        <ele>1113.471</ele>
        <time>2023-04-22T10:36:10Z</time>
      </trkpt>
      <trkpt lat="28.107484" lon="-17.213679">
        <ele>1115.453</ele>
        <time>2023-04-22T10:38:05Z</time>
      </trkpt>
      <trkpt lat="28.107596" lon="-17.213992">
        <ele>1104.659</ele>
        <time>2023-04-22T10:38:58Z</time>
      </trkpt>
      <trkpt lat="28.107381" lon="-17.214065">
        <ele>1096.817</ele>
        <time>2023-04-22T10:40:01Z</time>
      </trkpt>
      <trkpt lat="28.107406" lon="-17.214118">
        <ele>1092.453</ele>
        <time>2023-04-22T10:40:29Z</time>
      </trkpt>
      <trkpt lat="28.107729" lon="-17.214291">
        <ele>1088.749</ele>
        <time>2023-04-22T10:41:10Z</time>
      </trkpt>
      <trkpt lat="28.107970" lon="-17.214573">
        <ele>1082.372</ele>
        <time>2023-04-22T10:41:56Z</time>
      </trkpt>
      <trkpt lat="28.107998" lon="-17.214785">
        <ele>1079.913</ele>
        <time>2023-04-22T10:42:23Z</time>
      </trkpt>
      <trkpt lat="28.107703" lon="-17.214723">
        <ele>1061.714</ele>
        <time>2023-04-22T10:44:01Z</time>
      </trkpt>
      <trkpt lat="28.107536" lon="-17.214847">
        <ele>1057.409</ele>
        <time>2023-04-22T10:44:47Z</time>
      </trkpt>
      <trkpt lat="28.107353" lon="-17.214804">
        <ele>1047.338</ele>
        <time>2023-04-22T10:46:05Z</time>
      </trkpt>
      <trkpt lat="28.107010" lon="-17.214905">
        <ele>1034.340</ele>
        <time>2023-04-22T10:47:22Z</time>
      </trkpt>
      <trkpt lat="28.106417" lon="-17.215344">
        <ele>1005.919</ele>
        <time>2023-04-22T10:50:46Z</time>
      </trkpt>
      <trkpt lat="28.106403" lon="-17.215621">
        <ele>998.441</ele>
        <time>2023-04-22T10:51:57Z</time>
      </trkpt>
      <trkpt lat="28.105577" lon="-17.215874">
        <ele>977.993</ele>
        <time>2023-04-22T10:55:40Z</time>
      </trkpt>
      <trkpt lat="28.105238" lon="-17.215691">
        <ele>958.649</ele>
        <time>2023-04-22T10:57:07Z</time>
      </trkpt>
      <trkpt lat="28.105194" lon="-17.215542">
        <ele>960.417</ele>
        <time>2023-04-22T10:58:31Z</time>
      </trkpt>
      <trkpt lat="28.105053" lon="-17.215522">
        <ele>958.823</ele>
        <time>2023-04-22T10:58:57Z</time>
      </trkpt>
      <trkpt lat="28.104959" lon="-17.215532">
        <ele>955.899</ele>
        <time>2023-04-22T10:59:13Z</time>
      </trkpt>
      <trkpt lat="28.104997" lon="-17.215627">
        <ele>952.667</ele>
        <time>2023-04-22T10:59:57Z</time>
      </trkpt>
      <trkpt lat="28.104790" lon="-17.215838">
        <ele>935.781</ele>
        <time>2023-04-22T11:01:41Z</time>
      </trkpt>
      <trkpt lat="28.104163" lon="-17.215988">
        <ele>913.419</ele>
        <time>2023-04-22T11:04:45Z</time>
      </trkpt>
      <trkpt lat="28.102239" lon="-17.215206">
        <ele>850.509</ele>
        <time>2023-04-22T11:13:16Z</time>
      </trkpt>
      <trkpt lat="28.102200" lon="-17.215474">
        <ele>843.497</ele>
        <time>2023-04-22T11:14:30Z</time>
      </trkpt>
      <trkpt lat="28.102004" lon="-17.215403">
        <ele>840.049</ele>
        <time>2023-04-22T11:15:31Z</time>
      </trkpt>
      <trkpt lat="28.102029" lon="-17.215503">
        <ele>837.538</ele>
        <time>2023-04-22T11:15:50Z</time>
      </trkpt>
      <trkpt lat="28.101694" lon="-17.215459">
        <ele>817.570</ele>
        <time>2023-04-22T11:18:07Z</time>
      </trkpt>
      <trkpt lat="28.101780" lon="-17.215580">
        <ele>814.962</ele>
        <time>2023-04-22T11:18:49Z</time>
      </trkpt>
      <trkpt lat="28.101727" lon="-17.215675">
        <ele>813.768</ele>
        <time>2023-04-22T11:19:03Z</time>
      </trkpt>
      <trkpt lat="28.101553" lon="-17.215606">
        <ele>806.466</ele>
        <time>2023-04-22T11:19:46Z</time>
      </trkpt>
      <trkpt lat="28.101205" lon="-17.215905">
        <ele>803.372</ele>
        <time>2023-04-22T11:20:53Z</time>
      </trkpt>
      <trkpt lat="28.100933" lon="-17.215995">
        <ele>799.338</ele>
        <time>2023-04-22T11:22:08Z</time>
      </trkpt>
      <trkpt lat="28.100907" lon="-17.216364">
        <ele>801.879</ele>
        <time>2023-04-22T11:22:52Z</time>
      </trkpt>
      <trkpt lat="28.100198" lon="-17.216449">
        <ele>793.505</ele>
        <time>2023-04-22T11:23:54Z</time>
      </trkpt>
      <trkpt lat="28.099599" lon="-17.216925">
        <ele>797.725</ele>
        <time>2023-04-22T11:25:10Z</time>
      </trkpt>
      <trkpt lat="28.099456" lon="-17.216877">
        <ele>835.209</ele>
        <time>2023-04-22T11:25:28Z</time>
      </trkpt>
      <trkpt lat="28.099549" lon="-17.216884">
        <ele>804.058</ele>
        <time>2023-04-22T11:25:44Z</time>
      </trkpt>
      <trkpt lat="28.099400" lon="-17.217306">
        <ele>789.740</ele>
        <time>2023-04-22T11:27:43Z</time>
      </trkpt>
      <trkpt lat="28.099053" lon="-17.217532">
        <ele>795.699</ele>
        <time>2023-04-22T11:28:18Z</time>
      </trkpt>
      <trkpt lat="28.097790" lon="-17.218869">
        <ele>785.711</ele>
        <time>2023-04-22T11:30:50Z</time>
      </trkpt>
      <trkpt lat="28.097053" lon="-17.219866">
        <ele>772.093</ele>
        <time>2023-04-22T11:32:48Z</time>
      </trkpt>
      <trkpt lat="28.096643" lon="-17.220011">
        <ele>761.799</ele>
        <time>2023-04-22T11:33:57Z</time>
      </trkpt>
      <trkpt lat="28.096103" lon="-17.219946">
        <ele>759.037</ele>
        <time>2023-04-22T11:35:05Z</time>
      </trkpt>
      <trkpt lat="28.095315" lon="-17.220029">
        <ele>745.613</ele>
        <time>2023-04-22T11:36:28Z</time>
      </trkpt>
      <trkpt lat="28.094929" lon="-17.220339">
        <ele>735.949</ele>
        <time>2023-04-22T11:37:56Z</time>
      </trkpt>
      <trkpt lat="28.094584" lon="-17.220318">
        <ele>729.342</ele>
        <time>2023-04-22T11:38:40Z</time>
      </trkpt>
      <trkpt lat="28.094501" lon="-17.220441">
        <ele>728.422</ele>
        <time>2023-04-22T11:39:15Z</time>
      </trkpt>
      <trkpt lat="28.094069" lon="-17.220182">
        <ele>715.314</ele>
        <time>2023-04-22T11:40:17Z</time>
      </trkpt>
      <trkpt lat="28.093965" lon="-17.219918">
        <ele>709.009</ele>
        <time>2023-04-22T11:41:20Z</time>
      </trkpt>
      <trkpt lat="28.093393" lon="-17.219411">
        <ele>685.855</ele>
        <time>2023-04-22T11:44:30Z</time>
      </trkpt>
      <trkpt lat="28.093358" lon="-17.220295">
        <ele>670.787</ele>
        <time>2023-04-22T11:46:03Z</time>
      </trkpt>
      <trkpt lat="28.093271" lon="-17.220320">
        <ele>670.896</ele>
        <time>2023-04-22T11:46:28Z</time>
      </trkpt>
      <trkpt lat="28.092775" lon="-17.219428">
        <ele>655.498</ele>
        <time>2023-04-22T11:48:15Z</time>
      </trkpt>
      <trkpt lat="28.092315" lon="-17.218972">
        <ele>642.680</ele>
        <time>2023-04-22T11:49:21Z</time>
      </trkpt>
      <trkpt lat="28.092340" lon="-17.218917">
        <ele>645.516</ele>
        <time>2023-04-22T11:49:32Z</time>
      </trkpt>
      <trkpt lat="28.092385" lon="-17.219027">
        <ele>646.494</ele>
        <time>2023-04-22T11:50:01Z</time>
      </trkpt>
      <trkpt lat="28.092496" lon="-17.218927">
        <ele>640.870</ele>
        <time>2023-04-22T11:55:24Z</time>
      </trkpt>
      <trkpt lat="28.092701" lon="-17.218927">
        <ele>640.326</ele>
        <time>2023-04-22T11:55:43Z</time>
      </trkpt>
      <trkpt lat="28.092979" lon="-17.218603">
        <ele>643.957</ele>
        <time>2023-04-22T11:56:23Z</time>
      </trkpt>
      <trkpt lat="28.093440" lon="-17.218371">
        <ele>635.800</ele>
        <time>2023-04-22T11:58:21Z</time>
      </trkpt>
      <trkpt lat="28.093379" lon="-17.218231">
        <ele>630.620</ele>
        <time>2023-04-22T11:58:50Z</time>
      </trkpt>
      <trkpt lat="28.093542" lon="-17.217863">
        <ele>625.609</ele>
        <time>2023-04-22T11:59:18Z</time>
      </trkpt>
      <trkpt lat="28.093403" lon="-17.217298">
        <ele>626.476</ele>
        <time>2023-04-22T12:00:35Z</time>
      </trkpt>
      <trkpt lat="28.093078" lon="-17.217367">
        <ele>626.488</ele>
        <time>2023-04-22T12:01:08Z</time>
      </trkpt>
      <trkpt lat="28.092454" lon="-17.216977">
        <ele>614.867</ele>
        <time>2023-04-22T12:02:42Z</time>
      </trkpt>
      <trkpt lat="28.092581" lon="-17.216662">
        <ele>609.499</ele>
        <time>2023-04-22T12:03:08Z</time>
      </trkpt>
      <trkpt lat="28.092908" lon="-17.216303">
        <ele>614.981</ele>
        <time>2023-04-22T12:03:50Z</time>
      </trkpt>
      <trkpt lat="28.092880" lon="-17.216220">
        <ele>614.267</ele>
        <time>2023-04-22T12:04:03Z</time>
      </trkpt>
      <trkpt lat="28.092619" lon="-17.216052">
        <ele>612.675</ele>
        <time>2023-04-22T12:04:31Z</time>
      </trkpt>
      <trkpt lat="28.092324" lon="-17.216031">
        <ele>613.921</ele>
        <time>2023-04-22T12:04:59Z</time>
      </trkpt>
      <trkpt lat="28.091817" lon="-17.215608">
        <ele>600.537</ele>
        <time>2023-04-22T12:07:50Z</time>
      </trkpt>
      <trkpt lat="28.091944" lon="-17.215974">
        <ele>591.937</ele>
        <time>2023-04-22T12:08:56Z</time>
      </trkpt>
      <trkpt lat="28.091517" lon="-17.215883">
        <ele>583.249</ele>
        <time>2023-04-22T12:09:40Z</time>
      </trkpt>
      <trkpt lat="28.091432" lon="-17.215760">
        <ele>577.513</ele>
        <time>2023-04-22T12:09:57Z</time>
      </trkpt>
      <trkpt lat="28.091414" lon="-17.215200">
        <ele>568.109</ele>
        <time>2023-04-22T12:10:59Z</time>
      </trkpt>
      <trkpt lat="28.091277" lon="-17.215278">
        <ele>570.184</ele>
        <time>2023-04-22T12:11:16Z</time>
      </trkpt>
      <trkpt lat="28.090714" lon="-17.215167">
        <ele>573.336</ele>
        <time>2023-04-22T12:12:09Z</time>
      </trkpt>
      <trkpt lat="28.090121" lon="-17.215552">
        <ele>567.475</ele>
        <time>2023-04-22T12:14:46Z</time>
      </trkpt>
      <trkpt lat="28.089676" lon="-17.215464">
        <ele>573.617</ele>
        <time>2023-04-22T12:15:39Z</time>
      </trkpt>
      <trkpt lat="28.089349" lon="-17.215521">
        <ele>574.669</ele>
        <time>2023-04-22T12:17:09Z</time>
      </trkpt>
      <trkpt lat="28.088976" lon="-17.215781">
        <ele>574.025</ele>
        <time>2023-04-22T12:17:59Z</time>
      </trkpt>
      <trkpt lat="28.088640" lon="-17.215683">
        <ele>570.613</ele>
        <time>2023-04-22T12:18:30Z</time>
      </trkpt>
      <trkpt lat="28.088294" lon="-17.215739">
        <ele>577.699</ele>
        <time>2023-04-22T12:19:01Z</time>
      </trkpt>
      <trkpt lat="28.087715" lon="-17.215407">
        <ele>563.625</ele>
        <time>2023-04-22T12:20:10Z</time>
      </trkpt>
      <trkpt lat="28.086364" lon="-17.215241">
        <ele>540.546</ele>
        <time>2023-04-22T12:22:38Z</time>
      </trkpt>
      <trkpt lat="28.086327" lon="-17.215043">
        <ele>540.288</ele>
        <time>2023-04-22T12:22:55Z</time>
      </trkpt>
      <trkpt lat="28.086569" lon="-17.214741">
        <ele>537.116</ele>
        <time>2023-04-22T12:23:34Z</time>
      </trkpt>
      <trkpt lat="28.086118" lon="-17.214428">
        <ele>528.509</ele>
        <time>2023-04-22T12:24:41Z</time>
      </trkpt>
      <trkpt lat="28.086065" lon="-17.214113">
        <ele>524.075</ele>
        <time>2023-04-22T12:25:34Z</time>
      </trkpt>
      <trkpt lat="28.085886" lon="-17.214357">
        <ele>515.057</ele>
        <time>2023-04-22T12:26:27Z</time>
      </trkpt>
      <trkpt lat="28.085668" lon="-17.214210">
        <ele>505.416</ele>
        <time>2023-04-22T12:27:26Z</time>
      </trkpt>
      <trkpt lat="28.085617" lon="-17.214421">
        <ele>504.158</ele>
        <time>2023-04-22T12:27:55Z</time>
      </trkpt>
      <trkpt lat="28.085321" lon="-17.214611">
        <ele>498.240</ele>
        <time>2023-04-22T12:28:32Z</time>
      </trkpt>
      <trkpt lat="28.085436" lon="-17.214640">
        <ele>496.186</ele>
        <time>2023-04-22T12:28:57Z</time>
      </trkpt>
      <trkpt lat="28.085189" lon="-17.214980">
        <ele>489.284</ele>
        <time>2023-04-22T12:30:36Z</time>
      </trkpt>
      <trkpt lat="28.084954" lon="-17.215003">
        <ele>483.050</ele>
        <time>2023-04-22T12:31:03Z</time>
      </trkpt>
      <trkpt lat="28.084722" lon="-17.214775">
        <ele>480.546</ele>
        <time>2023-04-22T12:31:59Z</time>
      </trkpt>
      <trkpt lat="28.084404" lon="-17.215254">
        <ele>474.311</ele>
        <time>2023-04-22T12:32:54Z</time>
      </trkpt>
      <trkpt lat="28.083977" lon="-17.215357">
        <ele>472.321</ele>
        <time>2023-04-22T12:33:33Z</time>
      </trkpt>
      <trkpt lat="28.083484" lon="-17.215729">
        <ele>473.703</ele>
        <time>2023-04-22T12:35:15Z</time>
      </trkpt>
      <trkpt lat="28.082990" lon="-17.215612">
        <ele>467.509</ele>
        <time>2023-04-22T12:36:52Z</time>
      </trkpt>
      <trkpt lat="28.082099" lon="-17.214976">
        <ele>457.182</ele>
        <time>2023-04-22T12:40:18Z</time>
      </trkpt>
      <trkpt lat="28.081847" lon="-17.215344">
        <ele>447.284</ele>
        <time>2023-04-22T12:41:08Z</time>
      </trkpt>
      <trkpt lat="28.081045" lon="-17.215565">
        <ele>445.263</ele>
        <time>2023-04-22T12:43:26Z</time>
      </trkpt>
      <trkpt lat="28.080854" lon="-17.215550">
        <ele>437.785</ele>
        <time>2023-04-22T12:43:52Z</time>
      </trkpt>
      <trkpt lat="28.080684" lon="-17.215086">
        <ele>427.897</ele>
        <time>2023-04-22T12:44:58Z</time>
      </trkpt>
      <trkpt lat="28.080552" lon="-17.215016">
        <ele>432.673</ele>
        <time>2023-04-22T12:46:01Z</time>
      </trkpt>
      <trkpt lat="28.080426" lon="-17.215341">
        <ele>428.531</ele>
        <time>2023-04-22T12:47:04Z</time>
      </trkpt>
      <trkpt lat="28.080004" lon="-17.215516">
        <ele>413.487</ele>
        <time>2023-04-22T12:47:54Z</time>
      </trkpt>
      <trkpt lat="28.079799" lon="-17.215381">
        <ele>419.693</ele>
        <time>2023-04-22T12:48:27Z</time>
      </trkpt>
      <trkpt lat="28.079319" lon="-17.215422">
        <ele>403.614</ele>
        <time>2023-04-22T12:49:25Z</time>
      </trkpt>
      <trkpt lat="28.078236" lon="-17.215266">
        <ele>382.154</ele>
        <time>2023-04-22T12:53:21Z</time>
      </trkpt>
      <trkpt lat="28.078139" lon="-17.215151">
        <ele>385.109</ele>
        <time>2023-04-22T12:53:41Z</time>
      </trkpt>
      <trkpt lat="28.077587" lon="-17.215377">
        <ele>373.109</ele>
        <time>2023-04-22T12:54:58Z</time>
      </trkpt>
      <trkpt lat="28.076794" lon="-17.215375">
        <ele>365.192</ele>
        <time>2023-04-22T12:56:21Z</time>
      </trkpt>
      <trkpt lat="28.076002" lon="-17.215023">
        <ele>367.594</ele>
        <time>2023-04-22T12:57:35Z</time>
      </trkpt>
      <trkpt lat="28.075749" lon="-17.215250">
        <ele>363.583</ele>
        <time>2023-04-22T12:58:20Z</time>
      </trkpt>
      <trkpt lat="28.075647" lon="-17.215222">
        <ele>362.835</ele>
        <time>2023-04-22T12:59:18Z</time>
      </trkpt>
      <trkpt lat="28.075651" lon="-17.215650">
        <ele>351.327</ele>
        <time>2023-04-22T13:00:03Z</time>
      </trkpt>
      <trkpt lat="28.075403" lon="-17.215909">
        <ele>354.843</ele>
        <time>2023-04-22T13:00:57Z</time>
      </trkpt>
      <trkpt lat="28.073980" lon="-17.216351">
        <ele>330.021</ele>
        <time>2023-04-22T13:03:33Z</time>
      </trkpt>
      <trkpt lat="28.073764" lon="-17.216164">
        <ele>340.667</ele>
        <time>2023-04-22T13:04:09Z</time>
      </trkpt>
      <trkpt lat="28.073637" lon="-17.216274">
        <ele>335.793</ele>
        <time>2023-04-22T13:04:32Z</time>
      </trkpt>
      <trkpt lat="28.073446" lon="-17.216286">
        <ele>332.074</ele>
        <time>2023-04-22T13:04:53Z</time>
      </trkpt>
      <trkpt lat="28.073308" lon="-17.216694">
        <ele>316.456</ele>
        <time>2023-04-22T13:06:28Z</time>
      </trkpt>
      <trkpt lat="28.073135" lon="-17.216772">
        <ele>312.121</ele>
        <time>2023-04-22T13:06:59Z</time>
      </trkpt>
      <trkpt lat="28.072939" lon="-17.216749">
        <ele>312.809</ele>
        <time>2023-04-22T13:07:24Z</time>
      </trkpt>
      <trkpt lat="28.072135" lon="-17.216285">
        <ele>296.098</ele>
        <time>2023-04-22T13:13:24Z</time>
      </trkpt>
      <trkpt lat="28.071931" lon="-17.216263">
        <ele>287.870</ele>
        <time>2023-04-22T13:14:07Z</time>
      </trkpt>
      <trkpt lat="28.071579" lon="-17.216011">
        <ele>292.999</ele>
        <time>2023-04-22T13:15:12Z</time>
      </trkpt>
      <trkpt lat="28.070602" lon="-17.216507">
        <ele>295.551</ele>
        <time>2023-04-22T13:18:09Z</time>
      </trkpt>
      <trkpt lat="28.070567" lon="-17.216227">
        <ele>298.293</ele>
        <time>2023-04-22T13:18:35Z</time>
      </trkpt>
      <trkpt lat="28.070392" lon="-17.216329">
        <ele>294.529</ele>
        <time>2023-04-22T13:19:02Z</time>
      </trkpt>
      <trkpt lat="28.069796" lon="-17.215979">
        <ele>289.227</ele>
        <time>2023-04-22T13:20:01Z</time>
      </trkpt>
      <trkpt lat="28.069337" lon="-17.215927">
        <ele>295.583</ele>
        <time>2023-04-22T13:20:54Z</time>
      </trkpt>
      <trkpt lat="28.069210" lon="-17.215745">
        <ele>297.569</ele>
        <time>2023-04-22T13:21:18Z</time>
      </trkpt>
      <trkpt lat="28.068916" lon="-17.215815">
        <ele>289.388</ele>
        <time>2023-04-22T13:21:44Z</time>
      </trkpt>
      <trkpt lat="28.068450" lon="-17.215674">
        <ele>298.024</ele>
        <time>2023-04-22T13:22:32Z</time>
      </trkpt>
      <trkpt lat="28.068272" lon="-17.215424">
        <ele>288.926</ele>
        <time>2023-04-22T13:23:13Z</time>
      </trkpt>
      <trkpt lat="28.067721" lon="-17.215203">
        <ele>292.709</ele>
        <time>2023-04-22T13:24:09Z</time>
      </trkpt>
      <trkpt lat="28.067262" lon="-17.214617">
        <ele>300.149</ele>
        <time>2023-04-22T13:26:08Z</time>
      </trkpt>
      <trkpt lat="28.066894" lon="-17.214469">
        <ele>291.241</ele>
        <time>2023-04-22T13:26:55Z</time>
      </trkpt>
      <trkpt lat="28.066487" lon="-17.214591">
        <ele>287.740</ele>
        <time>2023-04-22T13:27:49Z</time>
      </trkpt>
      <trkpt lat="28.066646" lon="-17.214637">
        <ele>291.572</ele>
        <time>2023-04-22T13:35:19Z</time>
      </trkpt>
      <trkpt lat="28.066638" lon="-17.214745">
        <ele>275.434</ele>
        <time>2023-04-22T13:36:23Z</time>
      </trkpt>
      <trkpt lat="28.066411" lon="-17.214771">
        <ele>268.250</ele>
        <time>2023-04-22T13:36:55Z</time>
      </trkpt>
      <trkpt lat="28.066092" lon="-17.215009">
        <ele>254.798</ele>
        <time>2023-04-22T13:38:20Z</time>
      </trkpt>
      <trkpt lat="28.065718" lon="-17.215051">
        <ele>251.524</ele>
        <time>2023-04-22T13:39:20Z</time>
      </trkpt>
      <trkpt lat="28.065609" lon="-17.215215">
        <ele>246.910</ele>
        <time>2023-04-22T13:40:04Z</time>
      </trkpt>
      <trkpt lat="28.065292" lon="-17.215183">
        <ele>248.642</ele>
        <time>2023-04-22T13:40:52Z</time>
      </trkpt>
      <trkpt lat="28.065001" lon="-17.215298">
        <ele>254.022</ele>
        <time>2023-04-22T13:41:19Z</time>
      </trkpt>
      <trkpt lat="28.064572" lon="-17.215206">
        <ele>250.114</ele>
        <time>2023-04-22T13:41:58Z</time>
      </trkpt>
      <trkpt lat="28.064477" lon="-17.215052">
        <ele>243.109</ele>
        <time>2023-04-22T13:42:27Z</time>
      </trkpt>
      <trkpt lat="28.063973" lon="-17.215116">
        <ele>240.975</ele>
        <time>2023-04-22T13:43:14Z</time>
      </trkpt>
      <trkpt lat="28.063133" lon="-17.214656">
        <ele>231.527</ele>
        <time>2023-04-22T13:44:42Z</time>
      </trkpt>
      <trkpt lat="28.062532" lon="-17.214626">
        <ele>227.066</ele>
        <time>2023-04-22T13:45:46Z</time>
      </trkpt>
      <trkpt lat="28.062547" lon="-17.214543">
        <ele>219.598</ele>
        <time>2023-04-22T13:46:29Z</time>
      </trkpt>
      <trkpt lat="28.062530" lon="-17.214630">
        <ele>221.290</ele>
        <time>2023-04-22T13:46:50Z</time>
      </trkpt>
      <trkpt lat="28.062154" lon="-17.214552">
        <ele>219.446</ele>
        <time>2023-04-22T13:48:03Z</time>
      </trkpt>
      <trkpt lat="28.061802" lon="-17.214701">
        <ele>217.794</ele>
        <time>2023-04-22T13:48:39Z</time>
      </trkpt>
      <trkpt lat="28.060737" lon="-17.214156">
        <ele>212.020</ele>
        <time>2023-04-22T13:50:41Z</time>
      </trkpt>
      <trkpt lat="28.060250" lon="-17.214056">
        <ele>214.586</ele>
        <time>2023-04-22T13:51:29Z</time>
      </trkpt>
      <trkpt lat="28.059484" lon="-17.213289">
        <ele>207.384</ele>
        <time>2023-04-22T13:53:19Z</time>
      </trkpt>
      <trkpt lat="28.058835" lon="-17.212896">
        <ele>200.907</ele>
        <time>2023-04-22T13:55:16Z</time>
      </trkpt>
      <trkpt lat="28.058507" lon="-17.212816">
        <ele>199.817</ele>
        <time>2023-04-22T13:55:47Z</time>
      </trkpt>
      <trkpt lat="28.058321" lon="-17.212359">
        <ele>202.909</ele>
        <time>2023-04-22T13:56:31Z</time>
      </trkpt>
      <trkpt lat="28.057812" lon="-17.211813">
        <ele>203.059</ele>
        <time>2023-04-22T13:57:44Z</time>
      </trkpt>
      <trkpt lat="28.057581" lon="-17.211598">
        <ele>199.241</ele>
        <time>2023-04-22T13:58:13Z</time>
      </trkpt>
      <trkpt lat="28.056893" lon="-17.211396">
        <ele>199.310</ele>
        <time>2023-04-22T13:59:23Z</time>
      </trkpt>
      <trkpt lat="28.056724" lon="-17.211033">
        <ele>198.872</ele>
        <time>2023-04-22T13:59:53Z</time>
      </trkpt>
      <trkpt lat="28.056397" lon="-17.210828">
        <ele>196.834</ele>
        <time>2023-04-22T14:00:31Z</time>
      </trkpt>
      <trkpt lat="28.056216" lon="-17.210424">
        <ele>199.720</ele>
        <time>2023-04-22T14:01:10Z</time>
      </trkpt>
      <trkpt lat="28.055901" lon="-17.210137">
        <ele>199.628</ele>
        <time>2023-04-22T14:02:03Z</time>
      </trkpt>
      <trkpt lat="28.055550" lon="-17.210150">
        <ele>190.654</ele>
        <time>2023-04-22T14:02:36Z</time>
      </trkpt>
      <trkpt lat="28.055195" lon="-17.209943">
        <ele>185.810</ele>
        <time>2023-04-22T14:03:12Z</time>
      </trkpt>
      <trkpt lat="28.054570" lon="-17.209806">
        <ele>181.916</ele>
        <time>2023-04-22T14:04:10Z</time>
      </trkpt>
      <trkpt lat="28.054495" lon="-17.209671">
        <ele>166.576</ele>
        <time>2023-04-22T14:04:19Z</time>
      </trkpt>
      <trkpt lat="28.054255" lon="-17.209628">
        <ele>180.413</ele>
        <time>2023-04-22T14:04:44Z</time>
      </trkpt>
      <trkpt lat="28.053786" lon="-17.209643">
        <ele>173.209</ele>
        <time>2023-04-22T14:05:29Z</time>
      </trkpt>
      <trkpt lat="28.053552" lon="-17.209791">
        <ele>176.452</ele>
        <time>2023-04-22T14:05:56Z</time>
      </trkpt>
      <trkpt lat="28.052823" lon="-17.209900">
        <ele>169.584</ele>
        <time>2023-04-22T14:07:09Z</time>
      </trkpt>
      <trkpt lat="28.052145" lon="-17.209845">
        <ele>142.053</ele>
        <time>2023-04-22T14:08:12Z</time>
      </trkpt>
      <trkpt lat="28.052044" lon="-17.209704">
        <ele>143.445</ele>
        <time>2023-04-22T14:08:21Z</time>
      </trkpt>
      <trkpt lat="28.051262" lon="-17.209352">
        <ele>139.057</ele>
        <time>2023-04-22T14:09:40Z</time>
      </trkpt>
      <trkpt lat="28.050338" lon="-17.209209">
        <ele>150.353</ele>
        <time>2023-04-22T14:11:09Z</time>
      </trkpt>
      <trkpt lat="28.050138" lon="-17.209038">
        <ele>153.471</ele>
        <time>2023-04-22T14:11:31Z</time>
      </trkpt>
      <trkpt lat="28.049843" lon="-17.208507">
        <ele>146.847</ele>
        <time>2023-04-22T14:12:22Z</time>
      </trkpt>
      <trkpt lat="28.048835" lon="-17.207641">
        <ele>152.983</ele>
        <time>2023-04-22T14:14:13Z</time>
      </trkpt>
      <trkpt lat="28.048477" lon="-17.206740">
        <ele>140.947</ele>
        <time>2023-04-22T14:15:36Z</time>
      </trkpt>
      <trkpt lat="28.047959" lon="-17.205780">
        <ele>136.329</ele>
        <time>2023-04-22T14:17:12Z</time>
      </trkpt>
      <trkpt lat="28.047625" lon="-17.205354">
        <ele>135.121</ele>
        <time>2023-04-22T14:18:39Z</time>
      </trkpt>
      <trkpt lat="28.047176" lon="-17.205024">
        <ele>126.409</ele>
        <time>2023-04-22T14:19:30Z</time>
      </trkpt>
      <trkpt lat="28.046493" lon="-17.203719">
        <ele>123.755</ele>
        <time>2023-04-22T14:21:34Z</time>
      </trkpt>
      <trkpt lat="28.046133" lon="-17.203222">
        <ele>116.637</ele>
        <time>2023-04-22T14:22:27Z</time>
      </trkpt>
      <trkpt lat="28.045337" lon="-17.202457">
        <ele>117.036</ele>
        <time>2023-04-22T14:24:07Z</time>
      </trkpt>
      <trkpt lat="28.044300" lon="-17.202013">
        <ele>107.598</ele>
        <time>2023-04-22T14:26:21Z</time>
      </trkpt>
      <trkpt lat="28.043491" lon="-17.201910">
        <ele>114.060</ele>
        <time>2023-04-22T14:27:41Z</time>
      </trkpt>
      <trkpt lat="28.043042" lon="-17.202004">
        <ele>106.226</ele>
        <time>2023-04-22T14:28:26Z</time>
      </trkpt>
      <trkpt lat="28.041988" lon="-17.201858">
        <ele>102.644</ele>
        <time>2023-04-22T14:30:10Z</time>
      </trkpt>
      <trkpt lat="28.041640" lon="-17.201522">
        <ele>101.540</ele>
        <time>2023-04-22T14:30:52Z</time>
      </trkpt>
      <trkpt lat="28.041298" lon="-17.201335">
        <ele>99.286</ele>
        <time>2023-04-22T14:31:28Z</time>
      </trkpt>
      <trkpt lat="28.040984" lon="-17.200926">
        <ele>96.286</ele>
        <time>2023-04-22T14:32:12Z</time>
      </trkpt>
      <trkpt lat="28.040499" lon="-17.200669">
        <ele>89.560</ele>
        <time>2023-04-22T14:33:04Z</time>
      </trkpt>
      <trkpt lat="28.039350" lon="-17.199778">
        <ele>85.926</ele>
        <time>2023-04-22T14:35:09Z</time>
      </trkpt>
      <trkpt lat="28.038737" lon="-17.199091">
        <ele>75.709</ele>
        <time>2023-04-22T14:36:28Z</time>
      </trkpt>
      <trkpt lat="28.038041" lon="-17.198603">
        <ele>74.559</ele>
        <time>2023-04-22T14:37:42Z</time>
      </trkpt>
      <trkpt lat="28.037916" lon="-17.198322">
        <ele>73.751</ele>
        <time>2023-04-22T14:38:10Z</time>
      </trkpt>
      <trkpt lat="28.037650" lon="-17.198045">
        <ele>71.840</ele>
        <time>2023-04-22T14:38:43Z</time>
      </trkpt>
      <trkpt lat="28.036409" lon="-17.197299">
        <ele>69.842</ele>
        <time>2023-04-22T14:41:01Z</time>
      </trkpt>
      <trkpt lat="28.035179" lon="-17.196863">
        <ele>67.244</ele>
        <time>2023-04-22T14:43:08Z</time>
      </trkpt>
      <trkpt lat="28.034506" lon="-17.196394">
        <ele>63.680</ele>
        <time>2023-04-22T14:44:24Z</time>
      </trkpt>
      <trkpt lat="28.032757" lon="-17.194449">
        <ele>60.868</ele>
        <time>2023-04-22T14:48:20Z</time>
      </trkpt>
      <trkpt lat="28.032556" lon="-17.194060">
        <ele>60.194</ele>
        <time>2023-04-22T14:48:57Z</time>
      </trkpt>
      <trkpt lat="28.032336" lon="-17.193163">
        <ele>54.980</ele>
        <time>2023-04-22T14:50:13Z</time>
      </trkpt>
      <trkpt lat="28.031910" lon="-17.193095">
        <ele>51.427</ele>
        <time>2023-04-22T14:53:54Z</time>
      </trkpt>
      <trkpt lat="28.030116" lon="-17.194966">
        <ele>46.868</ele>
        <time>2023-04-22T14:57:55Z</time>
      </trkpt>
      <trkpt lat="28.029816" lon="-17.195046">
        <ele>44.214</ele>
        <time>2023-04-22T14:58:23Z</time>
      </trkpt>
      <trkpt lat="28.029481" lon="-17.194977">
        <ele>49.409</ele>
        <time>2023-04-22T14:58:56Z</time>
      </trkpt>
    </trkseg>
  </trk></gpx>