<?xml version="1.0" encoding="UTF-8"?>
<gpx creator="Wikiloc - https://www.wikiloc.com" version="1.1" xmlns="http://www.topografix.com/GPX/1/1" xmlns:xsi="http://www.w3.org/2001/XMLSchema-instance" xsi:schemaLocation="http://www.topografix.com/GPX/1/1 http://www.topografix.com/GPX/1/1/gpx.xsd">
  <metadata>
    <name>Wikiloc - Laguna Grande-Alto Garajonay-Laguna Grande ruta circular 202...</name>
    <link href="https://www.wikiloc.com/hiking-trails/laguna-grande-alto-garajonay-laguna-grande-ruta-circular-2021-marzo-68784329">
      <text>Laguna Grande-Alto Garajonay-Laguna Grande ruta circular 202... on Wikiloc</text>
    </link>
    <time>2021-03-26T14:28:36Z</time>
  </metadata>
  <trk>
    <name>Laguna Grande-Alto Garajonay-Laguna Grande ruta circular 202... - Wikiloc</name>
    <cmt></cmt>
    <desc></desc>
    <trkseg>
      <trkpt lat="28.126420" lon="-17.257573">
        <ele>1251.837</ele>
        <time>2021-03-26T11:39:31Z</time>
      </trkpt>
      <trkpt lat="28.126308" lon="-17.257720">
        <ele>1251.949</ele>
        <time>2021-03-26T11:40:28Z</time>
      </trkpt>
      <trkpt lat="28.126028" lon="-17.257833">
        <ele>1251.613</ele>
        <time>2021-03-26T11:41:25Z</time>
      </trkpt>
      <trkpt lat="28.126108" lon="-17.257840">
        <ele>1252.108</ele>
        <time>2021-03-26T11:42:44Z</time>
      </trkpt>
      <trkpt lat="28.126058" lon="-17.257674">
        <ele>1252.059</ele>
        <time>2021-03-26T11:43:43Z</time>
      </trkpt>
      <trkpt lat="28.126137" lon="-17.257857">
        <ele>1252.941</ele>
        <time>2021-03-26T11:43:58Z</time>
      </trkpt>
      <trkpt lat="28.126016" lon="-17.257863">
        <ele>1252.970</ele>
        <time>2021-03-26T11:46:19Z</time>
      </trkpt>
      <trkpt lat="28.126157" lon="-17.257906">
        <ele>1252.031</ele>
        <time>2021-03-26T11:46:38Z</time>
      </trkpt>
      <trkpt lat="28.126107" lon="-17.257933">
        <ele>1252.937</ele>
        <time>2021-03-26T11:46:51Z</time>
      </trkpt>
      <trkpt lat="28.126018" lon="-17.257740">
        <ele>1252.746</ele>
        <time>2021-03-26T11:47:00Z</time>
      </trkpt>
      <trkpt lat="28.126143" lon="-17.257657">
        <ele>1253.085</ele>
        <time>2021-03-26T11:47:17Z</time>
      </trkpt>
      <trkpt lat="28.126248" lon="-17.257774">
        <ele>1252.332</ele>
        <time>2021-03-26T11:48:08Z</time>
      </trkpt>
      <trkpt lat="28.126114" lon="-17.257644">
        <ele>1252.543</ele>
        <time>2021-03-26T11:48:28Z</time>
      </trkpt>
      <trkpt lat="28.126292" lon="-17.257764">
        <ele>1252.364</ele>
        <time>2021-03-26T11:48:39Z</time>
      </trkpt>
      <trkpt lat="28.125891" lon="-17.258248">
        <ele>1252.310</ele>
        <time>2021-03-26T11:52:30Z</time>
      </trkpt>
      <trkpt lat="28.125885" lon="-17.258719">
        <ele>1249.808</ele>
        <time>2021-03-26T11:53:09Z</time>
      </trkpt>
      <trkpt lat="28.125798" lon="-17.258914">
        <ele>1246.670</ele>
        <time>2021-03-26T11:53:28Z</time>
      </trkpt>
      <trkpt lat="28.125427" lon="-17.258989">
        <ele>1237.432</ele>
        <time>2021-03-26T11:54:13Z</time>
      </trkpt>
      <trkpt lat="28.124988" lon="-17.259249">
        <ele>1225.031</ele>
        <time>2021-03-26T11:55:09Z</time>
      </trkpt>
      <trkpt lat="28.124883" lon="-17.259434">
        <ele>1221.272</ele>
        <time>2021-03-26T11:55:29Z</time>
      </trkpt>
      <trkpt lat="28.125069" lon="-17.259519">
        <ele>1215.478</ele>
        <time>2021-03-26T11:55:57Z</time>
      </trkpt>
      <trkpt lat="28.124786" lon="-17.259716">
        <ele>1208.397</ele>
        <time>2021-03-26T11:56:33Z</time>
      </trkpt>
      <trkpt lat="28.124457" lon="-17.260237">
        <ele>1196.346</ele>
        <time>2021-03-26T11:57:30Z</time>
      </trkpt>
      <trkpt lat="28.124098" lon="-17.260454">
        <ele>1190.483</ele>
        <time>2021-03-26T11:58:49Z</time>
      </trkpt>
      <trkpt lat="28.123757" lon="-17.260952">
        <ele>1186.819</ele>
        <time>2021-03-26T11:59:48Z</time>
      </trkpt>
      <trkpt lat="28.123435" lon="-17.261895">
        <ele>1184.109</ele>
        <time>2021-03-26T12:01:10Z</time>
      </trkpt>
      <trkpt lat="28.123564" lon="-17.262194">
        <ele>1181.819</ele>
        <time>2021-03-26T12:01:36Z</time>
      </trkpt>
      <trkpt lat="28.123498" lon="-17.262586">
        <ele>1178.908</ele>
        <time>2021-03-26T12:02:09Z</time>
      </trkpt>
      <trkpt lat="28.123549" lon="-17.262921">
        <ele>1179.227</ele>
        <time>2021-03-26T12:02:34Z</time>
      </trkpt>
      <trkpt lat="28.123445" lon="-17.263419">
        <ele>1175.769</ele>
        <time>2021-03-26T12:03:10Z</time>
      </trkpt>
      <trkpt lat="28.122937" lon="-17.264253">
        <ele>1168.138</ele>
        <time>2021-03-26T12:04:44Z</time>
      </trkpt>
      <trkpt lat="28.122331" lon="-17.264608">
        <ele>1158.959</ele>
        <time>2021-03-26T12:05:49Z</time>
      </trkpt>
      <trkpt lat="28.122688" lon="-17.263912">
        <ele>1161.325</ele>
        <time>2021-03-26T12:07:02Z</time>
      </trkpt>
      <trkpt lat="28.122733" lon="-17.262913">
        <ele>1164.364</ele>
        <time>2021-03-26T12:08:07Z</time>
      </trkpt>
      <trkpt lat="28.122628" lon="-17.262086">
        <ele>1165.483</ele>
        <time>2021-03-26T12:09:02Z</time>
      </trkpt>
      <trkpt lat="28.122121" lon="-17.261000">
        <ele>1169.370</ele>
        <time>2021-03-26T12:10:26Z</time>
      </trkpt>
      <trkpt lat="28.121935" lon="-17.259560">
        <ele>1178.517</ele>
        <time>2021-03-26T12:12:16Z</time>
      </trkpt>
      <trkpt lat="28.121771" lon="-17.259250">
        <ele>1179.487</ele>
        <time>2021-03-26T12:12:40Z</time>
      </trkpt>
      <trkpt lat="28.121531" lon="-17.259022">
        <ele>1181.415</ele>
        <time>2021-03-26T12:13:03Z</time>
      </trkpt>
      <trkpt lat="28.121512" lon="-17.258647">
        <ele>1183.308</ele>
        <time>2021-03-26T12:13:26Z</time>
      </trkpt>
      <trkpt lat="28.121763" lon="-17.258355">
        <ele>1185.257</ele>
        <time>2021-03-26T12:14:04Z</time>
      </trkpt>
      <trkpt lat="28.121757" lon="-17.257991">
        <ele>1186.839</ele>
        <time>2021-03-26T12:14:31Z</time>
      </trkpt>
      <trkpt lat="28.121647" lon="-17.257793">
        <ele>1187.658</ele>
        <time>2021-03-26T12:14:44Z</time>
      </trkpt>
      <trkpt lat="28.121102" lon="-17.257377">
        <ele>1194.529</ele>
        <time>2021-03-26T12:15:40Z</time>
      </trkpt>
      <trkpt lat="28.121233" lon="-17.256861">
        <ele>1200.945</ele>
        <time>2021-03-26T12:16:25Z</time>
      </trkpt>
      <trkpt lat="28.121359" lon="-17.256691">
        <ele>1202.284</ele>
        <time>2021-03-26T12:16:45Z</time>
      </trkpt>
      <trkpt lat="28.121318" lon="-17.255916">
        <ele>1203.873</ele>
        <time>2021-03-26T12:17:39Z</time>
      </trkpt>
      <trkpt lat="28.120850" lon="-17.255499">
        <ele>1209.480</ele>
        <time>2021-03-26T12:18:28Z</time>
      </trkpt>
      <trkpt lat="28.120311" lon="-17.254319">
        <ele>1219.486</ele>
        <time>2021-03-26T12:20:06Z</time>
      </trkpt>
      <trkpt lat="28.120130" lon="-17.253665">
        <ele>1225.560</ele>
        <time>2021-03-26T12:20:54Z</time>
      </trkpt>
      <trkpt lat="28.120071" lon="-17.252844">
        <ele>1235.626</ele>
        <time>2021-03-26T12:22:25Z</time>
      </trkpt>
      <trkpt lat="28.120170" lon="-17.252610">
        <ele>1238.608</ele>
        <time>2021-03-26T12:23:02Z</time>
      </trkpt>
      <trkpt lat="28.120200" lon="-17.252148">
        <ele>1243.534</ele>
        <time>2021-03-26T12:23:35Z</time>
      </trkpt>
      <trkpt lat="28.120352" lon="-17.251870">
        <ele>1248.616</ele>
        <time>2021-03-26T12:24:04Z</time>
      </trkpt>
      <trkpt lat="28.120304" lon="-17.251767">
        <ele>1250.795</ele>
        <time>2021-03-26T12:24:14Z</time>
      </trkpt>
      <trkpt lat="28.120002" lon="-17.252173">
        <ele>1248.226</ele>
        <time>2021-03-26T12:25:11Z</time>
      </trkpt>
      <trkpt lat="28.119828" lon="-17.252663">
        <ele>1246.672</ele>
        <time>2021-03-26T12:25:47Z</time>
      </trkpt>
      <trkpt lat="28.119904" lon="-17.253218">
        <ele>1245.751</ele>
        <time>2021-03-26T12:26:33Z</time>
      </trkpt>
      <trkpt lat="28.119853" lon="-17.254432">
        <ele>1243.010</ele>
        <time>2021-03-26T12:28:26Z</time>
      </trkpt>
      <trkpt lat="28.119574" lon="-17.254454">
        <ele>1242.417</ele>
        <time>2021-03-26T12:28:54Z</time>
      </trkpt>
      <trkpt lat="28.119360" lon="-17.254271">
        <ele>1242.072</ele>
        <time>2021-03-26T12:29:14Z</time>
      </trkpt>
      <trkpt lat="28.119069" lon="-17.253663">
        <ele>1244.813</ele>
        <time>2021-03-26T12:30:28Z</time>
      </trkpt>
      <trkpt lat="28.119000" lon="-17.253432">
        <ele>1246.714</ele>
        <time>2021-03-26T12:30:53Z</time>
      </trkpt>
      <trkpt lat="28.119107" lon="-17.253133">
        <ele>1248.008</ele>
        <time>2021-03-26T12:31:30Z</time>
      </trkpt>
      <trkpt lat="28.118700" lon="-17.252482">
        <ele>1252.953</ele>
        <time>2021-03-26T12:32:23Z</time>
      </trkpt>
      <trkpt lat="28.118641" lon="-17.252198">
        <ele>1255.275</ele>
        <time>2021-03-26T12:33:33Z</time>
      </trkpt>
      <trkpt lat="28.118628" lon="-17.251794">
        <ele>1257.884</ele>
        <time>2021-03-26T12:33:59Z</time>
      </trkpt>
      <trkpt lat="28.118836" lon="-17.250898">
        <ele>1260.795</ele>
        <time>2021-03-26T12:34:58Z</time>
      </trkpt>
      <trkpt lat="28.118745" lon="-17.250875">
        <ele>1261.291</ele>
        <time>2021-03-26T12:35:06Z</time>
      </trkpt>
      <trkpt lat="28.118431" lon="-17.251080">
        <ele>1262.560</ele>
        <time>2021-03-26T12:35:33Z</time>
      </trkpt>
      <trkpt lat="28.118088" lon="-17.251055">
        <ele>1265.539</ele>
        <time>2021-03-26T12:36:02Z</time>
      </trkpt>
      <trkpt lat="28.117919" lon="-17.250638">
        <ele>1266.856</ele>
        <time>2021-03-26T12:36:36Z</time>
      </trkpt>
      <trkpt lat="28.117904" lon="-17.250300">
        <ele>1269.375</ele>
        <time>2021-03-26T12:36:57Z</time>
      </trkpt>
      <trkpt lat="28.118165" lon="-17.249667">
        <ele>1271.728</ele>
        <time>2021-03-26T12:38:06Z</time>
      </trkpt>
      <trkpt lat="28.118150" lon="-17.249509">
        <ele>1272.720</ele>
        <time>2021-03-26T12:38:16Z</time>
      </trkpt>
      <trkpt lat="28.117582" lon="-17.249793">
        <ele>1275.808</ele>
        <time>2021-03-26T12:39:02Z</time>
      </trkpt>
      <trkpt lat="28.117480" lon="-17.249770">
        <ele>1276.753</ele>
        <time>2021-03-26T12:39:12Z</time>
      </trkpt>
      <trkpt lat="28.117285" lon="-17.249112">
        <ele>1281.265</ele>
        <time>2021-03-26T12:39:58Z</time>
      </trkpt>
      <trkpt lat="28.117080" lon="-17.249004">
        <ele>1279.494</ele>
        <time>2021-03-26T12:40:18Z</time>
      </trkpt>
      <trkpt lat="28.116918" lon="-17.248721">
        <ele>1276.455</ele>
        <time>2021-03-26T12:40:43Z</time>
      </trkpt>
      <trkpt lat="28.116818" lon="-17.248777">
        <ele>1276.071</ele>
        <time>2021-03-26T12:40:52Z</time>
      </trkpt>
      <trkpt lat="28.116708" lon="-17.249542">
        <ele>1274.530</ele>
        <time>2021-03-26T12:41:45Z</time>
      </trkpt>
      <trkpt lat="28.116830" lon="-17.249985">
        <ele>1274.689</ele>
        <time>2021-03-26T12:42:14Z</time>
      </trkpt>
      <trkpt lat="28.116638" lon="-17.250188">
        <ele>1273.166</ele>
        <time>2021-03-26T12:42:34Z</time>
      </trkpt>
      <trkpt lat="28.116134" lon="-17.250256">
        <ele>1275.015</ele>
        <time>2021-03-26T12:43:49Z</time>
      </trkpt>
      <trkpt lat="28.116044" lon="-17.250364">
        <ele>1275.365</ele>
        <time>2021-03-26T12:44:05Z</time>
      </trkpt>
      <trkpt lat="28.116286" lon="-17.250764">
        <ele>1276.611</ele>
        <time>2021-03-26T12:44:35Z</time>
      </trkpt>
      <trkpt lat="28.116398" lon="-17.251233">
        <ele>1283.808</ele>
        <time>2021-03-26T12:45:11Z</time>
      </trkpt>
      <trkpt lat="28.116635" lon="-17.251517">
        <ele>1289.847</ele>
        <time>2021-03-26T12:45:45Z</time>
      </trkpt>
      <trkpt lat="28.116504" lon="-17.251737">
        <ele>1293.239</ele>
        <time>2021-03-26T12:46:06Z</time>
      </trkpt>
      <trkpt lat="28.116444" lon="-17.252536">
        <ele>1293.748</ele>
        <time>2021-03-26T12:47:24Z</time>
      </trkpt>
      <trkpt lat="28.116672" lon="-17.252965">
        <ele>1301.879</ele>
        <time>2021-03-26T12:48:07Z</time>
      </trkpt>
      <trkpt lat="28.116380" lon="-17.253363">
        <ele>1304.785</ele>
        <time>2021-03-26T12:48:51Z</time>
      </trkpt>
      <trkpt lat="28.116253" lon="-17.253979">
        <ele>1309.764</ele>
        <time>2021-03-26T12:50:15Z</time>
      </trkpt>
      <trkpt lat="28.116400" lon="-17.254567">
        <ele>1316.983</ele>
        <time>2021-03-26T12:51:14Z</time>
      </trkpt>
      <trkpt lat="28.116623" lon="-17.254855">
        <ele>1321.210</ele>
        <time>2021-03-26T12:51:42Z</time>
      </trkpt>
      <trkpt lat="28.116576" lon="-17.255129">
        <ele>1323.637</ele>
        <time>2021-03-26T12:52:03Z</time>
      </trkpt>
      <trkpt lat="28.116071" lon="-17.254771">
        <ele>1326.149</ele>
        <time>2021-03-26T12:55:04Z</time>
      </trkpt>
      <trkpt lat="28.115798" lon="-17.254368">
        <ele>1330.513</ele>
        <time>2021-03-26T12:56:21Z</time>
      </trkpt>
      <trkpt lat="28.115610" lon="-17.254410">
        <ele>1334.108</ele>
        <time>2021-03-26T12:56:45Z</time>
      </trkpt>
      <trkpt lat="28.115584" lon="-17.254090">
        <ele>1342.759</ele>
        <time>2021-03-26T12:57:29Z</time>
      </trkpt>
      <trkpt lat="28.115388" lon="-17.254122">
        <ele>1348.321</ele>
        <time>2021-03-26T12:58:03Z</time>
      </trkpt>
      <trkpt lat="28.115326" lon="-17.253381">
        <ele>1363.370</ele>
        <time>2021-03-26T12:59:26Z</time>
      </trkpt>
      <trkpt lat="28.115238" lon="-17.253638">
        <ele>1367.231</ele>
        <time>2021-03-26T13:00:42Z</time>
      </trkpt>
      <trkpt lat="28.115106" lon="-17.253690">
        <ele>1370.347</ele>
        <time>2021-03-26T13:00:56Z</time>
      </trkpt>
      <trkpt lat="28.115041" lon="-17.253320">
        <ele>1376.746</ele>
        <time>2021-03-26T13:01:31Z</time>
      </trkpt>
      <trkpt lat="28.114966" lon="-17.253374">
        <ele>1380.045</ele>
        <time>2021-03-26T13:01:46Z</time>
      </trkpt>
      <trkpt lat="28.114638" lon="-17.253205">
        <ele>1385.432</ele>
        <time>2021-03-26T13:02:25Z</time>
      </trkpt>
      <trkpt lat="28.114380" lon="-17.253216">
        <ele>1384.777</ele>
        <time>2021-03-26T13:02:47Z</time>
      </trkpt>
      <trkpt lat="28.114141" lon="-17.253072">
        <ele>1385.961</ele>
        <time>2021-03-26T13:03:48Z</time>
      </trkpt>
      <trkpt lat="28.114182" lon="-17.252785">
        <ele>1384.127</ele>
        <time>2021-03-26T13:04:13Z</time>
      </trkpt>
      <trkpt lat="28.114012" lon="-17.252213">
        <ele>1382.908</ele>
        <time>2021-03-26T13:05:07Z</time>
      </trkpt>
      <trkpt lat="28.113665" lon="-17.251484">
        <ele>1388.323</ele>
        <time>2021-03-26T13:06:05Z</time>
      </trkpt>
      <trkpt lat="28.113440" lon="-17.251255">
        <ele>1391.535</ele>
        <time>2021-03-26T13:06:28Z</time>
      </trkpt>
      <trkpt lat="28.113358" lon="-17.250899">
        <ele>1389.274</ele>
        <time>2021-03-26T13:07:06Z</time>
      </trkpt>
      <trkpt lat="28.113134" lon="-17.250828">
        <ele>1387.435</ele>
        <time>2021-03-26T13:07:30Z</time>
      </trkpt>
      <trkpt lat="28.112543" lon="-17.251180">
        <ele>1378.781</ele>
        <time>2021-03-26T13:08:32Z</time>
      </trkpt>
      <trkpt lat="28.112451" lon="-17.251050">
        <ele>1376.840</ele>
        <time>2021-03-26T13:09:01Z</time>
      </trkpt>
      <trkpt lat="28.112466" lon="-17.250779">
        <ele>1374.969</ele>
        <time>2021-03-26T13:09:19Z</time>
      </trkpt>
      <trkpt lat="28.112299" lon="-17.250560">
        <ele>1375.356</ele>
        <time>2021-03-26T13:09:46Z</time>
      </trkpt>
      <trkpt lat="28.112362" lon="-17.249970">
        <ele>1379.471</ele>
        <time>2021-03-26T13:10:57Z</time>
      </trkpt>
      <trkpt lat="28.112309" lon="-17.249457">
        <ele>1385.041</ele>
        <time>2021-03-26T13:11:32Z</time>
      </trkpt>
      <trkpt lat="28.112135" lon="-17.249035">
        <ele>1389.815</ele>
        <time>2021-03-26T13:12:03Z</time>
      </trkpt>
      <trkpt lat="28.111671" lon="-17.248515">
        <ele>1401.208</ele>
        <time>2021-03-26T13:13:04Z</time>
      </trkpt>
      <trkpt lat="28.111562" lon="-17.248187">
        <ele>1409.853</ele>
        <time>2021-03-26T13:13:51Z</time>
      </trkpt>
      <trkpt lat="28.111343" lon="-17.247896">
        <ele>1417.755</ele>
        <time>2021-03-26T13:14:29Z</time>
      </trkpt>
      <trkpt lat="28.111514" lon="-17.247501">
        <ele>1426.764</ele>
        <time>2021-03-26T13:15:30Z</time>
      </trkpt>
      <trkpt lat="28.111291" lon="-17.246958">
        <ele>1431.845</ele>
        <time>2021-03-26T13:16:18Z</time>
      </trkpt>
      <trkpt lat="28.111189" lon="-17.246171">
        <ele>1432.321</ele>
        <time>2021-03-26T13:17:10Z</time>
      </trkpt>
      <trkpt lat="28.111272" lon="-17.245975">
        <ele>1432.810</ele>
        <time>2021-03-26T13:17:26Z</time>
      </trkpt>
      <trkpt lat="28.111141" lon="-17.246022">
        <ele>1435.169</ele>
        <time>2021-03-26T13:17:45Z</time>
      </trkpt>
      <trkpt lat="28.111066" lon="-17.246165">
        <ele>1438.196</ele>
        <time>2021-03-26T13:18:14Z</time>
      </trkpt>
      <trkpt lat="28.111092" lon="-17.246628">
        <ele>1442.853</ele>
        <time>2021-03-26T13:19:25Z</time>
      </trkpt>
      <trkpt lat="28.110984" lon="-17.247022">
        <ele>1447.804</ele>
        <time>2021-03-26T13:19:54Z</time>
      </trkpt>
      <trkpt lat="28.110535" lon="-17.247436">
        <ele>1453.914</ele>
        <time>2021-03-26T13:21:12Z</time>
      </trkpt>
      <trkpt lat="28.110405" lon="-17.248174">
        <ele>1460.208</ele>
        <time>2021-03-26T13:22:16Z</time>
      </trkpt>
      <trkpt lat="28.110187" lon="-17.248629">
        <ele>1464.761</ele>
        <time>2021-03-26T13:22:53Z</time>
      </trkpt>
      <trkpt lat="28.109873" lon="-17.248801">
        <ele>1468.993</ele>
        <time>2021-03-26T13:23:21Z</time>
      </trkpt>
      <trkpt lat="28.109334" lon="-17.248619">
        <ele>1478.532</ele>
        <time>2021-03-26T13:24:21Z</time>
      </trkpt>
      <trkpt lat="28.109271" lon="-17.248521">
        <ele>1478.853</ele>
        <time>2021-03-26T13:24:31Z</time>
      </trkpt>
      <trkpt lat="28.109327" lon="-17.248316">
        <ele>1480.289</ele>
        <time>2021-03-26T13:24:46Z</time>
      </trkpt>
      <trkpt lat="28.109685" lon="-17.248454">
        <ele>1485.558</ele>
        <time>2021-03-26T13:25:20Z</time>
      </trkpt>
      <trkpt lat="28.109758" lon="-17.248263">
        <ele>1488.377</ele>
        <time>2021-03-26T13:29:36Z</time>
      </trkpt>
      <trkpt lat="28.109849" lon="-17.248301">
        <ele>1487.414</ele>
        <time>2021-03-26T13:30:42Z</time>
      </trkpt>
      <trkpt lat="28.110207" lon="-17.247326">
        <ele>1469.198</ele>
        <time>2021-03-26T13:32:30Z</time>
      </trkpt>
      <trkpt lat="28.110605" lon="-17.246786">
        <ele>1468.915</ele>
        <time>2021-03-26T13:33:16Z</time>
      </trkpt>
      <trkpt lat="28.110759" lon="-17.246344">
        <ele>1454.526</ele>
        <time>2021-03-26T13:34:22Z</time>
      </trkpt>
      <trkpt lat="28.110718" lon="-17.246149">
        <ele>1448.308</ele>
        <time>2021-03-26T13:34:47Z</time>
      </trkpt>
      <trkpt lat="28.110827" lon="-17.245670">
        <ele>1453.985</ele>
        <time>2021-03-26T13:36:04Z</time>
      </trkpt>
      <trkpt lat="28.110969" lon="-17.245526">
        <ele>1458.727</ele>
        <time>2021-03-26T13:36:26Z</time>
      </trkpt>
      <trkpt lat="28.111150" lon="-17.244856">
        <ele>1460.626</ele>
        <time>2021-03-26T13:37:15Z</time>
      </trkpt>
      <trkpt lat="28.111096" lon="-17.244632">
        <ele>1463.117</ele>
        <time>2021-03-26T13:37:37Z</time>
      </trkpt>
      <trkpt lat="28.111360" lon="-17.244237">
        <ele>1460.693</ele>
        <time>2021-03-26T13:39:01Z</time>
      </trkpt>
      <trkpt lat="28.111514" lon="-17.243553">
        <ele>1453.592</ele>
        <time>2021-03-26T13:40:12Z</time>
      </trkpt>
      <trkpt lat="28.111609" lon="-17.243740">
        <ele>1450.261</ele>
        <time>2021-03-26T13:40:39Z</time>
      </trkpt>
      <trkpt lat="28.112000" lon="-17.243505">
        <ele>1441.458</ele>
        <time>2021-03-26T13:41:26Z</time>
      </trkpt>
      <trkpt lat="28.112243" lon="-17.243538">
        <ele>1435.022</ele>
        <time>2021-03-26T13:41:55Z</time>
      </trkpt>
      <trkpt lat="28.112231" lon="-17.243706">
        <ele>1431.762</ele>
        <time>2021-03-26T13:42:12Z</time>
      </trkpt>
      <trkpt lat="28.113651" lon="-17.243700">
        <ele>1402.408</ele>
        <time>2021-03-26T13:44:51Z</time>
      </trkpt>
      <trkpt lat="28.113747" lon="-17.243734">
        <ele>1402.008</ele>
        <time>2021-03-26T13:45:00Z</time>
      </trkpt>
      <trkpt lat="28.113759" lon="-17.243856">
        <ele>1400.828</ele>
        <time>2021-03-26T13:45:14Z</time>
      </trkpt>
      <trkpt lat="28.114172" lon="-17.244075">
        <ele>1391.540</ele>
        <time>2021-03-26T13:45:52Z</time>
      </trkpt>
      <trkpt lat="28.114669" lon="-17.243798">
        <ele>1386.489</ele>
        <time>2021-03-26T13:46:42Z</time>
      </trkpt>
      <trkpt lat="28.115280" lon="-17.243722">
        <ele>1379.010</ele>
        <time>2021-03-26T13:47:26Z</time>
      </trkpt>
      <trkpt lat="28.115408" lon="-17.243795">
        <ele>1377.996</ele>
        <time>2021-03-26T13:47:36Z</time>
      </trkpt>
      <trkpt lat="28.115702" lon="-17.244252">
        <ele>1374.015</ele>
        <time>2021-03-26T13:48:11Z</time>
      </trkpt>
      <trkpt lat="28.115865" lon="-17.244391">
        <ele>1372.444</ele>
        <time>2021-03-26T13:48:40Z</time>
      </trkpt>
      <trkpt lat="28.115943" lon="-17.244334">
        <ele>1370.491</ele>
        <time>2021-03-26T13:49:09Z</time>
      </trkpt>
      <trkpt lat="28.116300" lon="-17.245125">
        <ele>1349.774</ele>
        <time>2021-03-26T13:50:31Z</time>
      </trkpt>
      <trkpt lat="28.116519" lon="-17.245328">
        <ele>1346.456</ele>
        <time>2021-03-26T13:50:59Z</time>
      </trkpt>
      <trkpt lat="28.116795" lon="-17.246151">
        <ele>1337.021</ele>
        <time>2021-03-26T13:52:39Z</time>
      </trkpt>
      <trkpt lat="28.117656" lon="-17.246877">
        <ele>1325.408</ele>
        <time>2021-03-26T13:54:02Z</time>
      </trkpt>
      <trkpt lat="28.117668" lon="-17.246985">
        <ele>1323.253</ele>
        <time>2021-03-26T13:54:09Z</time>
      </trkpt>
      <trkpt lat="28.117522" lon="-17.247037">
        <ele>1321.535</ele>
        <time>2021-03-26T13:54:21Z</time>
      </trkpt>
      <trkpt lat="28.117495" lon="-17.247130">
        <ele>1320.734</ele>
        <time>2021-03-26T13:54:37Z</time>
      </trkpt>
      <trkpt lat="28.117954" lon="-17.247058">
        <ele>1315.895</ele>
        <time>2021-03-26T13:55:20Z</time>
      </trkpt>
      <trkpt lat="28.118185" lon="-17.247167">
        <ele>1314.031</ele>
        <time>2021-03-26T13:55:40Z</time>
      </trkpt>
      <trkpt lat="28.118556" lon="-17.247744">
        <ele>1306.770</ele>
        <time>2021-03-26T13:56:25Z</time>
      </trkpt>
      <trkpt lat="28.118868" lon="-17.247908">
        <ele>1305.049</ele>
        <time>2021-03-26T13:56:52Z</time>
      </trkpt>
      <trkpt lat="28.118970" lon="-17.248125">
        <ele>1305.756</ele>
        <time>2021-03-26T13:57:05Z</time>
      </trkpt>
      <trkpt lat="28.119414" lon="-17.248446">
        <ele>1296.848</ele>
        <time>2021-03-26T13:57:53Z</time>
      </trkpt>
      <trkpt lat="28.119663" lon="-17.248919">
        <ele>1296.161</ele>
        <time>2021-03-26T13:58:28Z</time>
      </trkpt>
      <trkpt lat="28.119907" lon="-17.249012">
        <ele>1293.317</ele>
        <time>2021-03-26T13:58:51Z</time>
      </trkpt>
      <trkpt lat="28.120242" lon="-17.249328">
        <ele>1292.708</ele>
        <time>2021-03-26T13:59:21Z</time>
      </trkpt>
      <trkpt lat="28.120226" lon="-17.249795">
        <ele>1293.490</ele>
        <time>2021-03-26T13:59:55Z</time>
      </trkpt>
      <trkpt lat="28.120429" lon="-17.250382">
        <ele>1287.352</ele>
        <time>2021-03-26T14:00:49Z</time>
      </trkpt>
      <trkpt lat="28.120262" lon="-17.250855">
        <ele>1280.031</ele>
        <time>2021-03-26T14:01:31Z</time>
      </trkpt>
      <trkpt lat="28.120445" lon="-17.250826">
        <ele>1275.792</ele>
        <time>2021-03-26T14:01:55Z</time>
      </trkpt>
      <trkpt lat="28.120475" lon="-17.250888">
        <ele>1274.218</ele>
        <time>2021-03-26T14:02:01Z</time>
      </trkpt>
      <trkpt lat="28.120368" lon="-17.251741">
        <ele>1252.457</ele>
        <time>2021-03-26T14:03:31Z</time>
      </trkpt>
      <trkpt lat="28.120590" lon="-17.252194">
        <ele>1253.886</ele>
        <time>2021-03-26T14:04:26Z</time>
      </trkpt>
      <trkpt lat="28.120745" lon="-17.253078">
        <ele>1258.283</ele>
        <time>2021-03-26T14:05:34Z</time>
      </trkpt>
      <trkpt lat="28.121070" lon="-17.253942">
        <ele>1261.796</ele>
        <time>2021-03-26T14:07:42Z</time>
      </trkpt>
      <trkpt lat="28.121256" lon="-17.254050">
        <ele>1261.431</ele>
        <time>2021-03-26T14:08:25Z</time>
      </trkpt>
      <trkpt lat="28.121448" lon="-17.253992">
        <ele>1263.024</ele>
        <time>2021-03-26T14:08:40Z</time>
      </trkpt>
      <trkpt lat="28.121725" lon="-17.252859">
        <ele>1261.608</ele>
        <time>2021-03-26T14:09:55Z</time>
      </trkpt>
      <trkpt lat="28.122246" lon="-17.252303">
        <ele>1259.245</ele>
        <time>2021-03-26T14:11:01Z</time>
      </trkpt>
      <trkpt lat="28.122343" lon="-17.252332">
        <ele>1258.987</ele>
        <time>2021-03-26T14:11:10Z</time>
      </trkpt>
      <trkpt lat="28.122444" lon="-17.252783">
        <ele>1259.916</ele>
        <time>2021-03-26T14:11:40Z</time>
      </trkpt>
      <trkpt lat="28.122704" lon="-17.253155">
        <ele>1260.097</ele>
        <time>2021-03-26T14:12:09Z</time>
      </trkpt>
      <trkpt lat="28.122832" lon="-17.253248">
        <ele>1261.683</ele>
        <time>2021-03-26T14:12:21Z</time>
      </trkpt>
      <trkpt lat="28.122977" lon="-17.253192">
        <ele>1262.392</ele>
        <time>2021-03-26T14:12:32Z</time>
      </trkpt>
      <trkpt lat="28.123282" lon="-17.252777">
        <ele>1261.781</ele>
        <time>2021-03-26T14:13:08Z</time>
      </trkpt>
      <trkpt lat="28.123328" lon="-17.252316">
        <ele>1262.298</ele>
        <time>2021-03-26T14:13:41Z</time>
      </trkpt>
      <trkpt lat="28.123555" lon="-17.251920">
        <ele>1261.686</ele>
        <time>2021-03-26T14:14:29Z</time>
      </trkpt>
      <trkpt lat="28.123802" lon="-17.252077">
        <ele>1262.460</ele>
        <time>2021-03-26T14:14:53Z</time>
      </trkpt>
      <trkpt lat="28.124093" lon="-17.252536">
        <ele>1263.926</ele>
        <time>2021-03-26T14:15:27Z</time>
      </trkpt>
      <trkpt lat="28.124128" lon="-17.252742">
        <ele>1265.108</ele>
        <time>2021-03-26T14:16:12Z</time>
      </trkpt>
      <trkpt lat="28.124257" lon="-17.252753">
        <ele>1265.064</ele>
        <time>2021-03-26T14:17:20Z</time>
      </trkpt>
      <trkpt lat="28.124351" lon="-17.252898">
        <ele>1262.896</ele>
        <time>2021-03-26T14:17:35Z</time>
      </trkpt>
      <trkpt lat="28.124505" lon="-17.253456">
        <ele>1263.595</ele>
        <time>2021-03-26T14:18:18Z</time>
      </trkpt>
      <trkpt lat="28.124649" lon="-17.253485">
        <ele>1263.066</ele>
        <time>2021-03-26T14:18:31Z</time>
      </trkpt>
      <trkpt lat="28.125246" lon="-17.253277">
        <ele>1262.942</ele>
        <time>2021-03-26T14:19:22Z</time>
      </trkpt>
      <trkpt lat="28.125553" lon="-17.253289">
        <ele>1263.161</ele>
        <time>2021-03-26T14:19:45Z</time>
      </trkpt>
      <trkpt lat="28.125737" lon="-17.253406">
        <ele>1263.560</ele>
        <time>2021-03-26T14:20:00Z</time>
      </trkpt>
      <trkpt lat="28.125818" lon="-17.253688">
        <ele>1266.967</ele>
        <time>2021-03-26T14:20:19Z</time>
      </trkpt>
      <trkpt lat="28.125429" lon="-17.254765">
        <ele>1274.219</ele>
        <time>2021-03-26T14:21:38Z</time>
      </trkpt>
      <trkpt lat="28.125247" lon="-17.255096">
        <ele>1277.309</ele>
        <time>2021-03-26T14:22:07Z</time>
      </trkpt>
      <trkpt lat="28.125189" lon="-17.255067">
        <ele>1277.719</ele>
        <time>2021-03-26T14:22:36Z</time>
      </trkpt>
      <trkpt lat="28.125209" lon="-17.255421">
        <ele>1277.608</ele>
        <time>2021-03-26T14:23:14Z</time>
      </trkpt>
      <trkpt lat="28.124981" lon="-17.255732">
        <ele>1277.467</ele>
        <time>2021-03-26T14:23:40Z</time>
      </trkpt>
      <trkpt lat="28.125113" lon="-17.256057">
        <ele>1274.349</ele>
        <time>2021-03-26T14:24:06Z</time>
      </trkpt>
      <trkpt lat="28.125256" lon="-17.256114">
        <ele>1272.838</ele>
        <time>2021-03-26T14:24:35Z</time>
      </trkpt>
      <trkpt lat="28.125194" lon="-17.256263">
        <ele>1271.449</ele>
        <time>2021-03-26T14:24:46Z</time>
      </trkpt>
      <trkpt lat="28.125232" lon="-17.256622">
        <ele>1269.415</ele>
        <time>2021-03-26T14:25:23Z</time>
      </trkpt>
      <trkpt lat="28.125309" lon="-17.256705">
        <ele>1266.994</ele>
        <time>2021-03-26T14:25:42Z</time>
      </trkpt>
      <trkpt lat="28.126212" lon="-17.256917">
        <ele>1254.233</ele>
        <time>2021-03-26T14:27:07Z</time>
      </trkpt>
      <trkpt lat="28.126300" lon="-17.257417">
        <ele>1253.790</ele>
        <time>2021-03-26T14:28:36Z</time>
      </trkpt>
    </trkseg>
  </trk></gpx>