<?xml version="1.0" encoding="UTF-8"?>
<gpx version="1.1" creator="Aventuras en Cada Paso" xmlns="http://www.topografix.com/GPX/1/1">
  <metadata>
    <name>Las Hayas – Vallehermoso (GR 131)</name>
    <desc>Tramo del GR 131 por el norte de La Gomera con bajada por escaleras naturales talladas en la roca. Vistas a la Presa de la Encantadora y al océano.</desc>
    <author><name>Aventuras en Cada Paso</name></author>
    <time>2026-07-08T08:12:58.201Z</time>
    <keywords>La Gomera, Senderismo, Media, senderismo Canarias</keywords>
  </metadata>
  <wpt lat="28.1303" lon="-17.2761">
    <name>Las Hayas – Vallehermoso (GR 131)</name>
    <desc>Tramo del GR 131 por el norte de La Gomera con bajada por escaleras naturales talladas en la roca. Vistas a la Presa de la Encantadora y al océano. | Isla: La Gomera | Tipo: Senderismo | Dificultad: Media | Distancia: 13km | Duración: 4-8 horas</desc>
    <type>Senderismo</type>
    <extensions>
      <isla>La Gomera</isla>
      <dificultad>Media</dificultad>
      <distancia>13</distancia>
      <duracion>4-8 horas</duracion>
    </extensions>
  </wpt>
</gpx>