<?xml version="1.0" encoding="UTF-8"?>
<gpx creator="Wikiloc - https://www.wikiloc.com" version="1.1" xmlns="http://www.topografix.com/GPX/1/1" xmlns:xsi="http://www.w3.org/2001/XMLSchema-instance" xsi:schemaLocation="http://www.topografix.com/GPX/1/1 http://www.topografix.com/GPX/1/1/gpx.xsd">
  <metadata>
    <name>Wikiloc - Isla del Hierro: La Llanía - Ruta naranja</name>
    <link href="https://www.wikiloc.com/walking-trails/isla-del-hierro-la-llania-ruta-naranja-105864985">
      <text>Isla del Hierro: La Llanía - Ruta naranja - Wikiloc on Wikiloc</text>
    </link>
    <time>2022-06-19T13:36:53Z</time>
  </metadata>
  <trk>
    <name>Isla del Hierro: La Llanía - Ruta naranja - Wikiloc</name>
    <cmt></cmt>
    <desc></desc>
    <trkseg>
      <trkpt lat="27.736208" lon="-17.996793">
        <ele>1343.187</ele>
        <time>2022-06-19T11:26:51Z</time>
      </trkpt>
      <trkpt lat="27.736034" lon="-17.997125">
        <ele>1342.342</ele>
        <time>2022-06-19T11:27:56Z</time>
      </trkpt>
      <trkpt lat="27.735592" lon="-17.996777">
        <ele>1339.526</ele>
        <time>2022-06-19T11:30:34Z</time>
      </trkpt>
      <trkpt lat="27.735383" lon="-17.996944">
        <ele>1339.209</ele>
        <time>2022-06-19T11:31:33Z</time>
      </trkpt>
      <trkpt lat="27.735187" lon="-17.996975">
        <ele>1343.039</ele>
        <time>2022-06-19T11:32:09Z</time>
      </trkpt>
      <trkpt lat="27.734629" lon="-17.997547">
        <ele>1339.118</ele>
        <time>2022-06-19T11:33:51Z</time>
      </trkpt>
      <trkpt lat="27.734522" lon="-17.998278">
        <ele>1340.123</ele>
        <time>2022-06-19T11:35:49Z</time>
      </trkpt>
      <trkpt lat="27.734362" lon="-17.998693">
        <ele>1342.536</ele>
        <time>2022-06-19T11:36:28Z</time>
      </trkpt>
      <trkpt lat="27.734180" lon="-17.999595">
        <ele>1346.374</ele>
        <time>2022-06-19T11:38:19Z</time>
      </trkpt>
      <trkpt lat="27.734095" lon="-18.000219">
        <ele>1347.932</ele>
        <time>2022-06-19T11:39:09Z</time>
      </trkpt>
      <trkpt lat="27.734125" lon="-18.000664">
        <ele>1348.017</ele>
        <time>2022-06-19T11:40:01Z</time>
      </trkpt>
      <trkpt lat="27.734040" lon="-18.000870">
        <ele>1348.486</ele>
        <time>2022-06-19T11:40:24Z</time>
      </trkpt>
      <trkpt lat="27.733978" lon="-18.000799">
        <ele>1348.573</ele>
        <time>2022-06-19T11:41:12Z</time>
      </trkpt>
      <trkpt lat="27.733958" lon="-18.000876">
        <ele>1348.528</ele>
        <time>2022-06-19T11:42:18Z</time>
      </trkpt>
      <trkpt lat="27.733981" lon="-18.000816">
        <ele>1348.389</ele>
        <time>2022-06-19T11:42:42Z</time>
      </trkpt>
      <trkpt lat="27.733825" lon="-18.000665">
        <ele>1348.417</ele>
        <time>2022-06-19T11:42:59Z</time>
      </trkpt>
      <trkpt lat="27.733922" lon="-18.000058">
        <ele>1345.609</ele>
        <time>2022-06-19T11:44:27Z</time>
      </trkpt>
      <trkpt lat="27.733900" lon="-17.999730">
        <ele>1344.353</ele>
        <time>2022-06-19T11:44:57Z</time>
      </trkpt>
      <trkpt lat="27.734068" lon="-17.999323">
        <ele>1342.932</ele>
        <time>2022-06-19T11:45:35Z</time>
      </trkpt>
      <trkpt lat="27.734125" lon="-17.998880">
        <ele>1341.857</ele>
        <time>2022-06-19T11:46:10Z</time>
      </trkpt>
      <trkpt lat="27.734061" lon="-17.998272">
        <ele>1340.080</ele>
        <time>2022-06-19T11:47:04Z</time>
      </trkpt>
      <trkpt lat="27.734126" lon="-17.997925">
        <ele>1337.618</ele>
        <time>2022-06-19T11:47:31Z</time>
      </trkpt>
      <trkpt lat="27.734028" lon="-17.997604">
        <ele>1336.736</ele>
        <time>2022-06-19T11:47:58Z</time>
      </trkpt>
      <trkpt lat="27.733789" lon="-17.997546">
        <ele>1336.971</ele>
        <time>2022-06-19T11:48:32Z</time>
      </trkpt>
      <trkpt lat="27.733568" lon="-17.997686">
        <ele>1338.330</ele>
        <time>2022-06-19T11:49:24Z</time>
      </trkpt>
      <trkpt lat="27.733616" lon="-17.997739">
        <ele>1338.497</ele>
        <time>2022-06-19T11:50:35Z</time>
      </trkpt>
      <trkpt lat="27.733635" lon="-17.998468">
        <ele>1342.848</ele>
        <time>2022-06-19T11:51:55Z</time>
      </trkpt>
      <trkpt lat="27.733747" lon="-17.998777">
        <ele>1344.461</ele>
        <time>2022-06-19T11:52:27Z</time>
      </trkpt>
      <trkpt lat="27.733736" lon="-17.999137">
        <ele>1346.117</ele>
        <time>2022-06-19T11:52:53Z</time>
      </trkpt>
      <trkpt lat="27.733572" lon="-17.999554">
        <ele>1347.709</ele>
        <time>2022-06-19T11:53:28Z</time>
      </trkpt>
      <trkpt lat="27.733264" lon="-17.999992">
        <ele>1349.885</ele>
        <time>2022-06-19T11:54:11Z</time>
      </trkpt>
      <trkpt lat="27.733179" lon="-18.000258">
        <ele>1349.714</ele>
        <time>2022-06-19T11:54:36Z</time>
      </trkpt>
      <trkpt lat="27.732764" lon="-18.000036">
        <ele>1346.559</ele>
        <time>2022-06-19T11:56:00Z</time>
      </trkpt>
      <trkpt lat="27.732664" lon="-17.999675">
        <ele>1343.312</ele>
        <time>2022-06-19T11:56:26Z</time>
      </trkpt>
      <trkpt lat="27.732399" lon="-17.999363">
        <ele>1338.970</ele>
        <time>2022-06-19T11:56:58Z</time>
      </trkpt>
      <trkpt lat="27.732287" lon="-17.998980">
        <ele>1334.848</ele>
        <time>2022-06-19T11:57:43Z</time>
      </trkpt>
      <trkpt lat="27.732181" lon="-17.998895">
        <ele>1333.633</ele>
        <time>2022-06-19T11:58:04Z</time>
      </trkpt>
      <trkpt lat="27.732006" lon="-17.998765">
        <ele>1329.872</ele>
        <time>2022-06-19T11:58:23Z</time>
      </trkpt>
      <trkpt lat="27.731728" lon="-17.998706">
        <ele>1325.639</ele>
        <time>2022-06-19T11:59:09Z</time>
      </trkpt>
      <trkpt lat="27.731200" lon="-17.998361">
        <ele>1313.241</ele>
        <time>2022-06-19T12:00:16Z</time>
      </trkpt>
      <trkpt lat="27.730740" lon="-17.998308">
        <ele>1305.781</ele>
        <time>2022-06-19T12:00:54Z</time>
      </trkpt>
      <trkpt lat="27.730605" lon="-17.998124">
        <ele>1302.209</ele>
        <time>2022-06-19T12:01:16Z</time>
      </trkpt>
      <trkpt lat="27.730409" lon="-17.998066">
        <ele>1300.309</ele>
        <time>2022-06-19T12:01:34Z</time>
      </trkpt>
      <trkpt lat="27.730442" lon="-17.997788">
        <ele>1297.745</ele>
        <time>2022-06-19T12:01:56Z</time>
      </trkpt>
      <trkpt lat="27.730019" lon="-17.997454">
        <ele>1296.124</ele>
        <time>2022-06-19T12:03:16Z</time>
      </trkpt>
      <trkpt lat="27.729929" lon="-17.997259">
        <ele>1298.579</ele>
        <time>2022-06-19T12:03:32Z</time>
      </trkpt>
      <trkpt lat="27.729787" lon="-17.997176">
        <ele>1299.292</ele>
        <time>2022-06-19T12:03:48Z</time>
      </trkpt>
      <trkpt lat="27.729708" lon="-17.996522">
        <ele>1291.430</ele>
        <time>2022-06-19T12:04:43Z</time>
      </trkpt>
      <trkpt lat="27.729522" lon="-17.996181">
        <ele>1283.298</ele>
        <time>2022-06-19T12:05:20Z</time>
      </trkpt>
      <trkpt lat="27.729951" lon="-17.995769">
        <ele>1277.183</ele>
        <time>2022-06-19T12:06:15Z</time>
      </trkpt>
      <trkpt lat="27.730081" lon="-17.995440">
        <ele>1275.232</ele>
        <time>2022-06-19T12:06:46Z</time>
      </trkpt>
      <trkpt lat="27.730329" lon="-17.995474">
        <ele>1270.589</ele>
        <time>2022-06-19T12:07:52Z</time>
      </trkpt>
      <trkpt lat="27.730381" lon="-17.995372">
        <ele>1269.995</ele>
        <time>2022-06-19T12:08:12Z</time>
      </trkpt>
      <trkpt lat="27.730569" lon="-17.995628">
        <ele>1269.849</ele>
        <time>2022-06-19T12:08:54Z</time>
      </trkpt>
      <trkpt lat="27.731048" lon="-17.995954">
        <ele>1273.423</ele>
        <time>2022-06-19T12:09:54Z</time>
      </trkpt>
      <trkpt lat="27.731537" lon="-17.995857">
        <ele>1280.709</ele>
        <time>2022-06-19T12:11:33Z</time>
      </trkpt>
      <trkpt lat="27.731564" lon="-17.995812">
        <ele>1281.580</ele>
        <time>2022-06-19T12:11:55Z</time>
      </trkpt>
      <trkpt lat="27.731231" lon="-17.995543">
        <ele>1286.639</ele>
        <time>2022-06-19T12:12:32Z</time>
      </trkpt>
      <trkpt lat="27.731232" lon="-17.995256">
        <ele>1284.344</ele>
        <time>2022-06-19T12:12:59Z</time>
      </trkpt>
      <trkpt lat="27.731346" lon="-17.994942">
        <ele>1284.897</ele>
        <time>2022-06-19T12:13:54Z</time>
      </trkpt>
      <trkpt lat="27.731749" lon="-17.994514">
        <ele>1286.335</ele>
        <time>2022-06-19T12:14:47Z</time>
      </trkpt>
      <trkpt lat="27.732179" lon="-17.994473">
        <ele>1288.443</ele>
        <time>2022-06-19T12:15:26Z</time>
      </trkpt>
      <trkpt lat="27.732328" lon="-17.994299">
        <ele>1288.948</ele>
        <time>2022-06-19T12:15:44Z</time>
      </trkpt>
      <trkpt lat="27.732610" lon="-17.994201">
        <ele>1290.877</ele>
        <time>2022-06-19T12:17:16Z</time>
      </trkpt>
      <trkpt lat="27.732526" lon="-17.994165">
        <ele>1292.144</ele>
        <time>2022-06-19T12:17:27Z</time>
      </trkpt>
      <trkpt lat="27.732646" lon="-17.994132">
        <ele>1292.213</ele>
        <time>2022-06-19T12:17:57Z</time>
      </trkpt>
      <trkpt lat="27.732693" lon="-17.994028">
        <ele>1292.243</ele>
        <time>2022-06-19T12:18:06Z</time>
      </trkpt>
      <trkpt lat="27.732877" lon="-17.994022">
        <ele>1291.407</ele>
        <time>2022-06-19T12:18:29Z</time>
      </trkpt>
      <trkpt lat="27.733071" lon="-17.993845">
        <ele>1291.109</ele>
        <time>2022-06-19T12:18:56Z</time>
      </trkpt>
      <trkpt lat="27.733322" lon="-17.993894">
        <ele>1298.042</ele>
        <time>2022-06-19T12:19:31Z</time>
      </trkpt>
      <trkpt lat="27.733727" lon="-17.993863">
        <ele>1303.341</ele>
        <time>2022-06-19T12:20:13Z</time>
      </trkpt>
      <trkpt lat="27.734069" lon="-17.993974">
        <ele>1307.486</ele>
        <time>2022-06-19T12:20:51Z</time>
      </trkpt>
      <trkpt lat="27.734454" lon="-17.993974">
        <ele>1312.919</ele>
        <time>2022-06-19T12:21:28Z</time>
      </trkpt>
      <trkpt lat="27.734924" lon="-17.993545">
        <ele>1316.417</ele>
        <time>2022-06-19T12:22:22Z</time>
      </trkpt>
      <trkpt lat="27.735040" lon="-17.993211">
        <ele>1316.125</ele>
        <time>2022-06-19T12:23:13Z</time>
      </trkpt>
      <trkpt lat="27.734980" lon="-17.992888">
        <ele>1313.710</ele>
        <time>2022-06-19T12:23:43Z</time>
      </trkpt>
      <trkpt lat="27.735079" lon="-17.992631">
        <ele>1311.119</ele>
        <time>2022-06-19T12:24:06Z</time>
      </trkpt>
      <trkpt lat="27.735434" lon="-17.992175">
        <ele>1309.936</ele>
        <time>2022-06-19T12:24:52Z</time>
      </trkpt>
      <trkpt lat="27.735658" lon="-17.992065">
        <ele>1310.557</ele>
        <time>2022-06-19T12:25:14Z</time>
      </trkpt>
      <trkpt lat="27.736099" lon="-17.991669">
        <ele>1310.100</ele>
        <time>2022-06-19T12:26:46Z</time>
      </trkpt>
      <trkpt lat="27.736110" lon="-17.991315">
        <ele>1309.320</ele>
        <time>2022-06-19T12:28:31Z</time>
      </trkpt>
      <trkpt lat="27.736360" lon="-17.990888">
        <ele>1308.709</ele>
        <time>2022-06-19T12:29:02Z</time>
      </trkpt>
      <trkpt lat="27.736419" lon="-17.990560">
        <ele>1306.966</ele>
        <time>2022-06-19T12:29:25Z</time>
      </trkpt>
      <trkpt lat="27.736577" lon="-17.990338">
        <ele>1305.825</ele>
        <time>2022-06-19T12:29:47Z</time>
      </trkpt>
      <trkpt lat="27.736426" lon="-17.989919">
        <ele>1302.710</ele>
        <time>2022-06-19T12:30:21Z</time>
      </trkpt>
      <trkpt lat="27.736411" lon="-17.989682">
        <ele>1302.743</ele>
        <time>2022-06-19T12:30:41Z</time>
      </trkpt>
      <trkpt lat="27.736251" lon="-17.989346">
        <ele>1303.051</ele>
        <time>2022-06-19T12:31:12Z</time>
      </trkpt>
      <trkpt lat="27.735878" lon="-17.989237">
        <ele>1299.939</ele>
        <time>2022-06-19T12:31:52Z</time>
      </trkpt>
      <trkpt lat="27.735742" lon="-17.988711">
        <ele>1297.214</ele>
        <time>2022-06-19T12:32:50Z</time>
      </trkpt>
      <trkpt lat="27.736112" lon="-17.987337">
        <ele>1276.383</ele>
        <time>2022-06-19T12:35:50Z</time>
      </trkpt>
      <trkpt lat="27.736077" lon="-17.987089">
        <ele>1273.080</ele>
        <time>2022-06-19T12:36:06Z</time>
      </trkpt>
      <trkpt lat="27.736122" lon="-17.986925">
        <ele>1271.431</ele>
        <time>2022-06-19T12:36:27Z</time>
      </trkpt>
      <trkpt lat="27.736016" lon="-17.986542">
        <ele>1267.361</ele>
        <time>2022-06-19T12:37:02Z</time>
      </trkpt>
      <trkpt lat="27.736092" lon="-17.986476">
        <ele>1265.607</ele>
        <time>2022-06-19T12:37:23Z</time>
      </trkpt>
      <trkpt lat="27.736629" lon="-17.987071">
        <ele>1270.909</ele>
        <time>2022-06-19T12:38:44Z</time>
      </trkpt>
      <trkpt lat="27.736630" lon="-17.987276">
        <ele>1273.834</ele>
        <time>2022-06-19T12:39:05Z</time>
      </trkpt>
      <trkpt lat="27.736943" lon="-17.987941">
        <ele>1280.733</ele>
        <time>2022-06-19T12:40:15Z</time>
      </trkpt>
      <trkpt lat="27.736958" lon="-17.988110">
        <ele>1280.698</ele>
        <time>2022-06-19T12:40:28Z</time>
      </trkpt>
      <trkpt lat="27.737174" lon="-17.988618">
        <ele>1283.341</ele>
        <time>2022-06-19T12:41:19Z</time>
      </trkpt>
      <trkpt lat="27.737371" lon="-17.988897">
        <ele>1285.629</ele>
        <time>2022-06-19T12:42:10Z</time>
      </trkpt>
      <trkpt lat="27.737398" lon="-17.989240">
        <ele>1288.167</ele>
        <time>2022-06-19T12:43:02Z</time>
      </trkpt>
      <trkpt lat="27.737239" lon="-17.988882">
        <ele>1288.942</ele>
        <time>2022-06-19T12:45:36Z</time>
      </trkpt>
      <trkpt lat="27.737110" lon="-17.988864">
        <ele>1286.911</ele>
        <time>2022-06-19T12:45:48Z</time>
      </trkpt>
      <trkpt lat="27.736846" lon="-17.989718">
        <ele>1288.868</ele>
        <time>2022-06-19T12:47:03Z</time>
      </trkpt>
      <trkpt lat="27.736917" lon="-17.990035">
        <ele>1290.997</ele>
        <time>2022-06-19T12:47:33Z</time>
      </trkpt>
      <trkpt lat="27.736882" lon="-17.991133">
        <ele>1299.223</ele>
        <time>2022-06-19T12:49:53Z</time>
      </trkpt>
      <trkpt lat="27.736933" lon="-17.991420">
        <ele>1301.225</ele>
        <time>2022-06-19T12:50:22Z</time>
      </trkpt>
      <trkpt lat="27.737077" lon="-17.991594">
        <ele>1302.809</ele>
        <time>2022-06-19T12:50:39Z</time>
      </trkpt>
      <trkpt lat="27.737094" lon="-17.991941">
        <ele>1304.680</ele>
        <time>2022-06-19T12:51:13Z</time>
      </trkpt>
      <trkpt lat="27.737498" lon="-17.992359">
        <ele>1309.639</ele>
        <time>2022-06-19T12:52:16Z</time>
      </trkpt>
      <trkpt lat="27.737919" lon="-17.992554">
        <ele>1313.434</ele>
        <time>2022-06-19T12:52:51Z</time>
      </trkpt>
      <trkpt lat="27.738149" lon="-17.991657">
        <ele>1318.147</ele>
        <time>2022-06-19T12:54:16Z</time>
      </trkpt>
      <trkpt lat="27.738308" lon="-17.991380">
        <ele>1320.765</ele>
        <time>2022-06-19T12:54:47Z</time>
      </trkpt>
      <trkpt lat="27.738654" lon="-17.990991">
        <ele>1329.223</ele>
        <time>2022-06-19T12:55:56Z</time>
      </trkpt>
      <trkpt lat="27.738928" lon="-17.990959">
        <ele>1335.188</ele>
        <time>2022-06-19T12:56:54Z</time>
      </trkpt>
      <trkpt lat="27.739104" lon="-17.991283">
        <ele>1337.057</ele>
        <time>2022-06-19T12:59:30Z</time>
      </trkpt>
      <trkpt lat="27.739128" lon="-17.991560">
        <ele>1330.734</ele>
        <time>2022-06-19T13:00:19Z</time>
      </trkpt>
      <trkpt lat="27.739059" lon="-17.991866">
        <ele>1326.059</ele>
        <time>2022-06-19T13:00:52Z</time>
      </trkpt>
      <trkpt lat="27.738956" lon="-17.991769">
        <ele>1324.603</ele>
        <time>2022-06-19T13:01:11Z</time>
      </trkpt>
      <trkpt lat="27.738864" lon="-17.991775">
        <ele>1320.723</ele>
        <time>2022-06-19T13:01:23Z</time>
      </trkpt>
      <trkpt lat="27.738642" lon="-17.992507">
        <ele>1316.809</ele>
        <time>2022-06-19T13:03:03Z</time>
      </trkpt>
      <trkpt lat="27.738524" lon="-17.992680">
        <ele>1317.516</ele>
        <time>2022-06-19T13:03:24Z</time>
      </trkpt>
      <trkpt lat="27.738329" lon="-17.992714">
        <ele>1318.315</ele>
        <time>2022-06-19T13:03:46Z</time>
      </trkpt>
      <trkpt lat="27.738220" lon="-17.992961">
        <ele>1320.130</ele>
        <time>2022-06-19T13:04:21Z</time>
      </trkpt>
      <trkpt lat="27.738520" lon="-17.993423">
        <ele>1333.473</ele>
        <time>2022-06-19T13:05:36Z</time>
      </trkpt>
      <trkpt lat="27.738721" lon="-17.994181">
        <ele>1351.231</ele>
        <time>2022-06-19T13:07:48Z</time>
      </trkpt>
      <trkpt lat="27.738447" lon="-17.995199">
        <ele>1358.649</ele>
        <time>2022-06-19T13:09:42Z</time>
      </trkpt>
      <trkpt lat="27.738446" lon="-17.995431">
        <ele>1359.434</ele>
        <time>2022-06-19T13:10:00Z</time>
      </trkpt>
      <trkpt lat="27.738303" lon="-17.995445">
        <ele>1359.773</ele>
        <time>2022-06-19T13:10:22Z</time>
      </trkpt>
      <trkpt lat="27.738138" lon="-17.995714">
        <ele>1361.730</ele>
        <time>2022-06-19T13:10:52Z</time>
      </trkpt>
      <trkpt lat="27.737995" lon="-17.996075">
        <ele>1365.429</ele>
        <time>2022-06-19T13:11:27Z</time>
      </trkpt>
      <trkpt lat="27.737996" lon="-17.996260">
        <ele>1365.300</ele>
        <time>2022-06-19T13:11:42Z</time>
      </trkpt>
      <trkpt lat="27.737819" lon="-17.996236">
        <ele>1365.220</ele>
        <time>2022-06-19T13:12:07Z</time>
      </trkpt>
      <trkpt lat="27.737672" lon="-17.996493">
        <ele>1369.809</ele>
        <time>2022-06-19T13:12:35Z</time>
      </trkpt>
      <trkpt lat="27.737661" lon="-17.996603">
        <ele>1370.683</ele>
        <time>2022-06-19T13:12:43Z</time>
      </trkpt>
      <trkpt lat="27.737850" lon="-17.996871">
        <ele>1373.142</ele>
        <time>2022-06-19T13:13:12Z</time>
      </trkpt>
      <trkpt lat="27.738171" lon="-17.997015">
        <ele>1372.757</ele>
        <time>2022-06-19T13:14:53Z</time>
      </trkpt>
      <trkpt lat="27.737430" lon="-17.996906">
        <ele>1369.290</ele>
        <time>2022-06-19T13:32:17Z</time>
      </trkpt>
      <trkpt lat="27.737233" lon="-17.996751">
        <ele>1364.318</ele>
        <time>2022-06-19T13:32:44Z</time>
      </trkpt>
      <trkpt lat="27.737128" lon="-17.996742">
        <ele>1362.696</ele>
        <time>2022-06-19T13:32:58Z</time>
      </trkpt>
      <trkpt lat="27.737032" lon="-17.996620">
        <ele>1361.591</ele>
        <time>2022-06-19T13:33:17Z</time>
      </trkpt>
      <trkpt lat="27.737199" lon="-17.996774">
        <ele>1361.030</ele>
        <time>2022-06-19T13:34:13Z</time>
      </trkpt>
      <trkpt lat="27.737189" lon="-17.996837">
        <ele>1361.667</ele>
        <time>2022-06-19T13:34:28Z</time>
      </trkpt>
      <trkpt lat="27.736684" lon="-17.997055">
        <ele>1352.591</ele>
        <time>2022-06-19T13:35:39Z</time>
      </trkpt>
      <trkpt lat="27.736477" lon="-17.997284">
        <ele>1348.881</ele>
        <time>2022-06-19T13:36:08Z</time>
      </trkpt>
      <trkpt lat="27.736342" lon="-17.997282">
        <ele>1346.919</ele>
        <time>2022-06-19T13:36:22Z</time>
      </trkpt>
      <trkpt lat="27.736164" lon="-17.996997">
        <ele>1343.209</ele>
        <time>2022-06-19T13:36:53Z</time>
      </trkpt>
    </trkseg>
  </trk></gpx>