<?xml version="1.0" encoding="UTF-8"?>
<gpx version="1.1" creator="Aventuras en Cada Paso" xmlns="http://www.topografix.com/GPX/1/1">
  <metadata>
    <name>La Llanía – Sabinar Milenario</name>
    <desc>Paseo por el sabinar más extenso del mundo con árboles de más de 1.000 años. Las sabinas retorcidas por el viento crean paisajes únicos e irrepetibles.</desc>
    <author><name>Aventuras en Cada Paso</name></author>
    <time>2026-07-08T08:12:58.206Z</time>
    <keywords>El Hierro, Senderismo, Fácil, senderismo Canarias</keywords>
  </metadata>
  <wpt lat="27.7933" lon="-18.1167">
    <name>La Llanía – Sabinar Milenario</name>
    <desc>Paseo por el sabinar más extenso del mundo con árboles de más de 1.000 años. Las sabinas retorcidas por el viento crean paisajes únicos e irrepetibles. | Isla: El Hierro | Tipo: Senderismo | Dificultad: Fácil | Distancia: 7km | Duración: 2-4 horas</desc>
    <type>Senderismo</type>
    <extensions>
      <isla>El Hierro</isla>
      <dificultad>Fácil</dificultad>
      <distancia>7</distancia>
      <duracion>2-4 horas</duracion>
    </extensions>
  </wpt>
</gpx>