<?xml version="1.0" encoding="UTF-8"?>
<gpx creator="Wikiloc - https://www.wikiloc.com" version="1.1" xmlns="http://www.topografix.com/GPX/1/1" xmlns:xsi="http://www.w3.org/2001/XMLSchema-instance" xsi:schemaLocation="http://www.topografix.com/GPX/1/1 http://www.topografix.com/GPX/1/1/gpx.xsd">
  <metadata>
    <name>Wikiloc - FASNIA: Barranco de La Linde, Acantilado La Hondura, Los Roq...</name>
    <link href="https://www.wikiloc.com/hiking-trails/fasnia-barranco-de-la-linde-acantilado-la-hondura-los-roques-8288788">
      <text>FASNIA: Barranco de La Linde, Acantilado La Hondura, Los Roq... on Wikiloc</text>
    </link>
    <time>2014-11-13T14:21:32Z</time>
  </metadata>
  <trk>
    <name>FASNIA: Barranco de La Linde, Acantilado La Hondura, Los Roq... - Wikiloc</name>
    <cmt></cmt>
    <desc></desc>
    <trkseg>
      <trkpt lat="28.193977" lon="-16.423641">
        <ele>7.331</ele>
        <time>2014-11-13T09:04:25Z</time>
      </trkpt>
      <trkpt lat="28.193818" lon="-16.423504">
        <ele>4.861</ele>
        <time>2014-11-13T09:09:14Z</time>
      </trkpt>
      <trkpt lat="28.194715" lon="-16.424620">
        <ele>8.307</ele>
        <time>2014-11-13T09:12:14Z</time>
      </trkpt>
      <trkpt lat="28.195024" lon="-16.424789">
        <ele>9.907</ele>
        <time>2014-11-13T09:13:22Z</time>
      </trkpt>
      <trkpt lat="28.195205" lon="-16.424683">
        <ele>10.271</ele>
        <time>2014-11-13T09:13:45Z</time>
      </trkpt>
      <trkpt lat="28.195378" lon="-16.424806">
        <ele>13.095</ele>
        <time>2014-11-13T09:14:06Z</time>
      </trkpt>
      <trkpt lat="28.196105" lon="-16.425614">
        <ele>18.141</ele>
        <time>2014-11-13T09:16:42Z</time>
      </trkpt>
      <trkpt lat="28.196572" lon="-16.425538">
        <ele>17.431</ele>
        <time>2014-11-13T09:18:06Z</time>
      </trkpt>
      <trkpt lat="28.196865" lon="-16.426003">
        <ele>23.860</ele>
        <time>2014-11-13T09:19:14Z</time>
      </trkpt>
      <trkpt lat="28.197539" lon="-16.426042">
        <ele>29.721</ele>
        <time>2014-11-13T09:20:56Z</time>
      </trkpt>
      <trkpt lat="28.198001" lon="-16.426671">
        <ele>32.211</ele>
        <time>2014-11-13T09:21:52Z</time>
      </trkpt>
      <trkpt lat="28.198367" lon="-16.426959">
        <ele>29.761</ele>
        <time>2014-11-13T09:22:55Z</time>
      </trkpt>
      <trkpt lat="28.198526" lon="-16.427493">
        <ele>36.821</ele>
        <time>2014-11-13T09:23:57Z</time>
      </trkpt>
      <trkpt lat="28.198771" lon="-16.427766">
        <ele>38.713</ele>
        <time>2014-11-13T09:24:39Z</time>
      </trkpt>
      <trkpt lat="28.199220" lon="-16.427708">
        <ele>35.307</ele>
        <time>2014-11-13T09:26:19Z</time>
      </trkpt>
      <trkpt lat="28.199326" lon="-16.427528">
        <ele>38.144</ele>
        <time>2014-11-13T09:26:44Z</time>
      </trkpt>
      <trkpt lat="28.199570" lon="-16.427597">
        <ele>41.698</ele>
        <time>2014-11-13T09:27:33Z</time>
      </trkpt>
      <trkpt lat="28.199550" lon="-16.429053">
        <ele>49.484</ele>
        <time>2014-11-13T09:30:49Z</time>
      </trkpt>
      <trkpt lat="28.199063" lon="-16.429918">
        <ele>56.244</ele>
        <time>2014-11-13T09:34:01Z</time>
      </trkpt>
      <trkpt lat="28.199295" lon="-16.430133">
        <ele>56.453</ele>
        <time>2014-11-13T09:34:47Z</time>
      </trkpt>
      <trkpt lat="28.199737" lon="-16.430041">
        <ele>56.224</ele>
        <time>2014-11-13T09:35:52Z</time>
      </trkpt>
      <trkpt lat="28.199947" lon="-16.430275">
        <ele>61.844</ele>
        <time>2014-11-13T09:36:31Z</time>
      </trkpt>
      <trkpt lat="28.200165" lon="-16.431272">
        <ele>67.156</ele>
        <time>2014-11-13T09:38:57Z</time>
      </trkpt>
      <trkpt lat="28.200030" lon="-16.431675">
        <ele>71.259</ele>
        <time>2014-11-13T09:40:08Z</time>
      </trkpt>
      <trkpt lat="28.200196" lon="-16.432262">
        <ele>77.714</ele>
        <time>2014-11-13T09:41:44Z</time>
      </trkpt>
      <trkpt lat="28.200412" lon="-16.432503">
        <ele>78.607</ele>
        <time>2014-11-13T09:42:49Z</time>
      </trkpt>
      <trkpt lat="28.200993" lon="-16.432533">
        <ele>80.663</ele>
        <time>2014-11-13T09:44:07Z</time>
      </trkpt>
      <trkpt lat="28.201411" lon="-16.432866">
        <ele>82.847</ele>
        <time>2014-11-13T09:46:39Z</time>
      </trkpt>
      <trkpt lat="28.201908" lon="-16.432993">
        <ele>86.393</ele>
        <time>2014-11-13T09:48:38Z</time>
      </trkpt>
      <trkpt lat="28.201626" lon="-16.433832">
        <ele>90.853</ele>
        <time>2014-11-13T09:50:50Z</time>
      </trkpt>
      <trkpt lat="28.201936" lon="-16.433968">
        <ele>90.952</ele>
        <time>2014-11-13T09:51:45Z</time>
      </trkpt>
      <trkpt lat="28.202281" lon="-16.434415">
        <ele>94.463</ele>
        <time>2014-11-13T09:53:49Z</time>
      </trkpt>
      <trkpt lat="28.202304" lon="-16.434702">
        <ele>93.523</ele>
        <time>2014-11-13T09:54:32Z</time>
      </trkpt>
      <trkpt lat="28.202081" lon="-16.434917">
        <ele>93.626</ele>
        <time>2014-11-13T09:56:11Z</time>
      </trkpt>
      <trkpt lat="28.202104" lon="-16.435238">
        <ele>96.647</ele>
        <time>2014-11-13T09:56:57Z</time>
      </trkpt>
      <trkpt lat="28.202349" lon="-16.435497">
        <ele>98.811</ele>
        <time>2014-11-13T09:57:49Z</time>
      </trkpt>
      <trkpt lat="28.202742" lon="-16.435639">
        <ele>101.607</ele>
        <time>2014-11-13T09:58:41Z</time>
      </trkpt>
      <trkpt lat="28.202959" lon="-16.435898">
        <ele>104.190</ele>
        <time>2014-11-13T09:59:22Z</time>
      </trkpt>
      <trkpt lat="28.203289" lon="-16.436024">
        <ele>105.664</ele>
        <time>2014-11-13T10:00:31Z</time>
      </trkpt>
      <trkpt lat="28.203673" lon="-16.436450">
        <ele>113.390</ele>
        <time>2014-11-13T10:02:04Z</time>
      </trkpt>
      <trkpt lat="28.204074" lon="-16.436636">
        <ele>114.810</ele>
        <time>2014-11-13T10:03:21Z</time>
      </trkpt>
      <trkpt lat="28.204137" lon="-16.437304">
        <ele>120.319</ele>
        <time>2014-11-13T10:04:39Z</time>
      </trkpt>
      <trkpt lat="28.204491" lon="-16.437959">
        <ele>121.010</ele>
        <time>2014-11-13T10:06:33Z</time>
      </trkpt>
      <trkpt lat="28.204297" lon="-16.438307">
        <ele>122.910</ele>
        <time>2014-11-13T10:07:35Z</time>
      </trkpt>
      <trkpt lat="28.204271" lon="-16.438706">
        <ele>127.057</ele>
        <time>2014-11-13T10:09:07Z</time>
      </trkpt>
      <trkpt lat="28.204374" lon="-16.438823">
        <ele>127.700</ele>
        <time>2014-11-13T10:09:24Z</time>
      </trkpt>
      <trkpt lat="28.204629" lon="-16.438823">
        <ele>126.520</ele>
        <time>2014-11-13T10:10:17Z</time>
      </trkpt>
      <trkpt lat="28.205051" lon="-16.439180">
        <ele>128.707</ele>
        <time>2014-11-13T10:11:13Z</time>
      </trkpt>
      <trkpt lat="28.205355" lon="-16.439943">
        <ele>136.863</ele>
        <time>2014-11-13T10:12:26Z</time>
      </trkpt>
      <trkpt lat="28.205584" lon="-16.440241">
        <ele>133.627</ele>
        <time>2014-11-13T10:13:08Z</time>
      </trkpt>
      <trkpt lat="28.205644" lon="-16.440482">
        <ele>133.743</ele>
        <time>2014-11-13T10:13:43Z</time>
      </trkpt>
      <trkpt lat="28.205509" lon="-16.440633">
        <ele>134.023</ele>
        <time>2014-11-13T10:14:10Z</time>
      </trkpt>
      <trkpt lat="28.205530" lon="-16.440934">
        <ele>136.042</ele>
        <time>2014-11-13T10:14:56Z</time>
      </trkpt>
      <trkpt lat="28.206219" lon="-16.440770">
        <ele>143.733</ele>
        <time>2014-11-13T10:17:55Z</time>
      </trkpt>
      <trkpt lat="28.206768" lon="-16.441261">
        <ele>159.283</ele>
        <time>2014-11-13T10:21:27Z</time>
      </trkpt>
      <trkpt lat="28.206772" lon="-16.441156">
        <ele>155.036</ele>
        <time>2014-11-13T10:22:48Z</time>
      </trkpt>
      <trkpt lat="28.206560" lon="-16.441138">
        <ele>152.417</ele>
        <time>2014-11-13T10:24:07Z</time>
      </trkpt>
      <trkpt lat="28.206474" lon="-16.440894">
        <ele>147.718</ele>
        <time>2014-11-13T10:25:17Z</time>
      </trkpt>
      <trkpt lat="28.206168" lon="-16.440734">
        <ele>143.007</ele>
        <time>2014-11-13T10:25:59Z</time>
      </trkpt>
      <trkpt lat="28.205659" lon="-16.440836">
        <ele>134.281</ele>
        <time>2014-11-13T10:27:12Z</time>
      </trkpt>
      <trkpt lat="28.205822" lon="-16.440231">
        <ele>136.525</ele>
        <time>2014-11-13T10:28:55Z</time>
      </trkpt>
      <trkpt lat="28.205888" lon="-16.440402">
        <ele>137.051</ele>
        <time>2014-11-13T10:29:15Z</time>
      </trkpt>
      <trkpt lat="28.205991" lon="-16.440322">
        <ele>140.391</ele>
        <time>2014-11-13T10:29:33Z</time>
      </trkpt>
      <trkpt lat="28.206400" lon="-16.440597">
        <ele>147.970</ele>
        <time>2014-11-13T10:31:27Z</time>
      </trkpt>
      <trkpt lat="28.206425" lon="-16.440469">
        <ele>149.631</ele>
        <time>2014-11-13T10:31:42Z</time>
      </trkpt>
      <trkpt lat="28.206745" lon="-16.440508">
        <ele>155.541</ele>
        <time>2014-11-13T10:32:31Z</time>
      </trkpt>
      <trkpt lat="28.206835" lon="-16.440831">
        <ele>152.121</ele>
        <time>2014-11-13T10:33:26Z</time>
      </trkpt>
      <trkpt lat="28.206939" lon="-16.440856">
        <ele>154.041</ele>
        <time>2014-11-13T10:33:40Z</time>
      </trkpt>
      <trkpt lat="28.207230" lon="-16.440649">
        <ele>162.805</ele>
        <time>2014-11-13T10:36:36Z</time>
      </trkpt>
      <trkpt lat="28.207038" lon="-16.440686">
        <ele>158.807</ele>
        <time>2014-11-13T10:37:19Z</time>
      </trkpt>
      <trkpt lat="28.206907" lon="-16.440861">
        <ele>153.550</ele>
        <time>2014-11-13T10:38:28Z</time>
      </trkpt>
      <trkpt lat="28.207065" lon="-16.440793">
        <ele>157.374</ele>
        <time>2014-11-13T10:41:50Z</time>
      </trkpt>
      <trkpt lat="28.207020" lon="-16.440861">
        <ele>155.760</ele>
        <time>2014-11-13T10:42:04Z</time>
      </trkpt>
      <trkpt lat="28.207355" lon="-16.440990">
        <ele>162.580</ele>
        <time>2014-11-13T10:42:55Z</time>
      </trkpt>
      <trkpt lat="28.207115" lon="-16.441207">
        <ele>161.189</ele>
        <time>2014-11-13T10:43:34Z</time>
      </trkpt>
      <trkpt lat="28.207186" lon="-16.441129">
        <ele>159.940</ele>
        <time>2014-11-13T10:43:59Z</time>
      </trkpt>
      <trkpt lat="28.207102" lon="-16.440972">
        <ele>157.650</ele>
        <time>2014-11-13T10:46:22Z</time>
      </trkpt>
      <trkpt lat="28.207176" lon="-16.441066">
        <ele>159.117</ele>
        <time>2014-11-13T10:47:05Z</time>
      </trkpt>
      <trkpt lat="28.207171" lon="-16.440969">
        <ele>159.087</ele>
        <time>2014-11-13T10:47:34Z</time>
      </trkpt>
      <trkpt lat="28.206945" lon="-16.441105">
        <ele>155.015</ele>
        <time>2014-11-13T10:50:50Z</time>
      </trkpt>
      <trkpt lat="28.206962" lon="-16.441208">
        <ele>158.807</ele>
        <time>2014-11-13T10:52:08Z</time>
      </trkpt>
      <trkpt lat="28.207248" lon="-16.440933">
        <ele>160.459</ele>
        <time>2014-11-13T10:55:24Z</time>
      </trkpt>
      <trkpt lat="28.206996" lon="-16.440819">
        <ele>155.453</ele>
        <time>2014-11-13T10:56:25Z</time>
      </trkpt>
      <trkpt lat="28.206964" lon="-16.441064">
        <ele>155.269</ele>
        <time>2014-11-13T10:57:26Z</time>
      </trkpt>
      <trkpt lat="28.206776" lon="-16.440465">
        <ele>157.459</ele>
        <time>2014-11-13T11:00:03Z</time>
      </trkpt>
      <trkpt lat="28.206323" lon="-16.440420">
        <ele>147.978</ele>
        <time>2014-11-13T11:01:18Z</time>
      </trkpt>
      <trkpt lat="28.206021" lon="-16.440276">
        <ele>141.429</ele>
        <time>2014-11-13T11:02:15Z</time>
      </trkpt>
      <trkpt lat="28.205937" lon="-16.440376">
        <ele>138.599</ele>
        <time>2014-11-13T11:02:30Z</time>
      </trkpt>
      <trkpt lat="28.205847" lon="-16.440229">
        <ele>137.146</ele>
        <time>2014-11-13T11:02:58Z</time>
      </trkpt>
      <trkpt lat="28.205737" lon="-16.440643">
        <ele>134.588</ele>
        <time>2014-11-13T11:03:51Z</time>
      </trkpt>
      <trkpt lat="28.205577" lon="-16.440688">
        <ele>133.216</ele>
        <time>2014-11-13T11:04:27Z</time>
      </trkpt>
      <trkpt lat="28.205666" lon="-16.440273">
        <ele>134.207</ele>
        <time>2014-11-13T11:05:37Z</time>
      </trkpt>
      <trkpt lat="28.205326" lon="-16.439798">
        <ele>135.832</ele>
        <time>2014-11-13T11:07:02Z</time>
      </trkpt>
      <trkpt lat="28.205102" lon="-16.439095">
        <ele>129.196</ele>
        <time>2014-11-13T11:08:12Z</time>
      </trkpt>
      <trkpt lat="28.204757" lon="-16.438840">
        <ele>126.542</ele>
        <time>2014-11-13T11:09:00Z</time>
      </trkpt>
      <trkpt lat="28.204410" lon="-16.438791">
        <ele>126.862</ele>
        <time>2014-11-13T11:09:53Z</time>
      </trkpt>
      <trkpt lat="28.204286" lon="-16.438530">
        <ele>124.461</ele>
        <time>2014-11-13T11:10:31Z</time>
      </trkpt>
      <trkpt lat="28.204503" lon="-16.437897">
        <ele>120.792</ele>
        <time>2014-11-13T11:12:05Z</time>
      </trkpt>
      <trkpt lat="28.204259" lon="-16.437544">
        <ele>119.862</ele>
        <time>2014-11-13T11:14:00Z</time>
      </trkpt>
      <trkpt lat="28.204074" lon="-16.436578">
        <ele>114.594</ele>
        <time>2014-11-13T11:16:01Z</time>
      </trkpt>
      <trkpt lat="28.203739" lon="-16.436426">
        <ele>112.057</ele>
        <time>2014-11-13T11:16:44Z</time>
      </trkpt>
      <trkpt lat="28.203382" lon="-16.435981">
        <ele>106.322</ele>
        <time>2014-11-13T11:18:11Z</time>
      </trkpt>
      <trkpt lat="28.203046" lon="-16.435879">
        <ele>103.507</ele>
        <time>2014-11-13T11:18:59Z</time>
      </trkpt>
      <trkpt lat="28.202851" lon="-16.435662">
        <ele>102.167</ele>
        <time>2014-11-13T11:19:31Z</time>
      </trkpt>
      <trkpt lat="28.202269" lon="-16.435346">
        <ele>96.481</ele>
        <time>2014-11-13T11:20:40Z</time>
      </trkpt>
      <trkpt lat="28.202123" lon="-16.435122">
        <ele>94.927</ele>
        <time>2014-11-13T11:21:07Z</time>
      </trkpt>
      <trkpt lat="28.202073" lon="-16.435003">
        <ele>94.287</ele>
        <time>2014-11-13T11:21:29Z</time>
      </trkpt>
      <trkpt lat="28.202358" lon="-16.434399">
        <ele>96.036</ele>
        <time>2014-11-13T11:24:10Z</time>
      </trkpt>
      <trkpt lat="28.201674" lon="-16.433715">
        <ele>87.327</ele>
        <time>2014-11-13T11:26:43Z</time>
      </trkpt>
      <trkpt lat="28.201919" lon="-16.432945">
        <ele>86.587</ele>
        <time>2014-11-13T11:28:03Z</time>
      </trkpt>
      <trkpt lat="28.201848" lon="-16.432871">
        <ele>85.011</ele>
        <time>2014-11-13T11:28:16Z</time>
      </trkpt>
      <trkpt lat="28.201518" lon="-16.432922">
        <ele>82.621</ele>
        <time>2014-11-13T11:28:43Z</time>
      </trkpt>
      <trkpt lat="28.201036" lon="-16.432560">
        <ele>81.203</ele>
        <time>2014-11-13T11:31:21Z</time>
      </trkpt>
      <trkpt lat="28.200441" lon="-16.432460">
        <ele>77.907</ele>
        <time>2014-11-13T11:32:13Z</time>
      </trkpt>
      <trkpt lat="28.200260" lon="-16.432247">
        <ele>75.959</ele>
        <time>2014-11-13T11:32:46Z</time>
      </trkpt>
      <trkpt lat="28.200075" lon="-16.431693">
        <ele>71.583</ele>
        <time>2014-11-13T11:33:41Z</time>
      </trkpt>
      <trkpt lat="28.200215" lon="-16.431355">
        <ele>68.129</ele>
        <time>2014-11-13T11:34:33Z</time>
      </trkpt>
      <trkpt lat="28.200042" lon="-16.430364">
        <ele>63.229</ele>
        <time>2014-11-13T11:36:16Z</time>
      </trkpt>
      <trkpt lat="28.199824" lon="-16.430073">
        <ele>58.398</ele>
        <time>2014-11-13T11:36:54Z</time>
      </trkpt>
      <trkpt lat="28.199334" lon="-16.430086">
        <ele>54.469</ele>
        <time>2014-11-13T11:38:44Z</time>
      </trkpt>
      <trkpt lat="28.199119" lon="-16.430000">
        <ele>54.119</ele>
        <time>2014-11-13T11:39:14Z</time>
      </trkpt>
      <trkpt lat="28.199074" lon="-16.429878">
        <ele>55.789</ele>
        <time>2014-11-13T11:39:49Z</time>
      </trkpt>
      <trkpt lat="28.199630" lon="-16.429026">
        <ele>49.506</ele>
        <time>2014-11-13T11:42:02Z</time>
      </trkpt>
      <trkpt lat="28.199661" lon="-16.428697">
        <ele>46.026</ele>
        <time>2014-11-13T11:43:14Z</time>
      </trkpt>
      <trkpt lat="28.199525" lon="-16.428279">
        <ele>43.307</ele>
        <time>2014-11-13T11:44:14Z</time>
      </trkpt>
      <trkpt lat="28.199665" lon="-16.427814">
        <ele>42.486</ele>
        <time>2014-11-13T11:44:55Z</time>
      </trkpt>
      <trkpt lat="28.199630" lon="-16.427602">
        <ele>42.610</ele>
        <time>2014-11-13T11:45:16Z</time>
      </trkpt>
      <trkpt lat="28.199509" lon="-16.427493">
        <ele>41.426</ele>
        <time>2014-11-13T11:45:33Z</time>
      </trkpt>
      <trkpt lat="28.199245" lon="-16.427681">
        <ele>35.886</ele>
        <time>2014-11-13T11:46:06Z</time>
      </trkpt>
      <trkpt lat="28.198827" lon="-16.427711">
        <ele>37.545</ele>
        <time>2014-11-13T11:46:54Z</time>
      </trkpt>
      <trkpt lat="28.198563" lon="-16.427455">
        <ele>36.126</ele>
        <time>2014-11-13T11:47:27Z</time>
      </trkpt>
      <trkpt lat="28.198377" lon="-16.426920">
        <ele>29.976</ele>
        <time>2014-11-13T11:48:13Z</time>
      </trkpt>
      <trkpt lat="28.197891" lon="-16.426573">
        <ele>33.389</ele>
        <time>2014-11-13T11:49:17Z</time>
      </trkpt>
      <trkpt lat="28.197542" lon="-16.425961">
        <ele>29.706</ele>
        <time>2014-11-13T11:50:07Z</time>
      </trkpt>
      <trkpt lat="28.197134" lon="-16.426066">
        <ele>26.026</ele>
        <time>2014-11-13T11:50:47Z</time>
      </trkpt>
      <trkpt lat="28.196805" lon="-16.425885">
        <ele>21.807</ele>
        <time>2014-11-13T11:51:31Z</time>
      </trkpt>
      <trkpt lat="28.196668" lon="-16.425585">
        <ele>18.266</ele>
        <time>2014-11-13T11:52:14Z</time>
      </trkpt>
      <trkpt lat="28.196442" lon="-16.425507">
        <ele>16.620</ele>
        <time>2014-11-13T11:52:43Z</time>
      </trkpt>
      <trkpt lat="28.196131" lon="-16.425597">
        <ele>17.746</ele>
        <time>2014-11-13T11:53:25Z</time>
      </trkpt>
      <trkpt lat="28.195288" lon="-16.424660">
        <ele>11.146</ele>
        <time>2014-11-13T11:55:13Z</time>
      </trkpt>
      <trkpt lat="28.195043" lon="-16.424658">
        <ele>8.575</ele>
        <time>2014-11-13T11:55:36Z</time>
      </trkpt>
      <trkpt lat="28.194539" lon="-16.424328">
        <ele>7.676</ele>
        <time>2014-11-13T11:56:27Z</time>
      </trkpt>
      <trkpt lat="28.193813" lon="-16.423484">
        <ele>4.786</ele>
        <time>2014-11-13T11:58:04Z</time>
      </trkpt>
      <trkpt lat="28.194104" lon="-16.423362">
        <ele>8.219</ele>
        <time>2014-11-13T11:58:37Z</time>
      </trkpt>
      <trkpt lat="28.193838" lon="-16.423217">
        <ele>4.309</ele>
        <time>2014-11-13T11:59:03Z</time>
      </trkpt>
      <trkpt lat="28.193908" lon="-16.422672">
        <ele>5.219</ele>
        <time>2014-11-13T11:59:54Z</time>
      </trkpt>
      <trkpt lat="28.193793" lon="-16.422256">
        <ele>2.607</ele>
        <time>2014-11-13T12:00:46Z</time>
      </trkpt>
      <trkpt lat="28.193858" lon="-16.422372">
        <ele>3.929</ele>
        <time>2014-11-13T12:01:11Z</time>
      </trkpt>
      <trkpt lat="28.194029" lon="-16.422122">
        <ele>2.693</ele>
        <time>2014-11-13T12:01:40Z</time>
      </trkpt>
      <trkpt lat="28.194198" lon="-16.422366">
        <ele>6.789</ele>
        <time>2014-11-13T12:02:01Z</time>
      </trkpt>
      <trkpt lat="28.194435" lon="-16.422492">
        <ele>8.949</ele>
        <time>2014-11-13T12:02:22Z</time>
      </trkpt>
      <trkpt lat="28.194606" lon="-16.422335">
        <ele>8.068</ele>
        <time>2014-11-13T12:02:39Z</time>
      </trkpt>
      <trkpt lat="28.194972" lon="-16.422260">
        <ele>8.449</ele>
        <time>2014-11-13T12:03:09Z</time>
      </trkpt>
      <trkpt lat="28.195439" lon="-16.423171">
        <ele>13.159</ele>
        <time>2014-11-13T12:04:24Z</time>
      </trkpt>
      <trkpt lat="28.196152" lon="-16.422872">
        <ele>9.976</ele>
        <time>2014-11-13T12:05:09Z</time>
      </trkpt>
      <trkpt lat="28.196669" lon="-16.422883">
        <ele>16.590</ele>
        <time>2014-11-13T12:05:55Z</time>
      </trkpt>
      <trkpt lat="28.196823" lon="-16.422583">
        <ele>13.919</ele>
        <time>2014-11-13T12:06:26Z</time>
      </trkpt>
      <trkpt lat="28.197251" lon="-16.422373">
        <ele>16.207</ele>
        <time>2014-11-13T12:07:58Z</time>
      </trkpt>
      <trkpt lat="28.197758" lon="-16.421930">
        <ele>23.955</ele>
        <time>2014-11-13T12:11:41Z</time>
      </trkpt>
      <trkpt lat="28.198253" lon="-16.421640">
        <ele>17.849</ele>
        <time>2014-11-13T12:13:04Z</time>
      </trkpt>
      <trkpt lat="28.198363" lon="-16.421663">
        <ele>18.895</ele>
        <time>2014-11-13T12:13:18Z</time>
      </trkpt>
      <trkpt lat="28.198551" lon="-16.421327">
        <ele>7.215</ele>
        <time>2014-11-13T12:26:03Z</time>
      </trkpt>
      <trkpt lat="28.198526" lon="-16.421671">
        <ele>18.424</ele>
        <time>2014-11-13T12:27:39Z</time>
      </trkpt>
      <trkpt lat="28.198724" lon="-16.421920">
        <ele>22.945</ele>
        <time>2014-11-13T12:28:10Z</time>
      </trkpt>
      <trkpt lat="28.199013" lon="-16.422072">
        <ele>15.875</ele>
        <time>2014-11-13T12:28:51Z</time>
      </trkpt>
      <trkpt lat="28.198976" lon="-16.422256">
        <ele>20.071</ele>
        <time>2014-11-13T12:29:27Z</time>
      </trkpt>
      <trkpt lat="28.199263" lon="-16.422705">
        <ele>23.341</ele>
        <time>2014-11-13T12:30:21Z</time>
      </trkpt>
      <trkpt lat="28.199529" lon="-16.423543">
        <ele>33.315</ele>
        <time>2014-11-13T12:31:49Z</time>
      </trkpt>
      <trkpt lat="28.199981" lon="-16.424036">
        <ele>37.707</ele>
        <time>2014-11-13T12:33:37Z</time>
      </trkpt>
      <trkpt lat="28.200617" lon="-16.424192">
        <ele>33.025</ele>
        <time>2014-11-13T12:35:00Z</time>
      </trkpt>
      <trkpt lat="28.200995" lon="-16.424871">
        <ele>44.489</ele>
        <time>2014-11-13T12:36:40Z</time>
      </trkpt>
      <trkpt lat="28.201219" lon="-16.424980">
        <ele>42.325</ele>
        <time>2014-11-13T12:36:58Z</time>
      </trkpt>
      <trkpt lat="28.201320" lon="-16.424812">
        <ele>36.325</ele>
        <time>2014-11-19T22:43:25Z</time>
      </trkpt>
      <trkpt lat="28.201249" lon="-16.424993">
        <ele>41.934</ele>
        <time>2014-11-19T22:45:25Z</time>
      </trkpt>
      <trkpt lat="28.201539" lon="-16.425097">
        <ele>38.695</ele>
        <time>2014-11-19T22:45:45Z</time>
      </trkpt>
      <trkpt lat="28.201614" lon="-16.424997">
        <ele>35.695</ele>
        <time>2014-11-13T12:37:06Z</time>
      </trkpt>
      <trkpt lat="28.201552" lon="-16.425102">
        <ele>38.589</ele>
        <time>2014-11-13T12:38:14Z</time>
      </trkpt>
      <trkpt lat="28.202390" lon="-16.425612">
        <ele>44.706</ele>
        <time>2014-11-13T12:40:10Z</time>
      </trkpt>
      <trkpt lat="28.202465" lon="-16.425509">
        <ele>42.926</ele>
        <time>2014-11-19T22:51:45Z</time>
      </trkpt>
      <trkpt lat="28.202408" lon="-16.425078">
        <ele>31.007</ele>
        <time>2014-11-19T22:55:45Z</time>
      </trkpt>
      <trkpt lat="28.202549" lon="-16.425537">
        <ele>44.196</ele>
        <time>2014-11-13T12:40:22Z</time>
      </trkpt>
      <trkpt lat="28.203159" lon="-16.425346">
        <ele>45.670</ele>
        <time>2014-11-13T12:41:40Z</time>
      </trkpt>
      <trkpt lat="28.203774" lon="-16.425321">
        <ele>48.726</ele>
        <time>2014-11-13T12:42:40Z</time>
      </trkpt>
      <trkpt lat="28.204155" lon="-16.425059">
        <ele>35.586</ele>
        <time>2014-11-13T12:43:20Z</time>
      </trkpt>
      <trkpt lat="28.204878" lon="-16.425098">
        <ele>46.145</ele>
        <time>2014-11-13T12:44:48Z</time>
      </trkpt>
      <trkpt lat="28.205422" lon="-16.424830">
        <ele>44.716</ele>
        <time>2014-11-13T12:46:11Z</time>
      </trkpt>
      <trkpt lat="28.205790" lon="-16.423487">
        <ele>28.436</ele>
        <time>2014-11-19T23:15:05Z</time>
      </trkpt>
      <trkpt lat="28.205433" lon="-16.423864">
        <ele>24.869</ele>
        <time>2014-11-19T23:19:05Z</time>
      </trkpt>
      <trkpt lat="28.205287" lon="-16.423868">
        <ele>17.004</ele>
        <time>2014-11-19T23:21:05Z</time>
      </trkpt>
      <trkpt lat="28.205454" lon="-16.423837">
        <ele>25.324</ele>
        <time>2014-11-19T23:23:25Z</time>
      </trkpt>
      <trkpt lat="28.205710" lon="-16.423496">
        <ele>25.707</ele>
        <time>2014-11-19T23:26:25Z</time>
      </trkpt>
      <trkpt lat="28.206902" lon="-16.422895">
        <ele>19.844</ele>
        <time>2014-11-13T12:50:42Z</time>
      </trkpt>
      <trkpt lat="28.206827" lon="-16.422782">
        <ele>18.568</ele>
        <time>2014-11-19T23:32:05Z</time>
      </trkpt>
      <trkpt lat="28.206886" lon="-16.422624">
        <ele>14.734</ele>
        <time>2014-11-19T23:33:25Z</time>
      </trkpt>
      <trkpt lat="28.206775" lon="-16.422524">
        <ele>12.064</ele>
        <time>2014-11-19T23:35:25Z</time>
      </trkpt>
      <trkpt lat="28.206868" lon="-16.422824">
        <ele>18.923</ele>
        <time>2014-11-19T23:38:45Z</time>
      </trkpt>
      <trkpt lat="28.207061" lon="-16.422924">
        <ele>21.144</ele>
        <time>2014-11-13T12:52:02Z</time>
      </trkpt>
      <trkpt lat="28.207325" lon="-16.422678">
        <ele>20.354</ele>
        <time>2014-11-13T12:52:57Z</time>
      </trkpt>
      <trkpt lat="28.207565" lon="-16.422104">
        <ele>13.299</ele>
        <time>2014-11-13T12:54:10Z</time>
      </trkpt>
      <trkpt lat="28.208136" lon="-16.422104">
        <ele>19.107</ele>
        <time>2014-11-13T12:57:05Z</time>
      </trkpt>
      <trkpt lat="28.208140" lon="-16.421809">
        <ele>14.927</ele>
        <time>2014-11-13T12:57:59Z</time>
      </trkpt>
      <trkpt lat="28.208241" lon="-16.421686">
        <ele>14.607</ele>
        <time>2014-11-13T12:58:35Z</time>
      </trkpt>
      <trkpt lat="28.208830" lon="-16.421344">
        <ele>18.337</ele>
        <time>2014-11-13T13:00:30Z</time>
      </trkpt>
      <trkpt lat="28.209188" lon="-16.421321">
        <ele>16.351</ele>
        <time>2014-11-13T13:01:37Z</time>
      </trkpt>
      <trkpt lat="28.209936" lon="-16.421796">
        <ele>29.097</ele>
        <time>2014-11-13T13:04:12Z</time>
      </trkpt>
      <trkpt lat="28.210412" lon="-16.420862">
        <ele>18.817</ele>
        <time>2014-11-13T13:07:35Z</time>
      </trkpt>
      <trkpt lat="28.211076" lon="-16.420895">
        <ele>26.716</ele>
        <time>2014-11-13T13:08:47Z</time>
      </trkpt>
      <trkpt lat="28.211939" lon="-16.420441">
        <ele>31.897</ele>
        <time>2014-11-13T13:10:20Z</time>
      </trkpt>
      <trkpt lat="28.212287" lon="-16.419514">
        <ele>31.647</ele>
        <time>2014-11-13T13:11:58Z</time>
      </trkpt>
      <trkpt lat="28.212570" lon="-16.419398">
        <ele>35.048</ele>
        <time>2014-11-13T13:12:30Z</time>
      </trkpt>
      <trkpt lat="28.213052" lon="-16.418827">
        <ele>27.861</ele>
        <time>2014-11-13T13:13:38Z</time>
      </trkpt>
      <trkpt lat="28.213512" lon="-16.418585">
        <ele>26.117</ele>
        <time>2014-11-13T13:14:32Z</time>
      </trkpt>
      <trkpt lat="28.213873" lon="-16.418701">
        <ele>30.607</ele>
        <time>2014-11-13T13:15:37Z</time>
      </trkpt>
      <trkpt lat="28.213988" lon="-16.418263">
        <ele>22.872</ele>
        <time>2014-11-13T13:16:30Z</time>
      </trkpt>
      <trkpt lat="28.214199" lon="-16.418105">
        <ele>19.596</ele>
        <time>2014-11-13T13:17:20Z</time>
      </trkpt>
      <trkpt lat="28.214738" lon="-16.418069">
        <ele>26.472</ele>
        <time>2014-11-13T13:20:09Z</time>
      </trkpt>
      <trkpt lat="28.214903" lon="-16.417736">
        <ele>14.852</ele>
        <time>2014-11-13T13:21:10Z</time>
      </trkpt>
      <trkpt lat="28.215083" lon="-16.417654">
        <ele>11.091</ele>
        <time>2014-11-13T13:22:07Z</time>
      </trkpt>
      <trkpt lat="28.215185" lon="-16.418617">
        <ele>34.832</ele>
        <time>2014-11-13T13:25:34Z</time>
      </trkpt>
      <trkpt lat="28.215491" lon="-16.418697">
        <ele>35.322</ele>
        <time>2014-11-13T13:27:23Z</time>
      </trkpt>
      <trkpt lat="28.215505" lon="-16.418556">
        <ele>32.266</ele>
        <time>2014-11-13T13:29:13Z</time>
      </trkpt>
      <trkpt lat="28.215679" lon="-16.418586">
        <ele>34.329</ele>
        <time>2014-11-13T13:30:31Z</time>
      </trkpt>
      <trkpt lat="28.215776" lon="-16.418029">
        <ele>26.321</ele>
        <time>2014-11-13T13:33:50Z</time>
      </trkpt>
      <trkpt lat="28.215979" lon="-16.417896">
        <ele>28.607</ele>
        <time>2014-11-13T13:35:29Z</time>
      </trkpt>
      <trkpt lat="28.215971" lon="-16.417735">
        <ele>26.424</ele>
        <time>2014-11-13T13:35:45Z</time>
      </trkpt>
      <trkpt lat="28.216265" lon="-16.417620">
        <ele>30.838</ele>
        <time>2014-11-13T13:36:10Z</time>
      </trkpt>
      <trkpt lat="28.216420" lon="-16.417328">
        <ele>27.984</ele>
        <time>2014-11-13T13:36:41Z</time>
      </trkpt>
      <trkpt lat="28.217004" lon="-16.417166">
        <ele>25.444</ele>
        <time>2014-11-13T13:38:46Z</time>
      </trkpt>
      <trkpt lat="28.217089" lon="-16.416664">
        <ele>28.633</ele>
        <time>2014-11-13T13:40:00Z</time>
      </trkpt>
      <trkpt lat="28.216880" lon="-16.416493">
        <ele>24.134</ele>
        <time>2014-11-13T13:41:27Z</time>
      </trkpt>
      <trkpt lat="28.216979" lon="-16.416087">
        <ele>21.294</ele>
        <time>2014-11-13T13:43:00Z</time>
      </trkpt>
      <trkpt lat="28.216911" lon="-16.415833">
        <ele>15.013</ele>
        <time>2014-11-13T13:43:58Z</time>
      </trkpt>
      <trkpt lat="28.217344" lon="-16.415751">
        <ele>19.743</ele>
        <time>2014-11-13T13:44:53Z</time>
      </trkpt>
      <trkpt lat="28.217416" lon="-16.415530">
        <ele>16.107</ele>
        <time>2014-11-13T13:46:02Z</time>
      </trkpt>
      <trkpt lat="28.217740" lon="-16.415584">
        <ele>20.907</ele>
        <time>2014-11-13T13:48:59Z</time>
      </trkpt>
      <trkpt lat="28.217802" lon="-16.415446">
        <ele>17.849</ele>
        <time>2014-11-13T13:49:16Z</time>
      </trkpt>
      <trkpt lat="28.217978" lon="-16.415387">
        <ele>18.413</ele>
        <time>2014-11-13T13:49:44Z</time>
      </trkpt>
      <trkpt lat="28.218481" lon="-16.415508">
        <ele>26.559</ele>
        <time>2014-11-13T13:52:01Z</time>
      </trkpt>
      <trkpt lat="28.218763" lon="-16.414832">
        <ele>5.169</ele>
        <time>2014-11-13T13:55:40Z</time>
      </trkpt>
      <trkpt lat="28.218790" lon="-16.414974">
        <ele>9.288</ele>
        <time>2014-11-13T13:56:26Z</time>
      </trkpt>
      <trkpt lat="28.219028" lon="-16.414589">
        <ele>4.659</ele>
        <time>2014-11-13T14:00:21Z</time>
      </trkpt>
      <trkpt lat="28.219084" lon="-16.415020">
        <ele>12.619</ele>
        <time>2014-11-13T14:08:56Z</time>
      </trkpt>
      <trkpt lat="28.219387" lon="-16.415191">
        <ele>17.812</ele>
        <time>2014-11-13T14:10:11Z</time>
      </trkpt>
      <trkpt lat="28.219727" lon="-16.414919">
        <ele>24.232</ele>
        <time>2014-11-13T14:11:04Z</time>
      </trkpt>
      <trkpt lat="28.219835" lon="-16.414636">
        <ele>21.905</ele>
        <time>2014-11-13T14:11:26Z</time>
      </trkpt>
      <trkpt lat="28.220144" lon="-16.414829">
        <ele>27.507</ele>
        <time>2014-11-13T14:12:06Z</time>
      </trkpt>
      <trkpt lat="28.220383" lon="-16.414826">
        <ele>30.059</ele>
        <time>2014-11-13T14:12:28Z</time>
      </trkpt>
      <trkpt lat="28.220690" lon="-16.414323">
        <ele>21.163</ele>
        <time>2014-11-13T14:13:17Z</time>
      </trkpt>
      <trkpt lat="28.221360" lon="-16.414980">
        <ele>35.599</ele>
        <time>2014-11-13T14:15:01Z</time>
      </trkpt>
      <trkpt lat="28.221702" lon="-16.414921">
        <ele>33.269</ele>
        <time>2014-11-13T14:15:32Z</time>
      </trkpt>
      <trkpt lat="28.222052" lon="-16.415156">
        <ele>39.588</ele>
        <time>2014-11-13T14:16:09Z</time>
      </trkpt>
      <trkpt lat="28.222252" lon="-16.415045">
        <ele>42.469</ele>
        <time>2014-11-13T14:16:27Z</time>
      </trkpt>
      <trkpt lat="28.222483" lon="-16.414221">
        <ele>40.149</ele>
        <time>2014-11-13T14:21:32Z</time>
      </trkpt>
    </trkseg>
  </trk></gpx>