<?xml version="1.0" encoding="UTF-8"?>
<gpx version="1.1" creator="Aventuras en Cada Paso" xmlns="http://www.topografix.com/GPX/1/1">
  <metadata>
    <name>Los Órganos – La Orotava</name>
    <desc>Espectacular circular por la Caldera y Los Órganos, columnas basálticas únicas. Gran variedad de paisajes, flora y desnivel considerable.</desc>
    <author><name>Aventuras en Cada Paso</name></author>
    <time>2026-07-08T08:12:58.160Z</time>
    <keywords>Tenerife, Senderismo, Difícil, senderismo Canarias</keywords>
  </metadata>
  <wpt lat="28.3912" lon="-16.5264">
    <name>Los Órganos – La Orotava</name>
    <desc>Espectacular circular por la Caldera y Los Órganos, columnas basálticas únicas. Gran variedad de paisajes, flora y desnivel considerable. | Isla: Tenerife | Tipo: Senderismo | Dificultad: Difícil | Distancia: 16km | Duración: 4-8 horas</desc>
    <type>Senderismo</type>
    <extensions>
      <isla>Tenerife</isla>
      <dificultad>Difícil</dificultad>
      <distancia>16</distancia>
      <duracion>4-8 horas</duracion>
    </extensions>
  </wpt>
</gpx>