<?xml version="1.0" encoding="UTF-8"?>
<gpx creator="Wikiloc - https://www.wikiloc.com" version="1.1" xmlns="http://www.topografix.com/GPX/1/1" xmlns:xsi="http://www.w3.org/2001/XMLSchema-instance" xsi:schemaLocation="http://www.topografix.com/GPX/1/1 http://www.topografix.com/GPX/1/1/gpx.xsd">
  <metadata>
    <name>Wikiloc - Barlovento - Los Franceses</name>
    <link href="https://www.wikiloc.com/hiking-trails/barlovento-los-franceses-31048306">
      <text>Barlovento - Los Franceses - Wikiloc on Wikiloc</text>
    </link>
    <time>2018-12-03T15:45:40Z</time>
  </metadata>
  <trk>
    <name>Barlovento - Los Franceses - Wikiloc</name>
    <cmt></cmt>
    <desc></desc>
    <trkseg>
      <trkpt lat="28.823775" lon="-17.805421">
        <ele>583.849</ele>
        <time>2018-12-03T10:14:03Z</time>
      </trkpt>
      <trkpt lat="28.824557" lon="-17.805401">
        <ele>578.202</ele>
        <time>2018-12-03T10:16:02Z</time>
      </trkpt>
      <trkpt lat="28.824709" lon="-17.805243">
        <ele>572.222</ele>
        <time>2018-12-03T10:16:33Z</time>
      </trkpt>
      <trkpt lat="28.825170" lon="-17.805621">
        <ele>568.308</ele>
        <time>2018-12-03T10:17:19Z</time>
      </trkpt>
      <trkpt lat="28.825970" lon="-17.805779">
        <ele>570.287</ele>
        <time>2018-12-03T10:18:21Z</time>
      </trkpt>
      <trkpt lat="28.826192" lon="-17.806032">
        <ele>568.595</ele>
        <time>2018-12-03T10:18:44Z</time>
      </trkpt>
      <trkpt lat="28.826367" lon="-17.807597">
        <ele>571.744</ele>
        <time>2018-12-03T10:20:29Z</time>
      </trkpt>
      <trkpt lat="28.826020" lon="-17.808499">
        <ele>571.388</ele>
        <time>2018-12-03T10:21:37Z</time>
      </trkpt>
      <trkpt lat="28.826069" lon="-17.808949">
        <ele>568.192</ele>
        <time>2018-12-03T10:22:07Z</time>
      </trkpt>
      <trkpt lat="28.826207" lon="-17.809273">
        <ele>565.427</ele>
        <time>2018-12-03T10:22:30Z</time>
      </trkpt>
      <trkpt lat="28.826451" lon="-17.809476">
        <ele>565.084</ele>
        <time>2018-12-03T10:22:53Z</time>
      </trkpt>
      <trkpt lat="28.827012" lon="-17.809472">
        <ele>567.170</ele>
        <time>2018-12-03T10:23:34Z</time>
      </trkpt>
      <trkpt lat="28.827205" lon="-17.809929">
        <ele>567.327</ele>
        <time>2018-12-03T10:24:05Z</time>
      </trkpt>
      <trkpt lat="28.827072" lon="-17.810339">
        <ele>567.168</ele>
        <time>2018-12-03T10:24:33Z</time>
      </trkpt>
      <trkpt lat="28.826583" lon="-17.810756">
        <ele>567.314</ele>
        <time>2018-12-03T10:25:16Z</time>
      </trkpt>
      <trkpt lat="28.826704" lon="-17.811598">
        <ele>567.308</ele>
        <time>2018-12-03T10:26:08Z</time>
      </trkpt>
      <trkpt lat="28.826842" lon="-17.811327">
        <ele>568.185</ele>
        <time>2018-12-03T10:26:40Z</time>
      </trkpt>
      <trkpt lat="28.827516" lon="-17.811890">
        <ele>567.483</ele>
        <time>2018-12-03T10:27:38Z</time>
      </trkpt>
      <trkpt lat="28.828039" lon="-17.812147">
        <ele>563.522</ele>
        <time>2018-12-03T10:28:19Z</time>
      </trkpt>
      <trkpt lat="28.828269" lon="-17.812449">
        <ele>559.166</ele>
        <time>2018-12-03T10:29:22Z</time>
      </trkpt>
      <trkpt lat="28.828283" lon="-17.812545">
        <ele>558.090</ele>
        <time>2018-12-03T10:29:33Z</time>
      </trkpt>
      <trkpt lat="28.827858" lon="-17.812667">
        <ele>546.865</ele>
        <time>2018-12-03T10:30:37Z</time>
      </trkpt>
      <trkpt lat="28.828089" lon="-17.812854">
        <ele>540.532</ele>
        <time>2018-12-03T10:31:10Z</time>
      </trkpt>
      <trkpt lat="28.828005" lon="-17.812908">
        <ele>536.548</ele>
        <time>2018-12-03T10:31:31Z</time>
      </trkpt>
      <trkpt lat="28.828100" lon="-17.812969">
        <ele>534.362</ele>
        <time>2018-12-03T10:31:39Z</time>
      </trkpt>
      <trkpt lat="28.828075" lon="-17.813169">
        <ele>528.983</ele>
        <time>2018-12-03T10:32:16Z</time>
      </trkpt>
      <trkpt lat="28.828252" lon="-17.813618">
        <ele>521.811</ele>
        <time>2018-12-03T10:33:16Z</time>
      </trkpt>
      <trkpt lat="28.828673" lon="-17.813880">
        <ele>513.408</ele>
        <time>2018-12-03T10:34:11Z</time>
      </trkpt>
      <trkpt lat="28.828586" lon="-17.814389">
        <ele>509.959</ele>
        <time>2018-12-03T10:34:53Z</time>
      </trkpt>
      <trkpt lat="28.828781" lon="-17.814870">
        <ele>508.897</ele>
        <time>2018-12-03T10:35:30Z</time>
      </trkpt>
      <trkpt lat="28.828863" lon="-17.815406">
        <ele>507.756</ele>
        <time>2018-12-03T10:36:12Z</time>
      </trkpt>
      <trkpt lat="28.828586" lon="-17.816188">
        <ele>498.880</ele>
        <time>2018-12-03T10:38:31Z</time>
      </trkpt>
      <trkpt lat="28.828497" lon="-17.816059">
        <ele>498.134</ele>
        <time>2018-12-03T10:38:52Z</time>
      </trkpt>
      <trkpt lat="28.827943" lon="-17.816058">
        <ele>488.599</ele>
        <time>2018-12-03T10:39:48Z</time>
      </trkpt>
      <trkpt lat="28.828079" lon="-17.816561">
        <ele>490.456</ele>
        <time>2018-12-03T10:42:01Z</time>
      </trkpt>
      <trkpt lat="28.828064" lon="-17.817173">
        <ele>479.342</ele>
        <time>2018-12-03T10:42:58Z</time>
      </trkpt>
      <trkpt lat="28.827295" lon="-17.817871">
        <ele>479.052</ele>
        <time>2018-12-03T10:45:05Z</time>
      </trkpt>
      <trkpt lat="28.827628" lon="-17.818527">
        <ele>472.053</ele>
        <time>2018-12-03T10:46:03Z</time>
      </trkpt>
      <trkpt lat="28.827974" lon="-17.818817">
        <ele>469.208</ele>
        <time>2018-12-03T10:46:34Z</time>
      </trkpt>
      <trkpt lat="28.827928" lon="-17.819031">
        <ele>469.508</ele>
        <time>2018-12-03T10:47:07Z</time>
      </trkpt>
      <trkpt lat="28.827166" lon="-17.819652">
        <ele>456.128</ele>
        <time>2018-12-03T10:48:27Z</time>
      </trkpt>
      <trkpt lat="28.826734" lon="-17.819472">
        <ele>448.336</ele>
        <time>2018-12-03T10:49:19Z</time>
      </trkpt>
      <trkpt lat="28.826663" lon="-17.819606">
        <ele>443.465</ele>
        <time>2018-12-03T10:49:49Z</time>
      </trkpt>
      <trkpt lat="28.826750" lon="-17.820021">
        <ele>431.579</ele>
        <time>2018-12-03T10:50:51Z</time>
      </trkpt>
      <trkpt lat="28.826539" lon="-17.820493">
        <ele>422.263</ele>
        <time>2018-12-03T10:51:43Z</time>
      </trkpt>
      <trkpt lat="28.826454" lon="-17.820552">
        <ele>418.288</ele>
        <time>2018-12-03T10:52:07Z</time>
      </trkpt>
      <trkpt lat="28.826375" lon="-17.820318">
        <ele>414.465</ele>
        <time>2018-12-03T10:52:29Z</time>
      </trkpt>
      <trkpt lat="28.826092" lon="-17.820411">
        <ele>419.861</ele>
        <time>2018-12-03T10:53:02Z</time>
      </trkpt>
      <trkpt lat="28.826135" lon="-17.820803">
        <ele>430.812</ele>
        <time>2018-12-03T10:55:09Z</time>
      </trkpt>
      <trkpt lat="28.826259" lon="-17.820958">
        <ele>436.232</ele>
        <time>2018-12-03T10:55:37Z</time>
      </trkpt>
      <trkpt lat="28.826670" lon="-17.821364">
        <ele>451.505</ele>
        <time>2018-12-03T10:56:30Z</time>
      </trkpt>
      <trkpt lat="28.826900" lon="-17.821400">
        <ele>458.108</ele>
        <time>2018-12-03T10:57:51Z</time>
      </trkpt>
      <trkpt lat="28.826840" lon="-17.821719">
        <ele>457.254</ele>
        <time>2018-12-03T10:58:17Z</time>
      </trkpt>
      <trkpt lat="28.826973" lon="-17.822191">
        <ele>458.882</ele>
        <time>2018-12-03T10:58:57Z</time>
      </trkpt>
      <trkpt lat="28.826589" lon="-17.822927">
        <ele>462.211</ele>
        <time>2018-12-03T11:00:07Z</time>
      </trkpt>
      <trkpt lat="28.825533" lon="-17.823264">
        <ele>441.565</ele>
        <time>2018-12-03T11:02:40Z</time>
      </trkpt>
      <trkpt lat="28.825942" lon="-17.823871">
        <ele>429.799</ele>
        <time>2018-12-03T11:05:34Z</time>
      </trkpt>
      <trkpt lat="28.825860" lon="-17.824043">
        <ele>425.154</ele>
        <time>2018-12-03T11:05:58Z</time>
      </trkpt>
      <trkpt lat="28.826169" lon="-17.824007">
        <ele>416.911</ele>
        <time>2018-12-03T11:06:32Z</time>
      </trkpt>
      <trkpt lat="28.825868" lon="-17.824332">
        <ele>404.667</ele>
        <time>2018-12-03T11:09:54Z</time>
      </trkpt>
      <trkpt lat="28.825504" lon="-17.823925">
        <ele>397.771</ele>
        <time>2018-12-03T11:11:47Z</time>
      </trkpt>
      <trkpt lat="28.825275" lon="-17.823829">
        <ele>392.441</ele>
        <time>2018-12-03T11:12:48Z</time>
      </trkpt>
      <trkpt lat="28.824698" lon="-17.824138">
        <ele>372.315</ele>
        <time>2018-12-03T11:14:20Z</time>
      </trkpt>
      <trkpt lat="28.824634" lon="-17.824289">
        <ele>368.008</ele>
        <time>2018-12-03T11:14:34Z</time>
      </trkpt>
      <trkpt lat="28.825066" lon="-17.824616">
        <ele>372.610</ele>
        <time>2018-12-03T11:15:11Z</time>
      </trkpt>
      <trkpt lat="28.825096" lon="-17.825227">
        <ele>383.848</ele>
        <time>2018-12-03T11:16:15Z</time>
      </trkpt>
      <trkpt lat="28.825393" lon="-17.825502">
        <ele>389.967</ele>
        <time>2018-12-03T11:16:57Z</time>
      </trkpt>
      <trkpt lat="28.825433" lon="-17.825674">
        <ele>392.251</ele>
        <time>2018-12-03T11:18:19Z</time>
      </trkpt>
      <trkpt lat="28.826116" lon="-17.826091">
        <ele>384.245</ele>
        <time>2018-12-03T11:20:07Z</time>
      </trkpt>
      <trkpt lat="28.826158" lon="-17.826246">
        <ele>382.990</ele>
        <time>2018-12-03T11:20:58Z</time>
      </trkpt>
      <trkpt lat="28.826635" lon="-17.826438">
        <ele>384.827</ele>
        <time>2018-12-03T11:22:18Z</time>
      </trkpt>
      <trkpt lat="28.826845" lon="-17.826351">
        <ele>380.063</ele>
        <time>2018-12-03T11:24:02Z</time>
      </trkpt>
      <trkpt lat="28.827037" lon="-17.826444">
        <ele>377.823</ele>
        <time>2018-12-03T11:24:57Z</time>
      </trkpt>
      <trkpt lat="28.827235" lon="-17.826708">
        <ele>376.983</ele>
        <time>2018-12-03T11:25:20Z</time>
      </trkpt>
      <trkpt lat="28.827827" lon="-17.826997">
        <ele>377.711</ele>
        <time>2018-12-03T11:27:59Z</time>
      </trkpt>
      <trkpt lat="28.827760" lon="-17.827569">
        <ele>385.908</ele>
        <time>2018-12-03T11:28:50Z</time>
      </trkpt>
      <trkpt lat="28.827590" lon="-17.827759">
        <ele>387.345</ele>
        <time>2018-12-03T11:29:09Z</time>
      </trkpt>
      <trkpt lat="28.827326" lon="-17.828665">
        <ele>399.823</ele>
        <time>2018-12-03T11:30:25Z</time>
      </trkpt>
      <trkpt lat="28.826891" lon="-17.829262">
        <ele>403.092</ele>
        <time>2018-12-03T11:32:04Z</time>
      </trkpt>
      <trkpt lat="28.827055" lon="-17.829346">
        <ele>395.526</ele>
        <time>2018-12-03T11:32:37Z</time>
      </trkpt>
      <trkpt lat="28.827023" lon="-17.829456">
        <ele>391.990</ele>
        <time>2018-12-03T11:32:52Z</time>
      </trkpt>
      <trkpt lat="28.826562" lon="-17.829627">
        <ele>378.695</ele>
        <time>2018-12-03T11:33:46Z</time>
      </trkpt>
      <trkpt lat="28.826339" lon="-17.830249">
        <ele>390.532</ele>
        <time>2018-12-03T11:35:21Z</time>
      </trkpt>
      <trkpt lat="28.825749" lon="-17.830367">
        <ele>408.248</ele>
        <time>2018-12-03T11:39:31Z</time>
      </trkpt>
      <trkpt lat="28.825955" lon="-17.830541">
        <ele>411.259</ele>
        <time>2018-12-03T11:39:56Z</time>
      </trkpt>
      <trkpt lat="28.826370" lon="-17.830638">
        <ele>417.103</ele>
        <time>2018-12-03T11:40:30Z</time>
      </trkpt>
      <trkpt lat="28.826105" lon="-17.830991">
        <ele>411.723</ele>
        <time>2018-12-03T11:41:39Z</time>
      </trkpt>
      <trkpt lat="28.826085" lon="-17.831154">
        <ele>410.608</ele>
        <time>2018-12-03T11:41:49Z</time>
      </trkpt>
      <trkpt lat="28.826424" lon="-17.831512">
        <ele>414.258</ele>
        <time>2018-12-03T11:42:23Z</time>
      </trkpt>
      <trkpt lat="28.826539" lon="-17.831781">
        <ele>410.486</ele>
        <time>2018-12-03T11:42:42Z</time>
      </trkpt>
      <trkpt lat="28.826670" lon="-17.831746">
        <ele>408.925</ele>
        <time>2018-12-03T11:43:03Z</time>
      </trkpt>
      <trkpt lat="28.826620" lon="-17.831841">
        <ele>409.089</ele>
        <time>2018-12-03T11:44:12Z</time>
      </trkpt>
      <trkpt lat="28.826768" lon="-17.832133">
        <ele>402.113</ele>
        <time>2018-12-03T11:47:23Z</time>
      </trkpt>
      <trkpt lat="28.827053" lon="-17.832247">
        <ele>397.298</ele>
        <time>2018-12-03T11:48:56Z</time>
      </trkpt>
      <trkpt lat="28.827039" lon="-17.832455">
        <ele>390.975</ele>
        <time>2018-12-03T11:49:28Z</time>
      </trkpt>
      <trkpt lat="28.826715" lon="-17.832566">
        <ele>382.741</ele>
        <time>2018-12-03T11:50:05Z</time>
      </trkpt>
      <trkpt lat="28.826994" lon="-17.832756">
        <ele>374.665</ele>
        <time>2018-12-03T11:50:41Z</time>
      </trkpt>
      <trkpt lat="28.826757" lon="-17.832806">
        <ele>367.468</ele>
        <time>2018-12-03T11:51:16Z</time>
      </trkpt>
      <trkpt lat="28.826726" lon="-17.832910">
        <ele>365.014</ele>
        <time>2018-12-03T11:51:27Z</time>
      </trkpt>
      <trkpt lat="28.826818" lon="-17.833025">
        <ele>360.308</ele>
        <time>2018-12-03T11:51:50Z</time>
      </trkpt>
      <trkpt lat="28.826945" lon="-17.832944">
        <ele>355.459</ele>
        <time>2018-12-03T11:52:14Z</time>
      </trkpt>
      <trkpt lat="28.827063" lon="-17.833102">
        <ele>351.087</ele>
        <time>2018-12-03T11:52:35Z</time>
      </trkpt>
      <trkpt lat="28.826881" lon="-17.833097">
        <ele>347.436</ele>
        <time>2018-12-03T11:52:52Z</time>
      </trkpt>
      <trkpt lat="28.826759" lon="-17.833326">
        <ele>341.020</ele>
        <time>2018-12-03T11:53:21Z</time>
      </trkpt>
      <trkpt lat="28.826461" lon="-17.833149">
        <ele>336.264</ele>
        <time>2018-12-03T11:53:48Z</time>
      </trkpt>
      <trkpt lat="28.826430" lon="-17.833309">
        <ele>333.649</ele>
        <time>2018-12-03T11:54:02Z</time>
      </trkpt>
      <trkpt lat="28.826496" lon="-17.833279">
        <ele>332.596</ele>
        <time>2018-12-03T11:54:09Z</time>
      </trkpt>
      <trkpt lat="28.826329" lon="-17.833337">
        <ele>328.752</ele>
        <time>2018-12-03T11:54:25Z</time>
      </trkpt>
      <trkpt lat="28.826077" lon="-17.833208">
        <ele>325.514</ele>
        <time>2018-12-03T11:54:41Z</time>
      </trkpt>
      <trkpt lat="28.826093" lon="-17.833323">
        <ele>324.854</ele>
        <time>2018-12-03T11:54:48Z</time>
      </trkpt>
      <trkpt lat="28.825962" lon="-17.833434">
        <ele>324.409</ele>
        <time>2018-12-03T11:54:58Z</time>
      </trkpt>
      <trkpt lat="28.825926" lon="-17.833365">
        <ele>321.808</ele>
        <time>2018-12-03T11:55:23Z</time>
      </trkpt>
      <trkpt lat="28.825679" lon="-17.833489">
        <ele>315.844</ele>
        <time>2018-12-03T11:55:45Z</time>
      </trkpt>
      <trkpt lat="28.825539" lon="-17.833415">
        <ele>313.142</ele>
        <time>2018-12-03T11:55:55Z</time>
      </trkpt>
      <trkpt lat="28.825443" lon="-17.833607">
        <ele>311.491</ele>
        <time>2018-12-03T11:56:05Z</time>
      </trkpt>
      <trkpt lat="28.825326" lon="-17.833507">
        <ele>308.775</ele>
        <time>2018-12-03T11:56:17Z</time>
      </trkpt>
      <trkpt lat="28.825356" lon="-17.833606">
        <ele>307.079</ele>
        <time>2018-12-03T11:56:24Z</time>
      </trkpt>
      <trkpt lat="28.825555" lon="-17.833611">
        <ele>303.634</ele>
        <time>2018-12-03T11:56:40Z</time>
      </trkpt>
      <trkpt lat="28.825414" lon="-17.833575">
        <ele>298.151</ele>
        <time>2018-12-03T11:57:03Z</time>
      </trkpt>
      <trkpt lat="28.825147" lon="-17.833688">
        <ele>291.597</ele>
        <time>2018-12-03T11:57:42Z</time>
      </trkpt>
      <trkpt lat="28.825067" lon="-17.833785">
        <ele>287.024</ele>
        <time>2018-12-03T11:58:08Z</time>
      </trkpt>
      <trkpt lat="28.825145" lon="-17.833839">
        <ele>282.704</ele>
        <time>2018-12-03T11:58:31Z</time>
      </trkpt>
      <trkpt lat="28.824933" lon="-17.833731">
        <ele>279.814</ele>
        <time>2018-12-03T12:01:12Z</time>
      </trkpt>
      <trkpt lat="28.824654" lon="-17.833738">
        <ele>272.108</ele>
        <time>2018-12-03T12:02:03Z</time>
      </trkpt>
      <trkpt lat="28.824488" lon="-17.834034">
        <ele>268.745</ele>
        <time>2018-12-03T12:02:27Z</time>
      </trkpt>
      <trkpt lat="28.824087" lon="-17.833873">
        <ele>268.913</ele>
        <time>2018-12-03T12:02:48Z</time>
      </trkpt>
      <trkpt lat="28.823899" lon="-17.833946">
        <ele>264.482</ele>
        <time>2018-12-03T12:03:08Z</time>
      </trkpt>
      <trkpt lat="28.824203" lon="-17.834091">
        <ele>258.826</ele>
        <time>2018-12-03T12:03:40Z</time>
      </trkpt>
      <trkpt lat="28.824195" lon="-17.833973">
        <ele>257.780</ele>
        <time>2018-12-03T12:04:14Z</time>
      </trkpt>
      <trkpt lat="28.824245" lon="-17.834148">
        <ele>256.495</ele>
        <time>2018-12-03T12:05:04Z</time>
      </trkpt>
      <trkpt lat="28.824092" lon="-17.834259">
        <ele>252.912</ele>
        <time>2018-12-03T12:05:21Z</time>
      </trkpt>
      <trkpt lat="28.823975" lon="-17.834125">
        <ele>249.158</ele>
        <time>2018-12-03T12:05:50Z</time>
      </trkpt>
      <trkpt lat="28.823732" lon="-17.834411">
        <ele>242.231</ele>
        <time>2018-12-03T12:06:56Z</time>
      </trkpt>
      <trkpt lat="28.823789" lon="-17.834513">
        <ele>239.861</ele>
        <time>2018-12-03T12:07:06Z</time>
      </trkpt>
      <trkpt lat="28.824735" lon="-17.834390">
        <ele>215.807</ele>
        <time>2018-12-03T12:09:16Z</time>
      </trkpt>
      <trkpt lat="28.824419" lon="-17.834875">
        <ele>212.408</ele>
        <time>2018-12-03T12:11:51Z</time>
      </trkpt>
      <trkpt lat="28.824320" lon="-17.834774">
        <ele>212.016</ele>
        <time>2018-12-03T12:12:24Z</time>
      </trkpt>
      <trkpt lat="28.824055" lon="-17.834938">
        <ele>215.824</ele>
        <time>2018-12-03T12:12:59Z</time>
      </trkpt>
      <trkpt lat="28.823783" lon="-17.834821">
        <ele>217.913</ele>
        <time>2018-12-03T12:13:24Z</time>
      </trkpt>
      <trkpt lat="28.823635" lon="-17.835086">
        <ele>217.977</ele>
        <time>2018-12-03T12:14:23Z</time>
      </trkpt>
      <trkpt lat="28.823578" lon="-17.834933">
        <ele>219.231</ele>
        <time>2018-12-03T12:14:37Z</time>
      </trkpt>
      <trkpt lat="28.823652" lon="-17.834748">
        <ele>221.076</ele>
        <time>2018-12-03T12:14:48Z</time>
      </trkpt>
      <trkpt lat="28.823563" lon="-17.834684">
        <ele>221.263</ele>
        <time>2018-12-03T12:14:54Z</time>
      </trkpt>
      <trkpt lat="28.823398" lon="-17.835218">
        <ele>221.319</ele>
        <time>2018-12-03T12:15:02Z</time>
      </trkpt>
      <trkpt lat="28.823472" lon="-17.834843">
        <ele>223.587</ele>
        <time>2018-12-03T12:15:56Z</time>
      </trkpt>
      <trkpt lat="28.823371" lon="-17.834907">
        <ele>223.442</ele>
        <time>2018-12-03T12:16:03Z</time>
      </trkpt>
      <trkpt lat="28.822968" lon="-17.834588">
        <ele>229.526</ele>
        <time>2018-12-03T12:16:57Z</time>
      </trkpt>
      <trkpt lat="28.822965" lon="-17.834728">
        <ele>230.008</ele>
        <time>2018-12-03T12:17:32Z</time>
      </trkpt>
      <trkpt lat="28.823196" lon="-17.834814">
        <ele>226.581</ele>
        <time>2018-12-03T12:18:44Z</time>
      </trkpt>
      <trkpt lat="28.823257" lon="-17.834958">
        <ele>224.629</ele>
        <time>2018-12-03T12:19:03Z</time>
      </trkpt>
      <trkpt lat="28.823511" lon="-17.834943">
        <ele>223.218</ele>
        <time>2018-12-03T12:19:36Z</time>
      </trkpt>
      <trkpt lat="28.823456" lon="-17.835007">
        <ele>223.742</ele>
        <time>2018-12-03T12:20:00Z</time>
      </trkpt>
      <trkpt lat="28.823516" lon="-17.834909">
        <ele>222.166</ele>
        <time>2018-12-03T12:23:05Z</time>
      </trkpt>
      <trkpt lat="28.823824" lon="-17.834831">
        <ele>218.271</ele>
        <time>2018-12-03T12:23:57Z</time>
      </trkpt>
      <trkpt lat="28.824056" lon="-17.834905">
        <ele>216.268</ele>
        <time>2018-12-03T12:25:07Z</time>
      </trkpt>
      <trkpt lat="28.824453" lon="-17.834867">
        <ele>211.894</ele>
        <time>2018-12-03T12:25:44Z</time>
      </trkpt>
      <trkpt lat="28.824614" lon="-17.834728">
        <ele>210.447</ele>
        <time>2018-12-03T12:26:09Z</time>
      </trkpt>
      <trkpt lat="28.824791" lon="-17.834892">
        <ele>211.829</ele>
        <time>2018-12-03T12:26:29Z</time>
      </trkpt>
      <trkpt lat="28.825202" lon="-17.834912">
        <ele>224.421</ele>
        <time>2018-12-03T12:27:24Z</time>
      </trkpt>
      <trkpt lat="28.825194" lon="-17.835040">
        <ele>228.108</ele>
        <time>2018-12-03T12:28:04Z</time>
      </trkpt>
      <trkpt lat="28.825318" lon="-17.834943">
        <ele>229.087</ele>
        <time>2018-12-03T12:28:23Z</time>
      </trkpt>
      <trkpt lat="28.825244" lon="-17.834878">
        <ele>229.035</ele>
        <time>2018-12-03T12:28:34Z</time>
      </trkpt>
      <trkpt lat="28.825308" lon="-17.834783">
        <ele>229.174</ele>
        <time>2018-12-03T12:28:49Z</time>
      </trkpt>
      <trkpt lat="28.825781" lon="-17.835454">
        <ele>253.418</ele>
        <time>2018-12-03T12:33:13Z</time>
      </trkpt>
      <trkpt lat="28.826238" lon="-17.835620">
        <ele>263.432</ele>
        <time>2018-12-03T12:35:15Z</time>
      </trkpt>
      <trkpt lat="28.826236" lon="-17.835727">
        <ele>263.747</ele>
        <time>2018-12-03T12:35:28Z</time>
      </trkpt>
      <trkpt lat="28.826249" lon="-17.835630">
        <ele>266.554</ele>
        <time>2018-12-03T12:35:40Z</time>
      </trkpt>
      <trkpt lat="28.826153" lon="-17.835597">
        <ele>267.530</ele>
        <time>2018-12-03T12:35:49Z</time>
      </trkpt>
      <trkpt lat="28.826333" lon="-17.835600">
        <ele>271.298</ele>
        <time>2018-12-03T12:36:21Z</time>
      </trkpt>
      <trkpt lat="28.826437" lon="-17.835705">
        <ele>270.515</ele>
        <time>2018-12-03T12:36:39Z</time>
      </trkpt>
      <trkpt lat="28.826406" lon="-17.835873">
        <ele>269.226</ele>
        <time>2018-12-03T12:36:56Z</time>
      </trkpt>
      <trkpt lat="28.826585" lon="-17.835753">
        <ele>264.708</ele>
        <time>2018-12-03T12:37:48Z</time>
      </trkpt>
      <trkpt lat="28.827078" lon="-17.835823">
        <ele>265.672</ele>
        <time>2018-12-03T12:38:28Z</time>
      </trkpt>
      <trkpt lat="28.827033" lon="-17.835920">
        <ele>270.130</ele>
        <time>2018-12-03T12:38:45Z</time>
      </trkpt>
      <trkpt lat="28.827304" lon="-17.836019">
        <ele>278.389</ele>
        <time>2018-12-03T12:39:23Z</time>
      </trkpt>
      <trkpt lat="28.827101" lon="-17.836036">
        <ele>285.653</ele>
        <time>2018-12-03T12:39:49Z</time>
      </trkpt>
      <trkpt lat="28.827139" lon="-17.836229">
        <ele>292.797</ele>
        <time>2018-12-03T12:40:22Z</time>
      </trkpt>
      <trkpt lat="28.828080" lon="-17.836767">
        <ele>321.242</ele>
        <time>2018-12-03T12:42:14Z</time>
      </trkpt>
      <trkpt lat="28.827975" lon="-17.836875">
        <ele>326.119</ele>
        <time>2018-12-03T12:42:39Z</time>
      </trkpt>
      <trkpt lat="28.828152" lon="-17.836921">
        <ele>320.155</ele>
        <time>2018-12-03T12:43:50Z</time>
      </trkpt>
      <trkpt lat="28.828114" lon="-17.837300">
        <ele>315.615</ele>
        <time>2018-12-03T12:44:11Z</time>
      </trkpt>
      <trkpt lat="28.828175" lon="-17.837185">
        <ele>314.865</ele>
        <time>2018-12-03T12:44:35Z</time>
      </trkpt>
      <trkpt lat="28.827981" lon="-17.837170">
        <ele>314.911</ele>
        <time>2018-12-03T12:45:10Z</time>
      </trkpt>
      <trkpt lat="28.827996" lon="-17.837483">
        <ele>308.708</ele>
        <time>2018-12-03T12:45:44Z</time>
      </trkpt>
      <trkpt lat="28.827793" lon="-17.837488">
        <ele>304.794</ele>
        <time>2018-12-03T12:46:05Z</time>
      </trkpt>
      <trkpt lat="28.827775" lon="-17.837614">
        <ele>299.212</ele>
        <time>2018-12-03T12:46:31Z</time>
      </trkpt>
      <trkpt lat="28.828107" lon="-17.837655">
        <ele>292.241</ele>
        <time>2018-12-03T12:47:15Z</time>
      </trkpt>
      <trkpt lat="28.828317" lon="-17.837535">
        <ele>289.195</ele>
        <time>2018-12-03T12:47:42Z</time>
      </trkpt>
      <trkpt lat="28.828420" lon="-17.837288">
        <ele>290.869</ele>
        <time>2018-12-03T12:48:03Z</time>
      </trkpt>
      <trkpt lat="28.828592" lon="-17.837537">
        <ele>295.074</ele>
        <time>2018-12-03T12:48:37Z</time>
      </trkpt>
      <trkpt lat="28.828469" lon="-17.837542">
        <ele>300.061</ele>
        <time>2018-12-03T12:49:01Z</time>
      </trkpt>
      <trkpt lat="28.828827" lon="-17.838094">
        <ele>320.077</ele>
        <time>2018-12-03T12:51:01Z</time>
      </trkpt>
      <trkpt lat="28.829404" lon="-17.838063">
        <ele>317.039</ele>
        <time>2018-12-03T12:53:11Z</time>
      </trkpt>
      <trkpt lat="28.829373" lon="-17.838168">
        <ele>316.101</ele>
        <time>2018-12-03T12:53:26Z</time>
      </trkpt>
      <trkpt lat="28.829548" lon="-17.838117">
        <ele>315.721</ele>
        <time>2018-12-03T12:57:31Z</time>
      </trkpt>
      <trkpt lat="28.829494" lon="-17.838175">
        <ele>315.708</ele>
        <time>2018-12-03T12:57:40Z</time>
      </trkpt>
      <trkpt lat="28.829751" lon="-17.838160">
        <ele>311.566</ele>
        <time>2018-12-03T12:58:06Z</time>
      </trkpt>
      <trkpt lat="28.830317" lon="-17.838359">
        <ele>300.124</ele>
        <time>2018-12-03T12:59:00Z</time>
      </trkpt>
      <trkpt lat="28.830909" lon="-17.838290">
        <ele>289.193</ele>
        <time>2018-12-03T12:59:58Z</time>
      </trkpt>
      <trkpt lat="28.831284" lon="-17.838453">
        <ele>281.817</ele>
        <time>2018-12-03T13:00:39Z</time>
      </trkpt>
      <trkpt lat="28.831371" lon="-17.838584">
        <ele>279.081</ele>
        <time>2018-12-03T13:00:52Z</time>
      </trkpt>
      <trkpt lat="28.831343" lon="-17.838868">
        <ele>277.026</ele>
        <time>2018-12-03T13:01:20Z</time>
      </trkpt>
      <trkpt lat="28.831105" lon="-17.838959">
        <ele>274.273</ele>
        <time>2018-12-03T13:02:11Z</time>
      </trkpt>
      <trkpt lat="28.830945" lon="-17.839181">
        <ele>270.139</ele>
        <time>2018-12-03T13:02:29Z</time>
      </trkpt>
      <trkpt lat="28.831450" lon="-17.839324">
        <ele>259.272</ele>
        <time>2018-12-03T13:06:26Z</time>
      </trkpt>
      <trkpt lat="28.831999" lon="-17.840375">
        <ele>251.113</ele>
        <time>2018-12-03T13:08:21Z</time>
      </trkpt>
      <trkpt lat="28.832087" lon="-17.840769">
        <ele>247.214</ele>
        <time>2018-12-03T13:09:00Z</time>
      </trkpt>
      <trkpt lat="28.832347" lon="-17.840949">
        <ele>241.408</ele>
        <time>2018-12-03T13:09:35Z</time>
      </trkpt>
      <trkpt lat="28.832420" lon="-17.841278">
        <ele>235.490</ele>
        <time>2018-12-03T13:10:18Z</time>
      </trkpt>
      <trkpt lat="28.832994" lon="-17.841513">
        <ele>227.358</ele>
        <time>2018-12-03T13:11:08Z</time>
      </trkpt>
      <trkpt lat="28.833112" lon="-17.841963">
        <ele>221.327</ele>
        <time>2018-12-03T13:11:37Z</time>
      </trkpt>
      <trkpt lat="28.833744" lon="-17.842902">
        <ele>214.541</ele>
        <time>2018-12-03T13:15:08Z</time>
      </trkpt>
      <trkpt lat="28.833793" lon="-17.843136">
        <ele>212.235</ele>
        <time>2018-12-03T13:15:36Z</time>
      </trkpt>
      <trkpt lat="28.833558" lon="-17.843182">
        <ele>213.320</ele>
        <time>2018-12-03T13:19:34Z</time>
      </trkpt>
      <trkpt lat="28.834057" lon="-17.843454">
        <ele>196.597</ele>
        <time>2018-12-03T13:23:19Z</time>
      </trkpt>
      <trkpt lat="28.834048" lon="-17.844082">
        <ele>190.433</ele>
        <time>2018-12-03T13:24:12Z</time>
      </trkpt>
      <trkpt lat="28.833879" lon="-17.844341">
        <ele>185.535</ele>
        <time>2018-12-03T13:24:43Z</time>
      </trkpt>
      <trkpt lat="28.834181" lon="-17.844293">
        <ele>173.686</ele>
        <time>2018-12-03T13:28:15Z</time>
      </trkpt>
      <trkpt lat="28.834083" lon="-17.844490">
        <ele>166.614</ele>
        <time>2018-12-03T13:28:46Z</time>
      </trkpt>
      <trkpt lat="28.834462" lon="-17.844519">
        <ele>154.508</ele>
        <time>2018-12-03T13:29:37Z</time>
      </trkpt>
      <trkpt lat="28.834427" lon="-17.844619">
        <ele>148.936</ele>
        <time>2018-12-03T13:30:15Z</time>
      </trkpt>
      <trkpt lat="28.834625" lon="-17.844780">
        <ele>143.434</ele>
        <time>2018-12-03T13:30:37Z</time>
      </trkpt>
      <trkpt lat="28.834671" lon="-17.844658">
        <ele>141.583</ele>
        <time>2018-12-03T13:33:41Z</time>
      </trkpt>
      <trkpt lat="28.834526" lon="-17.844461">
        <ele>138.117</ele>
        <time>2018-12-03T13:42:01Z</time>
      </trkpt>
      <trkpt lat="28.834503" lon="-17.844152">
        <ele>133.221</ele>
        <time>2018-12-03T13:42:57Z</time>
      </trkpt>
      <trkpt lat="28.834745" lon="-17.843883">
        <ele>128.776</ele>
        <time>2018-12-03T13:43:36Z</time>
      </trkpt>
      <trkpt lat="28.834654" lon="-17.843895">
        <ele>127.913</ele>
        <time>2018-12-03T13:44:22Z</time>
      </trkpt>
      <trkpt lat="28.834583" lon="-17.843762">
        <ele>125.049</ele>
        <time>2018-12-03T13:44:58Z</time>
      </trkpt>
      <trkpt lat="28.834685" lon="-17.843584">
        <ele>119.952</ele>
        <time>2018-12-03T13:45:47Z</time>
      </trkpt>
      <trkpt lat="28.834898" lon="-17.843496">
        <ele>109.353</ele>
        <time>2018-12-03T13:46:46Z</time>
      </trkpt>
      <trkpt lat="28.834982" lon="-17.843309">
        <ele>102.308</ele>
        <time>2018-12-03T13:47:34Z</time>
      </trkpt>
      <trkpt lat="28.835036" lon="-17.843377">
        <ele>98.108</ele>
        <time>2018-12-03T13:47:59Z</time>
      </trkpt>
      <trkpt lat="28.835206" lon="-17.843252">
        <ele>91.668</ele>
        <time>2018-12-03T13:48:52Z</time>
      </trkpt>
      <trkpt lat="28.835102" lon="-17.843334">
        <ele>90.056</ele>
        <time>2018-12-03T13:53:28Z</time>
      </trkpt>
      <trkpt lat="28.835170" lon="-17.843462">
        <ele>85.785</ele>
        <time>2018-12-03T13:53:49Z</time>
      </trkpt>
      <trkpt lat="28.835073" lon="-17.843455">
        <ele>82.669</ele>
        <time>2018-12-03T13:54:08Z</time>
      </trkpt>
      <trkpt lat="28.835158" lon="-17.843498">
        <ele>79.773</ele>
        <time>2018-12-03T13:54:26Z</time>
      </trkpt>
      <trkpt lat="28.835057" lon="-17.843619">
        <ele>77.648</ele>
        <time>2018-12-03T13:54:41Z</time>
      </trkpt>
      <trkpt lat="28.835192" lon="-17.843269">
        <ele>90.785</ele>
        <time>2018-12-03T13:59:14Z</time>
      </trkpt>
      <trkpt lat="28.834942" lon="-17.843414">
        <ele>97.351</ele>
        <time>2018-12-03T14:00:38Z</time>
      </trkpt>
      <trkpt lat="28.834887" lon="-17.843350">
        <ele>99.912</ele>
        <time>2018-12-03T14:00:50Z</time>
      </trkpt>
      <trkpt lat="28.834694" lon="-17.843554">
        <ele>118.032</ele>
        <time>2018-12-03T14:02:56Z</time>
      </trkpt>
      <trkpt lat="28.834598" lon="-17.843966">
        <ele>130.505</ele>
        <time>2018-12-03T14:06:23Z</time>
      </trkpt>
      <trkpt lat="28.834388" lon="-17.844192">
        <ele>134.908</ele>
        <time>2018-12-03T14:06:52Z</time>
      </trkpt>
      <trkpt lat="28.834541" lon="-17.844331">
        <ele>137.264</ele>
        <time>2018-12-03T14:07:13Z</time>
      </trkpt>
      <trkpt lat="28.834510" lon="-17.844488">
        <ele>139.542</ele>
        <time>2018-12-03T14:07:29Z</time>
      </trkpt>
      <trkpt lat="28.834654" lon="-17.844752">
        <ele>146.841</ele>
        <time>2018-12-03T14:08:07Z</time>
      </trkpt>
      <trkpt lat="28.834366" lon="-17.844637">
        <ele>146.215</ele>
        <time>2018-12-03T14:10:15Z</time>
      </trkpt>
      <trkpt lat="28.834112" lon="-17.844708">
        <ele>143.029</ele>
        <time>2018-12-03T14:10:35Z</time>
      </trkpt>
      <trkpt lat="28.833350" lon="-17.845226">
        <ele>125.894</ele>
        <time>2018-12-03T14:12:13Z</time>
      </trkpt>
      <trkpt lat="28.833583" lon="-17.845622">
        <ele>122.311</ele>
        <time>2018-12-03T14:13:06Z</time>
      </trkpt>
      <trkpt lat="28.833551" lon="-17.845469">
        <ele>122.217</ele>
        <time>2018-12-03T14:13:19Z</time>
      </trkpt>
      <trkpt lat="28.833714" lon="-17.845340">
        <ele>119.789</ele>
        <time>2018-12-03T14:13:47Z</time>
      </trkpt>
      <trkpt lat="28.834208" lon="-17.845382">
        <ele>115.306</ele>
        <time>2018-12-03T14:14:31Z</time>
      </trkpt>
      <trkpt lat="28.834095" lon="-17.845606">
        <ele>112.426</ele>
        <time>2018-12-03T14:14:51Z</time>
      </trkpt>
      <trkpt lat="28.833675" lon="-17.845815">
        <ele>104.008</ele>
        <time>2018-12-03T14:15:40Z</time>
      </trkpt>
      <trkpt lat="28.833719" lon="-17.845916">
        <ele>100.321</ele>
        <time>2018-12-03T14:16:52Z</time>
      </trkpt>
      <trkpt lat="28.833608" lon="-17.846133">
        <ele>92.129</ele>
        <time>2018-12-03T14:18:47Z</time>
      </trkpt>
      <trkpt lat="28.833671" lon="-17.846197">
        <ele>90.918</ele>
        <time>2018-12-03T14:18:54Z</time>
      </trkpt>
      <trkpt lat="28.833765" lon="-17.846084">
        <ele>85.632</ele>
        <time>2018-12-03T14:19:16Z</time>
      </trkpt>
      <trkpt lat="28.833677" lon="-17.846213">
        <ele>82.876</ele>
        <time>2018-12-03T14:19:31Z</time>
      </trkpt>
      <trkpt lat="28.833774" lon="-17.846233">
        <ele>78.761</ele>
        <time>2018-12-03T14:19:52Z</time>
      </trkpt>
      <trkpt lat="28.833881" lon="-17.846474">
        <ele>70.068</ele>
        <time>2018-12-03T14:20:36Z</time>
      </trkpt>
      <trkpt lat="28.833820" lon="-17.846582">
        <ele>67.014</ele>
        <time>2018-12-03T14:20:54Z</time>
      </trkpt>
      <trkpt lat="28.833999" lon="-17.846639">
        <ele>63.054</ele>
        <time>2018-12-03T14:21:23Z</time>
      </trkpt>
      <trkpt lat="28.833907" lon="-17.847060">
        <ele>54.456</ele>
        <time>2018-12-03T14:22:13Z</time>
      </trkpt>
      <trkpt lat="28.834115" lon="-17.846903">
        <ele>49.911</ele>
        <time>2018-12-03T14:22:41Z</time>
      </trkpt>
      <trkpt lat="28.834287" lon="-17.847111">
        <ele>46.808</ele>
        <time>2018-12-03T14:23:02Z</time>
      </trkpt>
      <trkpt lat="28.834084" lon="-17.847198">
        <ele>33.548</ele>
        <time>2018-12-03T14:24:53Z</time>
      </trkpt>
      <trkpt lat="28.833990" lon="-17.847388">
        <ele>28.856</ele>
        <time>2018-12-03T14:26:22Z</time>
      </trkpt>
      <trkpt lat="28.833584" lon="-17.847556">
        <ele>26.265</ele>
        <time>2018-12-03T14:26:58Z</time>
      </trkpt>
      <trkpt lat="28.833427" lon="-17.847497">
        <ele>25.599</ele>
        <time>2018-12-03T14:27:07Z</time>
      </trkpt>
      <trkpt lat="28.833516" lon="-17.847346">
        <ele>25.863</ele>
        <time>2018-12-03T14:27:16Z</time>
      </trkpt>
      <trkpt lat="28.833378" lon="-17.847783">
        <ele>27.328</ele>
        <time>2018-12-03T14:29:06Z</time>
      </trkpt>
      <trkpt lat="28.833428" lon="-17.847617">
        <ele>27.115</ele>
        <time>2018-12-03T14:29:26Z</time>
      </trkpt>
      <trkpt lat="28.833318" lon="-17.847495">
        <ele>27.751</ele>
        <time>2018-12-03T14:30:20Z</time>
      </trkpt>
      <trkpt lat="28.833609" lon="-17.847168">
        <ele>28.935</ele>
        <time>2018-12-03T14:30:28Z</time>
      </trkpt>
      <trkpt lat="28.833341" lon="-17.847504">
        <ele>29.686</ele>
        <time>2018-12-03T14:30:46Z</time>
      </trkpt>
      <trkpt lat="28.833344" lon="-17.847270">
        <ele>32.314</ele>
        <time>2018-12-03T14:30:59Z</time>
      </trkpt>
      <trkpt lat="28.833183" lon="-17.847478">
        <ele>36.108</ele>
        <time>2018-12-03T14:31:23Z</time>
      </trkpt>
      <trkpt lat="28.833608" lon="-17.847877">
        <ele>58.316</ele>
        <time>2018-12-03T14:33:14Z</time>
      </trkpt>
      <trkpt lat="28.833286" lon="-17.848007">
        <ele>72.724</ele>
        <time>2018-12-03T14:36:10Z</time>
      </trkpt>
      <trkpt lat="28.833136" lon="-17.848311">
        <ele>81.653</ele>
        <time>2018-12-03T14:36:42Z</time>
      </trkpt>
      <trkpt lat="28.833540" lon="-17.848488">
        <ele>90.377</ele>
        <time>2018-12-03T14:37:26Z</time>
      </trkpt>
      <trkpt lat="28.833661" lon="-17.848305">
        <ele>94.221</ele>
        <time>2018-12-03T14:37:42Z</time>
      </trkpt>
      <trkpt lat="28.833819" lon="-17.848275">
        <ele>100.076</ele>
        <time>2018-12-03T14:40:19Z</time>
      </trkpt>
      <trkpt lat="28.833380" lon="-17.848387">
        <ele>110.813</ele>
        <time>2018-12-03T14:41:25Z</time>
      </trkpt>
      <trkpt lat="28.833543" lon="-17.848535">
        <ele>118.139</ele>
        <time>2018-12-03T14:41:55Z</time>
      </trkpt>
      <trkpt lat="28.833364" lon="-17.848545">
        <ele>125.088</ele>
        <time>2018-12-03T14:42:21Z</time>
      </trkpt>
      <trkpt lat="28.833661" lon="-17.848620">
        <ele>133.524</ele>
        <time>2018-12-03T14:42:59Z</time>
      </trkpt>
      <trkpt lat="28.833766" lon="-17.849376">
        <ele>150.226</ele>
        <time>2018-12-03T14:46:21Z</time>
      </trkpt>
      <trkpt lat="28.833698" lon="-17.849247">
        <ele>150.308</ele>
        <time>2018-12-03T14:49:13Z</time>
      </trkpt>
      <trkpt lat="28.833529" lon="-17.849332">
        <ele>156.931</ele>
        <time>2018-12-03T14:49:41Z</time>
      </trkpt>
      <trkpt lat="28.833061" lon="-17.849252">
        <ele>169.879</ele>
        <time>2018-12-03T14:50:48Z</time>
      </trkpt>
      <trkpt lat="28.832517" lon="-17.849727">
        <ele>188.258</ele>
        <time>2018-12-03T14:53:22Z</time>
      </trkpt>
      <trkpt lat="28.832550" lon="-17.850007">
        <ele>195.262</ele>
        <time>2018-12-03T14:53:52Z</time>
      </trkpt>
      <trkpt lat="28.832720" lon="-17.850249">
        <ele>206.726</ele>
        <time>2018-12-03T14:58:46Z</time>
      </trkpt>
      <trkpt lat="28.832252" lon="-17.850201">
        <ele>218.371</ele>
        <time>2018-12-03T15:07:22Z</time>
      </trkpt>
      <trkpt lat="28.832513" lon="-17.850453">
        <ele>224.368</ele>
        <time>2018-12-03T15:08:21Z</time>
      </trkpt>
      <trkpt lat="28.832144" lon="-17.850531">
        <ele>237.964</ele>
        <time>2018-12-03T15:09:12Z</time>
      </trkpt>
      <trkpt lat="28.832242" lon="-17.850645">
        <ele>242.919</ele>
        <time>2018-12-03T15:09:33Z</time>
      </trkpt>
      <trkpt lat="28.832161" lon="-17.850721">
        <ele>247.709</ele>
        <time>2018-12-03T15:09:54Z</time>
      </trkpt>
      <trkpt lat="28.832369" lon="-17.850864">
        <ele>252.419</ele>
        <time>2018-12-03T15:10:53Z</time>
      </trkpt>
      <trkpt lat="28.831633" lon="-17.851021">
        <ele>271.408</ele>
        <time>2018-12-03T15:15:12Z</time>
      </trkpt>
      <trkpt lat="28.831127" lon="-17.851636">
        <ele>288.654</ele>
        <time>2018-12-03T15:16:25Z</time>
      </trkpt>
      <trkpt lat="28.831394" lon="-17.851565">
        <ele>292.242</ele>
        <time>2018-12-03T15:16:56Z</time>
      </trkpt>
      <trkpt lat="28.831351" lon="-17.851766">
        <ele>296.251</ele>
        <time>2018-12-03T15:17:16Z</time>
      </trkpt>
      <trkpt lat="28.830518" lon="-17.852095">
        <ele>317.375</ele>
        <time>2018-12-03T15:18:55Z</time>
      </trkpt>
      <trkpt lat="28.829417" lon="-17.853052">
        <ele>336.069</ele>
        <time>2018-12-03T15:21:52Z</time>
      </trkpt>
      <trkpt lat="28.828919" lon="-17.853128">
        <ele>344.444</ele>
        <time>2018-12-03T15:22:34Z</time>
      </trkpt>
      <trkpt lat="28.828460" lon="-17.853468">
        <ele>350.281</ele>
        <time>2018-12-03T15:23:35Z</time>
      </trkpt>
      <trkpt lat="28.828462" lon="-17.853577">
        <ele>351.027</ele>
        <time>2018-12-03T15:24:01Z</time>
      </trkpt>
      <trkpt lat="28.828683" lon="-17.853258">
        <ele>350.057</ele>
        <time>2018-12-03T15:24:39Z</time>
      </trkpt>
      <trkpt lat="28.828430" lon="-17.853841">
        <ele>354.800</ele>
        <time>2018-12-03T15:25:25Z</time>
      </trkpt>
      <trkpt lat="28.828005" lon="-17.854262">
        <ele>360.820</ele>
        <time>2018-12-03T15:26:08Z</time>
      </trkpt>
      <trkpt lat="28.828566" lon="-17.854639">
        <ele>371.508</ele>
        <time>2018-12-03T15:27:00Z</time>
      </trkpt>
      <trkpt lat="28.828590" lon="-17.854790">
        <ele>375.118</ele>
        <time>2018-12-03T15:27:17Z</time>
      </trkpt>
      <trkpt lat="28.828258" lon="-17.854715">
        <ele>383.196</ele>
        <time>2018-12-03T15:27:51Z</time>
      </trkpt>
      <trkpt lat="28.828196" lon="-17.854962">
        <ele>389.085</ele>
        <time>2018-12-03T15:28:15Z</time>
      </trkpt>
      <trkpt lat="28.827531" lon="-17.855183">
        <ele>405.229</ele>
        <time>2018-12-03T15:29:44Z</time>
      </trkpt>
      <trkpt lat="28.827512" lon="-17.855343">
        <ele>405.323</ele>
        <time>2018-12-03T15:29:56Z</time>
      </trkpt>
      <trkpt lat="28.827293" lon="-17.855505">
        <ele>403.858</ele>
        <time>2018-12-03T15:30:14Z</time>
      </trkpt>
      <trkpt lat="28.826974" lon="-17.856029">
        <ele>402.865</ele>
        <time>2018-12-03T15:30:57Z</time>
      </trkpt>
      <trkpt lat="28.826084" lon="-17.856482">
        <ele>404.741</ele>
        <time>2018-12-03T15:32:06Z</time>
      </trkpt>
      <trkpt lat="28.825610" lon="-17.857096">
        <ele>408.464</ele>
        <time>2018-12-03T15:32:47Z</time>
      </trkpt>
      <trkpt lat="28.825412" lon="-17.857024">
        <ele>409.806</ele>
        <time>2018-12-03T15:33:00Z</time>
      </trkpt>
      <trkpt lat="28.825291" lon="-17.856839">
        <ele>410.416</ele>
        <time>2018-12-03T15:33:17Z</time>
      </trkpt>
      <trkpt lat="28.825080" lon="-17.856852">
        <ele>410.908</ele>
        <time>2018-12-03T15:33:29Z</time>
      </trkpt>
      <trkpt lat="28.824983" lon="-17.856969">
        <ele>411.089</ele>
        <time>2018-12-03T15:33:40Z</time>
      </trkpt>
      <trkpt lat="28.824993" lon="-17.857309">
        <ele>411.137</ele>
        <time>2018-12-03T15:34:01Z</time>
      </trkpt>
      <trkpt lat="28.825238" lon="-17.857638">
        <ele>409.626</ele>
        <time>2018-12-03T15:34:26Z</time>
      </trkpt>
      <trkpt lat="28.825876" lon="-17.858008">
        <ele>412.150</ele>
        <time>2018-12-03T15:35:15Z</time>
      </trkpt>
      <trkpt lat="28.825830" lon="-17.858124">
        <ele>412.814</ele>
        <time>2018-12-03T15:35:24Z</time>
      </trkpt>
      <trkpt lat="28.825415" lon="-17.858314">
        <ele>417.859</ele>
        <time>2018-12-03T15:35:59Z</time>
      </trkpt>
      <trkpt lat="28.825500" lon="-17.858523">
        <ele>419.786</ele>
        <time>2018-12-03T15:36:12Z</time>
      </trkpt>
      <trkpt lat="28.826500" lon="-17.858649">
        <ele>432.672</ele>
        <time>2018-12-03T15:37:35Z</time>
      </trkpt>
      <trkpt lat="28.826917" lon="-17.858405">
        <ele>437.599</ele>
        <time>2018-12-03T15:38:11Z</time>
      </trkpt>
      <trkpt lat="28.827373" lon="-17.858363">
        <ele>439.607</ele>
        <time>2018-12-03T15:38:39Z</time>
      </trkpt>
      <trkpt lat="28.827657" lon="-17.858488">
        <ele>439.827</ele>
        <time>2018-12-03T15:39:15Z</time>
      </trkpt>
      <trkpt lat="28.827868" lon="-17.859246">
        <ele>440.808</ele>
        <time>2018-12-03T15:40:30Z</time>
      </trkpt>
      <trkpt lat="28.828369" lon="-17.859175">
        <ele>429.762</ele>
        <time>2018-12-03T15:42:36Z</time>
      </trkpt>
      <trkpt lat="28.828410" lon="-17.859284">
        <ele>429.230</ele>
        <time>2018-12-03T15:42:48Z</time>
      </trkpt>
      <trkpt lat="28.828408" lon="-17.858983">
        <ele>424.019</ele>
        <time>2018-12-03T15:45:40Z</time>
      </trkpt>
    </trkseg>
  </trk></gpx>