<?xml version="1.0" encoding="UTF-8"?>
<gpx creator="Wikiloc - https://www.wikiloc.com" version="1.1" xmlns="http://www.topografix.com/GPX/1/1" xmlns:xsi="http://www.w3.org/2001/XMLSchema-instance" xsi:schemaLocation="http://www.topografix.com/GPX/1/1 http://www.topografix.com/GPX/1/1/gpx.xsd">
  <metadata>
    <name>Wikiloc - Malpaís de la Arena (circular) - Fuerteventura</name>
    <link href="https://www.wikiloc.com/hiking-trails/malpais-de-la-arena-circular-fuerteventura-4241222">
      <text>Malpaís de la Arena (circular) - Fuerteventura - Wikiloc on Wikiloc</text>
    </link>
    <time>2013-04-06T10:02:09Z</time>
  </metadata>
  <trk>
    <name>Malpaís de la Arena (circular) - Fuerteventura - Wikiloc</name>
    <cmt></cmt>
    <desc></desc>
    <trkseg>
      <trkpt lat="28.623023" lon="-13.915350">
        <ele>263.389</ele>
        <time>2013-04-06T06:16:41Z</time>
      </trkpt>
      <trkpt lat="28.623065" lon="-13.915558">
        <ele>262.006</ele>
        <time>2013-04-06T06:16:54Z</time>
      </trkpt>
      <trkpt lat="28.623021" lon="-13.915763">
        <ele>260.226</ele>
        <time>2013-04-06T06:17:15Z</time>
      </trkpt>
      <trkpt lat="28.623071" lon="-13.915968">
        <ele>259.707</ele>
        <time>2013-04-06T06:17:40Z</time>
      </trkpt>
      <trkpt lat="28.623156" lon="-13.916148">
        <ele>260.622</ele>
        <time>2013-04-06T06:18:02Z</time>
      </trkpt>
      <trkpt lat="28.623247" lon="-13.916336">
        <ele>263.490</ele>
        <time>2013-04-06T06:18:24Z</time>
      </trkpt>
      <trkpt lat="28.623339" lon="-13.916515">
        <ele>265.642</ele>
        <time>2013-04-06T06:18:38Z</time>
      </trkpt>
      <trkpt lat="28.623451" lon="-13.916677">
        <ele>266.799</ele>
        <time>2013-04-06T06:18:51Z</time>
      </trkpt>
      <trkpt lat="28.623574" lon="-13.916844">
        <ele>269.320</ele>
        <time>2013-04-06T06:19:05Z</time>
      </trkpt>
      <trkpt lat="28.623709" lon="-13.916992">
        <ele>271.870</ele>
        <time>2013-04-06T06:19:19Z</time>
      </trkpt>
      <trkpt lat="28.623827" lon="-13.917163">
        <ele>271.180</ele>
        <time>2013-04-06T06:19:32Z</time>
      </trkpt>
      <trkpt lat="28.623950" lon="-13.917315">
        <ele>270.365</ele>
        <time>2013-04-06T06:19:45Z</time>
      </trkpt>
      <trkpt lat="28.624051" lon="-13.917486">
        <ele>269.468</ele>
        <time>2013-04-06T06:19:58Z</time>
      </trkpt>
      <trkpt lat="28.624177" lon="-13.917640">
        <ele>268.314</ele>
        <time>2013-04-06T06:20:14Z</time>
      </trkpt>
      <trkpt lat="28.624286" lon="-13.918047">
        <ele>260.207</ele>
        <time>2013-04-06T06:22:23Z</time>
      </trkpt>
      <trkpt lat="28.624342" lon="-13.918242">
        <ele>255.840</ele>
        <time>2013-04-06T06:22:49Z</time>
      </trkpt>
      <trkpt lat="28.624463" lon="-13.918396">
        <ele>254.488</ele>
        <time>2013-04-06T06:23:08Z</time>
      </trkpt>
      <trkpt lat="28.624533" lon="-13.918595">
        <ele>250.090</ele>
        <time>2013-04-06T06:23:23Z</time>
      </trkpt>
      <trkpt lat="28.624706" lon="-13.918663">
        <ele>250.347</ele>
        <time>2013-04-06T06:24:16Z</time>
      </trkpt>
      <trkpt lat="28.624890" lon="-13.918585">
        <ele>252.588</ele>
        <time>2013-04-06T06:24:30Z</time>
      </trkpt>
      <trkpt lat="28.625054" lon="-13.918475">
        <ele>254.228</ele>
        <time>2013-04-06T06:24:45Z</time>
      </trkpt>
      <trkpt lat="28.625232" lon="-13.918390">
        <ele>255.468</ele>
        <time>2013-04-06T06:25:00Z</time>
      </trkpt>
      <trkpt lat="28.625397" lon="-13.918303">
        <ele>255.414</ele>
        <time>2013-04-06T06:25:13Z</time>
      </trkpt>
      <trkpt lat="28.625560" lon="-13.918207">
        <ele>254.954</ele>
        <time>2013-04-06T06:25:26Z</time>
      </trkpt>
      <trkpt lat="28.625741" lon="-13.918120">
        <ele>255.709</ele>
        <time>2013-04-06T06:25:39Z</time>
      </trkpt>
      <trkpt lat="28.625910" lon="-13.918020">
        <ele>256.807</ele>
        <time>2013-04-06T06:25:57Z</time>
      </trkpt>
      <trkpt lat="28.626088" lon="-13.917984">
        <ele>258.155</ele>
        <time>2013-04-06T06:26:11Z</time>
      </trkpt>
      <trkpt lat="28.626279" lon="-13.918001">
        <ele>259.363</ele>
        <time>2013-04-06T06:26:25Z</time>
      </trkpt>
      <trkpt lat="28.626460" lon="-13.917995">
        <ele>260.325</ele>
        <time>2013-04-06T06:26:38Z</time>
      </trkpt>
      <trkpt lat="28.626652" lon="-13.918003">
        <ele>261.192</ele>
        <time>2013-04-06T06:26:53Z</time>
      </trkpt>
      <trkpt lat="28.626832" lon="-13.918020">
        <ele>261.633</ele>
        <time>2013-04-06T06:27:07Z</time>
      </trkpt>
      <trkpt lat="28.627017" lon="-13.918034">
        <ele>262.293</ele>
        <time>2013-04-06T06:27:22Z</time>
      </trkpt>
      <trkpt lat="28.627198" lon="-13.918057">
        <ele>262.963</ele>
        <time>2013-04-06T06:27:34Z</time>
      </trkpt>
      <trkpt lat="28.627382" lon="-13.918063">
        <ele>265.472</ele>
        <time>2013-04-06T06:27:47Z</time>
      </trkpt>
      <trkpt lat="28.627566" lon="-13.918085">
        <ele>267.613</ele>
        <time>2013-04-06T06:28:02Z</time>
      </trkpt>
      <trkpt lat="28.627737" lon="-13.918155">
        <ele>268.814</ele>
        <time>2013-04-06T06:28:15Z</time>
      </trkpt>
      <trkpt lat="28.627925" lon="-13.918136">
        <ele>268.307</ele>
        <time>2013-04-06T06:28:53Z</time>
      </trkpt>
      <trkpt lat="28.628109" lon="-13.918169">
        <ele>267.621</ele>
        <time>2013-04-06T06:29:06Z</time>
      </trkpt>
      <trkpt lat="28.628283" lon="-13.918229">
        <ele>267.499</ele>
        <time>2013-04-06T06:29:19Z</time>
      </trkpt>
      <trkpt lat="28.628467" lon="-13.918193">
        <ele>268.221</ele>
        <time>2013-04-06T06:29:34Z</time>
      </trkpt>
      <trkpt lat="28.628646" lon="-13.918232">
        <ele>269.218</ele>
        <time>2013-04-06T06:29:48Z</time>
      </trkpt>
      <trkpt lat="28.628829" lon="-13.918248">
        <ele>270.369</ele>
        <time>2013-04-06T06:30:02Z</time>
      </trkpt>
      <trkpt lat="28.629019" lon="-13.918255">
        <ele>271.149</ele>
        <time>2013-04-06T06:30:17Z</time>
      </trkpt>
      <trkpt lat="28.629207" lon="-13.918251">
        <ele>271.549</ele>
        <time>2013-04-06T06:30:33Z</time>
      </trkpt>
      <trkpt lat="28.629387" lon="-13.918288">
        <ele>271.862</ele>
        <time>2013-04-06T06:30:49Z</time>
      </trkpt>
      <trkpt lat="28.629559" lon="-13.918381">
        <ele>274.183</ele>
        <time>2013-04-06T06:31:06Z</time>
      </trkpt>
      <trkpt lat="28.629723" lon="-13.918502">
        <ele>277.211</ele>
        <time>2013-04-06T06:31:19Z</time>
      </trkpt>
      <trkpt lat="28.629887" lon="-13.918623">
        <ele>280.407</ele>
        <time>2013-04-06T06:31:34Z</time>
      </trkpt>
      <trkpt lat="28.630057" lon="-13.918727">
        <ele>282.490</ele>
        <time>2013-04-06T06:31:48Z</time>
      </trkpt>
      <trkpt lat="28.630231" lon="-13.918787">
        <ele>282.988</ele>
        <time>2013-04-06T06:32:02Z</time>
      </trkpt>
      <trkpt lat="28.630388" lon="-13.918680">
        <ele>283.720</ele>
        <time>2013-04-06T06:32:24Z</time>
      </trkpt>
      <trkpt lat="28.630573" lon="-13.918653">
        <ele>283.277</ele>
        <time>2013-04-06T06:32:47Z</time>
      </trkpt>
      <trkpt lat="28.630718" lon="-13.918526">
        <ele>283.598</ele>
        <time>2013-04-06T06:33:14Z</time>
      </trkpt>
      <trkpt lat="28.630842" lon="-13.918373">
        <ele>282.598</ele>
        <time>2013-04-06T06:33:35Z</time>
      </trkpt>
      <trkpt lat="28.631022" lon="-13.918316">
        <ele>290.898</ele>
        <time>2013-04-06T06:33:59Z</time>
      </trkpt>
      <trkpt lat="28.631179" lon="-13.918211">
        <ele>300.999</ele>
        <time>2013-04-06T06:34:26Z</time>
      </trkpt>
      <trkpt lat="28.631353" lon="-13.918125">
        <ele>311.307</ele>
        <time>2013-04-06T06:34:44Z</time>
      </trkpt>
      <trkpt lat="28.631530" lon="-13.918083">
        <ele>316.827</ele>
        <time>2013-04-06T06:35:11Z</time>
      </trkpt>
      <trkpt lat="28.631697" lon="-13.917993">
        <ele>320.107</ele>
        <time>2013-04-06T06:35:32Z</time>
      </trkpt>
      <trkpt lat="28.631743" lon="-13.917790">
        <ele>322.853</ele>
        <time>2013-04-06T06:36:09Z</time>
      </trkpt>
      <trkpt lat="28.631553" lon="-13.917810">
        <ele>321.741</ele>
        <time>2013-04-06T06:36:29Z</time>
      </trkpt>
      <trkpt lat="28.631374" lon="-13.917759">
        <ele>320.663</ele>
        <time>2013-04-06T06:36:47Z</time>
      </trkpt>
      <trkpt lat="28.631228" lon="-13.917628">
        <ele>317.330</ele>
        <time>2013-04-06T06:37:02Z</time>
      </trkpt>
      <trkpt lat="28.631135" lon="-13.917437">
        <ele>318.731</ele>
        <time>2013-04-06T06:37:20Z</time>
      </trkpt>
      <trkpt lat="28.631142" lon="-13.917231">
        <ele>322.981</ele>
        <time>2013-04-06T06:37:38Z</time>
      </trkpt>
      <trkpt lat="28.631226" lon="-13.917041">
        <ele>327.281</ele>
        <time>2013-04-06T06:40:31Z</time>
      </trkpt>
      <trkpt lat="28.631358" lon="-13.916896">
        <ele>328.074</ele>
        <time>2013-04-06T06:40:46Z</time>
      </trkpt>
      <trkpt lat="28.631550" lon="-13.916836">
        <ele>328.056</ele>
        <time>2013-04-06T06:42:20Z</time>
      </trkpt>
      <trkpt lat="28.631738" lon="-13.916834">
        <ele>327.121</ele>
        <time>2013-04-06T06:42:34Z</time>
      </trkpt>
      <trkpt lat="28.631919" lon="-13.916875">
        <ele>325.107</ele>
        <time>2013-04-06T06:42:51Z</time>
      </trkpt>
      <trkpt lat="28.632044" lon="-13.916725">
        <ele>317.321</ele>
        <time>2013-04-06T06:44:25Z</time>
      </trkpt>
      <trkpt lat="28.632205" lon="-13.916621">
        <ele>307.149</ele>
        <time>2013-04-06T06:45:22Z</time>
      </trkpt>
      <trkpt lat="28.632333" lon="-13.916465">
        <ele>302.111</ele>
        <time>2013-04-06T06:46:05Z</time>
      </trkpt>
      <trkpt lat="28.632435" lon="-13.916638">
        <ele>300.868</ele>
        <time>2013-04-06T06:46:30Z</time>
      </trkpt>
      <trkpt lat="28.632541" lon="-13.916809">
        <ele>299.569</ele>
        <time>2013-04-06T06:46:46Z</time>
      </trkpt>
      <trkpt lat="28.632615" lon="-13.916998">
        <ele>298.379</ele>
        <time>2013-04-06T06:47:00Z</time>
      </trkpt>
      <trkpt lat="28.632689" lon="-13.917187">
        <ele>295.169</ele>
        <time>2013-04-06T06:47:13Z</time>
      </trkpt>
      <trkpt lat="28.632866" lon="-13.917229">
        <ele>291.336</ele>
        <time>2013-04-06T06:47:30Z</time>
      </trkpt>
      <trkpt lat="28.632852" lon="-13.917435">
        <ele>288.317</ele>
        <time>2013-04-06T06:47:47Z</time>
      </trkpt>
      <trkpt lat="28.632834" lon="-13.917639">
        <ele>287.218</ele>
        <time>2013-04-06T06:48:02Z</time>
      </trkpt>
      <trkpt lat="28.632837" lon="-13.917844">
        <ele>287.207</ele>
        <time>2013-04-06T06:48:20Z</time>
      </trkpt>
      <trkpt lat="28.632827" lon="-13.918060">
        <ele>289.897</ele>
        <time>2013-04-06T06:48:33Z</time>
      </trkpt>
      <trkpt lat="28.632791" lon="-13.918272">
        <ele>293.035</ele>
        <time>2013-04-06T06:48:48Z</time>
      </trkpt>
      <trkpt lat="28.632833" lon="-13.918489">
        <ele>292.277</ele>
        <time>2013-04-06T06:49:02Z</time>
      </trkpt>
      <trkpt lat="28.632964" lon="-13.918653">
        <ele>289.334</ele>
        <time>2013-04-06T06:49:17Z</time>
      </trkpt>
      <trkpt lat="28.633123" lon="-13.918760">
        <ele>286.165</ele>
        <time>2013-04-06T06:49:31Z</time>
      </trkpt>
      <trkpt lat="28.633130" lon="-13.918964">
        <ele>285.865</ele>
        <time>2013-04-06T06:49:52Z</time>
      </trkpt>
      <trkpt lat="28.633051" lon="-13.919156">
        <ele>286.035</ele>
        <time>2013-04-06T06:50:04Z</time>
      </trkpt>
      <trkpt lat="28.633236" lon="-13.919181">
        <ele>286.018</ele>
        <time>2013-04-06T06:50:48Z</time>
      </trkpt>
      <trkpt lat="28.633418" lon="-13.919163">
        <ele>286.398</ele>
        <time>2013-04-06T06:51:02Z</time>
      </trkpt>
      <trkpt lat="28.633601" lon="-13.919153">
        <ele>286.917</ele>
        <time>2013-04-06T06:51:15Z</time>
      </trkpt>
      <trkpt lat="28.633785" lon="-13.919174">
        <ele>285.707</ele>
        <time>2013-04-06T06:51:29Z</time>
      </trkpt>
      <trkpt lat="28.633970" lon="-13.919152">
        <ele>285.475</ele>
        <time>2013-04-06T06:51:48Z</time>
      </trkpt>
      <trkpt lat="28.634158" lon="-13.919185">
        <ele>285.853</ele>
        <time>2013-04-06T06:52:22Z</time>
      </trkpt>
      <trkpt lat="28.634321" lon="-13.919296">
        <ele>287.045</ele>
        <time>2013-04-06T06:52:35Z</time>
      </trkpt>
      <trkpt lat="28.634510" lon="-13.919283">
        <ele>289.032</ele>
        <time>2013-04-06T06:52:49Z</time>
      </trkpt>
      <trkpt lat="28.634660" lon="-13.919167">
        <ele>289.013</ele>
        <time>2013-04-06T06:53:02Z</time>
      </trkpt>
      <trkpt lat="28.634842" lon="-13.919163">
        <ele>287.773</ele>
        <time>2013-04-06T06:53:14Z</time>
      </trkpt>
      <trkpt lat="28.635027" lon="-13.919161">
        <ele>285.683</ele>
        <time>2013-04-06T06:53:27Z</time>
      </trkpt>
      <trkpt lat="28.635210" lon="-13.919213">
        <ele>282.669</ele>
        <time>2013-04-06T06:53:41Z</time>
      </trkpt>
      <trkpt lat="28.635351" lon="-13.919343">
        <ele>281.504</ele>
        <time>2013-04-06T06:53:54Z</time>
      </trkpt>
      <trkpt lat="28.635521" lon="-13.919410">
        <ele>283.424</ele>
        <time>2013-04-06T06:54:07Z</time>
      </trkpt>
      <trkpt lat="28.635693" lon="-13.919497">
        <ele>285.007</ele>
        <time>2013-04-06T06:54:19Z</time>
      </trkpt>
      <trkpt lat="28.635867" lon="-13.919560">
        <ele>286.230</ele>
        <time>2013-04-06T06:54:31Z</time>
      </trkpt>
      <trkpt lat="28.636051" lon="-13.919626">
        <ele>286.778</ele>
        <time>2013-04-06T06:54:44Z</time>
      </trkpt>
      <trkpt lat="28.636223" lon="-13.919735">
        <ele>286.550</ele>
        <time>2013-04-06T06:54:57Z</time>
      </trkpt>
      <trkpt lat="28.636398" lon="-13.919828">
        <ele>285.157</ele>
        <time>2013-04-06T06:55:10Z</time>
      </trkpt>
      <trkpt lat="28.636575" lon="-13.919898">
        <ele>285.778</ele>
        <time>2013-04-06T06:55:24Z</time>
      </trkpt>
      <trkpt lat="28.636725" lon="-13.920029">
        <ele>287.378</ele>
        <time>2013-04-06T06:55:39Z</time>
      </trkpt>
      <trkpt lat="28.636875" lon="-13.920158">
        <ele>288.738</ele>
        <time>2013-04-06T06:55:52Z</time>
      </trkpt>
      <trkpt lat="28.637013" lon="-13.920300">
        <ele>289.198</ele>
        <time>2013-04-06T06:56:18Z</time>
      </trkpt>
      <trkpt lat="28.637172" lon="-13.920433">
        <ele>287.715</ele>
        <time>2013-04-06T06:56:32Z</time>
      </trkpt>
      <trkpt lat="28.637316" lon="-13.920561">
        <ele>287.326</ele>
        <time>2013-04-06T06:56:45Z</time>
      </trkpt>
      <trkpt lat="28.637466" lon="-13.920689">
        <ele>286.707</ele>
        <time>2013-04-06T06:56:58Z</time>
      </trkpt>
      <trkpt lat="28.637640" lon="-13.920763">
        <ele>284.713</ele>
        <time>2013-04-06T06:57:11Z</time>
      </trkpt>
      <trkpt lat="28.637826" lon="-13.920819">
        <ele>282.391</ele>
        <time>2013-04-06T06:57:36Z</time>
      </trkpt>
      <trkpt lat="28.637992" lon="-13.920908">
        <ele>279.913</ele>
        <time>2013-04-06T06:57:53Z</time>
      </trkpt>
      <trkpt lat="28.638101" lon="-13.921090">
        <ele>278.530</ele>
        <time>2013-04-06T06:59:36Z</time>
      </trkpt>
      <trkpt lat="28.638092" lon="-13.921301">
        <ele>277.891</ele>
        <time>2013-04-06T07:00:59Z</time>
      </trkpt>
      <trkpt lat="28.638109" lon="-13.921505">
        <ele>277.211</ele>
        <time>2013-04-06T07:01:13Z</time>
      </trkpt>
      <trkpt lat="28.638106" lon="-13.921720">
        <ele>277.651</ele>
        <time>2013-04-06T07:01:26Z</time>
      </trkpt>
      <trkpt lat="28.638112" lon="-13.921934">
        <ele>278.714</ele>
        <time>2013-04-06T07:01:39Z</time>
      </trkpt>
      <trkpt lat="28.638123" lon="-13.922144">
        <ele>277.854</ele>
        <time>2013-04-06T07:01:54Z</time>
      </trkpt>
      <trkpt lat="28.638117" lon="-13.922351">
        <ele>276.709</ele>
        <time>2013-04-06T07:02:09Z</time>
      </trkpt>
      <trkpt lat="28.638114" lon="-13.922561">
        <ele>275.507</ele>
        <time>2013-04-06T07:02:23Z</time>
      </trkpt>
      <trkpt lat="28.638122" lon="-13.922768">
        <ele>275.055</ele>
        <time>2013-04-06T07:02:35Z</time>
      </trkpt>
      <trkpt lat="28.638130" lon="-13.922984">
        <ele>274.693</ele>
        <time>2013-04-06T07:02:49Z</time>
      </trkpt>
      <trkpt lat="28.638126" lon="-13.923198">
        <ele>274.195</ele>
        <time>2013-04-06T07:03:03Z</time>
      </trkpt>
      <trkpt lat="28.638112" lon="-13.923411">
        <ele>274.512</ele>
        <time>2013-04-06T07:03:16Z</time>
      </trkpt>
      <trkpt lat="28.638133" lon="-13.923615">
        <ele>275.493</ele>
        <time>2013-04-06T07:03:30Z</time>
      </trkpt>
      <trkpt lat="28.638139" lon="-13.923819">
        <ele>278.373</ele>
        <time>2013-04-06T07:03:44Z</time>
      </trkpt>
      <trkpt lat="28.638129" lon="-13.924027">
        <ele>278.563</ele>
        <time>2013-04-06T07:03:58Z</time>
      </trkpt>
      <trkpt lat="28.638139" lon="-13.924242">
        <ele>276.969</ele>
        <time>2013-04-06T07:04:13Z</time>
      </trkpt>
      <trkpt lat="28.638069" lon="-13.924433">
        <ele>278.704</ele>
        <time>2013-04-06T07:05:02Z</time>
      </trkpt>
      <trkpt lat="28.637973" lon="-13.924618">
        <ele>281.224</ele>
        <time>2013-04-06T07:05:16Z</time>
      </trkpt>
      <trkpt lat="28.637863" lon="-13.924780">
        <ele>283.307</ele>
        <time>2013-04-06T07:05:32Z</time>
      </trkpt>
      <trkpt lat="28.637816" lon="-13.924981">
        <ele>283.450</ele>
        <time>2013-04-06T07:05:46Z</time>
      </trkpt>
      <trkpt lat="28.637860" lon="-13.925186">
        <ele>281.668</ele>
        <time>2013-04-06T07:06:02Z</time>
      </trkpt>
      <trkpt lat="28.637852" lon="-13.925392">
        <ele>280.720</ele>
        <time>2013-04-06T07:06:16Z</time>
      </trkpt>
      <trkpt lat="28.637772" lon="-13.926028">
        <ele>285.857</ele>
        <time>2013-04-06T07:08:56Z</time>
      </trkpt>
      <trkpt lat="28.637767" lon="-13.926236">
        <ele>289.388</ele>
        <time>2013-04-06T07:10:01Z</time>
      </trkpt>
      <trkpt lat="28.637764" lon="-13.926447">
        <ele>292.038</ele>
        <time>2013-04-06T07:10:20Z</time>
      </trkpt>
      <trkpt lat="28.637732" lon="-13.926656">
        <ele>291.828</ele>
        <time>2013-04-06T07:10:37Z</time>
      </trkpt>
      <trkpt lat="28.637713" lon="-13.926872">
        <ele>288.972</ele>
        <time>2013-04-06T07:10:55Z</time>
      </trkpt>
      <trkpt lat="28.637707" lon="-13.927087">
        <ele>287.113</ele>
        <time>2013-04-06T07:11:09Z</time>
      </trkpt>
      <trkpt lat="28.637741" lon="-13.927295">
        <ele>286.014</ele>
        <time>2013-04-06T07:11:26Z</time>
      </trkpt>
      <trkpt lat="28.637757" lon="-13.927507">
        <ele>286.507</ele>
        <time>2013-04-06T07:11:42Z</time>
      </trkpt>
      <trkpt lat="28.637814" lon="-13.927713">
        <ele>288.751</ele>
        <time>2013-04-06T07:11:58Z</time>
      </trkpt>
      <trkpt lat="28.637829" lon="-13.927920">
        <ele>291.349</ele>
        <time>2013-04-06T07:12:18Z</time>
      </trkpt>
      <trkpt lat="28.637846" lon="-13.928127">
        <ele>293.491</ele>
        <time>2013-04-06T07:12:37Z</time>
      </trkpt>
      <trkpt lat="28.637889" lon="-13.928328">
        <ele>294.848</ele>
        <time>2013-04-06T07:12:55Z</time>
      </trkpt>
      <trkpt lat="28.637894" lon="-13.928535">
        <ele>296.689</ele>
        <time>2013-04-06T07:13:26Z</time>
      </trkpt>
      <trkpt lat="28.637972" lon="-13.928726">
        <ele>297.429</ele>
        <time>2013-04-06T07:13:42Z</time>
      </trkpt>
      <trkpt lat="28.637979" lon="-13.928935">
        <ele>299.599</ele>
        <time>2013-04-06T07:13:51Z</time>
      </trkpt>
      <trkpt lat="28.637972" lon="-13.929142">
        <ele>301.674</ele>
        <time>2013-04-06T07:14:33Z</time>
      </trkpt>
      <trkpt lat="28.637913" lon="-13.929342">
        <ele>302.556</ele>
        <time>2013-04-06T07:15:08Z</time>
      </trkpt>
      <trkpt lat="28.637940" lon="-13.929552">
        <ele>299.821</ele>
        <time>2013-04-06T07:15:48Z</time>
      </trkpt>
      <trkpt lat="28.638109" lon="-13.929625">
        <ele>295.207</ele>
        <time>2013-04-06T07:16:57Z</time>
      </trkpt>
      <trkpt lat="28.638116" lon="-13.929575">
        <ele>295.671</ele>
        <time>2013-04-06T07:21:21Z</time>
      </trkpt>
      <trkpt lat="28.638281" lon="-13.929668">
        <ele>294.629</ele>
        <time>2013-04-06T07:22:37Z</time>
      </trkpt>
      <trkpt lat="28.638441" lon="-13.929765">
        <ele>293.491</ele>
        <time>2013-04-06T07:23:14Z</time>
      </trkpt>
      <trkpt lat="28.638589" lon="-13.929889">
        <ele>291.338</ele>
        <time>2013-04-06T07:23:40Z</time>
      </trkpt>
      <trkpt lat="28.638387" lon="-13.929881">
        <ele>293.859</ele>
        <time>2013-04-06T07:24:18Z</time>
      </trkpt>
      <trkpt lat="28.638546" lon="-13.929983">
        <ele>291.779</ele>
        <time>2013-04-06T07:29:10Z</time>
      </trkpt>
      <trkpt lat="28.638700" lon="-13.930104">
        <ele>286.719</ele>
        <time>2013-04-06T07:29:29Z</time>
      </trkpt>
      <trkpt lat="28.638837" lon="-13.930241">
        <ele>281.096</ele>
        <time>2013-04-06T07:29:52Z</time>
      </trkpt>
      <trkpt lat="28.638972" lon="-13.930384">
        <ele>277.231</ele>
        <time>2013-04-06T07:30:15Z</time>
      </trkpt>
      <trkpt lat="28.639151" lon="-13.930336">
        <ele>272.124</ele>
        <time>2013-04-06T07:30:46Z</time>
      </trkpt>
      <trkpt lat="28.639343" lon="-13.930350">
        <ele>269.907</ele>
        <time>2013-04-06T07:31:12Z</time>
      </trkpt>
      <trkpt lat="28.639338" lon="-13.930558">
        <ele>272.153</ele>
        <time>2013-04-06T07:33:32Z</time>
      </trkpt>
      <trkpt lat="28.639366" lon="-13.930770">
        <ele>271.511</ele>
        <time>2013-04-06T07:33:54Z</time>
      </trkpt>
      <trkpt lat="28.639382" lon="-13.930979">
        <ele>271.143</ele>
        <time>2013-04-06T07:34:16Z</time>
      </trkpt>
      <trkpt lat="28.639383" lon="-13.931184">
        <ele>270.670</ele>
        <time>2013-04-06T07:34:41Z</time>
      </trkpt>
      <trkpt lat="28.639410" lon="-13.931386">
        <ele>268.811</ele>
        <time>2013-04-06T07:35:03Z</time>
      </trkpt>
      <trkpt lat="28.639428" lon="-13.931593">
        <ele>263.311</ele>
        <time>2013-04-06T07:35:27Z</time>
      </trkpt>
      <trkpt lat="28.639442" lon="-13.931803">
        <ele>259.151</ele>
        <time>2013-04-06T07:35:44Z</time>
      </trkpt>
      <trkpt lat="28.639490" lon="-13.932007">
        <ele>256.448</ele>
        <time>2013-04-06T07:36:05Z</time>
      </trkpt>
      <trkpt lat="28.639553" lon="-13.932202">
        <ele>254.761</ele>
        <time>2013-04-06T07:36:29Z</time>
      </trkpt>
      <trkpt lat="28.639553" lon="-13.932415">
        <ele>254.117</ele>
        <time>2013-04-06T07:36:46Z</time>
      </trkpt>
      <trkpt lat="28.639601" lon="-13.932621">
        <ele>250.707</ele>
        <time>2013-04-06T07:37:25Z</time>
      </trkpt>
      <trkpt lat="28.639730" lon="-13.932768">
        <ele>245.088</ele>
        <time>2013-04-06T07:37:55Z</time>
      </trkpt>
      <trkpt lat="28.639879" lon="-13.932887">
        <ele>244.676</ele>
        <time>2013-04-06T07:40:34Z</time>
      </trkpt>
      <trkpt lat="28.639855" lon="-13.933095">
        <ele>245.138</ele>
        <time>2013-04-06T07:41:01Z</time>
      </trkpt>
      <trkpt lat="28.639678" lon="-13.933152">
        <ele>246.515</ele>
        <time>2013-04-06T07:43:06Z</time>
      </trkpt>
      <trkpt lat="28.639573" lon="-13.932979">
        <ele>248.826</ele>
        <time>2013-04-06T07:43:31Z</time>
      </trkpt>
      <trkpt lat="28.639430" lon="-13.932850">
        <ele>254.096</ele>
        <time>2013-04-06T07:43:53Z</time>
      </trkpt>
      <trkpt lat="28.639259" lon="-13.932765">
        <ele>259.136</ele>
        <time>2013-04-06T07:44:40Z</time>
      </trkpt>
      <trkpt lat="28.639108" lon="-13.932649">
        <ele>262.622</ele>
        <time>2013-04-06T07:47:00Z</time>
      </trkpt>
      <trkpt lat="28.638976" lon="-13.932503">
        <ele>265.062</ele>
        <time>2013-04-06T07:47:33Z</time>
      </trkpt>
      <trkpt lat="28.638795" lon="-13.932455">
        <ele>266.108</ele>
        <time>2013-04-06T07:48:36Z</time>
      </trkpt>
      <trkpt lat="28.638620" lon="-13.932375">
        <ele>266.907</ele>
        <time>2013-04-06T07:52:05Z</time>
      </trkpt>
      <trkpt lat="28.638524" lon="-13.932197">
        <ele>268.256</ele>
        <time>2013-04-06T07:52:28Z</time>
      </trkpt>
      <trkpt lat="28.638392" lon="-13.932057">
        <ele>270.094</ele>
        <time>2013-04-06T07:52:53Z</time>
      </trkpt>
      <trkpt lat="28.638253" lon="-13.931922">
        <ele>272.716</ele>
        <time>2013-04-06T07:53:16Z</time>
      </trkpt>
      <trkpt lat="28.638101" lon="-13.931810">
        <ele>275.683</ele>
        <time>2013-04-06T07:53:39Z</time>
      </trkpt>
      <trkpt lat="28.637996" lon="-13.931641">
        <ele>278.134</ele>
        <time>2013-04-06T07:54:34Z</time>
      </trkpt>
      <trkpt lat="28.637970" lon="-13.931681">
        <ele>278.594</ele>
        <time>2013-04-06T07:56:31Z</time>
      </trkpt>
      <trkpt lat="28.637867" lon="-13.931511">
        <ele>284.174</ele>
        <time>2013-04-06T07:57:08Z</time>
      </trkpt>
      <trkpt lat="28.637732" lon="-13.931367">
        <ele>290.424</ele>
        <time>2013-04-06T07:57:31Z</time>
      </trkpt>
      <trkpt lat="28.637666" lon="-13.931169">
        <ele>295.404</ele>
        <time>2013-04-06T07:58:48Z</time>
      </trkpt>
      <trkpt lat="28.637630" lon="-13.930958">
        <ele>298.614</ele>
        <time>2013-04-06T07:59:47Z</time>
      </trkpt>
      <trkpt lat="28.637556" lon="-13.930767">
        <ele>301.907</ele>
        <time>2013-04-06T08:00:35Z</time>
      </trkpt>
      <trkpt lat="28.637455" lon="-13.930937">
        <ele>302.956</ele>
        <time>2013-04-06T08:02:02Z</time>
      </trkpt>
      <trkpt lat="28.637348" lon="-13.931104">
        <ele>304.984</ele>
        <time>2013-04-06T08:02:18Z</time>
      </trkpt>
      <trkpt lat="28.637287" lon="-13.931300">
        <ele>301.456</ele>
        <time>2013-04-06T08:02:53Z</time>
      </trkpt>
      <trkpt lat="28.637167" lon="-13.931459">
        <ele>297.513</ele>
        <time>2013-04-06T08:03:15Z</time>
      </trkpt>
      <trkpt lat="28.637019" lon="-13.931595">
        <ele>293.524</ele>
        <time>2013-04-06T08:03:57Z</time>
      </trkpt>
      <trkpt lat="28.636917" lon="-13.931771">
        <ele>289.564</ele>
        <time>2013-04-06T08:04:16Z</time>
      </trkpt>
      <trkpt lat="28.636817" lon="-13.931942">
        <ele>285.544</ele>
        <time>2013-04-06T08:04:34Z</time>
      </trkpt>
      <trkpt lat="28.636675" lon="-13.932085">
        <ele>284.435</ele>
        <time>2013-04-06T08:04:53Z</time>
      </trkpt>
      <trkpt lat="28.636495" lon="-13.932123">
        <ele>288.086</ele>
        <time>2013-04-06T08:05:08Z</time>
      </trkpt>
      <trkpt lat="28.636313" lon="-13.932155">
        <ele>290.314</ele>
        <time>2013-04-06T08:05:26Z</time>
      </trkpt>
      <trkpt lat="28.636138" lon="-13.932219">
        <ele>290.007</ele>
        <time>2013-04-06T08:05:43Z</time>
      </trkpt>
      <trkpt lat="28.635946" lon="-13.932236">
        <ele>291.757</ele>
        <time>2013-04-06T08:06:33Z</time>
      </trkpt>
      <trkpt lat="28.635534" lon="-13.932396">
        <ele>295.975</ele>
        <time>2013-04-06T08:08:27Z</time>
      </trkpt>
      <trkpt lat="28.635366" lon="-13.932313">
        <ele>294.977</ele>
        <time>2013-04-06T08:09:32Z</time>
      </trkpt>
      <trkpt lat="28.635175" lon="-13.932351">
        <ele>293.494</ele>
        <time>2013-04-06T08:09:59Z</time>
      </trkpt>
      <trkpt lat="28.634995" lon="-13.932334">
        <ele>291.625</ele>
        <time>2013-04-06T08:10:16Z</time>
      </trkpt>
      <trkpt lat="28.634812" lon="-13.932390">
        <ele>291.595</ele>
        <time>2013-04-06T08:10:52Z</time>
      </trkpt>
      <trkpt lat="28.634333" lon="-13.932779">
        <ele>295.085</ele>
        <time>2013-04-06T08:13:32Z</time>
      </trkpt>
      <trkpt lat="28.634178" lon="-13.932672">
        <ele>299.394</ele>
        <time>2013-04-06T08:15:10Z</time>
      </trkpt>
      <trkpt lat="28.634138" lon="-13.932472">
        <ele>302.057</ele>
        <time>2013-04-06T08:16:08Z</time>
      </trkpt>
      <trkpt lat="28.634112" lon="-13.932266">
        <ele>302.222</ele>
        <time>2013-04-06T08:17:14Z</time>
      </trkpt>
      <trkpt lat="28.634080" lon="-13.932063">
        <ele>302.307</ele>
        <time>2013-04-06T08:19:44Z</time>
      </trkpt>
      <trkpt lat="28.634074" lon="-13.931854">
        <ele>303.913</ele>
        <time>2013-04-06T08:20:06Z</time>
      </trkpt>
      <trkpt lat="28.634057" lon="-13.931649">
        <ele>307.781</ele>
        <time>2013-04-06T08:20:43Z</time>
      </trkpt>
      <trkpt lat="28.634124" lon="-13.931454">
        <ele>315.353</ele>
        <time>2013-04-06T08:21:11Z</time>
      </trkpt>
      <trkpt lat="28.634129" lon="-13.931238">
        <ele>325.780</ele>
        <time>2013-04-06T08:22:01Z</time>
      </trkpt>
      <trkpt lat="28.634094" lon="-13.931033">
        <ele>337.381</ele>
        <time>2013-04-06T08:22:47Z</time>
      </trkpt>
      <trkpt lat="28.634034" lon="-13.930838">
        <ele>349.791</ele>
        <time>2013-04-06T08:24:04Z</time>
      </trkpt>
      <trkpt lat="28.633934" lon="-13.930664">
        <ele>362.281</ele>
        <time>2013-04-06T08:25:11Z</time>
      </trkpt>
      <trkpt lat="28.633847" lon="-13.930478">
        <ele>372.173</ele>
        <time>2013-04-06T08:26:19Z</time>
      </trkpt>
      <trkpt lat="28.633799" lon="-13.930280">
        <ele>381.685</ele>
        <time>2013-04-06T08:29:41Z</time>
      </trkpt>
      <trkpt lat="28.633762" lon="-13.930078">
        <ele>387.013</ele>
        <time>2013-04-06T08:30:46Z</time>
      </trkpt>
      <trkpt lat="28.633796" lon="-13.929875">
        <ele>392.507</ele>
        <time>2013-04-06T08:31:28Z</time>
      </trkpt>
      <trkpt lat="28.633723" lon="-13.929682">
        <ele>394.351</ele>
        <time>2013-04-06T08:32:16Z</time>
      </trkpt>
      <trkpt lat="28.633704" lon="-13.929475">
        <ele>396.679</ele>
        <time>2013-04-06T08:32:36Z</time>
      </trkpt>
      <trkpt lat="28.633691" lon="-13.929263">
        <ele>398.851</ele>
        <time>2013-04-06T08:33:01Z</time>
      </trkpt>
      <trkpt lat="28.633762" lon="-13.929072">
        <ele>400.588</ele>
        <time>2013-04-06T08:33:18Z</time>
      </trkpt>
      <trkpt lat="28.633816" lon="-13.928993">
        <ele>401.079</ele>
        <time>2013-04-06T08:36:27Z</time>
      </trkpt>
      <trkpt lat="28.633776" lon="-13.929027">
        <ele>400.639</ele>
        <time>2013-04-06T08:42:52Z</time>
      </trkpt>
      <trkpt lat="28.633793" lon="-13.928814">
        <ele>400.919</ele>
        <time>2013-04-06T08:43:53Z</time>
      </trkpt>
      <trkpt lat="28.633779" lon="-13.928609">
        <ele>401.413</ele>
        <time>2013-04-06T08:44:09Z</time>
      </trkpt>
      <trkpt lat="28.633813" lon="-13.928400">
        <ele>402.143</ele>
        <time>2013-04-06T08:44:25Z</time>
      </trkpt>
      <trkpt lat="28.633903" lon="-13.928211">
        <ele>402.807</ele>
        <time>2013-04-06T08:44:52Z</time>
      </trkpt>
      <trkpt lat="28.634024" lon="-13.928058">
        <ele>403.407</ele>
        <time>2013-04-06T08:46:08Z</time>
      </trkpt>
      <trkpt lat="28.634094" lon="-13.927861">
        <ele>404.475</ele>
        <time>2013-04-06T08:46:20Z</time>
      </trkpt>
      <trkpt lat="28.634192" lon="-13.927678">
        <ele>404.513</ele>
        <time>2013-04-06T08:46:34Z</time>
      </trkpt>
      <trkpt lat="28.634290" lon="-13.927498">
        <ele>399.355</ele>
        <time>2013-04-06T08:46:47Z</time>
      </trkpt>
      <trkpt lat="28.634313" lon="-13.927702">
        <ele>401.362</ele>
        <time>2013-04-06T08:52:18Z</time>
      </trkpt>
      <trkpt lat="28.634317" lon="-13.927495">
        <ele>398.643</ele>
        <time>2013-04-06T08:59:59Z</time>
      </trkpt>
      <trkpt lat="28.634312" lon="-13.927290">
        <ele>393.673</ele>
        <time>2013-04-06T09:03:39Z</time>
      </trkpt>
      <trkpt lat="28.634390" lon="-13.927105">
        <ele>387.833</ele>
        <time>2013-04-06T09:05:14Z</time>
      </trkpt>
      <trkpt lat="28.634500" lon="-13.926940">
        <ele>381.247</ele>
        <time>2013-04-06T09:05:34Z</time>
      </trkpt>
      <trkpt lat="28.634608" lon="-13.926767">
        <ele>372.929</ele>
        <time>2013-04-06T09:06:18Z</time>
      </trkpt>
      <trkpt lat="28.634755" lon="-13.926647">
        <ele>368.421</ele>
        <time>2013-04-06T09:06:29Z</time>
      </trkpt>
      <trkpt lat="28.634933" lon="-13.926578">
        <ele>365.807</ele>
        <time>2013-04-06T09:06:46Z</time>
      </trkpt>
      <trkpt lat="28.635078" lon="-13.926710">
        <ele>369.428</ele>
        <time>2013-04-06T09:07:12Z</time>
      </trkpt>
      <trkpt lat="28.635227" lon="-13.926830">
        <ele>370.956</ele>
        <time>2013-04-06T09:07:27Z</time>
      </trkpt>
      <trkpt lat="28.635383" lon="-13.926944">
        <ele>374.638</ele>
        <time>2013-04-06T09:08:05Z</time>
      </trkpt>
      <trkpt lat="28.635384" lon="-13.926735">
        <ele>364.935</ele>
        <time>2013-04-06T09:11:59Z</time>
      </trkpt>
      <trkpt lat="28.635364" lon="-13.926531">
        <ele>355.556</ele>
        <time>2013-04-06T09:12:30Z</time>
      </trkpt>
      <trkpt lat="28.635427" lon="-13.926339">
        <ele>343.946</ele>
        <time>2013-04-06T09:13:21Z</time>
      </trkpt>
      <trkpt lat="28.635387" lon="-13.926137">
        <ele>336.886</ele>
        <time>2013-04-06T09:15:06Z</time>
      </trkpt>
      <trkpt lat="28.635278" lon="-13.925972">
        <ele>336.099</ele>
        <time>2013-04-06T09:15:41Z</time>
      </trkpt>
      <trkpt lat="28.635257" lon="-13.925768">
        <ele>331.007</ele>
        <time>2013-04-06T09:16:34Z</time>
      </trkpt>
      <trkpt lat="28.635077" lon="-13.925716">
        <ele>331.027</ele>
        <time>2013-04-06T09:17:09Z</time>
      </trkpt>
      <trkpt lat="28.634909" lon="-13.925623">
        <ele>330.107</ele>
        <time>2013-04-06T09:17:35Z</time>
      </trkpt>
      <trkpt lat="28.634801" lon="-13.925447">
        <ele>326.933</ele>
        <time>2013-04-06T09:17:57Z</time>
      </trkpt>
      <trkpt lat="28.634656" lon="-13.925324">
        <ele>324.861</ele>
        <time>2013-04-06T09:18:14Z</time>
      </trkpt>
      <trkpt lat="28.634499" lon="-13.925211">
        <ele>321.873</ele>
        <time>2013-04-06T09:18:32Z</time>
      </trkpt>
      <trkpt lat="28.634327" lon="-13.925123">
        <ele>319.760</ele>
        <time>2013-04-06T09:18:47Z</time>
      </trkpt>
      <trkpt lat="28.634200" lon="-13.924963">
        <ele>317.581</ele>
        <time>2013-04-06T09:19:07Z</time>
      </trkpt>
      <trkpt lat="28.634094" lon="-13.924787">
        <ele>316.791</ele>
        <time>2013-04-06T09:19:23Z</time>
      </trkpt>
      <trkpt lat="28.633934" lon="-13.924683">
        <ele>318.271</ele>
        <time>2013-04-06T09:19:45Z</time>
      </trkpt>
      <trkpt lat="28.633756" lon="-13.924645">
        <ele>321.255</ele>
        <time>2013-04-06T09:20:13Z</time>
      </trkpt>
      <trkpt lat="28.633584" lon="-13.924563">
        <ele>324.107</ele>
        <time>2013-04-06T09:20:49Z</time>
      </trkpt>
      <trkpt lat="28.633399" lon="-13.924520">
        <ele>324.817</ele>
        <time>2013-04-06T09:21:03Z</time>
      </trkpt>
      <trkpt lat="28.633215" lon="-13.924505">
        <ele>324.607</ele>
        <time>2013-04-06T09:21:20Z</time>
      </trkpt>
      <trkpt lat="28.633120" lon="-13.924331">
        <ele>323.939</ele>
        <time>2013-04-06T09:22:31Z</time>
      </trkpt>
      <trkpt lat="28.632977" lon="-13.924202">
        <ele>323.477</ele>
        <time>2013-04-06T09:26:53Z</time>
      </trkpt>
      <trkpt lat="28.632811" lon="-13.924118">
        <ele>323.799</ele>
        <time>2013-04-06T09:27:16Z</time>
      </trkpt>
      <trkpt lat="28.632652" lon="-13.924000">
        <ele>323.996</ele>
        <time>2013-04-06T09:27:30Z</time>
      </trkpt>
      <trkpt lat="28.632509" lon="-13.923865">
        <ele>324.827</ele>
        <time>2013-04-06T09:27:50Z</time>
      </trkpt>
      <trkpt lat="28.632349" lon="-13.923741">
        <ele>324.457</ele>
        <time>2013-04-06T09:29:21Z</time>
      </trkpt>
      <trkpt lat="28.632197" lon="-13.923624">
        <ele>323.097</ele>
        <time>2013-04-06T09:30:07Z</time>
      </trkpt>
      <trkpt lat="28.632090" lon="-13.923458">
        <ele>319.613</ele>
        <time>2013-04-06T09:31:09Z</time>
      </trkpt>
      <trkpt lat="28.632030" lon="-13.923258">
        <ele>315.643</ele>
        <time>2013-04-06T09:32:18Z</time>
      </trkpt>
      <trkpt lat="28.631995" lon="-13.923055">
        <ele>311.007</ele>
        <time>2013-04-06T09:33:27Z</time>
      </trkpt>
      <trkpt lat="28.631909" lon="-13.922867">
        <ele>304.807</ele>
        <time>2013-04-06T09:34:10Z</time>
      </trkpt>
      <trkpt lat="28.631733" lon="-13.922818">
        <ele>303.095</ele>
        <time>2013-04-06T09:34:37Z</time>
      </trkpt>
      <trkpt lat="28.631571" lon="-13.922727">
        <ele>300.133</ele>
        <time>2013-04-06T09:34:58Z</time>
      </trkpt>
      <trkpt lat="28.631520" lon="-13.922527">
        <ele>296.485</ele>
        <time>2013-04-06T09:35:32Z</time>
      </trkpt>
      <trkpt lat="28.631408" lon="-13.922363">
        <ele>294.642</ele>
        <time>2013-04-06T09:36:16Z</time>
      </trkpt>
      <trkpt lat="28.631252" lon="-13.922244">
        <ele>292.533</ele>
        <time>2013-04-06T09:36:59Z</time>
      </trkpt>
      <trkpt lat="28.631119" lon="-13.922100">
        <ele>291.583</ele>
        <time>2013-04-06T09:37:30Z</time>
      </trkpt>
      <trkpt lat="28.630944" lon="-13.922024">
        <ele>291.153</ele>
        <time>2013-04-06T09:38:04Z</time>
      </trkpt>
      <trkpt lat="28.630785" lon="-13.921924">
        <ele>290.551</ele>
        <time>2013-04-06T09:38:30Z</time>
      </trkpt>
      <trkpt lat="28.630603" lon="-13.921899">
        <ele>288.601</ele>
        <time>2013-04-06T09:38:56Z</time>
      </trkpt>
      <trkpt lat="28.630456" lon="-13.921776">
        <ele>288.111</ele>
        <time>2013-04-06T09:39:23Z</time>
      </trkpt>
      <trkpt lat="28.630288" lon="-13.921689">
        <ele>287.907</ele>
        <time>2013-04-06T09:39:50Z</time>
      </trkpt>
      <trkpt lat="28.630153" lon="-13.921552">
        <ele>287.699</ele>
        <time>2013-04-06T09:40:17Z</time>
      </trkpt>
      <trkpt lat="28.629990" lon="-13.921451">
        <ele>286.967</ele>
        <time>2013-04-06T09:40:47Z</time>
      </trkpt>
      <trkpt lat="28.629855" lon="-13.921309">
        <ele>284.279</ele>
        <time>2013-04-06T09:41:15Z</time>
      </trkpt>
      <trkpt lat="28.629744" lon="-13.921148">
        <ele>281.566</ele>
        <time>2013-04-06T09:41:47Z</time>
      </trkpt>
      <trkpt lat="28.629627" lon="-13.920990">
        <ele>279.687</ele>
        <time>2013-04-06T09:42:15Z</time>
      </trkpt>
      <trkpt lat="28.629499" lon="-13.920843">
        <ele>277.557</ele>
        <time>2013-04-06T09:42:47Z</time>
      </trkpt>
      <trkpt lat="28.629383" lon="-13.920683">
        <ele>275.447</ele>
        <time>2013-04-06T09:43:19Z</time>
      </trkpt>
      <trkpt lat="28.629202" lon="-13.920647">
        <ele>275.324</ele>
        <time>2013-04-06T09:44:36Z</time>
      </trkpt>
      <trkpt lat="28.629070" lon="-13.920507">
        <ele>275.104</ele>
        <time>2013-04-06T09:45:03Z</time>
      </trkpt>
      <trkpt lat="28.628885" lon="-13.920451">
        <ele>275.014</ele>
        <time>2013-04-06T09:45:32Z</time>
      </trkpt>
      <trkpt lat="28.628703" lon="-13.920398">
        <ele>274.307</ele>
        <time>2013-04-06T09:45:56Z</time>
      </trkpt>
      <trkpt lat="28.628536" lon="-13.920301">
        <ele>273.776</ele>
        <time>2013-04-06T09:46:19Z</time>
      </trkpt>
      <trkpt lat="28.628360" lon="-13.920232">
        <ele>272.844</ele>
        <time>2013-04-06T09:46:41Z</time>
      </trkpt>
      <trkpt lat="28.628213" lon="-13.920098">
        <ele>272.086</ele>
        <time>2013-04-06T09:46:59Z</time>
      </trkpt>
      <trkpt lat="28.628045" lon="-13.920013">
        <ele>272.073</ele>
        <time>2013-04-06T09:47:22Z</time>
      </trkpt>
      <trkpt lat="28.627898" lon="-13.919888">
        <ele>270.994</ele>
        <time>2013-04-06T09:47:53Z</time>
      </trkpt>
      <trkpt lat="28.627738" lon="-13.919788">
        <ele>270.044</ele>
        <time>2013-04-06T09:48:21Z</time>
      </trkpt>
      <trkpt lat="28.627589" lon="-13.919666">
        <ele>268.494</ele>
        <time>2013-04-06T09:48:50Z</time>
      </trkpt>
      <trkpt lat="28.627487" lon="-13.919493">
        <ele>267.236</ele>
        <time>2013-04-06T09:49:26Z</time>
      </trkpt>
      <trkpt lat="28.627407" lon="-13.919304">
        <ele>267.017</ele>
        <time>2013-04-06T09:49:57Z</time>
      </trkpt>
      <trkpt lat="28.627245" lon="-13.919193">
        <ele>267.018</ele>
        <time>2013-04-06T09:50:28Z</time>
      </trkpt>
      <trkpt lat="28.627064" lon="-13.919131">
        <ele>265.207</ele>
        <time>2013-04-06T09:50:59Z</time>
      </trkpt>
      <trkpt lat="28.626903" lon="-13.919029">
        <ele>262.837</ele>
        <time>2013-04-06T09:51:22Z</time>
      </trkpt>
      <trkpt lat="28.626770" lon="-13.918891">
        <ele>259.945</ele>
        <time>2013-04-06T09:51:47Z</time>
      </trkpt>
      <trkpt lat="28.626706" lon="-13.918695">
        <ele>258.657</ele>
        <time>2013-04-06T09:52:07Z</time>
      </trkpt>
      <trkpt lat="28.626605" lon="-13.918521">
        <ele>258.424</ele>
        <time>2013-04-06T09:52:40Z</time>
      </trkpt>
      <trkpt lat="28.626511" lon="-13.918335">
        <ele>259.485</ele>
        <time>2013-04-06T09:53:19Z</time>
      </trkpt>
      <trkpt lat="28.626438" lon="-13.918136">
        <ele>259.915</ele>
        <time>2013-04-06T09:53:42Z</time>
      </trkpt>
      <trkpt lat="28.626296" lon="-13.918004">
        <ele>259.415</ele>
        <time>2013-04-06T09:54:20Z</time>
      </trkpt>
      <trkpt lat="28.626116" lon="-13.917994">
        <ele>258.389</ele>
        <time>2013-04-06T09:54:33Z</time>
      </trkpt>
      <trkpt lat="28.625944" lon="-13.918072">
        <ele>256.706</ele>
        <time>2013-04-06T09:54:43Z</time>
      </trkpt>
      <trkpt lat="28.625767" lon="-13.918112">
        <ele>255.726</ele>
        <time>2013-04-06T09:55:04Z</time>
      </trkpt>
      <trkpt lat="28.625597" lon="-13.918202">
        <ele>255.007</ele>
        <time>2013-04-06T09:55:18Z</time>
      </trkpt>
      <trkpt lat="28.625434" lon="-13.918304">
        <ele>255.122</ele>
        <time>2013-04-06T09:55:32Z</time>
      </trkpt>
      <trkpt lat="28.625273" lon="-13.918411">
        <ele>255.450</ele>
        <time>2013-04-06T09:55:52Z</time>
      </trkpt>
      <trkpt lat="28.625096" lon="-13.918500">
        <ele>254.132</ele>
        <time>2013-04-06T09:56:06Z</time>
      </trkpt>
      <trkpt lat="28.624936" lon="-13.918620">
        <ele>252.419</ele>
        <time>2013-04-06T09:56:20Z</time>
      </trkpt>
      <trkpt lat="28.624761" lon="-13.918702">
        <ele>250.370</ele>
        <time>2013-04-06T09:56:34Z</time>
      </trkpt>
      <trkpt lat="28.624648" lon="-13.918537">
        <ele>251.730</ele>
        <time>2013-04-06T09:56:51Z</time>
      </trkpt>
      <trkpt lat="28.624714" lon="-13.918342">
        <ele>254.990</ele>
        <time>2013-04-06T09:57:05Z</time>
      </trkpt>
      <trkpt lat="28.624761" lon="-13.918123">
        <ele>256.692</ele>
        <time>2013-04-06T09:57:18Z</time>
      </trkpt>
      <trkpt lat="28.624791" lon="-13.917909">
        <ele>258.373</ele>
        <time>2013-04-06T09:57:30Z</time>
      </trkpt>
      <trkpt lat="28.624808" lon="-13.917700">
        <ele>259.320</ele>
        <time>2013-04-06T09:57:45Z</time>
      </trkpt>
      <trkpt lat="28.624851" lon="-13.917499">
        <ele>259.507</ele>
        <time>2013-04-06T09:58:18Z</time>
      </trkpt>
      <trkpt lat="28.624790" lon="-13.917301">
        <ele>258.943</ele>
        <time>2013-04-06T09:58:32Z</time>
      </trkpt>
      <trkpt lat="28.624701" lon="-13.917107">
        <ele>260.241</ele>
        <time>2013-04-06T09:58:45Z</time>
      </trkpt>
      <trkpt lat="28.624605" lon="-13.916918">
        <ele>262.533</ele>
        <time>2013-04-06T09:58:57Z</time>
      </trkpt>
      <trkpt lat="28.624479" lon="-13.916751">
        <ele>261.560</ele>
        <time>2013-04-06T09:59:10Z</time>
      </trkpt>
      <trkpt lat="28.624350" lon="-13.916600">
        <ele>260.131</ele>
        <time>2013-04-06T09:59:39Z</time>
      </trkpt>
      <trkpt lat="28.624185" lon="-13.916495">
        <ele>259.841</ele>
        <time>2013-04-06T09:59:54Z</time>
      </trkpt>
      <trkpt lat="28.624022" lon="-13.916375">
        <ele>261.071</ele>
        <time>2013-04-06T10:00:07Z</time>
      </trkpt>
      <trkpt lat="28.623846" lon="-13.916282">
        <ele>263.368</ele>
        <time>2013-04-06T10:00:21Z</time>
      </trkpt>
      <trkpt lat="28.623675" lon="-13.916182">
        <ele>262.642</ele>
        <time>2013-04-06T10:00:35Z</time>
      </trkpt>
      <trkpt lat="28.623522" lon="-13.916054">
        <ele>261.926</ele>
        <time>2013-04-06T10:00:51Z</time>
      </trkpt>
      <trkpt lat="28.623357" lon="-13.915953">
        <ele>261.807</ele>
        <time>2013-04-06T10:01:25Z</time>
      </trkpt>
      <trkpt lat="28.623200" lon="-13.915829">
        <ele>260.550</ele>
        <time>2013-04-06T10:01:40Z</time>
      </trkpt>
      <trkpt lat="28.623064" lon="-13.915682">
        <ele>261.178</ele>
        <time>2013-04-06T10:01:53Z</time>
      </trkpt>
      <trkpt lat="28.623078" lon="-13.915471">
        <ele>262.670</ele>
        <time>2013-04-06T10:02:09Z</time>
      </trkpt>
    </trkseg>
  </trk></gpx>