<?xml version="1.0" encoding="UTF-8"?>
<gpx version="1.1" creator="Aventuras en Cada Paso" xmlns="http://www.topografix.com/GPX/1/1">
  <metadata>
    <name>Malpaís de Güímar</name>
    <desc>Reserva Natural Especial con paisaje desértico volcánico rojizo. Tubos y cuevas volcánicas, miradores y flora endémica. Muy fotografiable.</desc>
    <author><name>Aventuras en Cada Paso</name></author>
    <time>2026-07-08T08:12:58.159Z</time>
    <keywords>Tenerife, Senderismo, Fácil, senderismo Canarias</keywords>
  </metadata>
  <wpt lat="28.3139" lon="-16.3994">
    <name>Malpaís de Güímar</name>
    <desc>Reserva Natural Especial con paisaje desértico volcánico rojizo. Tubos y cuevas volcánicas, miradores y flora endémica. Muy fotografiable. | Isla: Tenerife | Tipo: Senderismo | Dificultad: Fácil | Distancia: 8km | Duración: 2-4 horas</desc>
    <type>Senderismo</type>
    <extensions>
      <isla>Tenerife</isla>
      <dificultad>Fácil</dificultad>
      <distancia>8</distancia>
      <duracion>2-4 horas</duracion>
    </extensions>
  </wpt>
</gpx>