<?xml version="1.0" encoding="UTF-8"?>
<gpx version="1.1" creator="Aventuras en Cada Paso" xmlns="http://www.topografix.com/GPX/1/1">
  <metadata>
    <name>Malpaso – Cima de El Hierro</name>
    <desc>Ascenso al punto más alto de El Hierro (1.501 m). Bosques de pino canario y sabinas milenarias. Vistas a La Palma y La Gomera.</desc>
    <author><name>Aventuras en Cada Paso</name></author>
    <time>2026-07-08T08:12:58.202Z</time>
    <keywords>El Hierro, Senderismo, Media, senderismo Canarias</keywords>
  </metadata>
  <wpt lat="27.7347" lon="-18.0197">
    <name>Malpaso – Cima de El Hierro</name>
    <desc>Ascenso al punto más alto de El Hierro (1.501 m). Bosques de pino canario y sabinas milenarias. Vistas a La Palma y La Gomera. | Isla: El Hierro | Tipo: Senderismo | Dificultad: Media | Distancia: 12km | Duración: 4-8 horas</desc>
    <type>Senderismo</type>
    <extensions>
      <isla>El Hierro</isla>
      <dificultad>Media</dificultad>
      <distancia>12</distancia>
      <duracion>4-8 horas</duracion>
    </extensions>
  </wpt>
</gpx>