<?xml version="1.0" encoding="UTF-8"?>
<gpx version="1.1" creator="Aventuras en Cada Paso" xmlns="http://www.topografix.com/GPX/1/1">
  <metadata>
    <name>Barranco de Masca</name>
    <desc>Descenso espectacular por el barranco más famoso de Tenerife hasta la playa. Requiere reserva previa en el Cabildo y regreso en barco.</desc>
    <author><name>Aventuras en Cada Paso</name></author>
    <time>2026-07-08T08:12:58.157Z</time>
    <keywords>Tenerife, Senderismo, Difícil, senderismo Canarias</keywords>
  </metadata>
  <wpt lat="28.3483" lon="-16.8469">
    <name>Barranco de Masca</name>
    <desc>Descenso espectacular por el barranco más famoso de Tenerife hasta la playa. Requiere reserva previa en el Cabildo y regreso en barco. | Isla: Tenerife | Tipo: Senderismo | Dificultad: Difícil | Distancia: 6km | Duración: 4-8 horas</desc>
    <type>Senderismo</type>
    <extensions>
      <isla>Tenerife</isla>
      <dificultad>Difícil</dificultad>
      <distancia>6</distancia>
      <duracion>4-8 horas</duracion>
    </extensions>
  </wpt>
</gpx>