<?xml version="1.0" encoding="UTF-8"?>
<gpx version="1.1" creator="Aventuras en Cada Paso" xmlns="http://www.topografix.com/GPX/1/1">
  <metadata>
    <name>Mirador de Isora – Costa Este</name>
    <desc>Ruta corta hasta el Mirador de Isora con vistas aéreas a la costa este y al Mar de Las Calmas. El agua más tranquila del archipiélago en días sin viento.</desc>
    <author><name>Aventuras en Cada Paso</name></author>
    <time>2026-07-08T08:12:58.205Z</time>
    <keywords>El Hierro, Senderismo, Fácil, senderismo Canarias</keywords>
  </metadata>
  <wpt lat="27.69" lon="-17.965">
    <name>Mirador de Isora – Costa Este</name>
    <desc>Ruta corta hasta el Mirador de Isora con vistas aéreas a la costa este y al Mar de Las Calmas. El agua más tranquila del archipiélago en días sin viento. | Isla: El Hierro | Tipo: Senderismo | Dificultad: Fácil | Distancia: 5km | Duración: 2-4 horas</desc>
    <type>Senderismo</type>
    <extensions>
      <isla>El Hierro</isla>
      <dificultad>Fácil</dificultad>
      <distancia>5</distancia>
      <duracion>2-4 horas</duracion>
    </extensions>
  </wpt>
</gpx>