<?xml version="1.0" encoding="UTF-8"?>
<gpx version="1.1" creator="Aventuras en Cada Paso" xmlns="http://www.topografix.com/GPX/1/1">
  <metadata>
    <name>Mirador Lomo de Las Chozas – Caldera</name>
    <desc>Sendero con tramos junto a cornisas del borde de la Caldera de Taburiente hasta el Mirador de Los Roques. Precaución en este tramo por el acantilado.</desc>
    <author><name>Aventuras en Cada Paso</name></author>
    <time>2026-07-08T08:12:58.195Z</time>
    <keywords>La Palma, Senderismo, Difícil, senderismo Canarias</keywords>
  </metadata>
  <wpt lat="28.71" lon="-17.88">
    <name>Mirador Lomo de Las Chozas – Caldera</name>
    <desc>Sendero con tramos junto a cornisas del borde de la Caldera de Taburiente hasta el Mirador de Los Roques. Precaución en este tramo por el acantilado. | Isla: La Palma | Tipo: Senderismo | Dificultad: Difícil | Distancia: 14km | Duración: 4-8 horas</desc>
    <type>Senderismo</type>
    <extensions>
      <isla>La Palma</isla>
      <dificultad>Difícil</dificultad>
      <distancia>14</distancia>
      <duracion>4-8 horas</duracion>
    </extensions>
  </wpt>
</gpx>