<?xml version="1.0" encoding="UTF-8"?>
<gpx version="1.1" creator="Aventuras en Cada Paso" xmlns="http://www.topografix.com/GPX/1/1">
  <metadata>
    <name>Volcán de La Corona – Desde Yé</name>
    <desc>Circular desde Yé hasta el cráter del Monte Corona (609 m), el volcán que originó el mayor tubo volcánico de Europa. Vistas a La Graciosa.</desc>
    <author><name>Aventuras en Cada Paso</name></author>
    <time>2026-07-08T08:12:58.169Z</time>
    <keywords>Lanzarote, Senderismo, Media, senderismo Canarias</keywords>
  </metadata>
  <wpt lat="29.1714" lon="-13.4675">
    <name>Volcán de La Corona – Desde Yé</name>
    <desc>Circular desde Yé hasta el cráter del Monte Corona (609 m), el volcán que originó el mayor tubo volcánico de Europa. Vistas a La Graciosa. | Isla: Lanzarote | Tipo: Senderismo | Dificultad: Media | Distancia: 6km | Duración: 2-4 horas</desc>
    <type>Senderismo</type>
    <extensions>
      <isla>Lanzarote</isla>
      <dificultad>Media</dificultad>
      <distancia>6</distancia>
      <duracion>2-4 horas</duracion>
    </extensions>
  </wpt>
</gpx>