<?xml version="1.0" encoding="UTF-8"?>
<gpx creator="Wikiloc - https://www.wikiloc.com" version="1.1" xmlns="http://www.topografix.com/GPX/1/1" xmlns:xsi="http://www.w3.org/2001/XMLSchema-instance" xsi:schemaLocation="http://www.topografix.com/GPX/1/1 http://www.topografix.com/GPX/1/1/gpx.xsd">
  <metadata>
    <name>Wikiloc - Lanzarote 2024 Montaña Blanca y las Grietas</name>
    <link href="https://www.wikiloc.com/hiking-trails/lanzarote-2024-montana-blanca-y-las-grietas-233790133">
      <text>Lanzarote 2024 Montaña Blanca y las Grietas - Wikiloc on Wikiloc</text>
    </link>
    <time>2026-07-29T10:55:14.520Z</time>
  </metadata>
  <trk>
    <name>Lanzarote 2024 Montaña Blanca y las Grietas - Wikiloc</name>
    <cmt></cmt>
    <desc></desc>
    <trkseg>
      <trkpt lat="28.987286" lon="-13.639180">
        <ele>303.248</ele>
        <time>2026-07-29T10:55:14.519Z</time>
      </trkpt>
      <trkpt lat="28.987163" lon="-13.639418">
        <ele>303.261</ele>
        <time>2026-07-29T10:55:54.519Z</time>
      </trkpt>
      <trkpt lat="28.987149" lon="-13.640240">
        <ele>310.417</ele>
        <time>2026-07-29T10:56:34.519Z</time>
      </trkpt>
      <trkpt lat="28.987040" lon="-13.640493">
        <ele>310.509</ele>
        <time>2026-07-29T10:57:14.519Z</time>
      </trkpt>
      <trkpt lat="28.986505" lon="-13.641425">
        <ele>316.346</ele>
        <time>2026-07-29T10:57:54.519Z</time>
      </trkpt>
      <trkpt lat="28.986001" lon="-13.641943">
        <ele>320.387</ele>
        <time>2026-07-29T10:58:34.519Z</time>
      </trkpt>
      <trkpt lat="28.985358" lon="-13.642857">
        <ele>327.457</ele>
        <time>2026-07-29T10:59:14.519Z</time>
      </trkpt>
      <trkpt lat="28.984654" lon="-13.643456">
        <ele>336.321</ele>
        <time>2026-07-29T10:59:54.519Z</time>
      </trkpt>
      <trkpt lat="28.982942" lon="-13.644218">
        <ele>365.363</ele>
        <time>2026-07-29T11:00:34.519Z</time>
      </trkpt>
      <trkpt lat="28.981496" lon="-13.644594">
        <ele>387.054</ele>
        <time>2026-07-29T11:01:14.519Z</time>
      </trkpt>
      <trkpt lat="28.980670" lon="-13.644970">
        <ele>397.235</ele>
        <time>2026-07-29T11:01:54.519Z</time>
      </trkpt>
      <trkpt lat="28.980518" lon="-13.644967">
        <ele>399.257</ele>
        <time>2026-07-29T11:02:34.519Z</time>
      </trkpt>
      <trkpt lat="28.980526" lon="-13.644914">
        <ele>399.287</ele>
        <time>2026-07-29T11:03:14.519Z</time>
      </trkpt>
      <trkpt lat="28.979797" lon="-13.645221">
        <ele>388.993</ele>
        <time>2026-07-29T11:03:54.519Z</time>
      </trkpt>
      <trkpt lat="28.977111" lon="-13.645581">
        <ele>355.865</ele>
        <time>2026-07-29T11:04:34.519Z</time>
      </trkpt>
      <trkpt lat="28.976880" lon="-13.645706">
        <ele>354.121</ele>
        <time>2026-07-29T11:05:14.519Z</time>
      </trkpt>
      <trkpt lat="28.976877" lon="-13.645784">
        <ele>353.309</ele>
        <time>2026-07-29T11:05:54.519Z</time>
      </trkpt>
      <trkpt lat="28.976666" lon="-13.645756">
        <ele>354.671</ele>
        <time>2026-07-29T11:06:34.519Z</time>
      </trkpt>
      <trkpt lat="28.975537" lon="-13.646056">
        <ele>342.952</ele>
        <time>2026-07-29T11:07:14.519Z</time>
      </trkpt>
      <trkpt lat="28.974407" lon="-13.646024">
        <ele>333.572</ele>
        <time>2026-07-29T11:07:54.519Z</time>
      </trkpt>
      <trkpt lat="28.974268" lon="-13.646113">
        <ele>333.266</ele>
        <time>2026-07-29T11:08:34.519Z</time>
      </trkpt>
      <trkpt lat="28.973648" lon="-13.646218">
        <ele>327.148</ele>
        <time>2026-07-29T11:09:14.519Z</time>
      </trkpt>
      <trkpt lat="28.973124" lon="-13.645946">
        <ele>323.329</ele>
        <time>2026-07-29T11:09:54.519Z</time>
      </trkpt>
      <trkpt lat="28.972974" lon="-13.645960">
        <ele>322.690</ele>
        <time>2026-07-29T11:10:34.519Z</time>
      </trkpt>
      <trkpt lat="28.972397" lon="-13.645635">
        <ele>321.672</ele>
        <time>2026-07-29T11:11:14.519Z</time>
      </trkpt>
      <trkpt lat="28.971170" lon="-13.645635">
        <ele>312.712</ele>
        <time>2026-07-29T11:11:54.519Z</time>
      </trkpt>
      <trkpt lat="28.971739" lon="-13.645060">
        <ele>319.634</ele>
        <time>2026-07-29T11:12:34.519Z</time>
      </trkpt>
      <trkpt lat="28.972815" lon="-13.644322">
        <ele>339.055</ele>
        <time>2026-07-29T11:13:14.519Z</time>
      </trkpt>
      <trkpt lat="28.974024" lon="-13.643850">
        <ele>360.710</ele>
        <time>2026-07-29T11:13:54.519Z</time>
      </trkpt>
      <trkpt lat="28.973751" lon="-13.643343">
        <ele>354.209</ele>
        <time>2026-07-29T11:14:34.519Z</time>
      </trkpt>
      <trkpt lat="28.973687" lon="-13.643027">
        <ele>352.685</ele>
        <time>2026-07-29T11:15:14.519Z</time>
      </trkpt>
      <trkpt lat="28.973407" lon="-13.642970">
        <ele>344.566</ele>
        <time>2026-07-29T11:15:54.519Z</time>
      </trkpt>
      <trkpt lat="28.973449" lon="-13.642877">
        <ele>342.126</ele>
        <time>2026-07-29T11:16:34.519Z</time>
      </trkpt>
      <trkpt lat="28.973350" lon="-13.642880">
        <ele>340.840</ele>
        <time>2026-07-29T11:17:14.519Z</time>
      </trkpt>
      <trkpt lat="28.973282" lon="-13.642712">
        <ele>339.082</ele>
        <time>2026-07-29T11:17:54.519Z</time>
      </trkpt>
      <trkpt lat="28.973399" lon="-13.642484">
        <ele>338.653</ele>
        <time>2026-07-29T11:18:34.519Z</time>
      </trkpt>
      <trkpt lat="28.973646" lon="-13.642579">
        <ele>347.964</ele>
        <time>2026-07-29T11:19:14.519Z</time>
      </trkpt>
      <trkpt lat="28.973657" lon="-13.642524">
        <ele>351.836</ele>
        <time>2026-07-29T11:19:54.519Z</time>
      </trkpt>
      <trkpt lat="28.973376" lon="-13.642476">
        <ele>344.086</ele>
        <time>2026-07-29T11:20:34.519Z</time>
      </trkpt>
      <trkpt lat="28.973368" lon="-13.642415">
        <ele>341.152</ele>
        <time>2026-07-29T11:21:14.519Z</time>
      </trkpt>
      <trkpt lat="28.974098" lon="-13.639887">
        <ele>359.053</ele>
        <time>2026-07-29T11:21:54.519Z</time>
      </trkpt>
      <trkpt lat="28.974179" lon="-13.639835">
        <ele>361.308</ele>
        <time>2026-07-29T11:22:34.519Z</time>
      </trkpt>
      <trkpt lat="28.974114" lon="-13.639774">
        <ele>361.509</ele>
        <time>2026-07-29T11:23:14.519Z</time>
      </trkpt>
      <trkpt lat="28.974347" lon="-13.639748">
        <ele>364.347</ele>
        <time>2026-07-29T11:23:54.519Z</time>
      </trkpt>
      <trkpt lat="28.974177" lon="-13.639669">
        <ele>370.728</ele>
        <time>2026-07-29T11:24:34.519Z</time>
      </trkpt>
      <trkpt lat="28.974489" lon="-13.638520">
        <ele>355.798</ele>
        <time>2026-07-29T11:25:14.519Z</time>
      </trkpt>
      <trkpt lat="28.975335" lon="-13.637201">
        <ele>354.282</ele>
        <time>2026-07-29T11:25:54.519Z</time>
      </trkpt>
      <trkpt lat="28.975488" lon="-13.636875">
        <ele>353.954</ele>
        <time>2026-07-29T11:26:34.519Z</time>
      </trkpt>
      <trkpt lat="28.975435" lon="-13.636865">
        <ele>352.885</ele>
        <time>2026-07-29T11:27:14.519Z</time>
      </trkpt>
      <trkpt lat="28.975888" lon="-13.636015">
        <ele>339.056</ele>
        <time>2026-07-29T11:27:54.519Z</time>
      </trkpt>
      <trkpt lat="28.976005" lon="-13.635987">
        <ele>336.378</ele>
        <time>2026-07-29T11:28:34.519Z</time>
      </trkpt>
      <trkpt lat="28.975933" lon="-13.635928">
        <ele>332.428</ele>
        <time>2026-07-29T11:29:14.519Z</time>
      </trkpt>
      <trkpt lat="28.976000" lon="-13.635669">
        <ele>333.136</ele>
        <time>2026-07-29T11:29:54.519Z</time>
      </trkpt>
      <trkpt lat="28.976567" lon="-13.634342">
        <ele>308.917</ele>
        <time>2026-07-29T11:30:34.519Z</time>
      </trkpt>
      <trkpt lat="28.976377" lon="-13.634315">
        <ele>306.118</ele>
        <time>2026-07-29T11:31:14.519Z</time>
      </trkpt>
      <trkpt lat="28.975470" lon="-13.634677">
        <ele>292.909</ele>
        <time>2026-07-29T11:31:54.519Z</time>
      </trkpt>
      <trkpt lat="28.974956" lon="-13.634794">
        <ele>289.435</ele>
        <time>2026-07-29T11:32:34.519Z</time>
      </trkpt>
      <trkpt lat="28.974872" lon="-13.634749">
        <ele>287.126</ele>
        <time>2026-07-29T11:33:14.519Z</time>
      </trkpt>
      <trkpt lat="28.974783" lon="-13.634368">
        <ele>280.496</ele>
        <time>2026-07-29T11:33:54.519Z</time>
      </trkpt>
      <trkpt lat="28.974682" lon="-13.634257">
        <ele>277.680</ele>
        <time>2026-07-29T11:34:34.519Z</time>
      </trkpt>
      <trkpt lat="28.973931" lon="-13.635485">
        <ele>266.092</ele>
        <time>2026-07-29T11:35:14.519Z</time>
      </trkpt>
      <trkpt lat="28.973571" lon="-13.635834">
        <ele>264.443</ele>
        <time>2026-07-29T11:35:54.519Z</time>
      </trkpt>
      <trkpt lat="28.973635" lon="-13.636027">
        <ele>263.974</ele>
        <time>2026-07-29T11:36:34.519Z</time>
      </trkpt>
      <trkpt lat="28.974022" lon="-13.636259">
        <ele>274.626</ele>
        <time>2026-07-29T11:37:14.519Z</time>
      </trkpt>
      <trkpt lat="28.974039" lon="-13.636309">
        <ele>274.936</ele>
        <time>2026-07-29T11:37:54.519Z</time>
      </trkpt>
      <trkpt lat="28.973528" lon="-13.635988">
        <ele>272.986</ele>
        <time>2026-07-29T11:38:34.519Z</time>
      </trkpt>
      <trkpt lat="28.973487" lon="-13.636373">
        <ele>267.960</ele>
        <time>2026-07-29T11:39:14.519Z</time>
      </trkpt>
      <trkpt lat="28.973926" lon="-13.636801">
        <ele>283.426</ele>
        <time>2026-07-29T11:39:54.519Z</time>
      </trkpt>
      <trkpt lat="28.973912" lon="-13.636684">
        <ele>285.509</ele>
        <time>2026-07-29T11:40:34.519Z</time>
      </trkpt>
      <trkpt lat="28.974264" lon="-13.636482">
        <ele>290.940</ele>
        <time>2026-07-29T11:41:14.519Z</time>
      </trkpt>
      <trkpt lat="28.974200" lon="-13.636403">
        <ele>292.031</ele>
        <time>2026-07-29T11:41:54.519Z</time>
      </trkpt>
      <trkpt lat="28.974289" lon="-13.636223">
        <ele>292.241</ele>
        <time>2026-07-29T11:42:34.519Z</time>
      </trkpt>
      <trkpt lat="28.974649" lon="-13.635867">
        <ele>293.555</ele>
        <time>2026-07-29T11:43:14.519Z</time>
      </trkpt>
      <trkpt lat="28.974447" lon="-13.635687">
        <ele>286.417</ele>
        <time>2026-07-29T11:43:54.519Z</time>
      </trkpt>
      <trkpt lat="28.974439" lon="-13.635529">
        <ele>285.268</ele>
        <time>2026-07-29T11:44:34.519Z</time>
      </trkpt>
      <trkpt lat="28.974098" lon="-13.635343">
        <ele>275.239</ele>
        <time>2026-07-29T11:45:14.519Z</time>
      </trkpt>
      <trkpt lat="28.974051" lon="-13.635246">
        <ele>272.161</ele>
        <time>2026-07-29T11:45:54.519Z</time>
      </trkpt>
      <trkpt lat="28.974759" lon="-13.634168">
        <ele>277.081</ele>
        <time>2026-07-29T11:46:34.519Z</time>
      </trkpt>
      <trkpt lat="28.975209" lon="-13.633082">
        <ele>275.565</ele>
        <time>2026-07-29T11:47:14.519Z</time>
      </trkpt>
      <trkpt lat="28.976809" lon="-13.631186">
        <ele>276.868</ele>
        <time>2026-07-29T11:47:54.519Z</time>
      </trkpt>
      <trkpt lat="28.977981" lon="-13.630249">
        <ele>272.114</ele>
        <time>2026-07-29T11:48:34.519Z</time>
      </trkpt>
      <trkpt lat="28.978125" lon="-13.630208">
        <ele>272.509</ele>
        <time>2026-07-29T11:49:14.519Z</time>
      </trkpt>
      <trkpt lat="28.978275" lon="-13.630268">
        <ele>273.278</ele>
        <time>2026-07-29T11:49:54.519Z</time>
      </trkpt>
      <trkpt lat="28.978453" lon="-13.630502">
        <ele>274.359</ele>
        <time>2026-07-29T11:50:34.519Z</time>
      </trkpt>
      <trkpt lat="28.978592" lon="-13.631134">
        <ele>278.639</ele>
        <time>2026-07-29T11:51:14.519Z</time>
      </trkpt>
      <trkpt lat="28.978508" lon="-13.631942">
        <ele>288.823</ele>
        <time>2026-07-29T11:51:54.519Z</time>
      </trkpt>
      <trkpt lat="28.978650" lon="-13.632305">
        <ele>293.445</ele>
        <time>2026-07-29T11:52:34.519Z</time>
      </trkpt>
      <trkpt lat="28.979348" lon="-13.632806">
        <ele>308.866</ele>
        <time>2026-07-29T11:53:14.519Z</time>
      </trkpt>
      <trkpt lat="28.980162" lon="-13.633533">
        <ele>326.797</ele>
        <time>2026-07-29T11:53:54.519Z</time>
      </trkpt>
      <trkpt lat="28.981360" lon="-13.634753">
        <ele>354.089</ele>
        <time>2026-07-29T11:54:34.519Z</time>
      </trkpt>
      <trkpt lat="28.981132" lon="-13.634861">
        <ele>361.499</ele>
        <time>2026-07-29T11:55:14.519Z</time>
      </trkpt>
      <trkpt lat="28.981652" lon="-13.635822">
        <ele>379.182</ele>
        <time>2026-07-29T11:55:54.519Z</time>
      </trkpt>
      <trkpt lat="28.981737" lon="-13.636607">
        <ele>392.443</ele>
        <time>2026-07-29T11:56:34.519Z</time>
      </trkpt>
      <trkpt lat="28.981816" lon="-13.636650">
        <ele>394.317</ele>
        <time>2026-07-29T11:57:14.519Z</time>
      </trkpt>
      <trkpt lat="28.982245" lon="-13.637658">
        <ele>413.209</ele>
        <time>2026-07-29T11:57:54.519Z</time>
      </trkpt>
      <trkpt lat="28.982218" lon="-13.638585">
        <ele>432.350</ele>
        <time>2026-07-29T11:58:34.519Z</time>
      </trkpt>
      <trkpt lat="28.981853" lon="-13.638307">
        <ele>441.821</ele>
        <time>2026-07-29T11:59:14.519Z</time>
      </trkpt>
      <trkpt lat="28.981670" lon="-13.638282">
        <ele>447.181</ele>
        <time>2026-07-29T11:59:54.519Z</time>
      </trkpt>
      <trkpt lat="28.981470" lon="-13.638904">
        <ele>464.815</ele>
        <time>2026-07-29T12:00:34.519Z</time>
      </trkpt>
      <trkpt lat="28.981206" lon="-13.639287">
        <ele>476.577</ele>
        <time>2026-07-29T12:01:14.519Z</time>
      </trkpt>
      <trkpt lat="28.981302" lon="-13.639785">
        <ele>483.348</ele>
        <time>2026-07-29T12:01:54.519Z</time>
      </trkpt>
      <trkpt lat="28.981255" lon="-13.640659">
        <ele>487.729</ele>
        <time>2026-07-29T12:02:34.519Z</time>
      </trkpt>
      <trkpt lat="28.980872" lon="-13.641440">
        <ele>490.971</ele>
        <time>2026-07-29T12:03:14.519Z</time>
      </trkpt>
      <trkpt lat="28.980669" lon="-13.641448">
        <ele>492.661</ele>
        <time>2026-07-29T12:03:54.519Z</time>
      </trkpt>
      <trkpt lat="28.980564" lon="-13.641556">
        <ele>494.211</ele>
        <time>2026-07-29T12:04:34.519Z</time>
      </trkpt>
      <trkpt lat="28.980386" lon="-13.642104">
        <ele>499.521</ele>
        <time>2026-07-29T12:05:14.519Z</time>
      </trkpt>
      <trkpt lat="28.980569" lon="-13.641525">
        <ele>496.703</ele>
        <time>2026-07-29T12:05:54.519Z</time>
      </trkpt>
      <trkpt lat="28.980909" lon="-13.641501">
        <ele>490.109</ele>
        <time>2026-07-29T12:06:34.519Z</time>
      </trkpt>
      <trkpt lat="28.981090" lon="-13.641312">
        <ele>486.433</ele>
        <time>2026-07-29T12:07:14.519Z</time>
      </trkpt>
      <trkpt lat="28.981252" lon="-13.641281">
        <ele>485.074</ele>
        <time>2026-07-29T12:07:54.519Z</time>
      </trkpt>
      <trkpt lat="28.981200" lon="-13.641428">
        <ele>482.724</ele>
        <time>2026-07-29T12:08:34.519Z</time>
      </trkpt>
      <trkpt lat="28.981509" lon="-13.641501">
        <ele>469.128</ele>
        <time>2026-07-29T12:09:14.519Z</time>
      </trkpt>
      <trkpt lat="28.981509" lon="-13.641587">
        <ele>464.510</ele>
        <time>2026-07-29T12:09:54.519Z</time>
      </trkpt>
      <trkpt lat="28.982191" lon="-13.641221">
        <ele>445.631</ele>
        <time>2026-07-29T12:10:34.519Z</time>
      </trkpt>
      <trkpt lat="28.982185" lon="-13.641113">
        <ele>440.862</ele>
        <time>2026-07-29T12:11:14.519Z</time>
      </trkpt>
      <trkpt lat="28.982184" lon="-13.641843">
        <ele>426.864</ele>
        <time>2026-07-29T12:11:54.519Z</time>
      </trkpt>
      <trkpt lat="28.981899" lon="-13.642836">
        <ele>402.814</ele>
        <time>2026-07-29T12:12:34.519Z</time>
      </trkpt>
      <trkpt lat="28.981959" lon="-13.643121">
        <ele>395.459</ele>
        <time>2026-07-29T12:13:14.519Z</time>
      </trkpt>
      <trkpt lat="28.982501" lon="-13.643654">
        <ele>371.403</ele>
        <time>2026-07-29T12:13:54.519Z</time>
      </trkpt>
      <trkpt lat="28.982667" lon="-13.643656">
        <ele>364.423</ele>
        <time>2026-07-29T12:14:34.519Z</time>
      </trkpt>
      <trkpt lat="28.982970" lon="-13.643812">
        <ele>356.709</ele>
        <time>2026-07-29T12:15:14.519Z</time>
      </trkpt>
      <trkpt lat="28.983107" lon="-13.643777">
        <ele>353.567</ele>
        <time>2026-07-29T12:15:54.519Z</time>
      </trkpt>
      <trkpt lat="28.984364" lon="-13.643070">
        <ele>330.718</ele>
        <time>2026-07-29T12:16:34.519Z</time>
      </trkpt>
      <trkpt lat="28.984765" lon="-13.642564">
        <ele>325.498</ele>
        <time>2026-07-29T12:17:14.519Z</time>
      </trkpt>
      <trkpt lat="28.985079" lon="-13.642411">
        <ele>318.052</ele>
        <time>2026-07-29T12:17:54.519Z</time>
      </trkpt>
      <trkpt lat="28.985347" lon="-13.642167">
        <ele>311.764</ele>
        <time>2026-07-29T12:18:34.519Z</time>
      </trkpt>
      <trkpt lat="28.985838" lon="-13.641404">
        <ele>309.395</ele>
        <time>2026-07-29T12:19:14.519Z</time>
      </trkpt>
      <trkpt lat="28.986135" lon="-13.640525">
        <ele>309.366</ele>
        <time>2026-07-29T12:19:54.519Z</time>
      </trkpt>
      <trkpt lat="28.986325" lon="-13.638998">
        <ele>309.328</ele>
        <time>2026-07-29T12:20:34.519Z</time>
      </trkpt>
      <trkpt lat="28.986373" lon="-13.637677">
        <ele>309.398</ele>
        <time>2026-07-29T12:21:14.519Z</time>
      </trkpt>
      <trkpt lat="28.986646" lon="-13.636700">
        <ele>309.346</ele>
        <time>2026-07-29T12:21:54.519Z</time>
      </trkpt>
      <trkpt lat="28.986746" lon="-13.637582">
        <ele>309.388</ele>
        <time>2026-07-29T12:22:34.519Z</time>
      </trkpt>
      <trkpt lat="28.987062" lon="-13.637788">
        <ele>309.316</ele>
        <time>2026-07-29T12:23:14.519Z</time>
      </trkpt>
      <trkpt lat="28.987197" lon="-13.638055">
        <ele>309.309</ele>
        <time>2026-07-29T12:23:54.519Z</time>
      </trkpt>
      <trkpt lat="28.987292" lon="-13.638556">
        <ele>309.396</ele>
        <time>2026-07-29T12:24:34.519Z</time>
      </trkpt>
      <trkpt lat="28.987194" lon="-13.639241">
        <ele>309.397</ele>
        <time>2026-07-29T12:25:14.519Z</time>
      </trkpt>
      <trkpt lat="28.987286" lon="-13.639180">
        <ele>309.377</ele>
        <time>2026-07-29T12:25:54.519Z</time>
      </trkpt>
    </trkseg>
  </trk></gpx>