<?xml version="1.0" encoding="UTF-8"?>
<gpx version="1.1" creator="Aventuras en Cada Paso" xmlns="http://www.topografix.com/GPX/1/1">
  <metadata>
    <name>Montaña Roja – Sur de Lanzarote</name>
    <desc>Circular de 3 km por el cráter de Montaña Roja en el sur. Vistas a Playa Blanca, Papagayo y Faro Pechiguera. Ruta en sentido antihorario.</desc>
    <author><name>Aventuras en Cada Paso</name></author>
    <time>2026-07-08T08:12:58.171Z</time>
    <keywords>Lanzarote, Senderismo, Fácil, senderismo Canarias</keywords>
  </metadata>
  <wpt lat="28.8617" lon="-13.8394">
    <name>Montaña Roja – Sur de Lanzarote</name>
    <desc>Circular de 3 km por el cráter de Montaña Roja en el sur. Vistas a Playa Blanca, Papagayo y Faro Pechiguera. Ruta en sentido antihorario. | Isla: Lanzarote | Tipo: Senderismo | Dificultad: Fácil | Distancia: 3km | Duración: Menos de 2h</desc>
    <type>Senderismo</type>
    <extensions>
      <isla>Lanzarote</isla>
      <dificultad>Fácil</dificultad>
      <distancia>3</distancia>
      <duracion>Menos de 2h</duracion>
    </extensions>
  </wpt>
</gpx>