<?xml version="1.0" encoding="UTF-8"?>
<gpx version="1.1" creator="Aventuras en Cada Paso" xmlns="http://www.topografix.com/GPX/1/1">
  <metadata>
    <name>Montaña Amarilla – Subida a la Cima</name>
    <desc>Subida (1,8 km, dificultad alta) a la cima de Montaña Amarilla. Vistas aéreas de la Playa de la Cocina, el Atlántico y los charcos naturales para snorkel.</desc>
    <author><name>Aventuras en Cada Paso</name></author>
    <time>2026-07-08T08:12:58.207Z</time>
    <keywords>La Graciosa, Senderismo, Media, senderismo Canarias</keywords>
  </metadata>
  <wpt lat="29.2147" lon="-13.4808">
    <name>Montaña Amarilla – Subida a la Cima</name>
    <desc>Subida (1,8 km, dificultad alta) a la cima de Montaña Amarilla. Vistas aéreas de la Playa de la Cocina, el Atlántico y los charcos naturales para snorkel. | Isla: La Graciosa | Tipo: Senderismo | Dificultad: Media | Distancia: 2km | Duración: Menos de 2h</desc>
    <type>Senderismo</type>
    <extensions>
      <isla>La Graciosa</isla>
      <dificultad>Media</dificultad>
      <distancia>2</distancia>
      <duracion>Menos de 2h</duracion>
    </extensions>
  </wpt>
</gpx>