<?xml version="1.0" encoding="UTF-8"?>
<gpx version="1.1" creator="Aventuras en Cada Paso" xmlns="http://www.topografix.com/GPX/1/1">
  <metadata>
    <name>Montaña Roja – El Médano</name>
    <desc>Circular corta al volcán de 171 m que separa las mejores playas naturales del sur. Referente en el horizonte y vistas a Gran Canaria.</desc>
    <author><name>Aventuras en Cada Paso</name></author>
    <time>2026-07-08T08:12:58.160Z</time>
    <keywords>Tenerife, Senderismo, Fácil, senderismo Canarias</keywords>
  </metadata>
  <wpt lat="28.0453" lon="-16.5344">
    <name>Montaña Roja – El Médano</name>
    <desc>Circular corta al volcán de 171 m que separa las mejores playas naturales del sur. Referente en el horizonte y vistas a Gran Canaria. | Isla: Tenerife | Tipo: Senderismo | Dificultad: Fácil | Distancia: 4km | Duración: Menos de 2h</desc>
    <type>Senderismo</type>
    <extensions>
      <isla>Tenerife</isla>
      <dificultad>Fácil</dificultad>
      <distancia>4</distancia>
      <duracion>Menos de 2h</duracion>
    </extensions>
  </wpt>
</gpx>