<?xml version="1.0" encoding="UTF-8"?>
<gpx version="1.1" creator="Aventuras en Cada Paso" xmlns="http://www.topografix.com/GPX/1/1">
  <metadata>
    <name>Montaña Amarilla – Punta de Panete</name>
    <desc>Circular corta al Monumento Natural de Montaña Amarilla. Capas de colores volcánicos entre la montaña y el océano. Puesta de sol espectacular.</desc>
    <author><name>Aventuras en Cada Paso</name></author>
    <time>2026-07-08T08:12:58.161Z</time>
    <keywords>Tenerife, Senderismo, Fácil, senderismo Canarias</keywords>
  </metadata>
  <wpt lat="28.0044" lon="-16.6911">
    <name>Montaña Amarilla – Punta de Panete</name>
    <desc>Circular corta al Monumento Natural de Montaña Amarilla. Capas de colores volcánicos entre la montaña y el océano. Puesta de sol espectacular. | Isla: Tenerife | Tipo: Senderismo | Dificultad: Fácil | Distancia: 3km | Duración: Menos de 2h</desc>
    <type>Senderismo</type>
    <extensions>
      <isla>Tenerife</isla>
      <dificultad>Fácil</dificultad>
      <distancia>3</distancia>
      <duracion>Menos de 2h</duracion>
    </extensions>
  </wpt>
</gpx>