<?xml version="1.0" encoding="UTF-8"?>
<gpx creator="Wikiloc - https://www.wikiloc.com" version="1.1" xmlns="http://www.topografix.com/GPX/1/1" xmlns:xsi="http://www.w3.org/2001/XMLSchema-instance" xsi:schemaLocation="http://www.topografix.com/GPX/1/1 http://www.topografix.com/GPX/1/1/gpx.xsd">
  <metadata>
    <name>Wikiloc - Caleta de Sebo- ruta norte por montaña bermeja y playa de la...</name>
    <link href="https://www.wikiloc.com/hiking-trails/caleta-de-sebo-ruta-norte-por-montana-bermeja-y-playa-de-las-conchas-81456909">
      <text>Caleta de Sebo- ruta norte por montaña bermeja y playa de la... on Wikiloc</text>
    </link>
    <time>2021-08-19T16:11:51Z</time>
  </metadata>
  <trk>
    <name>Caleta de Sebo- ruta norte por montaña bermeja y playa de la... - Wikiloc</name>
    <cmt></cmt>
    <desc></desc>
    <trkseg>
      <trkpt lat="29.232001" lon="-13.504250">
        <ele>12.518</ele>
        <time>2021-08-19T12:30:18Z</time>
      </trkpt>
      <trkpt lat="29.232010" lon="-13.504403">
        <ele>11.698</ele>
        <time>2021-08-19T12:30:33Z</time>
      </trkpt>
      <trkpt lat="29.232403" lon="-13.504424">
        <ele>14.017</ele>
        <time>2021-08-19T12:31:06Z</time>
      </trkpt>
      <trkpt lat="29.232544" lon="-13.504124">
        <ele>13.908</ele>
        <time>2021-08-19T12:31:27Z</time>
      </trkpt>
      <trkpt lat="29.233015" lon="-13.503731">
        <ele>13.639</ele>
        <time>2021-08-19T12:32:15Z</time>
      </trkpt>
      <trkpt lat="29.233216" lon="-13.503274">
        <ele>13.052</ele>
        <time>2021-08-19T12:32:48Z</time>
      </trkpt>
      <trkpt lat="29.233532" lon="-13.502912">
        <ele>12.145</ele>
        <time>2021-08-19T12:33:21Z</time>
      </trkpt>
      <trkpt lat="29.234827" lon="-13.502904">
        <ele>18.036</ele>
        <time>2021-08-19T12:34:33Z</time>
      </trkpt>
      <trkpt lat="29.237059" lon="-13.502626">
        <ele>19.787</ele>
        <time>2021-08-19T12:36:25Z</time>
      </trkpt>
      <trkpt lat="29.238952" lon="-13.502756">
        <ele>19.140</ele>
        <time>2021-08-19T12:37:51Z</time>
      </trkpt>
      <trkpt lat="29.242670" lon="-13.502794">
        <ele>29.981</ele>
        <time>2021-08-19T12:40:44Z</time>
      </trkpt>
      <trkpt lat="29.244124" lon="-13.503033">
        <ele>20.610</ele>
        <time>2021-08-19T12:42:00Z</time>
      </trkpt>
      <trkpt lat="29.244491" lon="-13.503275">
        <ele>21.135</ele>
        <time>2021-08-19T12:42:17Z</time>
      </trkpt>
      <trkpt lat="29.245196" lon="-13.504160">
        <ele>28.486</ele>
        <time>2021-08-19T12:43:09Z</time>
      </trkpt>
      <trkpt lat="29.245107" lon="-13.504796">
        <ele>22.114</ele>
        <time>2021-08-19T12:43:33Z</time>
      </trkpt>
      <trkpt lat="29.245219" lon="-13.505911">
        <ele>28.508</ele>
        <time>2021-08-19T12:44:14Z</time>
      </trkpt>
      <trkpt lat="29.245615" lon="-13.507627">
        <ele>26.751</ele>
        <time>2021-08-19T12:45:25Z</time>
      </trkpt>
      <trkpt lat="29.245870" lon="-13.508032">
        <ele>28.644</ele>
        <time>2021-08-19T12:45:45Z</time>
      </trkpt>
      <trkpt lat="29.246136" lon="-13.509003">
        <ele>32.337</ele>
        <time>2021-08-19T12:46:33Z</time>
      </trkpt>
      <trkpt lat="29.246416" lon="-13.508028">
        <ele>40.778</ele>
        <time>2021-08-19T12:47:24Z</time>
      </trkpt>
      <trkpt lat="29.246463" lon="-13.507015">
        <ele>39.519</ele>
        <time>2021-08-19T12:48:01Z</time>
      </trkpt>
      <trkpt lat="29.247104" lon="-13.503830">
        <ele>47.842</ele>
        <time>2021-08-19T12:50:39Z</time>
      </trkpt>
      <trkpt lat="29.247551" lon="-13.502935">
        <ele>58.053</ele>
        <time>2021-08-19T12:51:43Z</time>
      </trkpt>
      <trkpt lat="29.248729" lon="-13.501210">
        <ele>58.422</ele>
        <time>2021-08-19T12:53:05Z</time>
      </trkpt>
      <trkpt lat="29.250577" lon="-13.499232">
        <ele>62.537</ele>
        <time>2021-08-19T12:54:54Z</time>
      </trkpt>
      <trkpt lat="29.254881" lon="-13.496390">
        <ele>68.249</ele>
        <time>2021-08-19T12:59:38Z</time>
      </trkpt>
      <trkpt lat="29.257052" lon="-13.493539">
        <ele>76.213</ele>
        <time>2021-08-19T13:02:19Z</time>
      </trkpt>
      <trkpt lat="29.257098" lon="-13.493024">
        <ele>74.608</ele>
        <time>2021-08-19T13:02:39Z</time>
      </trkpt>
      <trkpt lat="29.257978" lon="-13.491757">
        <ele>75.081</ele>
        <time>2021-08-19T13:03:42Z</time>
      </trkpt>
      <trkpt lat="29.258142" lon="-13.491108">
        <ele>75.614</ele>
        <time>2021-08-19T13:04:06Z</time>
      </trkpt>
      <trkpt lat="29.259159" lon="-13.490162">
        <ele>65.657</ele>
        <time>2021-08-19T13:05:42Z</time>
      </trkpt>
      <trkpt lat="29.259836" lon="-13.489036">
        <ele>55.928</ele>
        <time>2021-08-19T13:07:14Z</time>
      </trkpt>
      <trkpt lat="29.260727" lon="-13.488464">
        <ele>56.049</ele>
        <time>2021-08-19T13:08:13Z</time>
      </trkpt>
      <trkpt lat="29.261520" lon="-13.488386">
        <ele>51.452</ele>
        <time>2021-08-19T13:08:48Z</time>
      </trkpt>
      <trkpt lat="29.262076" lon="-13.488003">
        <ele>54.933</ele>
        <time>2021-08-19T13:09:19Z</time>
      </trkpt>
      <trkpt lat="29.262855" lon="-13.487086">
        <ele>54.822</ele>
        <time>2021-08-19T13:10:08Z</time>
      </trkpt>
      <trkpt lat="29.264044" lon="-13.486152">
        <ele>46.894</ele>
        <time>2021-08-19T13:11:11Z</time>
      </trkpt>
      <trkpt lat="29.264812" lon="-13.485371">
        <ele>49.457</ele>
        <time>2021-08-19T13:13:02Z</time>
      </trkpt>
      <trkpt lat="29.264890" lon="-13.485176">
        <ele>48.422</ele>
        <time>2021-08-19T13:13:12Z</time>
      </trkpt>
      <trkpt lat="29.264789" lon="-13.484450">
        <ele>42.608</ele>
        <time>2021-08-19T13:14:12Z</time>
      </trkpt>
      <trkpt lat="29.265217" lon="-13.484164">
        <ele>36.587</ele>
        <time>2021-08-19T13:14:35Z</time>
      </trkpt>
      <trkpt lat="29.265673" lon="-13.483588">
        <ele>29.280</ele>
        <time>2021-08-19T13:15:01Z</time>
      </trkpt>
      <trkpt lat="29.267132" lon="-13.483595">
        <ele>21.583</ele>
        <time>2021-08-19T13:16:05Z</time>
      </trkpt>
      <trkpt lat="29.267992" lon="-13.483446">
        <ele>19.644</ele>
        <time>2021-08-19T13:16:45Z</time>
      </trkpt>
      <trkpt lat="29.268660" lon="-13.483853">
        <ele>16.155</ele>
        <time>2021-08-19T13:17:22Z</time>
      </trkpt>
      <trkpt lat="29.269958" lon="-13.484073">
        <ele>14.758</ele>
        <time>2021-08-19T13:18:13Z</time>
      </trkpt>
      <trkpt lat="29.270403" lon="-13.483993">
        <ele>15.219</ele>
        <time>2021-08-19T13:18:33Z</time>
      </trkpt>
      <trkpt lat="29.270923" lon="-13.484224">
        <ele>17.348</ele>
        <time>2021-08-19T13:18:53Z</time>
      </trkpt>
      <trkpt lat="29.271340" lon="-13.484615">
        <ele>16.283</ele>
        <time>2021-08-19T13:19:13Z</time>
      </trkpt>
      <trkpt lat="29.272040" lon="-13.484934">
        <ele>16.025</ele>
        <time>2021-08-19T13:19:48Z</time>
      </trkpt>
      <trkpt lat="29.272421" lon="-13.485309">
        <ele>9.817</ele>
        <time>2021-08-19T13:20:12Z</time>
      </trkpt>
      <trkpt lat="29.272882" lon="-13.485493">
        <ele>13.808</ele>
        <time>2021-08-19T13:20:27Z</time>
      </trkpt>
      <trkpt lat="29.273363" lon="-13.485946">
        <ele>16.336</ele>
        <time>2021-08-19T13:20:48Z</time>
      </trkpt>
      <trkpt lat="29.273659" lon="-13.486045">
        <ele>14.829</ele>
        <time>2021-08-19T13:20:59Z</time>
      </trkpt>
      <trkpt lat="29.274527" lon="-13.486976">
        <ele>11.642</ele>
        <time>2021-08-19T13:21:54Z</time>
      </trkpt>
      <trkpt lat="29.275435" lon="-13.487325">
        <ele>11.323</ele>
        <time>2021-08-19T13:22:39Z</time>
      </trkpt>
      <trkpt lat="29.275835" lon="-13.487325">
        <ele>11.784</ele>
        <time>2021-08-19T13:23:09Z</time>
      </trkpt>
      <trkpt lat="29.276098" lon="-13.487573">
        <ele>10.867</ele>
        <time>2021-08-19T13:23:34Z</time>
      </trkpt>
      <trkpt lat="29.276620" lon="-13.487666">
        <ele>10.148</ele>
        <time>2021-08-19T13:24:13Z</time>
      </trkpt>
      <trkpt lat="29.277152" lon="-13.487945">
        <ele>4.027</ele>
        <time>2021-08-19T13:25:00Z</time>
      </trkpt>
      <trkpt lat="29.277749" lon="-13.487864">
        <ele>11.825</ele>
        <time>2021-08-19T13:25:39Z</time>
      </trkpt>
      <trkpt lat="29.278341" lon="-13.488111">
        <ele>7.126</ele>
        <time>2021-08-19T13:26:25Z</time>
      </trkpt>
      <trkpt lat="29.278506" lon="-13.488411">
        <ele>11.608</ele>
        <time>2021-08-19T13:26:46Z</time>
      </trkpt>
      <trkpt lat="29.278568" lon="-13.488823">
        <ele>12.308</ele>
        <time>2021-08-19T13:27:22Z</time>
      </trkpt>
      <trkpt lat="29.278406" lon="-13.489167">
        <ele>8.520</ele>
        <time>2021-08-19T13:28:21Z</time>
      </trkpt>
      <trkpt lat="29.278157" lon="-13.491051">
        <ele>6.243</ele>
        <time>2021-08-19T13:29:33Z</time>
      </trkpt>
      <trkpt lat="29.278662" lon="-13.491478">
        <ele>2.746</ele>
        <time>2021-08-19T13:30:29Z</time>
      </trkpt>
      <trkpt lat="29.278347" lon="-13.492461">
        <ele>9.157</ele>
        <time>2021-08-19T13:32:33Z</time>
      </trkpt>
      <trkpt lat="29.277875" lon="-13.492984">
        <ele>16.768</ele>
        <time>2021-08-19T13:33:23Z</time>
      </trkpt>
      <trkpt lat="29.277692" lon="-13.493888">
        <ele>17.341</ele>
        <time>2021-08-19T13:34:22Z</time>
      </trkpt>
      <trkpt lat="29.277332" lon="-13.494577">
        <ele>10.912</ele>
        <time>2021-08-19T13:34:53Z</time>
      </trkpt>
      <trkpt lat="29.277339" lon="-13.494895">
        <ele>12.841</ele>
        <time>2021-08-19T13:35:06Z</time>
      </trkpt>
      <trkpt lat="29.277773" lon="-13.495882">
        <ele>12.462</ele>
        <time>2021-08-19T13:36:30Z</time>
      </trkpt>
      <trkpt lat="29.278685" lon="-13.496806">
        <ele>16.483</ele>
        <time>2021-08-19T13:38:39Z</time>
      </trkpt>
      <trkpt lat="29.278750" lon="-13.497133">
        <ele>15.611</ele>
        <time>2021-08-19T13:39:00Z</time>
      </trkpt>
      <trkpt lat="29.279270" lon="-13.497632">
        <ele>18.108</ele>
        <time>2021-08-19T13:40:00Z</time>
      </trkpt>
      <trkpt lat="29.279470" lon="-13.498147">
        <ele>12.854</ele>
        <time>2021-08-19T13:40:37Z</time>
      </trkpt>
      <trkpt lat="29.279690" lon="-13.498375">
        <ele>13.217</ele>
        <time>2021-08-19T13:41:03Z</time>
      </trkpt>
      <trkpt lat="29.279909" lon="-13.498294">
        <ele>13.360</ele>
        <time>2021-08-19T13:41:28Z</time>
      </trkpt>
      <trkpt lat="29.280468" lon="-13.498981">
        <ele>6.321</ele>
        <time>2021-08-19T13:42:35Z</time>
      </trkpt>
      <trkpt lat="29.280450" lon="-13.499323">
        <ele>9.292</ele>
        <time>2021-08-19T13:43:02Z</time>
      </trkpt>
      <trkpt lat="29.280267" lon="-13.499585">
        <ele>9.315</ele>
        <time>2021-08-19T13:43:28Z</time>
      </trkpt>
      <trkpt lat="29.280240" lon="-13.500310">
        <ele>6.046</ele>
        <time>2021-08-19T13:44:14Z</time>
      </trkpt>
      <trkpt lat="29.280027" lon="-13.500625">
        <ele>7.255</ele>
        <time>2021-08-19T13:44:36Z</time>
      </trkpt>
      <trkpt lat="29.280094" lon="-13.500992">
        <ele>13.046</ele>
        <time>2021-08-19T13:44:56Z</time>
      </trkpt>
      <trkpt lat="29.279098" lon="-13.502496">
        <ele>10.088</ele>
        <time>2021-08-19T13:46:13Z</time>
      </trkpt>
      <trkpt lat="29.278489" lon="-13.502860">
        <ele>10.816</ele>
        <time>2021-08-19T13:46:40Z</time>
      </trkpt>
      <trkpt lat="29.277768" lon="-13.503638">
        <ele>15.708</ele>
        <time>2021-08-19T13:47:20Z</time>
      </trkpt>
      <trkpt lat="29.277358" lon="-13.504379">
        <ele>9.472</ele>
        <time>2021-08-19T13:47:51Z</time>
      </trkpt>
      <trkpt lat="29.276132" lon="-13.505625">
        <ele>21.525</ele>
        <time>2021-08-19T13:49:08Z</time>
      </trkpt>
      <trkpt lat="29.274801" lon="-13.506245">
        <ele>25.628</ele>
        <time>2021-08-19T13:50:18Z</time>
      </trkpt>
      <trkpt lat="29.273886" lon="-13.507061">
        <ele>25.379</ele>
        <time>2021-08-19T13:51:09Z</time>
      </trkpt>
      <trkpt lat="29.273702" lon="-13.507614">
        <ele>27.830</ele>
        <time>2021-08-19T13:51:44Z</time>
      </trkpt>
      <trkpt lat="29.273716" lon="-13.508495">
        <ele>18.463</ele>
        <time>2021-08-19T13:52:43Z</time>
      </trkpt>
      <trkpt lat="29.273515" lon="-13.508806">
        <ele>16.784</ele>
        <time>2021-08-19T13:53:08Z</time>
      </trkpt>
      <trkpt lat="29.273349" lon="-13.509464">
        <ele>16.783</ele>
        <time>2021-08-19T13:53:52Z</time>
      </trkpt>
      <trkpt lat="29.273444" lon="-13.509655">
        <ele>20.256</ele>
        <time>2021-08-19T13:54:07Z</time>
      </trkpt>
      <trkpt lat="29.273390" lon="-13.510351">
        <ele>21.159</ele>
        <time>2021-08-19T13:55:08Z</time>
      </trkpt>
      <trkpt lat="29.273677" lon="-13.510645">
        <ele>30.614</ele>
        <time>2021-08-19T13:55:27Z</time>
      </trkpt>
      <trkpt lat="29.273576" lon="-13.511502">
        <ele>40.908</ele>
        <time>2021-08-19T13:56:35Z</time>
      </trkpt>
      <trkpt lat="29.273680" lon="-13.511883">
        <ele>50.343</ele>
        <time>2021-08-19T13:57:13Z</time>
      </trkpt>
      <trkpt lat="29.273876" lon="-13.512060">
        <ele>57.766</ele>
        <time>2021-08-19T13:57:34Z</time>
      </trkpt>
      <trkpt lat="29.274335" lon="-13.511864">
        <ele>72.069</ele>
        <time>2021-08-19T13:58:39Z</time>
      </trkpt>
      <trkpt lat="29.274784" lon="-13.511837">
        <ele>76.960</ele>
        <time>2021-08-19T13:59:23Z</time>
      </trkpt>
      <trkpt lat="29.275118" lon="-13.511603">
        <ele>93.761</ele>
        <time>2021-08-19T14:00:03Z</time>
      </trkpt>
      <trkpt lat="29.275460" lon="-13.511585">
        <ele>102.184</ele>
        <time>2021-08-19T14:00:49Z</time>
      </trkpt>
      <trkpt lat="29.276846" lon="-13.511014">
        <ele>155.495</ele>
        <time>2021-08-19T14:06:56Z</time>
      </trkpt>
      <trkpt lat="29.276800" lon="-13.510857">
        <ele>161.944</ele>
        <time>2021-08-19T14:07:44Z</time>
      </trkpt>
      <trkpt lat="29.272974" lon="-13.513048">
        <ele>159.013</ele>
        <time>2021-08-19T14:21:17Z</time>
      </trkpt>
      <trkpt lat="29.272795" lon="-13.513679">
        <ele>161.143</ele>
        <time>2021-08-19T14:22:12Z</time>
      </trkpt>
      <trkpt lat="29.272764" lon="-13.514502">
        <ele>159.507</ele>
        <time>2021-08-19T14:23:04Z</time>
      </trkpt>
      <trkpt lat="29.273274" lon="-13.515349">
        <ele>147.508</ele>
        <time>2021-08-19T14:24:14Z</time>
      </trkpt>
      <trkpt lat="29.273895" lon="-13.515772">
        <ele>143.469</ele>
        <time>2021-08-19T14:25:06Z</time>
      </trkpt>
      <trkpt lat="29.274043" lon="-13.516057">
        <ele>142.422</ele>
        <time>2021-08-19T14:26:46Z</time>
      </trkpt>
      <trkpt lat="29.268193" lon="-13.517575">
        <ele>140.745</ele>
        <time>2021-08-19T14:45:19Z</time>
      </trkpt>
      <trkpt lat="29.266473" lon="-13.519110">
        <ele>137.946</ele>
        <time>2021-08-19T14:48:15Z</time>
      </trkpt>
      <trkpt lat="29.265614" lon="-13.519707">
        <ele>144.287</ele>
        <time>2021-08-19T14:49:31Z</time>
      </trkpt>
      <trkpt lat="29.264114" lon="-13.519881">
        <ele>134.310</ele>
        <time>2021-08-19T14:51:16Z</time>
      </trkpt>
      <trkpt lat="29.262367" lon="-13.519745">
        <ele>133.571</ele>
        <time>2021-08-19T14:53:15Z</time>
      </trkpt>
      <trkpt lat="29.262040" lon="-13.519544">
        <ele>134.510</ele>
        <time>2021-08-19T14:53:43Z</time>
      </trkpt>
      <trkpt lat="29.261356" lon="-13.518438">
        <ele>143.534</ele>
        <time>2021-08-19T14:55:14Z</time>
      </trkpt>
      <trkpt lat="29.260658" lon="-13.518353">
        <ele>148.855</ele>
        <time>2021-08-19T14:56:11Z</time>
      </trkpt>
      <trkpt lat="29.260277" lon="-13.518130">
        <ele>151.810</ele>
        <time>2021-08-19T14:56:43Z</time>
      </trkpt>
      <trkpt lat="29.259827" lon="-13.518294">
        <ele>152.908</ele>
        <time>2021-08-19T14:57:22Z</time>
      </trkpt>
      <trkpt lat="29.259190" lon="-13.517931">
        <ele>158.921</ele>
        <time>2021-08-19T14:58:25Z</time>
      </trkpt>
      <trkpt lat="29.258995" lon="-13.517927">
        <ele>161.964</ele>
        <time>2021-08-19T14:58:42Z</time>
      </trkpt>
      <trkpt lat="29.258829" lon="-13.517671">
        <ele>163.437</ele>
        <time>2021-08-19T14:59:04Z</time>
      </trkpt>
      <trkpt lat="29.258379" lon="-13.517624">
        <ele>159.448</ele>
        <time>2021-08-19T14:59:52Z</time>
      </trkpt>
      <trkpt lat="29.257739" lon="-13.518099">
        <ele>159.579</ele>
        <time>2021-08-19T15:01:12Z</time>
      </trkpt>
      <trkpt lat="29.257756" lon="-13.518319">
        <ele>156.782</ele>
        <time>2021-08-19T15:01:28Z</time>
      </trkpt>
      <trkpt lat="29.257210" lon="-13.518738">
        <ele>156.623</ele>
        <time>2021-08-19T15:02:41Z</time>
      </trkpt>
      <trkpt lat="29.256236" lon="-13.518662">
        <ele>161.462</ele>
        <time>2021-08-19T15:04:17Z</time>
      </trkpt>
      <trkpt lat="29.255766" lon="-13.518833">
        <ele>170.779</ele>
        <time>2021-08-19T15:05:35Z</time>
      </trkpt>
      <trkpt lat="29.255473" lon="-13.518396">
        <ele>167.905</ele>
        <time>2021-08-19T15:06:28Z</time>
      </trkpt>
      <trkpt lat="29.255305" lon="-13.518351">
        <ele>162.825</ele>
        <time>2021-08-19T15:07:45Z</time>
      </trkpt>
      <trkpt lat="29.254882" lon="-13.518576">
        <ele>159.408</ele>
        <time>2021-08-19T15:09:15Z</time>
      </trkpt>
      <trkpt lat="29.254794" lon="-13.519041">
        <ele>143.135</ele>
        <time>2021-08-19T15:10:24Z</time>
      </trkpt>
      <trkpt lat="29.254098" lon="-13.519257">
        <ele>142.248</ele>
        <time>2021-08-19T15:12:25Z</time>
      </trkpt>
      <trkpt lat="29.253041" lon="-13.519201">
        <ele>143.991</ele>
        <time>2021-08-19T15:13:50Z</time>
      </trkpt>
      <trkpt lat="29.252593" lon="-13.519033">
        <ele>150.342</ele>
        <time>2021-08-19T15:14:28Z</time>
      </trkpt>
      <trkpt lat="29.251802" lon="-13.520311">
        <ele>143.783</ele>
        <time>2021-08-19T15:16:07Z</time>
      </trkpt>
      <trkpt lat="29.251605" lon="-13.521066">
        <ele>136.466</ele>
        <time>2021-08-19T15:17:05Z</time>
      </trkpt>
      <trkpt lat="29.251692" lon="-13.521306">
        <ele>135.737</ele>
        <time>2021-08-19T15:17:29Z</time>
      </trkpt>
      <trkpt lat="29.251929" lon="-13.521209">
        <ele>131.746</ele>
        <time>2021-08-19T15:17:50Z</time>
      </trkpt>
      <trkpt lat="29.252081" lon="-13.521362">
        <ele>132.927</ele>
        <time>2021-08-19T15:18:02Z</time>
      </trkpt>
      <trkpt lat="29.252803" lon="-13.522271">
        <ele>124.768</ele>
        <time>2021-08-19T15:18:45Z</time>
      </trkpt>
      <trkpt lat="29.252868" lon="-13.522535">
        <ele>125.414</ele>
        <time>2021-08-19T15:18:56Z</time>
      </trkpt>
      <trkpt lat="29.252788" lon="-13.522724">
        <ele>127.308</ele>
        <time>2021-08-19T15:19:12Z</time>
      </trkpt>
      <trkpt lat="29.252103" lon="-13.522920">
        <ele>133.340</ele>
        <time>2021-08-19T15:20:03Z</time>
      </trkpt>
      <trkpt lat="29.251897" lon="-13.523166">
        <ele>137.383</ele>
        <time>2021-08-19T15:20:22Z</time>
      </trkpt>
      <trkpt lat="29.251318" lon="-13.523136">
        <ele>133.516</ele>
        <time>2021-08-19T15:21:04Z</time>
      </trkpt>
      <trkpt lat="29.250681" lon="-13.523378">
        <ele>136.017</ele>
        <time>2021-08-19T15:21:31Z</time>
      </trkpt>
      <trkpt lat="29.250039" lon="-13.523435">
        <ele>137.858</ele>
        <time>2021-08-19T15:21:57Z</time>
      </trkpt>
      <trkpt lat="29.246464" lon="-13.522881">
        <ele>149.761</ele>
        <time>2021-08-19T15:25:35Z</time>
      </trkpt>
      <trkpt lat="29.245405" lon="-13.522495">
        <ele>149.472</ele>
        <time>2021-08-19T15:26:58Z</time>
      </trkpt>
      <trkpt lat="29.244582" lon="-13.522533">
        <ele>147.321</ele>
        <time>2021-08-19T15:28:03Z</time>
      </trkpt>
      <trkpt lat="29.244039" lon="-13.522696">
        <ele>141.296</ele>
        <time>2021-08-19T15:28:50Z</time>
      </trkpt>
      <trkpt lat="29.243710" lon="-13.522981">
        <ele>146.531</ele>
        <time>2021-08-19T15:29:29Z</time>
      </trkpt>
      <trkpt lat="29.243584" lon="-13.523345">
        <ele>149.424</ele>
        <time>2021-08-19T15:30:01Z</time>
      </trkpt>
      <trkpt lat="29.243899" lon="-13.523570">
        <ele>142.408</ele>
        <time>2021-08-19T15:30:27Z</time>
      </trkpt>
      <trkpt lat="29.243759" lon="-13.523765">
        <ele>143.647</ele>
        <time>2021-08-19T15:30:36Z</time>
      </trkpt>
      <trkpt lat="29.241333" lon="-13.525983">
        <ele>133.810</ele>
        <time>2021-08-19T15:33:30Z</time>
      </trkpt>
      <trkpt lat="29.240465" lon="-13.525504">
        <ele>137.353</ele>
        <time>2021-08-19T15:34:44Z</time>
      </trkpt>
      <trkpt lat="29.240075" lon="-13.525439">
        <ele>131.854</ele>
        <time>2021-08-19T15:35:04Z</time>
      </trkpt>
      <trkpt lat="29.239851" lon="-13.525212">
        <ele>141.465</ele>
        <time>2021-08-19T15:35:33Z</time>
      </trkpt>
      <trkpt lat="29.238725" lon="-13.524662">
        <ele>131.298</ele>
        <time>2021-08-19T15:37:14Z</time>
      </trkpt>
      <trkpt lat="29.237927" lon="-13.523669">
        <ele>140.299</ele>
        <time>2021-08-19T15:38:37Z</time>
      </trkpt>
      <trkpt lat="29.237339" lon="-13.522176">
        <ele>149.398</ele>
        <time>2021-08-19T15:40:30Z</time>
      </trkpt>
      <trkpt lat="29.237272" lon="-13.521556">
        <ele>149.354</ele>
        <time>2021-08-19T15:41:05Z</time>
      </trkpt>
      <trkpt lat="29.237454" lon="-13.520703">
        <ele>152.656</ele>
        <time>2021-08-19T15:42:06Z</time>
      </trkpt>
      <trkpt lat="29.237374" lon="-13.520181">
        <ele>160.311</ele>
        <time>2021-08-19T15:42:32Z</time>
      </trkpt>
      <trkpt lat="29.237228" lon="-13.519966">
        <ele>156.008</ele>
        <time>2021-08-19T15:42:49Z</time>
      </trkpt>
      <trkpt lat="29.236750" lon="-13.519863">
        <ele>161.513</ele>
        <time>2021-08-19T15:43:31Z</time>
      </trkpt>
      <trkpt lat="29.236529" lon="-13.519434">
        <ele>164.176</ele>
        <time>2021-08-19T15:44:04Z</time>
      </trkpt>
      <trkpt lat="29.236503" lon="-13.518655">
        <ele>168.699</ele>
        <time>2021-08-19T15:45:08Z</time>
      </trkpt>
      <trkpt lat="29.235727" lon="-13.516306">
        <ele>194.110</ele>
        <time>2021-08-19T15:47:46Z</time>
      </trkpt>
      <trkpt lat="29.235773" lon="-13.515584">
        <ele>190.441</ele>
        <time>2021-08-19T15:48:32Z</time>
      </trkpt>
      <trkpt lat="29.235230" lon="-13.514136">
        <ele>189.554</ele>
        <time>2021-08-19T15:50:03Z</time>
      </trkpt>
      <trkpt lat="29.235139" lon="-13.513299">
        <ele>185.215</ele>
        <time>2021-08-19T15:50:55Z</time>
      </trkpt>
      <trkpt lat="29.233624" lon="-13.510578">
        <ele>173.674</ele>
        <time>2021-08-19T15:54:07Z</time>
      </trkpt>
      <trkpt lat="29.233491" lon="-13.509996">
        <ele>164.476</ele>
        <time>2021-08-19T15:54:43Z</time>
      </trkpt>
      <trkpt lat="29.232636" lon="-13.508166">
        <ele>147.490</ele>
        <time>2021-08-19T15:56:56Z</time>
      </trkpt>
      <trkpt lat="29.232250" lon="-13.507827">
        <ele>146.219</ele>
        <time>2021-08-19T15:57:29Z</time>
      </trkpt>
      <trkpt lat="29.231781" lon="-13.507031">
        <ele>141.608</ele>
        <time>2021-08-19T15:58:27Z</time>
      </trkpt>
      <trkpt lat="29.230899" lon="-13.506231">
        <ele>134.725</ele>
        <time>2021-08-19T15:59:50Z</time>
      </trkpt>
      <trkpt lat="29.230531" lon="-13.506069">
        <ele>122.268</ele>
        <time>2021-08-19T16:00:19Z</time>
      </trkpt>
      <trkpt lat="29.230376" lon="-13.505156">
        <ele>119.321</ele>
        <time>2021-08-19T16:01:29Z</time>
      </trkpt>
      <trkpt lat="29.230091" lon="-13.504730">
        <ele>119.512</ele>
        <time>2021-08-19T16:02:08Z</time>
      </trkpt>
      <trkpt lat="29.230037" lon="-13.504358">
        <ele>119.223</ele>
        <time>2021-08-19T16:02:40Z</time>
      </trkpt>
      <trkpt lat="29.230251" lon="-13.504175">
        <ele>119.086</ele>
        <time>2021-08-19T16:02:57Z</time>
      </trkpt>
      <trkpt lat="29.230568" lon="-13.503579">
        <ele>119.047</ele>
        <time>2021-08-19T16:03:40Z</time>
      </trkpt>
      <trkpt lat="29.230046" lon="-13.502841">
        <ele>119.156</ele>
        <time>2021-08-19T16:09:36Z</time>
      </trkpt>
      <trkpt lat="29.230110" lon="-13.502697">
        <ele>119.273</ele>
        <time>2021-08-19T16:09:47Z</time>
      </trkpt>
      <trkpt lat="29.230458" lon="-13.503323">
        <ele>119.585</ele>
        <time>2021-08-19T16:11:51Z</time>
      </trkpt>
    </trkseg>
  </trk></gpx>