<?xml version="1.0" encoding="UTF-8"?>
<gpx creator="Wikiloc - https://www.wikiloc.com" version="1.1" xmlns="http://www.topografix.com/GPX/1/1" xmlns:xsi="http://www.w3.org/2001/XMLSchema-instance" xsi:schemaLocation="http://www.topografix.com/GPX/1/1 http://www.topografix.com/GPX/1/1/gpx.xsd">
  <metadata>
    <name>Wikiloc - Pico de la Zarza des de Morro Jable (Serra de Jandía, Fuerte...</name>
    <link href="https://www.wikiloc.com/hiking-trails/pico-de-la-zarza-des-de-morro-jable-serra-de-jandia-fuerteventura-30007991">
      <text>Pico de la Zarza des de Morro Jable (Serra de Jandía, Fuerte... on Wikiloc</text>
    </link>
    <time>2018-10-19T12:12:34Z</time>
  </metadata>
  <trk>
    <name>Pico de la Zarza des de Morro Jable (Serra de Jandía, Fuerte... - Wikiloc</name>
    <cmt></cmt>
    <desc></desc>
    <trkseg>
      <trkpt lat="28.055288" lon="-14.328150">
        <ele>103.428</ele>
        <time>2018-10-19T07:38:59Z</time>
      </trkpt>
      <trkpt lat="28.055408" lon="-14.328008">
        <ele>82.389</ele>
        <time>2018-10-19T07:41:07Z</time>
      </trkpt>
      <trkpt lat="28.057082" lon="-14.327756">
        <ele>97.217</ele>
        <time>2018-10-19T07:46:31Z</time>
      </trkpt>
      <trkpt lat="28.058292" lon="-14.328281">
        <ele>112.608</ele>
        <time>2018-10-19T07:48:33Z</time>
      </trkpt>
      <trkpt lat="28.059600" lon="-14.328400">
        <ele>130.415</ele>
        <time>2018-10-19T07:51:17Z</time>
      </trkpt>
      <trkpt lat="28.060264" lon="-14.328067">
        <ele>142.472</ele>
        <time>2018-10-19T07:52:44Z</time>
      </trkpt>
      <trkpt lat="28.060759" lon="-14.327992">
        <ele>151.092</ele>
        <time>2018-10-19T07:53:42Z</time>
      </trkpt>
      <trkpt lat="28.061333" lon="-14.327393">
        <ele>158.252</ele>
        <time>2018-10-19T07:55:09Z</time>
      </trkpt>
      <trkpt lat="28.061449" lon="-14.327670">
        <ele>163.519</ele>
        <time>2018-10-19T07:55:42Z</time>
      </trkpt>
      <trkpt lat="28.061247" lon="-14.328045">
        <ele>171.251</ele>
        <time>2018-10-19T07:56:29Z</time>
      </trkpt>
      <trkpt lat="28.061352" lon="-14.328333">
        <ele>176.541</ele>
        <time>2018-10-19T07:57:06Z</time>
      </trkpt>
      <trkpt lat="28.062149" lon="-14.327760">
        <ele>191.913</ele>
        <time>2018-10-19T07:59:07Z</time>
      </trkpt>
      <trkpt lat="28.062634" lon="-14.327662">
        <ele>204.982</ele>
        <time>2018-10-19T08:00:10Z</time>
      </trkpt>
      <trkpt lat="28.063319" lon="-14.328060">
        <ele>212.543</ele>
        <time>2018-10-19T08:01:47Z</time>
      </trkpt>
      <trkpt lat="28.063568" lon="-14.328391">
        <ele>217.817</ele>
        <time>2018-10-19T08:02:42Z</time>
      </trkpt>
      <trkpt lat="28.063847" lon="-14.328407">
        <ele>214.508</ele>
        <time>2018-10-19T08:03:13Z</time>
      </trkpt>
      <trkpt lat="28.065293" lon="-14.329139">
        <ele>222.631</ele>
        <time>2018-10-19T08:05:44Z</time>
      </trkpt>
      <trkpt lat="28.066278" lon="-14.330315">
        <ele>215.978</ele>
        <time>2018-10-19T08:08:06Z</time>
      </trkpt>
      <trkpt lat="28.067125" lon="-14.331040">
        <ele>203.438</ele>
        <time>2018-10-19T08:09:29Z</time>
      </trkpt>
      <trkpt lat="28.068274" lon="-14.331665">
        <ele>213.568</ele>
        <time>2018-10-19T08:11:32Z</time>
      </trkpt>
      <trkpt lat="28.068934" lon="-14.331808">
        <ele>223.145</ele>
        <time>2018-10-19T08:13:00Z</time>
      </trkpt>
      <trkpt lat="28.069785" lon="-14.332196">
        <ele>223.637</ele>
        <time>2018-10-19T08:14:49Z</time>
      </trkpt>
      <trkpt lat="28.070168" lon="-14.332467">
        <ele>229.847</ele>
        <time>2018-10-19T08:15:33Z</time>
      </trkpt>
      <trkpt lat="28.070405" lon="-14.332852">
        <ele>235.679</ele>
        <time>2018-10-19T08:16:13Z</time>
      </trkpt>
      <trkpt lat="28.070935" lon="-14.333315">
        <ele>240.461</ele>
        <time>2018-10-19T08:17:32Z</time>
      </trkpt>
      <trkpt lat="28.072868" lon="-14.333742">
        <ele>265.421</ele>
        <time>2018-10-19T08:21:20Z</time>
      </trkpt>
      <trkpt lat="28.073662" lon="-14.334076">
        <ele>276.513</ele>
        <time>2018-10-19T08:22:57Z</time>
      </trkpt>
      <trkpt lat="28.073989" lon="-14.334498">
        <ele>283.208</ele>
        <time>2018-10-19T08:23:52Z</time>
      </trkpt>
      <trkpt lat="28.075651" lon="-14.335128">
        <ele>296.749</ele>
        <time>2018-10-19T08:26:56Z</time>
      </trkpt>
      <trkpt lat="28.076545" lon="-14.335003">
        <ele>308.716</ele>
        <time>2018-10-19T08:28:54Z</time>
      </trkpt>
      <trkpt lat="28.077147" lon="-14.335044">
        <ele>318.396</ele>
        <time>2018-10-19T08:30:04Z</time>
      </trkpt>
      <trkpt lat="28.078537" lon="-14.335689">
        <ele>337.056</ele>
        <time>2018-10-19T08:33:00Z</time>
      </trkpt>
      <trkpt lat="28.079232" lon="-14.336231">
        <ele>351.033</ele>
        <time>2018-10-19T08:34:54Z</time>
      </trkpt>
      <trkpt lat="28.079880" lon="-14.336221">
        <ele>356.775</ele>
        <time>2018-10-19T08:36:15Z</time>
      </trkpt>
      <trkpt lat="28.080137" lon="-14.336389">
        <ele>362.055</ele>
        <time>2018-10-19T08:36:53Z</time>
      </trkpt>
      <trkpt lat="28.080995" lon="-14.336530">
        <ele>363.597</ele>
        <time>2018-10-19T08:38:19Z</time>
      </trkpt>
      <trkpt lat="28.082330" lon="-14.337374">
        <ele>388.946</ele>
        <time>2018-10-19T08:41:57Z</time>
      </trkpt>
      <trkpt lat="28.082996" lon="-14.338218">
        <ele>407.788</ele>
        <time>2018-10-19T08:44:51Z</time>
      </trkpt>
      <trkpt lat="28.083470" lon="-14.338478">
        <ele>417.816</ele>
        <time>2018-10-19T08:45:58Z</time>
      </trkpt>
      <trkpt lat="28.084583" lon="-14.338729">
        <ele>437.008</ele>
        <time>2018-10-19T08:48:29Z</time>
      </trkpt>
      <trkpt lat="28.084959" lon="-14.339216">
        <ele>452.437</ele>
        <time>2018-10-19T08:49:52Z</time>
      </trkpt>
      <trkpt lat="28.085228" lon="-14.339379">
        <ele>454.324</ele>
        <time>2018-10-19T08:50:50Z</time>
      </trkpt>
      <trkpt lat="28.085767" lon="-14.339506">
        <ele>459.664</ele>
        <time>2018-10-19T08:51:59Z</time>
      </trkpt>
      <trkpt lat="28.086203" lon="-14.339391">
        <ele>463.434</ele>
        <time>2018-10-19T08:53:06Z</time>
      </trkpt>
      <trkpt lat="28.086584" lon="-14.339971">
        <ele>475.041</ele>
        <time>2018-10-19T08:54:28Z</time>
      </trkpt>
      <trkpt lat="28.087640" lon="-14.340968">
        <ele>494.763</ele>
        <time>2018-10-19T08:57:06Z</time>
      </trkpt>
      <trkpt lat="28.088244" lon="-14.341969">
        <ele>507.733</ele>
        <time>2018-10-19T08:59:33Z</time>
      </trkpt>
      <trkpt lat="28.088704" lon="-14.342369">
        <ele>513.035</ele>
        <time>2018-10-19T09:00:29Z</time>
      </trkpt>
      <trkpt lat="28.088909" lon="-14.342783">
        <ele>520.298</ele>
        <time>2018-10-19T09:01:42Z</time>
      </trkpt>
      <trkpt lat="28.089805" lon="-14.343833">
        <ele>532.715</ele>
        <time>2018-10-19T09:04:10Z</time>
      </trkpt>
      <trkpt lat="28.091080" lon="-14.344769">
        <ele>553.826</ele>
        <time>2018-10-19T09:07:25Z</time>
      </trkpt>
      <trkpt lat="28.091291" lon="-14.345087">
        <ele>553.808</ele>
        <time>2018-10-19T09:08:08Z</time>
      </trkpt>
      <trkpt lat="28.091398" lon="-14.344972">
        <ele>558.142</ele>
        <time>2018-10-19T09:09:19Z</time>
      </trkpt>
      <trkpt lat="28.091332" lon="-14.345134">
        <ele>554.369</ele>
        <time>2018-10-19T09:10:08Z</time>
      </trkpt>
      <trkpt lat="28.092782" lon="-14.346724">
        <ele>554.899</ele>
        <time>2018-10-19T09:14:07Z</time>
      </trkpt>
      <trkpt lat="28.094120" lon="-14.347657">
        <ele>554.399</ele>
        <time>2018-10-19T09:16:45Z</time>
      </trkpt>
      <trkpt lat="28.094409" lon="-14.347979">
        <ele>557.236</ele>
        <time>2018-10-19T09:17:31Z</time>
      </trkpt>
      <trkpt lat="28.094553" lon="-14.347859">
        <ele>557.738</ele>
        <time>2018-10-19T09:18:08Z</time>
      </trkpt>
      <trkpt lat="28.094627" lon="-14.348218">
        <ele>560.178</ele>
        <time>2018-10-19T09:18:39Z</time>
      </trkpt>
      <trkpt lat="28.095601" lon="-14.348977">
        <ele>567.870</ele>
        <time>2018-10-19T09:20:47Z</time>
      </trkpt>
      <trkpt lat="28.095846" lon="-14.348788">
        <ele>571.126</ele>
        <time>2018-10-19T09:21:18Z</time>
      </trkpt>
      <trkpt lat="28.096472" lon="-14.348932">
        <ele>577.847</ele>
        <time>2018-10-19T09:22:38Z</time>
      </trkpt>
      <trkpt lat="28.097056" lon="-14.350262">
        <ele>611.511</ele>
        <time>2018-10-19T09:25:31Z</time>
      </trkpt>
      <trkpt lat="28.097936" lon="-14.350772">
        <ele>636.508</ele>
        <time>2018-10-19T09:28:00Z</time>
      </trkpt>
      <trkpt lat="28.098017" lon="-14.351086">
        <ele>640.885</ele>
        <time>2018-10-19T09:28:36Z</time>
      </trkpt>
      <trkpt lat="28.098284" lon="-14.351310">
        <ele>649.022</ele>
        <time>2018-10-19T09:29:29Z</time>
      </trkpt>
      <trkpt lat="28.098456" lon="-14.352115">
        <ele>656.732</ele>
        <time>2018-10-19T09:30:46Z</time>
      </trkpt>
      <trkpt lat="28.098907" lon="-14.353305">
        <ele>666.832</ele>
        <time>2018-10-19T09:33:03Z</time>
      </trkpt>
      <trkpt lat="28.099040" lon="-14.352655">
        <ele>676.919</ele>
        <time>2018-10-19T09:34:38Z</time>
      </trkpt>
      <trkpt lat="28.099176" lon="-14.352491">
        <ele>680.771</ele>
        <time>2018-10-19T09:35:22Z</time>
      </trkpt>
      <trkpt lat="28.099381" lon="-14.352852">
        <ele>689.431</ele>
        <time>2018-10-19T09:36:14Z</time>
      </trkpt>
      <trkpt lat="28.099564" lon="-14.352925">
        <ele>692.763</ele>
        <time>2018-10-19T09:36:39Z</time>
      </trkpt>
      <trkpt lat="28.099672" lon="-14.353757">
        <ele>703.813</ele>
        <time>2018-10-19T09:38:20Z</time>
      </trkpt>
      <trkpt lat="28.099895" lon="-14.353543">
        <ele>709.143</ele>
        <time>2018-10-19T09:39:28Z</time>
      </trkpt>
      <trkpt lat="28.100212" lon="-14.354307">
        <ele>732.607</ele>
        <time>2018-10-19T09:41:58Z</time>
      </trkpt>
      <trkpt lat="28.100371" lon="-14.354268">
        <ele>739.808</ele>
        <time>2018-10-19T09:42:45Z</time>
      </trkpt>
      <trkpt lat="28.100413" lon="-14.354530">
        <ele>746.144</ele>
        <time>2018-10-19T09:43:25Z</time>
      </trkpt>
      <trkpt lat="28.100583" lon="-14.354502">
        <ele>750.941</ele>
        <time>2018-10-19T09:44:42Z</time>
      </trkpt>
      <trkpt lat="28.100848" lon="-14.354980">
        <ele>765.811</ele>
        <time>2018-10-19T09:46:02Z</time>
      </trkpt>
      <trkpt lat="28.101241" lon="-14.354936">
        <ele>775.461</ele>
        <time>2018-10-19T09:47:03Z</time>
      </trkpt>
      <trkpt lat="28.101310" lon="-14.355197">
        <ele>783.148</ele>
        <time>2018-10-19T09:48:01Z</time>
      </trkpt>
      <trkpt lat="28.101844" lon="-14.355448">
        <ele>806.670</ele>
        <time>2018-10-19T09:49:56Z</time>
      </trkpt>
      <trkpt lat="28.101873" lon="-14.355685">
        <ele>811.410</ele>
        <time>2018-10-19T09:57:51Z</time>
      </trkpt>
      <trkpt lat="28.101732" lon="-14.355754">
        <ele>806.622</ele>
        <time>2018-10-19T10:00:12Z</time>
      </trkpt>
      <trkpt lat="28.101804" lon="-14.355874">
        <ele>807.629</ele>
        <time>2018-10-19T10:01:02Z</time>
      </trkpt>
      <trkpt lat="28.101765" lon="-14.355672">
        <ele>810.500</ele>
        <time>2018-10-19T10:01:48Z</time>
      </trkpt>
      <trkpt lat="28.101879" lon="-14.355552">
        <ele>815.320</ele>
        <time>2018-10-19T10:03:07Z</time>
      </trkpt>
      <trkpt lat="28.101843" lon="-14.355693">
        <ele>812.408</ele>
        <time>2018-10-19T10:09:02Z</time>
      </trkpt>
      <trkpt lat="28.101863" lon="-14.355559">
        <ele>812.975</ele>
        <time>2018-10-19T10:10:57Z</time>
      </trkpt>
      <trkpt lat="28.101781" lon="-14.355565">
        <ele>812.922</ele>
        <time>2018-10-19T10:14:40Z</time>
      </trkpt>
      <trkpt lat="28.101879" lon="-14.355580">
        <ele>817.282</ele>
        <time>2018-10-19T10:23:32Z</time>
      </trkpt>
      <trkpt lat="28.101994" lon="-14.355365">
        <ele>817.752</ele>
        <time>2018-10-19T10:24:53Z</time>
      </trkpt>
      <trkpt lat="28.101796" lon="-14.355915">
        <ele>818.779</ele>
        <time>2018-10-19T10:27:11Z</time>
      </trkpt>
      <trkpt lat="28.101875" lon="-14.355589">
        <ele>817.751</ele>
        <time>2018-10-19T10:27:58Z</time>
      </trkpt>
      <trkpt lat="28.101765" lon="-14.355382">
        <ele>811.961</ele>
        <time>2018-10-19T10:30:46Z</time>
      </trkpt>
      <trkpt lat="28.101263" lon="-14.355145">
        <ele>790.833</ele>
        <time>2018-10-19T10:32:03Z</time>
      </trkpt>
      <trkpt lat="28.101208" lon="-14.354900">
        <ele>784.569</ele>
        <time>2018-10-19T10:32:29Z</time>
      </trkpt>
      <trkpt lat="28.100867" lon="-14.354976">
        <ele>777.304</ele>
        <time>2018-10-19T10:33:07Z</time>
      </trkpt>
      <trkpt lat="28.100576" lon="-14.354489">
        <ele>762.424</ele>
        <time>2018-10-19T10:34:31Z</time>
      </trkpt>
      <trkpt lat="28.100440" lon="-14.354530">
        <ele>756.608</ele>
        <time>2018-10-19T10:35:00Z</time>
      </trkpt>
      <trkpt lat="28.100374" lon="-14.354230">
        <ele>750.949</ele>
        <time>2018-10-19T10:35:43Z</time>
      </trkpt>
      <trkpt lat="28.100220" lon="-14.354264">
        <ele>743.716</ele>
        <time>2018-10-19T10:36:12Z</time>
      </trkpt>
      <trkpt lat="28.100087" lon="-14.353844">
        <ele>732.616</ele>
        <time>2018-10-19T10:37:05Z</time>
      </trkpt>
      <trkpt lat="28.099847" lon="-14.353555">
        <ele>720.186</ele>
        <time>2018-10-19T10:38:57Z</time>
      </trkpt>
      <trkpt lat="28.099681" lon="-14.353814">
        <ele>716.873</ele>
        <time>2018-10-19T10:39:37Z</time>
      </trkpt>
      <trkpt lat="28.099612" lon="-14.352956">
        <ele>705.755</ele>
        <time>2018-10-19T10:40:57Z</time>
      </trkpt>
      <trkpt lat="28.099395" lon="-14.352874">
        <ele>700.485</ele>
        <time>2018-10-19T10:41:40Z</time>
      </trkpt>
      <trkpt lat="28.099183" lon="-14.352484">
        <ele>691.327</ele>
        <time>2018-10-19T10:42:17Z</time>
      </trkpt>
      <trkpt lat="28.099010" lon="-14.352688">
        <ele>686.081</ele>
        <time>2018-10-19T10:42:58Z</time>
      </trkpt>
      <trkpt lat="28.098934" lon="-14.353361">
        <ele>677.361</ele>
        <time>2018-10-19T10:44:07Z</time>
      </trkpt>
      <trkpt lat="28.098496" lon="-14.352176">
        <ele>669.217</ele>
        <time>2018-10-19T10:45:47Z</time>
      </trkpt>
      <trkpt lat="28.098287" lon="-14.351257">
        <ele>657.608</ele>
        <time>2018-10-19T10:47:02Z</time>
      </trkpt>
      <trkpt lat="28.098043" lon="-14.351115">
        <ele>651.971</ele>
        <time>2018-10-19T10:47:24Z</time>
      </trkpt>
      <trkpt lat="28.097921" lon="-14.350799">
        <ele>644.218</ele>
        <time>2018-10-19T10:48:06Z</time>
      </trkpt>
      <trkpt lat="28.097043" lon="-14.350233">
        <ele>617.398</ele>
        <time>2018-10-19T10:50:00Z</time>
      </trkpt>
      <trkpt lat="28.096426" lon="-14.348890">
        <ele>586.518</ele>
        <time>2018-10-19T10:51:55Z</time>
      </trkpt>
      <trkpt lat="28.095792" lon="-14.348812">
        <ele>583.615</ele>
        <time>2018-10-19T10:52:40Z</time>
      </trkpt>
      <trkpt lat="28.095582" lon="-14.348968">
        <ele>581.777</ele>
        <time>2018-10-19T10:52:59Z</time>
      </trkpt>
      <trkpt lat="28.094705" lon="-14.348294">
        <ele>566.817</ele>
        <time>2018-10-19T10:54:16Z</time>
      </trkpt>
      <trkpt lat="28.094127" lon="-14.347669">
        <ele>566.819</ele>
        <time>2018-10-19T10:55:24Z</time>
      </trkpt>
      <trkpt lat="28.093586" lon="-14.347297">
        <ele>563.928</ele>
        <time>2018-10-19T10:56:07Z</time>
      </trkpt>
      <trkpt lat="28.093435" lon="-14.347322">
        <ele>560.189</ele>
        <time>2018-10-19T10:58:36Z</time>
      </trkpt>
      <trkpt lat="28.093493" lon="-14.347232">
        <ele>562.517</ele>
        <time>2018-10-19T10:59:06Z</time>
      </trkpt>
      <trkpt lat="28.092664" lon="-14.346597">
        <ele>564.408</ele>
        <time>2018-10-19T11:00:35Z</time>
      </trkpt>
      <trkpt lat="28.091076" lon="-14.344823">
        <ele>562.915</ele>
        <time>2018-10-19T11:04:07Z</time>
      </trkpt>
      <trkpt lat="28.089945" lon="-14.343930">
        <ele>544.212</ele>
        <time>2018-10-19T11:06:15Z</time>
      </trkpt>
      <trkpt lat="28.089429" lon="-14.343383">
        <ele>539.962</ele>
        <time>2018-10-19T11:07:05Z</time>
      </trkpt>
      <trkpt lat="28.089251" lon="-14.342982">
        <ele>534.692</ele>
        <time>2018-10-19T11:07:58Z</time>
      </trkpt>
      <trkpt lat="28.089100" lon="-14.342963">
        <ele>535.139</ele>
        <time>2018-10-19T11:08:36Z</time>
      </trkpt>
      <trkpt lat="28.088619" lon="-14.342238">
        <ele>526.491</ele>
        <time>2018-10-19T11:09:34Z</time>
      </trkpt>
      <trkpt lat="28.088270" lon="-14.341983">
        <ele>523.051</ele>
        <time>2018-10-19T11:10:16Z</time>
      </trkpt>
      <trkpt lat="28.087892" lon="-14.341261">
        <ele>513.013</ele>
        <time>2018-10-19T11:11:11Z</time>
      </trkpt>
      <trkpt lat="28.086604" lon="-14.339959">
        <ele>487.559</ele>
        <time>2018-10-19T11:13:26Z</time>
      </trkpt>
      <trkpt lat="28.086277" lon="-14.339434">
        <ele>476.403</ele>
        <time>2018-10-19T11:14:09Z</time>
      </trkpt>
      <trkpt lat="28.085767" lon="-14.339479">
        <ele>473.523</ele>
        <time>2018-10-19T11:15:09Z</time>
      </trkpt>
      <trkpt lat="28.085204" lon="-14.339344">
        <ele>464.908</ele>
        <time>2018-10-19T11:15:53Z</time>
      </trkpt>
      <trkpt lat="28.084567" lon="-14.338685">
        <ele>448.128</ele>
        <time>2018-10-19T11:17:08Z</time>
      </trkpt>
      <trkpt lat="28.083475" lon="-14.338431">
        <ele>429.885</ele>
        <time>2018-10-19T11:18:35Z</time>
      </trkpt>
      <trkpt lat="28.082893" lon="-14.338116">
        <ele>417.865</ele>
        <time>2018-10-19T11:19:25Z</time>
      </trkpt>
      <trkpt lat="28.082377" lon="-14.337395">
        <ele>398.635</ele>
        <time>2018-10-19T11:20:53Z</time>
      </trkpt>
      <trkpt lat="28.081095" lon="-14.336540">
        <ele>374.082</ele>
        <time>2018-10-19T11:22:58Z</time>
      </trkpt>
      <trkpt lat="28.080275" lon="-14.336400">
        <ele>375.074</ele>
        <time>2018-10-19T11:25:44Z</time>
      </trkpt>
      <trkpt lat="28.080129" lon="-14.336216">
        <ele>375.074</ele>
        <time>2018-10-19T11:26:13Z</time>
      </trkpt>
      <trkpt lat="28.079172" lon="-14.336161">
        <ele>360.676</ele>
        <time>2018-10-19T11:27:46Z</time>
      </trkpt>
      <trkpt lat="28.078334" lon="-14.335554">
        <ele>344.767</ele>
        <time>2018-10-19T11:29:04Z</time>
      </trkpt>
      <trkpt lat="28.077325" lon="-14.335084">
        <ele>331.781</ele>
        <time>2018-10-19T11:30:42Z</time>
      </trkpt>
      <trkpt lat="28.076626" lon="-14.334935">
        <ele>321.719</ele>
        <time>2018-10-19T11:31:46Z</time>
      </trkpt>
      <trkpt lat="28.076440" lon="-14.334749">
        <ele>320.708</ele>
        <time>2018-10-19T11:32:14Z</time>
      </trkpt>
      <trkpt lat="28.076335" lon="-14.334996">
        <ele>317.329</ele>
        <time>2018-10-19T11:32:37Z</time>
      </trkpt>
      <trkpt lat="28.076119" lon="-14.335060">
        <ele>313.556</ele>
        <time>2018-10-19T11:32:55Z</time>
      </trkpt>
      <trkpt lat="28.075306" lon="-14.335009">
        <ele>301.996</ele>
        <time>2018-10-19T11:34:13Z</time>
      </trkpt>
      <trkpt lat="28.074116" lon="-14.334520">
        <ele>293.316</ele>
        <time>2018-10-19T11:36:00Z</time>
      </trkpt>
      <trkpt lat="28.073645" lon="-14.334042">
        <ele>285.163</ele>
        <time>2018-10-19T11:36:46Z</time>
      </trkpt>
      <trkpt lat="28.072666" lon="-14.333633">
        <ele>270.765</ele>
        <time>2018-10-19T11:38:07Z</time>
      </trkpt>
      <trkpt lat="28.070864" lon="-14.333249">
        <ele>250.535</ele>
        <time>2018-10-19T11:40:37Z</time>
      </trkpt>
      <trkpt lat="28.070475" lon="-14.333005">
        <ele>246.747</ele>
        <time>2018-10-19T11:41:26Z</time>
      </trkpt>
      <trkpt lat="28.070161" lon="-14.332417">
        <ele>241.993</ele>
        <time>2018-10-19T11:42:16Z</time>
      </trkpt>
      <trkpt lat="28.069714" lon="-14.332120">
        <ele>231.865</ele>
        <time>2018-10-19T11:43:01Z</time>
      </trkpt>
      <trkpt lat="28.068215" lon="-14.331582">
        <ele>221.221</ele>
        <time>2018-10-19T11:45:28Z</time>
      </trkpt>
      <trkpt lat="28.067782" lon="-14.331283">
        <ele>215.408</ele>
        <time>2018-10-19T11:46:05Z</time>
      </trkpt>
      <trkpt lat="28.066929" lon="-14.330962">
        <ele>214.542</ele>
        <time>2018-10-19T11:47:48Z</time>
      </trkpt>
      <trkpt lat="28.065318" lon="-14.329790">
        <ele>254.479</ele>
        <time>2018-10-19T11:51:28Z</time>
      </trkpt>
      <trkpt lat="28.064871" lon="-14.329593">
        <ele>254.899</ele>
        <time>2018-10-19T11:53:09Z</time>
      </trkpt>
      <trkpt lat="28.064496" lon="-14.329246">
        <ele>256.379</ele>
        <time>2018-10-19T11:54:40Z</time>
      </trkpt>
      <trkpt lat="28.064358" lon="-14.328909">
        <ele>243.366</ele>
        <time>2018-10-19T11:55:48Z</time>
      </trkpt>
      <trkpt lat="28.064056" lon="-14.328598">
        <ele>230.878</ele>
        <time>2018-10-19T11:56:43Z</time>
      </trkpt>
      <trkpt lat="28.062580" lon="-14.327597">
        <ele>213.528</ele>
        <time>2018-10-19T11:59:16Z</time>
      </trkpt>
      <trkpt lat="28.061677" lon="-14.328002">
        <ele>189.590</ele>
        <time>2018-10-19T12:00:46Z</time>
      </trkpt>
      <trkpt lat="28.061364" lon="-14.328313">
        <ele>183.291</ele>
        <time>2018-10-19T12:01:21Z</time>
      </trkpt>
      <trkpt lat="28.061253" lon="-14.328000">
        <ele>176.581</ele>
        <time>2018-10-19T12:02:01Z</time>
      </trkpt>
      <trkpt lat="28.061451" lon="-14.327638">
        <ele>169.819</ele>
        <time>2018-10-19T12:02:32Z</time>
      </trkpt>
      <trkpt lat="28.061351" lon="-14.327356">
        <ele>165.008</ele>
        <time>2018-10-19T12:02:54Z</time>
      </trkpt>
      <trkpt lat="28.060759" lon="-14.327969">
        <ele>157.742</ele>
        <time>2018-10-19T12:03:55Z</time>
      </trkpt>
      <trkpt lat="28.060396" lon="-14.328003">
        <ele>150.199</ele>
        <time>2018-10-19T12:04:25Z</time>
      </trkpt>
      <trkpt lat="28.059611" lon="-14.328361">
        <ele>137.669</ele>
        <time>2018-10-19T12:05:28Z</time>
      </trkpt>
      <trkpt lat="28.058617" lon="-14.328278">
        <ele>123.159</ele>
        <time>2018-10-19T12:06:40Z</time>
      </trkpt>
      <trkpt lat="28.058337" lon="-14.328379">
        <ele>119.886</ele>
        <time>2018-10-19T12:07:02Z</time>
      </trkpt>
      <trkpt lat="28.057122" lon="-14.327815">
        <ele>104.458</ele>
        <time>2018-10-19T12:08:47Z</time>
      </trkpt>
      <trkpt lat="28.055258" lon="-14.328137">
        <ele>86.148</ele>
        <time>2018-10-19T12:12:34Z</time>
      </trkpt>
    </trkseg>
  </trk></gpx>