<?xml version="1.0" encoding="UTF-8"?>
<gpx creator="Wikiloc - https://www.wikiloc.com" version="1.1" xmlns="http://www.topografix.com/GPX/1/1" xmlns:xsi="http://www.w3.org/2001/XMLSchema-instance" xsi:schemaLocation="http://www.topografix.com/GPX/1/1 http://www.topografix.com/GPX/1/1/gpx.xsd">
  <metadata>
    <name>Wikiloc - Nacientes de Marcos y Cordero (Túneles) - Los Tilos - Wikilo...</name>
    <link href="https://www.wikiloc.com/hiking-trails/nacientes-de-marcos-y-cordero-tuneles-los-tilos-112607041">
      <text>Nacientes de Marcos y Cordero (Túneles) - Los Tilos - Wikilo... on Wikiloc</text>
    </link>
    <time>2022-09-03T17:32:30Z</time>
  </metadata>
  <trk>
    <name>Nacientes de Marcos y Cordero (Túneles) - Los Tilos - Wikilo... - Wikiloc</name>
    <cmt></cmt>
    <desc></desc>
    <trkseg>
      <trkpt lat="28.772432" lon="-17.812067">
        <ele>1336.535</ele>
        <time>2022-09-03T12:02:59Z</time>
      </trkpt>
      <trkpt lat="28.772446" lon="-17.812292">
        <ele>1336.586</ele>
        <time>2022-09-03T12:03:09Z</time>
      </trkpt>
      <trkpt lat="28.772906" lon="-17.811880">
        <ele>1328.514</ele>
        <time>2022-09-03T12:04:18Z</time>
      </trkpt>
      <trkpt lat="28.772966" lon="-17.811985">
        <ele>1328.309</ele>
        <time>2022-09-03T12:04:29Z</time>
      </trkpt>
      <trkpt lat="28.772862" lon="-17.811914">
        <ele>1324.884</ele>
        <time>2022-09-03T12:05:26Z</time>
      </trkpt>
      <trkpt lat="28.772531" lon="-17.812237">
        <ele>1328.514</ele>
        <time>2022-09-03T12:06:11Z</time>
      </trkpt>
      <trkpt lat="28.772298" lon="-17.812734">
        <ele>1341.315</ele>
        <time>2022-09-03T12:07:40Z</time>
      </trkpt>
      <trkpt lat="28.771321" lon="-17.813882">
        <ele>1354.049</ele>
        <time>2022-09-03T12:10:14Z</time>
      </trkpt>
      <trkpt lat="28.769876" lon="-17.814585">
        <ele>1331.943</ele>
        <time>2022-09-03T12:13:18Z</time>
      </trkpt>
      <trkpt lat="28.770058" lon="-17.814627">
        <ele>1332.240</ele>
        <time>2022-09-03T12:13:23Z</time>
      </trkpt>
      <trkpt lat="28.769680" lon="-17.814903">
        <ele>1351.533</ele>
        <time>2022-09-03T12:14:31Z</time>
      </trkpt>
      <trkpt lat="28.769744" lon="-17.814985">
        <ele>1348.387</ele>
        <time>2022-09-03T12:14:49Z</time>
      </trkpt>
      <trkpt lat="28.769637" lon="-17.814910">
        <ele>1349.284</ele>
        <time>2022-09-03T12:15:48Z</time>
      </trkpt>
      <trkpt lat="28.769327" lon="-17.815417">
        <ele>1333.665</ele>
        <time>2022-09-03T12:18:24Z</time>
      </trkpt>
      <trkpt lat="28.768906" lon="-17.815361">
        <ele>1335.168</ele>
        <time>2022-09-03T12:18:31Z</time>
      </trkpt>
      <trkpt lat="28.769246" lon="-17.815754">
        <ele>1345.814</ele>
        <time>2022-09-03T12:20:23Z</time>
      </trkpt>
      <trkpt lat="28.768901" lon="-17.815892">
        <ele>1352.109</ele>
        <time>2022-09-03T12:20:52Z</time>
      </trkpt>
      <trkpt lat="28.768846" lon="-17.816168">
        <ele>1358.277</ele>
        <time>2022-09-03T12:21:21Z</time>
      </trkpt>
      <trkpt lat="28.768488" lon="-17.816203">
        <ele>1349.877</ele>
        <time>2022-09-03T12:21:52Z</time>
      </trkpt>
      <trkpt lat="28.767839" lon="-17.815672">
        <ele>1340.298</ele>
        <time>2022-09-03T12:22:55Z</time>
      </trkpt>
      <trkpt lat="28.767507" lon="-17.815897">
        <ele>1342.732</ele>
        <time>2022-09-03T12:23:32Z</time>
      </trkpt>
      <trkpt lat="28.767305" lon="-17.815813">
        <ele>1342.516</ele>
        <time>2022-09-03T12:23:54Z</time>
      </trkpt>
      <trkpt lat="28.766974" lon="-17.815999">
        <ele>1341.653</ele>
        <time>2022-09-03T12:24:43Z</time>
      </trkpt>
      <trkpt lat="28.766416" lon="-17.815994">
        <ele>1356.116</ele>
        <time>2022-09-03T12:26:09Z</time>
      </trkpt>
      <trkpt lat="28.765449" lon="-17.816720">
        <ele>1345.460</ele>
        <time>2022-09-03T12:27:58Z</time>
      </trkpt>
      <trkpt lat="28.765298" lon="-17.817168">
        <ele>1343.467</ele>
        <time>2022-09-03T12:28:41Z</time>
      </trkpt>
      <trkpt lat="28.764878" lon="-17.817237">
        <ele>1350.527</ele>
        <time>2022-09-03T12:29:21Z</time>
      </trkpt>
      <trkpt lat="28.764474" lon="-17.817496">
        <ele>1352.368</ele>
        <time>2022-09-03T12:30:02Z</time>
      </trkpt>
      <trkpt lat="28.764194" lon="-17.818003">
        <ele>1346.514</ele>
        <time>2022-09-03T12:30:58Z</time>
      </trkpt>
      <trkpt lat="28.764380" lon="-17.818969">
        <ele>1345.909</ele>
        <time>2022-09-03T12:33:05Z</time>
      </trkpt>
      <trkpt lat="28.762819" lon="-17.821474">
        <ele>1314.433</ele>
        <time>2022-09-03T12:43:33Z</time>
      </trkpt>
      <trkpt lat="28.762847" lon="-17.821327">
        <ele>1328.713</ele>
        <time>2022-09-03T12:45:50Z</time>
      </trkpt>
      <trkpt lat="28.762812" lon="-17.821935">
        <ele>1378.444</ele>
        <time>2022-09-03T12:47:47Z</time>
      </trkpt>
      <trkpt lat="28.762935" lon="-17.821567">
        <ele>1380.318</ele>
        <time>2022-09-03T12:49:00Z</time>
      </trkpt>
      <trkpt lat="28.762854" lon="-17.821809">
        <ele>1382.212</ele>
        <time>2022-09-03T12:50:09Z</time>
      </trkpt>
      <trkpt lat="28.762782" lon="-17.821726">
        <ele>1380.229</ele>
        <time>2022-09-03T12:50:31Z</time>
      </trkpt>
      <trkpt lat="28.762542" lon="-17.821855">
        <ele>1380.232</ele>
        <time>2022-09-03T12:50:57Z</time>
      </trkpt>
      <trkpt lat="28.762473" lon="-17.821748">
        <ele>1380.056</ele>
        <time>2022-09-03T12:51:19Z</time>
      </trkpt>
      <trkpt lat="28.761779" lon="-17.822015">
        <ele>1363.323</ele>
        <time>2022-09-03T12:52:48Z</time>
      </trkpt>
      <trkpt lat="28.761584" lon="-17.821968">
        <ele>1359.361</ele>
        <time>2022-09-03T12:53:06Z</time>
      </trkpt>
      <trkpt lat="28.761377" lon="-17.822248">
        <ele>1358.021</ele>
        <time>2022-09-03T12:53:44Z</time>
      </trkpt>
      <trkpt lat="28.761645" lon="-17.822394">
        <ele>1354.713</ele>
        <time>2022-09-03T12:54:34Z</time>
      </trkpt>
      <trkpt lat="28.762248" lon="-17.823589">
        <ele>1352.609</ele>
        <time>2022-09-03T12:58:23Z</time>
      </trkpt>
      <trkpt lat="28.762513" lon="-17.823233">
        <ele>1332.817</ele>
        <time>2022-09-03T13:00:06Z</time>
      </trkpt>
      <trkpt lat="28.762818" lon="-17.823858">
        <ele>1352.327</ele>
        <time>2022-09-03T13:01:32Z</time>
      </trkpt>
      <trkpt lat="28.763315" lon="-17.823627">
        <ele>1337.678</ele>
        <time>2022-09-03T13:02:10Z</time>
      </trkpt>
      <trkpt lat="28.763839" lon="-17.823849">
        <ele>1355.032</ele>
        <time>2022-09-03T13:03:08Z</time>
      </trkpt>
      <trkpt lat="28.763981" lon="-17.824079">
        <ele>1352.856</ele>
        <time>2022-09-03T13:04:07Z</time>
      </trkpt>
      <trkpt lat="28.763520" lon="-17.824323">
        <ele>1345.863</ele>
        <time>2022-09-03T13:04:57Z</time>
      </trkpt>
      <trkpt lat="28.763360" lon="-17.825495">
        <ele>1339.866</ele>
        <time>2022-09-03T13:06:48Z</time>
      </trkpt>
      <trkpt lat="28.763800" lon="-17.826055">
        <ele>1354.890</ele>
        <time>2022-09-03T13:07:40Z</time>
      </trkpt>
      <trkpt lat="28.763882" lon="-17.825924">
        <ele>1355.237</ele>
        <time>2022-09-03T13:08:05Z</time>
      </trkpt>
      <trkpt lat="28.764072" lon="-17.826357">
        <ele>1366.031</ele>
        <time>2022-09-03T13:08:34Z</time>
      </trkpt>
      <trkpt lat="28.764320" lon="-17.826335">
        <ele>1376.161</ele>
        <time>2022-09-03T13:09:03Z</time>
      </trkpt>
      <trkpt lat="28.764035" lon="-17.826480">
        <ele>1388.707</ele>
        <time>2022-09-03T13:09:50Z</time>
      </trkpt>
      <trkpt lat="28.764085" lon="-17.826872">
        <ele>1378.109</ele>
        <time>2022-09-03T13:11:15Z</time>
      </trkpt>
      <trkpt lat="28.763848" lon="-17.827077">
        <ele>1361.924</ele>
        <time>2022-09-03T13:11:46Z</time>
      </trkpt>
      <trkpt lat="28.762900" lon="-17.827256">
        <ele>1375.374</ele>
        <time>2022-09-03T13:14:44Z</time>
      </trkpt>
      <trkpt lat="28.762597" lon="-17.826865">
        <ele>1367.145</ele>
        <time>2022-09-03T13:15:37Z</time>
      </trkpt>
      <trkpt lat="28.762229" lon="-17.827837">
        <ele>1349.999</ele>
        <time>2022-09-03T13:17:06Z</time>
      </trkpt>
      <trkpt lat="28.762409" lon="-17.827909">
        <ele>1368.493</ele>
        <time>2022-09-03T13:17:51Z</time>
      </trkpt>
      <trkpt lat="28.762304" lon="-17.828549">
        <ele>1368.420</ele>
        <time>2022-09-03T13:18:53Z</time>
      </trkpt>
      <trkpt lat="28.761928" lon="-17.828949">
        <ele>1364.323</ele>
        <time>2022-09-03T13:19:43Z</time>
      </trkpt>
      <trkpt lat="28.763514" lon="-17.830782">
        <ele>1350.287</ele>
        <time>2022-09-03T13:21:57Z</time>
      </trkpt>
      <trkpt lat="28.763581" lon="-17.830567">
        <ele>1416.994</ele>
        <time>2022-09-03T13:22:05Z</time>
      </trkpt>
      <trkpt lat="28.763339" lon="-17.830775">
        <ele>1529.844</ele>
        <time>2022-09-03T13:22:28Z</time>
      </trkpt>
      <trkpt lat="28.762764" lon="-17.829750">
        <ele>1555.905</ele>
        <time>2022-09-03T13:22:41Z</time>
      </trkpt>
      <trkpt lat="28.762554" lon="-17.829667">
        <ele>1539.215</ele>
        <time>2022-09-03T13:22:50Z</time>
      </trkpt>
      <trkpt lat="28.762334" lon="-17.829901">
        <ele>1435.609</ele>
        <time>2022-09-03T13:23:45Z</time>
      </trkpt>
      <trkpt lat="28.762243" lon="-17.829666">
        <ele>1417.715</ele>
        <time>2022-09-03T13:24:05Z</time>
      </trkpt>
      <trkpt lat="28.762416" lon="-17.830581">
        <ele>1407.065</ele>
        <time>2022-09-03T13:29:28Z</time>
      </trkpt>
      <trkpt lat="28.762281" lon="-17.830784">
        <ele>1388.826</ele>
        <time>2022-09-03T13:29:34Z</time>
      </trkpt>
      <trkpt lat="28.762893" lon="-17.831013">
        <ele>1355.270</ele>
        <time>2022-09-03T13:33:12Z</time>
      </trkpt>
      <trkpt lat="28.762920" lon="-17.830831">
        <ele>1373.294</ele>
        <time>2022-09-03T13:35:45Z</time>
      </trkpt>
      <trkpt lat="28.763269" lon="-17.830807">
        <ele>1379.311</ele>
        <time>2022-09-03T13:37:55Z</time>
      </trkpt>
      <trkpt lat="28.763131" lon="-17.830822">
        <ele>1381.224</ele>
        <time>2022-09-03T13:38:17Z</time>
      </trkpt>
      <trkpt lat="28.763581" lon="-17.830532">
        <ele>1383.368</ele>
        <time>2022-09-03T13:40:49Z</time>
      </trkpt>
      <trkpt lat="28.763643" lon="-17.830153">
        <ele>1388.945</ele>
        <time>2022-09-03T13:43:13Z</time>
      </trkpt>
      <trkpt lat="28.763566" lon="-17.830274">
        <ele>1407.049</ele>
        <time>2022-09-03T13:57:14Z</time>
      </trkpt>
      <trkpt lat="28.763697" lon="-17.830309">
        <ele>1392.202</ele>
        <time>2022-09-03T14:12:32Z</time>
      </trkpt>
      <trkpt lat="28.763899" lon="-17.830116">
        <ele>1403.822</ele>
        <time>2022-09-03T14:13:16Z</time>
      </trkpt>
      <trkpt lat="28.764006" lon="-17.829596">
        <ele>1423.209</ele>
        <time>2022-09-03T14:14:22Z</time>
      </trkpt>
      <trkpt lat="28.764532" lon="-17.830326">
        <ele>1422.285</ele>
        <time>2022-09-03T14:16:21Z</time>
      </trkpt>
      <trkpt lat="28.765083" lon="-17.830058">
        <ele>1423.945</ele>
        <time>2022-09-03T14:17:21Z</time>
      </trkpt>
      <trkpt lat="28.765113" lon="-17.829890">
        <ele>1425.546</ele>
        <time>2022-09-03T14:17:36Z</time>
      </trkpt>
      <trkpt lat="28.765451" lon="-17.829905">
        <ele>1428.440</ele>
        <time>2022-09-03T14:18:21Z</time>
      </trkpt>
      <trkpt lat="28.766875" lon="-17.830779">
        <ele>1427.434</ele>
        <time>2022-09-03T14:22:29Z</time>
      </trkpt>
      <trkpt lat="28.767133" lon="-17.831141">
        <ele>1442.841</ele>
        <time>2022-09-03T14:23:18Z</time>
      </trkpt>
      <trkpt lat="28.766788" lon="-17.832605">
        <ele>1435.624</ele>
        <time>2022-09-03T14:26:09Z</time>
      </trkpt>
      <trkpt lat="28.766285" lon="-17.833099">
        <ele>1431.238</ele>
        <time>2022-09-03T14:27:46Z</time>
      </trkpt>
      <trkpt lat="28.766275" lon="-17.832931">
        <ele>1430.265</ele>
        <time>2022-09-03T14:28:07Z</time>
      </trkpt>
      <trkpt lat="28.767462" lon="-17.833173">
        <ele>1408.143</ele>
        <time>2022-09-03T14:32:42Z</time>
      </trkpt>
      <trkpt lat="28.767931" lon="-17.831803">
        <ele>1372.264</ele>
        <time>2022-09-03T14:38:09Z</time>
      </trkpt>
      <trkpt lat="28.768244" lon="-17.831540">
        <ele>1360.210</ele>
        <time>2022-09-03T14:40:02Z</time>
      </trkpt>
      <trkpt lat="28.768158" lon="-17.829742">
        <ele>1337.709</ele>
        <time>2022-09-03T14:46:09Z</time>
      </trkpt>
      <trkpt lat="28.768396" lon="-17.829639">
        <ele>1330.725</ele>
        <time>2022-09-03T14:46:25Z</time>
      </trkpt>
      <trkpt lat="28.768773" lon="-17.828948">
        <ele>1291.645</ele>
        <time>2022-09-03T14:48:17Z</time>
      </trkpt>
      <trkpt lat="28.769064" lon="-17.828932">
        <ele>1290.366</ele>
        <time>2022-09-03T14:49:01Z</time>
      </trkpt>
      <trkpt lat="28.769170" lon="-17.828778">
        <ele>1288.710</ele>
        <time>2022-09-03T14:49:25Z</time>
      </trkpt>
      <trkpt lat="28.769270" lon="-17.828881">
        <ele>1282.414</ele>
        <time>2022-09-03T14:49:46Z</time>
      </trkpt>
      <trkpt lat="28.769386" lon="-17.828389">
        <ele>1265.831</ele>
        <time>2022-09-03T14:50:56Z</time>
      </trkpt>
      <trkpt lat="28.769596" lon="-17.828319">
        <ele>1266.524</ele>
        <time>2022-09-03T14:51:55Z</time>
      </trkpt>
      <trkpt lat="28.770581" lon="-17.828921">
        <ele>1248.028</ele>
        <time>2022-09-03T14:56:20Z</time>
      </trkpt>
      <trkpt lat="28.771211" lon="-17.828480">
        <ele>1258.195</ele>
        <time>2022-09-03T15:00:06Z</time>
      </trkpt>
      <trkpt lat="28.771149" lon="-17.828190">
        <ele>1249.941</ele>
        <time>2022-09-03T15:00:34Z</time>
      </trkpt>
      <trkpt lat="28.771377" lon="-17.828131">
        <ele>1229.881</ele>
        <time>2022-09-03T15:01:12Z</time>
      </trkpt>
      <trkpt lat="28.771130" lon="-17.827562">
        <ele>1214.809</ele>
        <time>2022-09-03T15:02:13Z</time>
      </trkpt>
      <trkpt lat="28.771541" lon="-17.826486">
        <ele>1197.509</ele>
        <time>2022-09-03T15:05:15Z</time>
      </trkpt>
      <trkpt lat="28.769501" lon="-17.829312">
        <ele>1202.055</ele>
        <time>2022-09-03T15:06:47Z</time>
      </trkpt>
      <trkpt lat="28.769666" lon="-17.829290">
        <ele>1202.115</ele>
        <time>2022-09-03T15:06:48Z</time>
      </trkpt>
      <trkpt lat="28.772223" lon="-17.825875">
        <ele>1202.426</ele>
        <time>2022-09-03T15:07:13Z</time>
      </trkpt>
      <trkpt lat="28.771978" lon="-17.825885">
        <ele>1201.710</ele>
        <time>2022-09-03T15:07:15Z</time>
      </trkpt>
      <trkpt lat="28.771800" lon="-17.826495">
        <ele>1177.034</ele>
        <time>2022-09-03T15:13:56Z</time>
      </trkpt>
      <trkpt lat="28.771845" lon="-17.826352">
        <ele>1177.041</ele>
        <time>2022-09-03T15:14:09Z</time>
      </trkpt>
      <trkpt lat="28.771664" lon="-17.826212">
        <ele>1187.614</ele>
        <time>2022-09-03T15:15:03Z</time>
      </trkpt>
      <trkpt lat="28.772068" lon="-17.826309">
        <ele>1188.298</ele>
        <time>2022-09-03T15:15:33Z</time>
      </trkpt>
      <trkpt lat="28.771684" lon="-17.826494">
        <ele>1188.175</ele>
        <time>2022-09-03T15:16:35Z</time>
      </trkpt>
      <trkpt lat="28.771792" lon="-17.826672">
        <ele>1190.278</ele>
        <time>2022-09-03T15:17:11Z</time>
      </trkpt>
      <trkpt lat="28.771903" lon="-17.826187">
        <ele>1191.133</ele>
        <time>2022-09-03T15:18:29Z</time>
      </trkpt>
      <trkpt lat="28.771796" lon="-17.826345">
        <ele>1191.626</ele>
        <time>2022-09-03T15:18:38Z</time>
      </trkpt>
      <trkpt lat="28.772033" lon="-17.826240">
        <ele>1190.709</ele>
        <time>2022-09-03T15:19:08Z</time>
      </trkpt>
      <trkpt lat="28.772340" lon="-17.826638">
        <ele>1191.038</ele>
        <time>2022-09-03T15:19:29Z</time>
      </trkpt>
      <trkpt lat="28.772133" lon="-17.826613">
        <ele>1193.298</ele>
        <time>2022-09-03T15:20:02Z</time>
      </trkpt>
      <trkpt lat="28.771975" lon="-17.825730">
        <ele>1193.399</ele>
        <time>2022-09-03T15:20:05Z</time>
      </trkpt>
      <trkpt lat="28.772137" lon="-17.825565">
        <ele>1194.093</ele>
        <time>2022-09-03T15:20:09Z</time>
      </trkpt>
      <trkpt lat="28.772522" lon="-17.825739">
        <ele>1194.887</ele>
        <time>2022-09-03T15:20:24Z</time>
      </trkpt>
      <trkpt lat="28.772572" lon="-17.825529">
        <ele>1195.214</ele>
        <time>2022-09-03T15:20:30Z</time>
      </trkpt>
      <trkpt lat="28.772127" lon="-17.824780">
        <ele>1194.697</ele>
        <time>2022-09-03T15:21:00Z</time>
      </trkpt>
      <trkpt lat="28.772375" lon="-17.824740">
        <ele>1173.981</ele>
        <time>2022-09-03T15:21:13Z</time>
      </trkpt>
      <trkpt lat="28.772739" lon="-17.825134">
        <ele>1160.298</ele>
        <time>2022-09-03T15:21:41Z</time>
      </trkpt>
      <trkpt lat="28.772936" lon="-17.825154">
        <ele>1158.838</ele>
        <time>2022-09-03T15:21:52Z</time>
      </trkpt>
      <trkpt lat="28.773429" lon="-17.824323">
        <ele>1149.370</ele>
        <time>2022-09-03T15:23:44Z</time>
      </trkpt>
      <trkpt lat="28.773166" lon="-17.824780">
        <ele>1165.317</ele>
        <time>2022-09-03T15:24:33Z</time>
      </trkpt>
      <trkpt lat="28.773361" lon="-17.824512">
        <ele>1167.609</ele>
        <time>2022-09-03T15:24:44Z</time>
      </trkpt>
      <trkpt lat="28.773592" lon="-17.824609">
        <ele>1168.194</ele>
        <time>2022-09-03T15:25:10Z</time>
      </trkpt>
      <trkpt lat="28.773677" lon="-17.824216">
        <ele>1170.364</ele>
        <time>2022-09-03T15:25:47Z</time>
      </trkpt>
      <trkpt lat="28.774272" lon="-17.823844">
        <ele>1179.415</ele>
        <time>2022-09-03T15:27:02Z</time>
      </trkpt>
      <trkpt lat="28.773915" lon="-17.823726">
        <ele>1183.459</ele>
        <time>2022-09-03T15:27:45Z</time>
      </trkpt>
      <trkpt lat="28.773869" lon="-17.823534">
        <ele>1183.173</ele>
        <time>2022-09-03T15:27:53Z</time>
      </trkpt>
      <trkpt lat="28.773548" lon="-17.823590">
        <ele>1183.480</ele>
        <time>2022-09-03T15:28:36Z</time>
      </trkpt>
      <trkpt lat="28.773922" lon="-17.823619">
        <ele>1184.943</ele>
        <time>2022-09-03T15:29:08Z</time>
      </trkpt>
      <trkpt lat="28.774120" lon="-17.823479">
        <ele>1185.747</ele>
        <time>2022-09-03T15:29:32Z</time>
      </trkpt>
      <trkpt lat="28.774014" lon="-17.822735">
        <ele>1183.254</ele>
        <time>2022-09-03T15:30:28Z</time>
      </trkpt>
      <trkpt lat="28.773751" lon="-17.822595">
        <ele>1173.966</ele>
        <time>2022-09-03T15:31:01Z</time>
      </trkpt>
      <trkpt lat="28.774061" lon="-17.822144">
        <ele>1170.529</ele>
        <time>2022-09-03T15:32:14Z</time>
      </trkpt>
      <trkpt lat="28.773902" lon="-17.822031">
        <ele>1170.521</ele>
        <time>2022-09-03T15:32:29Z</time>
      </trkpt>
      <trkpt lat="28.773875" lon="-17.821634">
        <ele>1165.009</ele>
        <time>2022-09-03T15:32:48Z</time>
      </trkpt>
      <trkpt lat="28.773363" lon="-17.821815">
        <ele>1168.637</ele>
        <time>2022-09-03T15:33:42Z</time>
      </trkpt>
      <trkpt lat="28.773269" lon="-17.821564">
        <ele>1171.347</ele>
        <time>2022-09-03T15:34:02Z</time>
      </trkpt>
      <trkpt lat="28.772878" lon="-17.821593">
        <ele>1172.188</ele>
        <time>2022-09-03T15:34:14Z</time>
      </trkpt>
      <trkpt lat="28.773039" lon="-17.821064">
        <ele>1175.512</ele>
        <time>2022-09-03T15:35:49Z</time>
      </trkpt>
      <trkpt lat="28.772765" lon="-17.821030">
        <ele>1158.446</ele>
        <time>2022-09-03T15:36:30Z</time>
      </trkpt>
      <trkpt lat="28.772280" lon="-17.820429">
        <ele>1131.913</ele>
        <time>2022-09-03T15:38:48Z</time>
      </trkpt>
      <trkpt lat="28.772245" lon="-17.819592">
        <ele>1128.236</ele>
        <time>2022-09-03T15:40:25Z</time>
      </trkpt>
      <trkpt lat="28.772477" lon="-17.818895">
        <ele>1119.330</ele>
        <time>2022-09-03T15:42:15Z</time>
      </trkpt>
      <trkpt lat="28.773094" lon="-17.818951">
        <ele>1043.347</ele>
        <time>2022-09-03T15:43:32Z</time>
      </trkpt>
      <trkpt lat="28.773616" lon="-17.819184">
        <ele>1026.236</ele>
        <time>2022-09-03T15:45:08Z</time>
      </trkpt>
      <trkpt lat="28.773959" lon="-17.818895">
        <ele>995.517</ele>
        <time>2022-09-03T15:46:37Z</time>
      </trkpt>
      <trkpt lat="28.774473" lon="-17.818749">
        <ele>997.818</ele>
        <time>2022-09-03T15:48:18Z</time>
      </trkpt>
      <trkpt lat="28.774802" lon="-17.818779">
        <ele>977.409</ele>
        <time>2022-09-03T15:49:18Z</time>
      </trkpt>
      <trkpt lat="28.774920" lon="-17.818890">
        <ele>981.864</ele>
        <time>2022-09-03T15:49:28Z</time>
      </trkpt>
      <trkpt lat="28.774830" lon="-17.818968">
        <ele>990.124</ele>
        <time>2022-09-03T15:49:52Z</time>
      </trkpt>
      <trkpt lat="28.774759" lon="-17.818742">
        <ele>995.425</ele>
        <time>2022-09-03T15:50:30Z</time>
      </trkpt>
      <trkpt lat="28.774679" lon="-17.818885">
        <ele>998.519</ele>
        <time>2022-09-03T15:51:04Z</time>
      </trkpt>
      <trkpt lat="28.774696" lon="-17.818584">
        <ele>1005.473</ele>
        <time>2022-09-03T15:51:36Z</time>
      </trkpt>
      <trkpt lat="28.775141" lon="-17.818117">
        <ele>972.530</ele>
        <time>2022-09-03T15:52:25Z</time>
      </trkpt>
      <trkpt lat="28.775890" lon="-17.817883">
        <ele>958.773</ele>
        <time>2022-09-03T15:53:35Z</time>
      </trkpt>
      <trkpt lat="28.776244" lon="-17.818197">
        <ele>939.387</ele>
        <time>2022-09-03T15:54:21Z</time>
      </trkpt>
      <trkpt lat="28.776272" lon="-17.817308">
        <ele>948.954</ele>
        <time>2022-09-03T15:55:57Z</time>
      </trkpt>
      <trkpt lat="28.776401" lon="-17.817134">
        <ele>935.291</ele>
        <time>2022-09-03T15:56:25Z</time>
      </trkpt>
      <trkpt lat="28.776728" lon="-17.817072">
        <ele>918.581</ele>
        <time>2022-09-03T15:57:03Z</time>
      </trkpt>
      <trkpt lat="28.777081" lon="-17.816591">
        <ele>920.119</ele>
        <time>2022-09-03T15:58:09Z</time>
      </trkpt>
      <trkpt lat="28.777519" lon="-17.815048">
        <ele>878.009</ele>
        <time>2022-09-03T16:02:29Z</time>
      </trkpt>
      <trkpt lat="28.778327" lon="-17.814706">
        <ele>843.720</ele>
        <time>2022-09-03T16:04:08Z</time>
      </trkpt>
      <trkpt lat="28.778811" lon="-17.814741">
        <ele>847.770</ele>
        <time>2022-09-03T16:04:52Z</time>
      </trkpt>
      <trkpt lat="28.778836" lon="-17.814356">
        <ele>841.371</ele>
        <time>2022-09-03T16:05:13Z</time>
      </trkpt>
      <trkpt lat="28.779118" lon="-17.814536">
        <ele>841.015</ele>
        <time>2022-09-03T16:05:34Z</time>
      </trkpt>
      <trkpt lat="28.779580" lon="-17.814463">
        <ele>833.319</ele>
        <time>2022-09-03T16:06:21Z</time>
      </trkpt>
      <trkpt lat="28.779860" lon="-17.814688">
        <ele>829.936</ele>
        <time>2022-09-03T16:07:09Z</time>
      </trkpt>
      <trkpt lat="28.779737" lon="-17.814533">
        <ele>831.429</ele>
        <time>2022-09-03T16:09:01Z</time>
      </trkpt>
      <trkpt lat="28.779943" lon="-17.814510">
        <ele>831.423</ele>
        <time>2022-09-03T16:09:21Z</time>
      </trkpt>
      <trkpt lat="28.779990" lon="-17.814178">
        <ele>828.970</ele>
        <time>2022-09-03T16:09:31Z</time>
      </trkpt>
      <trkpt lat="28.780304" lon="-17.814198">
        <ele>822.863</ele>
        <time>2022-09-03T16:09:55Z</time>
      </trkpt>
      <trkpt lat="28.780327" lon="-17.813915">
        <ele>817.044</ele>
        <time>2022-09-03T16:10:20Z</time>
      </trkpt>
      <trkpt lat="28.780529" lon="-17.814027">
        <ele>814.618</ele>
        <time>2022-09-03T16:10:46Z</time>
      </trkpt>
      <trkpt lat="28.780637" lon="-17.813922">
        <ele>813.909</ele>
        <time>2022-09-03T16:10:52Z</time>
      </trkpt>
      <trkpt lat="28.780872" lon="-17.812825">
        <ele>810.387</ele>
        <time>2022-09-03T16:13:34Z</time>
      </trkpt>
      <trkpt lat="28.780532" lon="-17.812634">
        <ele>798.867</ele>
        <time>2022-09-03T16:14:53Z</time>
      </trkpt>
      <trkpt lat="28.780512" lon="-17.812405">
        <ele>774.888</ele>
        <time>2022-09-03T16:16:14Z</time>
      </trkpt>
      <trkpt lat="28.780334" lon="-17.812382">
        <ele>774.882</ele>
        <time>2022-09-03T16:16:22Z</time>
      </trkpt>
      <trkpt lat="28.780380" lon="-17.812480">
        <ele>778.766</ele>
        <time>2022-09-03T16:16:36Z</time>
      </trkpt>
      <trkpt lat="28.780538" lon="-17.812452">
        <ele>777.113</ele>
        <time>2022-09-03T16:17:09Z</time>
      </trkpt>
      <trkpt lat="28.780501" lon="-17.812254">
        <ele>779.896</ele>
        <time>2022-09-03T16:17:30Z</time>
      </trkpt>
      <trkpt lat="28.781323" lon="-17.812645">
        <ele>772.290</ele>
        <time>2022-09-03T16:18:16Z</time>
      </trkpt>
      <trkpt lat="28.781333" lon="-17.812292">
        <ele>776.527</ele>
        <time>2022-09-03T16:18:46Z</time>
      </trkpt>
      <trkpt lat="28.781623" lon="-17.812390">
        <ele>781.375</ele>
        <time>2022-09-03T16:18:58Z</time>
      </trkpt>
      <trkpt lat="28.781837" lon="-17.812300">
        <ele>786.628</ele>
        <time>2022-09-03T16:19:25Z</time>
      </trkpt>
      <trkpt lat="28.782415" lon="-17.812810">
        <ele>795.120</ele>
        <time>2022-09-03T16:19:46Z</time>
      </trkpt>
      <trkpt lat="28.781632" lon="-17.811810">
        <ele>748.209</ele>
        <time>2022-09-03T16:20:24Z</time>
      </trkpt>
      <trkpt lat="28.780688" lon="-17.810945">
        <ele>744.138</ele>
        <time>2022-09-03T16:20:41Z</time>
      </trkpt>
      <trkpt lat="28.780712" lon="-17.810252">
        <ele>765.258</ele>
        <time>2022-09-03T16:21:31Z</time>
      </trkpt>
      <trkpt lat="28.780404" lon="-17.809769">
        <ele>765.759</ele>
        <time>2022-09-03T16:22:21Z</time>
      </trkpt>
      <trkpt lat="28.780578" lon="-17.809541">
        <ele>757.443</ele>
        <time>2022-09-03T16:22:52Z</time>
      </trkpt>
      <trkpt lat="28.780387" lon="-17.809148">
        <ele>755.987</ele>
        <time>2022-09-03T16:23:15Z</time>
      </trkpt>
      <trkpt lat="28.780738" lon="-17.808973">
        <ele>768.654</ele>
        <time>2022-09-03T16:23:52Z</time>
      </trkpt>
      <trkpt lat="28.780739" lon="-17.808468">
        <ele>766.417</ele>
        <time>2022-09-03T16:24:24Z</time>
      </trkpt>
      <trkpt lat="28.781015" lon="-17.808425">
        <ele>774.661</ele>
        <time>2022-09-03T16:24:55Z</time>
      </trkpt>
      <trkpt lat="28.781169" lon="-17.808571">
        <ele>776.038</ele>
        <time>2022-09-03T16:25:01Z</time>
      </trkpt>
      <trkpt lat="28.781069" lon="-17.808215">
        <ele>779.484</ele>
        <time>2022-09-03T16:25:13Z</time>
      </trkpt>
      <trkpt lat="28.781222" lon="-17.808182">
        <ele>782.507</ele>
        <time>2022-09-03T16:25:36Z</time>
      </trkpt>
      <trkpt lat="28.781572" lon="-17.808469">
        <ele>789.317</ele>
        <time>2022-09-03T16:25:44Z</time>
      </trkpt>
      <trkpt lat="28.781467" lon="-17.808186">
        <ele>789.709</ele>
        <time>2022-09-03T16:25:55Z</time>
      </trkpt>
      <trkpt lat="28.781662" lon="-17.808288">
        <ele>786.719</ele>
        <time>2022-09-03T16:26:24Z</time>
      </trkpt>
      <trkpt lat="28.782056" lon="-17.807884">
        <ele>777.839</ele>
        <time>2022-09-03T16:27:02Z</time>
      </trkpt>
      <trkpt lat="28.782797" lon="-17.808094">
        <ele>764.880</ele>
        <time>2022-09-03T16:28:45Z</time>
      </trkpt>
      <trkpt lat="28.783439" lon="-17.808084">
        <ele>762.624</ele>
        <time>2022-09-03T16:31:09Z</time>
      </trkpt>
      <trkpt lat="28.783125" lon="-17.807988">
        <ele>765.788</ele>
        <time>2022-09-03T16:33:58Z</time>
      </trkpt>
      <trkpt lat="28.782367" lon="-17.808094">
        <ele>753.715</ele>
        <time>2022-09-03T16:35:31Z</time>
      </trkpt>
      <trkpt lat="28.781912" lon="-17.807934">
        <ele>751.278</ele>
        <time>2022-09-03T16:46:52Z</time>
      </trkpt>
      <trkpt lat="28.782195" lon="-17.808009">
        <ele>752.142</ele>
        <time>2022-09-03T16:47:34Z</time>
      </trkpt>
      <trkpt lat="28.782043" lon="-17.808031">
        <ele>745.369</ele>
        <time>2022-09-03T16:49:42Z</time>
      </trkpt>
      <trkpt lat="28.782492" lon="-17.808391">
        <ele>743.118</ele>
        <time>2022-09-03T16:56:53Z</time>
      </trkpt>
      <trkpt lat="28.783820" lon="-17.808404">
        <ele>736.498</ele>
        <time>2022-09-03T16:59:05Z</time>
      </trkpt>
      <trkpt lat="28.784364" lon="-17.808725">
        <ele>720.617</ele>
        <time>2022-09-03T17:00:10Z</time>
      </trkpt>
      <trkpt lat="28.784639" lon="-17.808525">
        <ele>716.809</ele>
        <time>2022-09-03T17:00:24Z</time>
      </trkpt>
      <trkpt lat="28.784660" lon="-17.808219">
        <ele>697.542</ele>
        <time>2022-09-03T17:00:52Z</time>
      </trkpt>
      <trkpt lat="28.784057" lon="-17.807929">
        <ele>697.042</ele>
        <time>2022-09-03T17:01:49Z</time>
      </trkpt>
      <trkpt lat="28.784319" lon="-17.807803">
        <ele>702.963</ele>
        <time>2022-09-03T17:02:13Z</time>
      </trkpt>
      <trkpt lat="28.784624" lon="-17.808061">
        <ele>700.887</ele>
        <time>2022-09-03T17:02:49Z</time>
      </trkpt>
      <trkpt lat="28.784730" lon="-17.807841">
        <ele>685.531</ele>
        <time>2022-09-03T17:03:33Z</time>
      </trkpt>
      <trkpt lat="28.783181" lon="-17.807403">
        <ele>682.848</ele>
        <time>2022-09-03T17:05:58Z</time>
      </trkpt>
      <trkpt lat="28.783298" lon="-17.807152">
        <ele>675.151</ele>
        <time>2022-09-03T17:06:34Z</time>
      </trkpt>
      <trkpt lat="28.783418" lon="-17.807354">
        <ele>672.835</ele>
        <time>2022-09-03T17:07:00Z</time>
      </trkpt>
      <trkpt lat="28.783754" lon="-17.807450">
        <ele>672.122</ele>
        <time>2022-09-03T17:07:23Z</time>
      </trkpt>
      <trkpt lat="28.783679" lon="-17.807562">
        <ele>677.618</ele>
        <time>2022-09-03T17:07:33Z</time>
      </trkpt>
      <trkpt lat="28.783656" lon="-17.807100">
        <ele>689.098</ele>
        <time>2022-09-03T17:07:57Z</time>
      </trkpt>
      <trkpt lat="28.783496" lon="-17.807071">
        <ele>690.117</ele>
        <time>2022-09-03T17:08:32Z</time>
      </trkpt>
      <trkpt lat="28.783315" lon="-17.806759">
        <ele>691.109</ele>
        <time>2022-09-03T17:09:07Z</time>
      </trkpt>
      <trkpt lat="28.783527" lon="-17.806817">
        <ele>674.432</ele>
        <time>2022-09-03T17:09:25Z</time>
      </trkpt>
      <trkpt lat="28.783567" lon="-17.806639">
        <ele>669.132</ele>
        <time>2022-09-03T17:10:15Z</time>
      </trkpt>
      <trkpt lat="28.783765" lon="-17.806554">
        <ele>664.833</ele>
        <time>2022-09-03T17:10:34Z</time>
      </trkpt>
      <trkpt lat="28.784080" lon="-17.805677">
        <ele>614.147</ele>
        <time>2022-09-03T17:12:19Z</time>
      </trkpt>
      <trkpt lat="28.784750" lon="-17.805509">
        <ele>602.361</ele>
        <time>2022-09-03T17:13:31Z</time>
      </trkpt>
      <trkpt lat="28.784723" lon="-17.805397">
        <ele>601.268</ele>
        <time>2022-09-03T17:13:42Z</time>
      </trkpt>
      <trkpt lat="28.785223" lon="-17.805194">
        <ele>604.751</ele>
        <time>2022-09-03T17:15:30Z</time>
      </trkpt>
      <trkpt lat="28.786464" lon="-17.805314">
        <ele>589.315</ele>
        <time>2022-09-03T17:17:26Z</time>
      </trkpt>
      <trkpt lat="28.786737" lon="-17.805506">
        <ele>582.472</ele>
        <time>2022-09-03T17:17:49Z</time>
      </trkpt>
      <trkpt lat="28.787470" lon="-17.805341">
        <ele>588.738</ele>
        <time>2022-09-03T17:19:03Z</time>
      </trkpt>
      <trkpt lat="28.787597" lon="-17.805515">
        <ele>586.670</ele>
        <time>2022-09-03T17:19:27Z</time>
      </trkpt>
      <trkpt lat="28.787972" lon="-17.805320">
        <ele>579.317</ele>
        <time>2022-09-03T17:20:21Z</time>
      </trkpt>
      <trkpt lat="28.788365" lon="-17.805618">
        <ele>570.409</ele>
        <time>2022-09-03T17:21:10Z</time>
      </trkpt>
      <trkpt lat="28.789102" lon="-17.805243">
        <ele>552.524</ele>
        <time>2022-09-03T17:22:09Z</time>
      </trkpt>
      <trkpt lat="28.789350" lon="-17.803712">
        <ele>551.754</ele>
        <time>2022-09-03T17:24:08Z</time>
      </trkpt>
      <trkpt lat="28.789011" lon="-17.802169">
        <ele>529.295</ele>
        <time>2022-09-03T17:26:08Z</time>
      </trkpt>
      <trkpt lat="28.789138" lon="-17.801523">
        <ele>520.329</ele>
        <time>2022-09-03T17:27:01Z</time>
      </trkpt>
      <trkpt lat="28.789704" lon="-17.800751">
        <ele>549.013</ele>
        <time>2022-09-03T17:28:34Z</time>
      </trkpt>
      <trkpt lat="28.790091" lon="-17.800911">
        <ele>534.970</ele>
        <time>2022-09-03T17:29:25Z</time>
      </trkpt>
      <trkpt lat="28.790279" lon="-17.800847">
        <ele>530.643</ele>
        <time>2022-09-03T17:29:41Z</time>
      </trkpt>
      <trkpt lat="28.791121" lon="-17.799722">
        <ele>476.477</ele>
        <time>2022-09-03T17:31:58Z</time>
      </trkpt>
      <trkpt lat="28.791459" lon="-17.799469">
        <ele>467.954</ele>
        <time>2022-09-03T17:32:30Z</time>
      </trkpt>
    </trkseg>
  </trk></gpx>