<?xml version="1.0" encoding="UTF-8"?>
<gpx creator="Wikiloc - https://www.wikiloc.com" version="1.1" xmlns="http://www.topografix.com/GPX/1/1" xmlns:xsi="http://www.w3.org/2001/XMLSchema-instance" xsi:schemaLocation="http://www.topografix.com/GPX/1/1 http://www.topografix.com/GPX/1/1/gpx.xsd">
  <metadata>
    <name>Wikiloc - Ruta por la costa de Isla de Lobos</name>
    <link href="https://www.wikiloc.com/hiking-trails/ruta-por-la-costa-de-isla-de-lobos-15553632">
      <text>Ruta por la costa de Isla de Lobos - Wikiloc on Wikiloc</text>
    </link>
    <time>2016-11-19T15:14:27Z</time>
  </metadata>
  <trk>
    <name>Ruta por la costa de Isla de Lobos - Wikiloc</name>
    <cmt></cmt>
    <desc></desc>
    <trkseg>
      <trkpt lat="28.764776" lon="-13.815561">
        <ele>14.452</ele>
        <time>2016-11-19T13:15:51Z</time>
      </trkpt>
      <trkpt lat="28.764821" lon="-13.815520">
        <ele>13.553</ele>
        <time>2016-11-19T13:16:04Z</time>
      </trkpt>
      <trkpt lat="28.764953" lon="-13.815091">
        <ele>14.108</ele>
        <time>2016-11-19T13:16:54Z</time>
      </trkpt>
      <trkpt lat="28.764939" lon="-13.815057">
        <ele>14.708</ele>
        <time>2016-11-19T13:16:58Z</time>
      </trkpt>
      <trkpt lat="28.764870" lon="-13.815012">
        <ele>16.766</ele>
        <time>2016-11-19T13:17:10Z</time>
      </trkpt>
      <trkpt lat="28.764803" lon="-13.815087">
        <ele>17.540</ele>
        <time>2016-11-19T13:17:24Z</time>
      </trkpt>
      <trkpt lat="28.764630" lon="-13.815401">
        <ele>16.410</ele>
        <time>2016-11-19T13:18:01Z</time>
      </trkpt>
      <trkpt lat="28.764434" lon="-13.815823">
        <ele>16.770</ele>
        <time>2016-11-19T13:18:54Z</time>
      </trkpt>
      <trkpt lat="28.764419" lon="-13.815906">
        <ele>15.658</ele>
        <time>2016-11-19T13:19:02Z</time>
      </trkpt>
      <trkpt lat="28.764434" lon="-13.816015">
        <ele>14.331</ele>
        <time>2016-11-19T13:19:14Z</time>
      </trkpt>
      <trkpt lat="28.764533" lon="-13.816216">
        <ele>11.798</ele>
        <time>2016-11-19T13:19:36Z</time>
      </trkpt>
      <trkpt lat="28.764531" lon="-13.816268">
        <ele>11.237</ele>
        <time>2016-11-19T13:19:41Z</time>
      </trkpt>
      <trkpt lat="28.764432" lon="-13.816282">
        <ele>11.752</ele>
        <time>2016-11-19T13:19:55Z</time>
      </trkpt>
      <trkpt lat="28.764129" lon="-13.816244">
        <ele>9.653</ele>
        <time>2016-11-19T13:20:27Z</time>
      </trkpt>
      <trkpt lat="28.763895" lon="-13.816255">
        <ele>9.508</ele>
        <time>2016-11-19T13:20:48Z</time>
      </trkpt>
      <trkpt lat="28.763862" lon="-13.816273">
        <ele>9.808</ele>
        <time>2016-11-19T13:20:56Z</time>
      </trkpt>
      <trkpt lat="28.763490" lon="-13.816258">
        <ele>12.336</ele>
        <time>2016-11-19T13:21:35Z</time>
      </trkpt>
      <trkpt lat="28.763132" lon="-13.816169">
        <ele>12.080</ele>
        <time>2016-11-19T13:22:17Z</time>
      </trkpt>
      <trkpt lat="28.762499" lon="-13.815886">
        <ele>11.030</ele>
        <time>2016-11-19T13:23:16Z</time>
      </trkpt>
      <trkpt lat="28.762136" lon="-13.815761">
        <ele>10.120</ele>
        <time>2016-11-19T13:24:03Z</time>
      </trkpt>
      <trkpt lat="28.761894" lon="-13.815639">
        <ele>13.998</ele>
        <time>2016-11-19T13:24:28Z</time>
      </trkpt>
      <trkpt lat="28.761787" lon="-13.815620">
        <ele>15.291</ele>
        <time>2016-11-19T13:24:47Z</time>
      </trkpt>
      <trkpt lat="28.761761" lon="-13.815636">
        <ele>15.438</ele>
        <time>2016-11-19T13:25:09Z</time>
      </trkpt>
      <trkpt lat="28.761763" lon="-13.815609">
        <ele>15.667</ele>
        <time>2016-11-19T13:25:25Z</time>
      </trkpt>
      <trkpt lat="28.761626" lon="-13.815486">
        <ele>16.727</ele>
        <time>2016-11-19T13:25:54Z</time>
      </trkpt>
      <trkpt lat="28.761438" lon="-13.815368">
        <ele>13.768</ele>
        <time>2016-11-19T13:26:16Z</time>
      </trkpt>
      <trkpt lat="28.761143" lon="-13.815355">
        <ele>11.014</ele>
        <time>2016-11-19T13:26:42Z</time>
      </trkpt>
      <trkpt lat="28.760974" lon="-13.815387">
        <ele>11.408</ele>
        <time>2016-11-19T13:26:57Z</time>
      </trkpt>
      <trkpt lat="28.760565" lon="-13.815417">
        <ele>13.963</ele>
        <time>2016-11-19T13:27:33Z</time>
      </trkpt>
      <trkpt lat="28.760390" lon="-13.815410">
        <ele>14.687</ele>
        <time>2016-11-19T13:27:50Z</time>
      </trkpt>
      <trkpt lat="28.760371" lon="-13.815426">
        <ele>14.647</ele>
        <time>2016-11-19T13:28:08Z</time>
      </trkpt>
      <trkpt lat="28.759809" lon="-13.815152">
        <ele>15.027</ele>
        <time>2016-11-19T13:29:16Z</time>
      </trkpt>
      <trkpt lat="28.759692" lon="-13.815038">
        <ele>14.675</ele>
        <time>2016-11-19T13:29:31Z</time>
      </trkpt>
      <trkpt lat="28.759559" lon="-13.814819">
        <ele>15.798</ele>
        <time>2016-11-19T13:30:04Z</time>
      </trkpt>
      <trkpt lat="28.759441" lon="-13.814706">
        <ele>15.095</ele>
        <time>2016-11-19T13:30:19Z</time>
      </trkpt>
      <trkpt lat="28.759326" lon="-13.814516">
        <ele>14.434</ele>
        <time>2016-11-19T13:31:01Z</time>
      </trkpt>
      <trkpt lat="28.759115" lon="-13.814261">
        <ele>14.222</ele>
        <time>2016-11-19T13:32:05Z</time>
      </trkpt>
      <trkpt lat="28.759041" lon="-13.814210">
        <ele>14.562</ele>
        <time>2016-11-19T13:32:17Z</time>
      </trkpt>
      <trkpt lat="28.758869" lon="-13.814155">
        <ele>14.808</ele>
        <time>2016-11-19T13:32:40Z</time>
      </trkpt>
      <trkpt lat="28.758653" lon="-13.813975">
        <ele>13.408</ele>
        <time>2016-11-19T13:33:05Z</time>
      </trkpt>
      <trkpt lat="28.758564" lon="-13.813926">
        <ele>13.283</ele>
        <time>2016-11-19T13:33:14Z</time>
      </trkpt>
      <trkpt lat="28.758389" lon="-13.813910">
        <ele>13.727</ele>
        <time>2016-11-19T13:33:31Z</time>
      </trkpt>
      <trkpt lat="28.758299" lon="-13.813872">
        <ele>14.647</ele>
        <time>2016-11-19T13:33:44Z</time>
      </trkpt>
      <trkpt lat="28.758222" lon="-13.813776">
        <ele>15.867</ele>
        <time>2016-11-19T13:34:03Z</time>
      </trkpt>
      <trkpt lat="28.758112" lon="-13.813353">
        <ele>14.285</ele>
        <time>2016-11-19T13:34:52Z</time>
      </trkpt>
      <trkpt lat="28.758052" lon="-13.813308">
        <ele>14.588</ele>
        <time>2016-11-19T13:35:18Z</time>
      </trkpt>
      <trkpt lat="28.758048" lon="-13.813247">
        <ele>13.355</ele>
        <time>2016-11-19T13:35:27Z</time>
      </trkpt>
      <trkpt lat="28.757953" lon="-13.813245">
        <ele>14.774</ele>
        <time>2016-11-19T13:35:45Z</time>
      </trkpt>
      <trkpt lat="28.757733" lon="-13.813365">
        <ele>19.168</ele>
        <time>2016-11-19T13:36:11Z</time>
      </trkpt>
      <trkpt lat="28.757500" lon="-13.813329">
        <ele>16.942</ele>
        <time>2016-11-19T13:36:35Z</time>
      </trkpt>
      <trkpt lat="28.757467" lon="-13.813313">
        <ele>16.126</ele>
        <time>2016-11-19T13:36:41Z</time>
      </trkpt>
      <trkpt lat="28.757464" lon="-13.813135">
        <ele>12.408</ele>
        <time>2016-11-19T13:37:04Z</time>
      </trkpt>
      <trkpt lat="28.757441" lon="-13.813105">
        <ele>11.677</ele>
        <time>2016-11-19T13:37:10Z</time>
      </trkpt>
      <trkpt lat="28.757401" lon="-13.813128">
        <ele>11.721</ele>
        <time>2016-11-19T13:37:50Z</time>
      </trkpt>
      <trkpt lat="28.757429" lon="-13.813327">
        <ele>15.971</ele>
        <time>2016-11-19T13:38:27Z</time>
      </trkpt>
      <trkpt lat="28.757345" lon="-13.813507">
        <ele>17.961</ele>
        <time>2016-11-19T13:38:46Z</time>
      </trkpt>
      <trkpt lat="28.757300" lon="-13.813539">
        <ele>17.849</ele>
        <time>2016-11-19T13:38:52Z</time>
      </trkpt>
      <trkpt lat="28.757184" lon="-13.813501">
        <ele>16.182</ele>
        <time>2016-11-19T13:39:04Z</time>
      </trkpt>
      <trkpt lat="28.756838" lon="-13.813232">
        <ele>13.799</ele>
        <time>2016-11-19T13:39:43Z</time>
      </trkpt>
      <trkpt lat="28.756726" lon="-13.813175">
        <ele>14.178</ele>
        <time>2016-11-19T13:39:55Z</time>
      </trkpt>
      <trkpt lat="28.756571" lon="-13.813149">
        <ele>14.916</ele>
        <time>2016-11-19T13:40:10Z</time>
      </trkpt>
      <trkpt lat="28.756329" lon="-13.813151">
        <ele>15.776</ele>
        <time>2016-11-19T13:40:36Z</time>
      </trkpt>
      <trkpt lat="28.756175" lon="-13.813119">
        <ele>14.713</ele>
        <time>2016-11-19T13:41:07Z</time>
      </trkpt>
      <trkpt lat="28.756086" lon="-13.813127">
        <ele>14.508</ele>
        <time>2016-11-19T13:41:31Z</time>
      </trkpt>
      <trkpt lat="28.756096" lon="-13.813038">
        <ele>13.952</ele>
        <time>2016-11-19T13:41:47Z</time>
      </trkpt>
      <trkpt lat="28.756050" lon="-13.812883">
        <ele>12.916</ele>
        <time>2016-11-19T13:42:08Z</time>
      </trkpt>
      <trkpt lat="28.756037" lon="-13.812754">
        <ele>12.136</ele>
        <time>2016-11-19T13:42:23Z</time>
      </trkpt>
      <trkpt lat="28.756047" lon="-13.812645">
        <ele>11.576</ele>
        <time>2016-11-19T13:42:34Z</time>
      </trkpt>
      <trkpt lat="28.756073" lon="-13.812605">
        <ele>11.184</ele>
        <time>2016-11-19T13:42:39Z</time>
      </trkpt>
      <trkpt lat="28.756154" lon="-13.812583">
        <ele>10.347</ele>
        <time>2016-11-19T13:42:49Z</time>
      </trkpt>
      <trkpt lat="28.756240" lon="-13.812529">
        <ele>9.354</ele>
        <time>2016-11-19T13:43:01Z</time>
      </trkpt>
      <trkpt lat="28.756319" lon="-13.812527">
        <ele>8.843</ele>
        <time>2016-11-19T13:43:20Z</time>
      </trkpt>
      <trkpt lat="28.756231" lon="-13.812542">
        <ele>9.588</ele>
        <time>2016-11-19T13:43:44Z</time>
      </trkpt>
      <trkpt lat="28.756160" lon="-13.812586">
        <ele>10.324</ele>
        <time>2016-11-19T13:43:53Z</time>
      </trkpt>
      <trkpt lat="28.755985" lon="-13.812619">
        <ele>11.826</ele>
        <time>2016-11-19T13:44:11Z</time>
      </trkpt>
      <trkpt lat="28.755832" lon="-13.812521">
        <ele>13.008</ele>
        <time>2016-11-19T13:44:28Z</time>
      </trkpt>
      <trkpt lat="28.755806" lon="-13.812457">
        <ele>13.449</ele>
        <time>2016-11-19T13:44:34Z</time>
      </trkpt>
      <trkpt lat="28.755787" lon="-13.812223">
        <ele>14.233</ele>
        <time>2016-11-19T13:44:55Z</time>
      </trkpt>
      <trkpt lat="28.755863" lon="-13.811992">
        <ele>11.973</ele>
        <time>2016-11-19T13:45:20Z</time>
      </trkpt>
      <trkpt lat="28.755900" lon="-13.811950">
        <ele>11.153</ele>
        <time>2016-11-19T13:45:30Z</time>
      </trkpt>
      <trkpt lat="28.755645" lon="-13.812073">
        <ele>14.321</ele>
        <time>2016-11-19T13:46:27Z</time>
      </trkpt>
      <trkpt lat="28.755557" lon="-13.812080">
        <ele>15.084</ele>
        <time>2016-11-19T13:46:35Z</time>
      </trkpt>
      <trkpt lat="28.755375" lon="-13.812137">
        <ele>14.811</ele>
        <time>2016-11-19T13:46:54Z</time>
      </trkpt>
      <trkpt lat="28.755184" lon="-13.812098">
        <ele>14.110</ele>
        <time>2016-11-19T13:47:38Z</time>
      </trkpt>
      <trkpt lat="28.755170" lon="-13.812276">
        <ele>14.851</ele>
        <time>2016-11-19T13:48:00Z</time>
      </trkpt>
      <trkpt lat="28.755137" lon="-13.812355">
        <ele>15.001</ele>
        <time>2016-11-19T13:48:08Z</time>
      </trkpt>
      <trkpt lat="28.755010" lon="-13.812411">
        <ele>14.711</ele>
        <time>2016-11-19T13:48:22Z</time>
      </trkpt>
      <trkpt lat="28.754919" lon="-13.812486">
        <ele>14.608</ele>
        <time>2016-11-19T13:48:33Z</time>
      </trkpt>
      <trkpt lat="28.754737" lon="-13.812481">
        <ele>13.976</ele>
        <time>2016-11-19T13:48:51Z</time>
      </trkpt>
      <trkpt lat="28.754547" lon="-13.812569">
        <ele>14.520</ele>
        <time>2016-11-19T13:49:13Z</time>
      </trkpt>
      <trkpt lat="28.754485" lon="-13.812529">
        <ele>14.810</ele>
        <time>2016-11-19T13:49:21Z</time>
      </trkpt>
      <trkpt lat="28.754434" lon="-13.812460">
        <ele>14.360</ele>
        <time>2016-11-19T13:49:31Z</time>
      </trkpt>
      <trkpt lat="28.754429" lon="-13.812356">
        <ele>12.818</ele>
        <time>2016-11-19T13:49:52Z</time>
      </trkpt>
      <trkpt lat="28.754386" lon="-13.812345">
        <ele>12.221</ele>
        <time>2016-11-19T13:50:16Z</time>
      </trkpt>
      <trkpt lat="28.754343" lon="-13.812275">
        <ele>10.718</ele>
        <time>2016-11-19T13:50:33Z</time>
      </trkpt>
      <trkpt lat="28.754268" lon="-13.812246">
        <ele>9.567</ele>
        <time>2016-11-19T13:50:41Z</time>
      </trkpt>
      <trkpt lat="28.754223" lon="-13.812253">
        <ele>9.189</ele>
        <time>2016-11-19T13:50:46Z</time>
      </trkpt>
      <trkpt lat="28.754212" lon="-13.812288">
        <ele>9.606</ele>
        <time>2016-11-19T13:51:12Z</time>
      </trkpt>
      <trkpt lat="28.754152" lon="-13.812261">
        <ele>8.726</ele>
        <time>2016-11-19T13:51:29Z</time>
      </trkpt>
      <trkpt lat="28.754142" lon="-13.812208">
        <ele>7.908</ele>
        <time>2016-11-19T13:51:38Z</time>
      </trkpt>
      <trkpt lat="28.754105" lon="-13.812251">
        <ele>8.779</ele>
        <time>2016-11-19T13:51:49Z</time>
      </trkpt>
      <trkpt lat="28.753913" lon="-13.812215">
        <ele>8.813</ele>
        <time>2016-11-19T13:52:10Z</time>
      </trkpt>
      <trkpt lat="28.753738" lon="-13.812126">
        <ele>8.743</ele>
        <time>2016-11-19T13:52:32Z</time>
      </trkpt>
      <trkpt lat="28.753669" lon="-13.812027">
        <ele>7.443</ele>
        <time>2016-11-19T13:52:44Z</time>
      </trkpt>
      <trkpt lat="28.753673" lon="-13.811961">
        <ele>6.381</ele>
        <time>2016-11-19T13:52:54Z</time>
      </trkpt>
      <trkpt lat="28.753615" lon="-13.812004">
        <ele>7.184</ele>
        <time>2016-11-19T13:53:29Z</time>
      </trkpt>
      <trkpt lat="28.753518" lon="-13.811865">
        <ele>6.061</ele>
        <time>2016-11-19T13:53:48Z</time>
      </trkpt>
      <trkpt lat="28.753487" lon="-13.811763">
        <ele>5.860</ele>
        <time>2016-11-19T13:54:10Z</time>
      </trkpt>
      <trkpt lat="28.753227" lon="-13.811710">
        <ele>5.965</ele>
        <time>2016-11-19T13:55:26Z</time>
      </trkpt>
      <trkpt lat="28.753042" lon="-13.811769">
        <ele>6.268</ele>
        <time>2016-11-19T13:55:47Z</time>
      </trkpt>
      <trkpt lat="28.752912" lon="-13.811714">
        <ele>6.014</ele>
        <time>2016-11-19T13:56:02Z</time>
      </trkpt>
      <trkpt lat="28.752838" lon="-13.811735">
        <ele>6.508</ele>
        <time>2016-11-19T13:56:10Z</time>
      </trkpt>
      <trkpt lat="28.752769" lon="-13.811721">
        <ele>6.687</ele>
        <time>2016-11-19T13:56:17Z</time>
      </trkpt>
      <trkpt lat="28.752546" lon="-13.811784">
        <ele>7.451</ele>
        <time>2016-11-19T13:56:40Z</time>
      </trkpt>
      <trkpt lat="28.752452" lon="-13.811838">
        <ele>7.981</ele>
        <time>2016-11-19T13:57:22Z</time>
      </trkpt>
      <trkpt lat="28.752070" lon="-13.812154">
        <ele>6.541</ele>
        <time>2016-11-19T13:58:24Z</time>
      </trkpt>
      <trkpt lat="28.751893" lon="-13.812244">
        <ele>6.639</ele>
        <time>2016-11-19T13:58:46Z</time>
      </trkpt>
      <trkpt lat="28.751764" lon="-13.812353">
        <ele>8.442</ele>
        <time>2016-11-19T13:59:05Z</time>
      </trkpt>
      <trkpt lat="28.751563" lon="-13.812467">
        <ele>9.169</ele>
        <time>2016-11-19T14:00:08Z</time>
      </trkpt>
      <trkpt lat="28.751536" lon="-13.812512">
        <ele>9.298</ele>
        <time>2016-11-19T14:00:14Z</time>
      </trkpt>
      <trkpt lat="28.751552" lon="-13.812582">
        <ele>10.185</ele>
        <time>2016-11-19T14:00:25Z</time>
      </trkpt>
      <trkpt lat="28.751507" lon="-13.812597">
        <ele>9.989</ele>
        <time>2016-11-19T14:00:33Z</time>
      </trkpt>
      <trkpt lat="28.751344" lon="-13.812589">
        <ele>8.717</ele>
        <time>2016-11-19T14:00:57Z</time>
      </trkpt>
      <trkpt lat="28.751102" lon="-13.812733">
        <ele>8.708</ele>
        <time>2016-11-19T14:01:39Z</time>
      </trkpt>
      <trkpt lat="28.751061" lon="-13.812787">
        <ele>9.139</ele>
        <time>2016-11-19T14:01:45Z</time>
      </trkpt>
      <trkpt lat="28.750980" lon="-13.812839">
        <ele>9.423</ele>
        <time>2016-11-19T14:01:55Z</time>
      </trkpt>
      <trkpt lat="28.750814" lon="-13.812848">
        <ele>9.793</ele>
        <time>2016-11-19T14:02:16Z</time>
      </trkpt>
      <trkpt lat="28.750746" lon="-13.812831">
        <ele>10.153</ele>
        <time>2016-11-19T14:02:25Z</time>
      </trkpt>
      <trkpt lat="28.750669" lon="-13.812797">
        <ele>10.471</ele>
        <time>2016-11-19T14:02:37Z</time>
      </trkpt>
      <trkpt lat="28.750595" lon="-13.812715">
        <ele>10.574</ele>
        <time>2016-11-19T14:02:55Z</time>
      </trkpt>
      <trkpt lat="28.750551" lon="-13.812695">
        <ele>10.781</ele>
        <time>2016-11-19T14:03:03Z</time>
      </trkpt>
      <trkpt lat="28.750481" lon="-13.812740">
        <ele>11.610</ele>
        <time>2016-11-19T14:03:54Z</time>
      </trkpt>
      <trkpt lat="28.750413" lon="-13.812839">
        <ele>13.237</ele>
        <time>2016-11-19T14:04:08Z</time>
      </trkpt>
      <trkpt lat="28.750255" lon="-13.812917">
        <ele>15.549</ele>
        <time>2016-11-19T14:04:38Z</time>
      </trkpt>
      <trkpt lat="28.750246" lon="-13.812956">
        <ele>15.913</ele>
        <time>2016-11-19T14:04:59Z</time>
      </trkpt>
      <trkpt lat="28.750185" lon="-13.812893">
        <ele>15.208</ele>
        <time>2016-11-19T14:05:15Z</time>
      </trkpt>
      <trkpt lat="28.750045" lon="-13.812910">
        <ele>15.444</ele>
        <time>2016-11-19T14:05:34Z</time>
      </trkpt>
      <trkpt lat="28.750009" lon="-13.812927">
        <ele>15.638</ele>
        <time>2016-11-19T14:05:39Z</time>
      </trkpt>
      <trkpt lat="28.750012" lon="-13.812949">
        <ele>15.848</ele>
        <time>2016-11-19T14:05:56Z</time>
      </trkpt>
      <trkpt lat="28.749735" lon="-13.812943">
        <ele>13.528</ele>
        <time>2016-11-19T14:06:42Z</time>
      </trkpt>
      <trkpt lat="28.749642" lon="-13.812963">
        <ele>12.976</ele>
        <time>2016-11-19T14:06:56Z</time>
      </trkpt>
      <trkpt lat="28.749518" lon="-13.813035">
        <ele>12.649</ele>
        <time>2016-11-19T14:07:18Z</time>
      </trkpt>
      <trkpt lat="28.749433" lon="-13.813040">
        <ele>11.736</ele>
        <time>2016-11-19T14:08:12Z</time>
      </trkpt>
      <trkpt lat="28.749395" lon="-13.813085">
        <ele>11.655</ele>
        <time>2016-11-19T14:09:30Z</time>
      </trkpt>
      <trkpt lat="28.749297" lon="-13.813058">
        <ele>10.469</ele>
        <time>2016-11-19T14:09:53Z</time>
      </trkpt>
      <trkpt lat="28.749292" lon="-13.813039">
        <ele>10.204</ele>
        <time>2016-11-19T14:10:05Z</time>
      </trkpt>
      <trkpt lat="28.749294" lon="-13.813062">
        <ele>10.424</ele>
        <time>2016-11-19T14:10:22Z</time>
      </trkpt>
      <trkpt lat="28.749129" lon="-13.813130">
        <ele>9.408</ele>
        <time>2016-11-19T14:10:58Z</time>
      </trkpt>
      <trkpt lat="28.749022" lon="-13.813147">
        <ele>9.157</ele>
        <time>2016-11-19T14:11:14Z</time>
      </trkpt>
      <trkpt lat="28.748975" lon="-13.813196">
        <ele>9.341</ele>
        <time>2016-11-19T14:11:23Z</time>
      </trkpt>
      <trkpt lat="28.748997" lon="-13.813328">
        <ele>10.491</ele>
        <time>2016-11-19T14:11:43Z</time>
      </trkpt>
      <trkpt lat="28.748953" lon="-13.813391">
        <ele>10.891</ele>
        <time>2016-11-19T14:11:52Z</time>
      </trkpt>
      <trkpt lat="28.748639" lon="-13.813554">
        <ele>10.149</ele>
        <time>2016-11-19T14:12:31Z</time>
      </trkpt>
      <trkpt lat="28.748504" lon="-13.813569">
        <ele>9.012</ele>
        <time>2016-11-19T14:12:46Z</time>
      </trkpt>
      <trkpt lat="28.748439" lon="-13.813511">
        <ele>8.019</ele>
        <time>2016-11-19T14:12:57Z</time>
      </trkpt>
      <trkpt lat="28.748372" lon="-13.813520">
        <ele>7.438</ele>
        <time>2016-11-19T14:13:05Z</time>
      </trkpt>
      <trkpt lat="28.748315" lon="-13.813490">
        <ele>6.639</ele>
        <time>2016-11-19T14:13:13Z</time>
      </trkpt>
      <trkpt lat="28.748239" lon="-13.813528">
        <ele>6.801</ele>
        <time>2016-11-19T14:13:23Z</time>
      </trkpt>
      <trkpt lat="28.748078" lon="-13.813478">
        <ele>5.621</ele>
        <time>2016-11-19T14:13:42Z</time>
      </trkpt>
      <trkpt lat="28.747959" lon="-13.813501">
        <ele>5.908</ele>
        <time>2016-11-19T14:14:14Z</time>
      </trkpt>
      <trkpt lat="28.747905" lon="-13.813491">
        <ele>5.974</ele>
        <time>2016-11-19T14:14:29Z</time>
      </trkpt>
      <trkpt lat="28.747826" lon="-13.813510">
        <ele>6.228</ele>
        <time>2016-11-19T14:14:44Z</time>
      </trkpt>
      <trkpt lat="28.747711" lon="-13.813584">
        <ele>6.158</ele>
        <time>2016-11-19T14:15:06Z</time>
      </trkpt>
      <trkpt lat="28.747492" lon="-13.813623">
        <ele>4.268</ele>
        <time>2016-11-19T14:15:51Z</time>
      </trkpt>
      <trkpt lat="28.747344" lon="-13.813785">
        <ele>4.266</ele>
        <time>2016-11-19T14:16:56Z</time>
      </trkpt>
      <trkpt lat="28.747362" lon="-13.813804">
        <ele>4.879</ele>
        <time>2016-11-19T14:18:02Z</time>
      </trkpt>
      <trkpt lat="28.747430" lon="-13.813712">
        <ele>4.976</ele>
        <time>2016-11-19T14:18:18Z</time>
      </trkpt>
      <trkpt lat="28.747474" lon="-13.813695">
        <ele>5.235</ele>
        <time>2016-11-19T14:18:28Z</time>
      </trkpt>
      <trkpt lat="28.747489" lon="-13.813667">
        <ele>4.947</ele>
        <time>2016-11-19T14:18:34Z</time>
      </trkpt>
      <trkpt lat="28.747475" lon="-13.813636">
        <ele>4.229</ele>
        <time>2016-11-19T14:18:41Z</time>
      </trkpt>
      <trkpt lat="28.747337" lon="-13.813632">
        <ele>3.021</ele>
        <time>2016-11-19T14:19:02Z</time>
      </trkpt>
      <trkpt lat="28.747183" lon="-13.813746">
        <ele>2.108</ele>
        <time>2016-11-19T14:19:24Z</time>
      </trkpt>
      <trkpt lat="28.747138" lon="-13.813848">
        <ele>2.345</ele>
        <time>2016-11-19T14:19:45Z</time>
      </trkpt>
      <trkpt lat="28.747205" lon="-13.813984">
        <ele>3.729</ele>
        <time>2016-11-19T14:20:17Z</time>
      </trkpt>
      <trkpt lat="28.747290" lon="-13.814039">
        <ele>6.179</ele>
        <time>2016-11-19T14:20:40Z</time>
      </trkpt>
      <trkpt lat="28.747338" lon="-13.814201">
        <ele>9.199</ele>
        <time>2016-11-19T14:21:03Z</time>
      </trkpt>
      <trkpt lat="28.747427" lon="-13.814371">
        <ele>10.337</ele>
        <time>2016-11-19T14:21:23Z</time>
      </trkpt>
      <trkpt lat="28.747491" lon="-13.814580">
        <ele>11.480</ele>
        <time>2016-11-19T14:21:45Z</time>
      </trkpt>
      <trkpt lat="28.747476" lon="-13.814659">
        <ele>11.417</ele>
        <time>2016-11-19T14:22:46Z</time>
      </trkpt>
      <trkpt lat="28.747496" lon="-13.814682">
        <ele>11.896</ele>
        <time>2016-11-19T14:25:16Z</time>
      </trkpt>
      <trkpt lat="28.747496" lon="-13.814663">
        <ele>11.775</ele>
        <time>2016-11-19T14:26:15Z</time>
      </trkpt>
      <trkpt lat="28.747474" lon="-13.814677">
        <ele>11.528</ele>
        <time>2016-11-19T14:31:08Z</time>
      </trkpt>
      <trkpt lat="28.747524" lon="-13.814801">
        <ele>12.120</ele>
        <time>2016-11-19T14:31:24Z</time>
      </trkpt>
      <trkpt lat="28.747513" lon="-13.814950">
        <ele>11.408</ele>
        <time>2016-11-19T14:31:40Z</time>
      </trkpt>
      <trkpt lat="28.747570" lon="-13.815007">
        <ele>12.038</ele>
        <time>2016-11-19T14:31:48Z</time>
      </trkpt>
      <trkpt lat="28.747638" lon="-13.815138">
        <ele>12.752</ele>
        <time>2016-11-19T14:32:16Z</time>
      </trkpt>
      <trkpt lat="28.747659" lon="-13.815275">
        <ele>12.752</ele>
        <time>2016-11-19T14:32:27Z</time>
      </trkpt>
      <trkpt lat="28.747648" lon="-13.815497">
        <ele>11.422</ele>
        <time>2016-11-19T14:32:44Z</time>
      </trkpt>
      <trkpt lat="28.747598" lon="-13.815632">
        <ele>9.990</ele>
        <time>2016-11-19T14:33:20Z</time>
      </trkpt>
      <trkpt lat="28.747581" lon="-13.815787">
        <ele>8.543</ele>
        <time>2016-11-19T14:33:35Z</time>
      </trkpt>
      <trkpt lat="28.747575" lon="-13.816112">
        <ele>8.130</ele>
        <time>2016-11-19T14:33:59Z</time>
      </trkpt>
      <trkpt lat="28.747596" lon="-13.816370">
        <ele>11.239</ele>
        <time>2016-11-19T14:34:21Z</time>
      </trkpt>
      <trkpt lat="28.747532" lon="-13.816496">
        <ele>10.424</ele>
        <time>2016-11-19T14:34:32Z</time>
      </trkpt>
      <trkpt lat="28.747430" lon="-13.816567">
        <ele>9.204</ele>
        <time>2016-11-19T14:34:42Z</time>
      </trkpt>
      <trkpt lat="28.747309" lon="-13.816581">
        <ele>7.414</ele>
        <time>2016-11-19T14:34:52Z</time>
      </trkpt>
      <trkpt lat="28.747054" lon="-13.816548">
        <ele>6.208</ele>
        <time>2016-11-19T14:35:13Z</time>
      </trkpt>
      <trkpt lat="28.746824" lon="-13.816454">
        <ele>5.293</ele>
        <time>2016-11-19T14:35:34Z</time>
      </trkpt>
      <trkpt lat="28.746672" lon="-13.816433">
        <ele>5.377</ele>
        <time>2016-11-19T14:35:47Z</time>
      </trkpt>
      <trkpt lat="28.746553" lon="-13.816373">
        <ele>5.957</ele>
        <time>2016-11-19T14:35:58Z</time>
      </trkpt>
      <trkpt lat="28.746357" lon="-13.816323">
        <ele>7.287</ele>
        <time>2016-11-19T14:36:15Z</time>
      </trkpt>
      <trkpt lat="28.746279" lon="-13.816275">
        <ele>7.145</ele>
        <time>2016-11-19T14:36:23Z</time>
      </trkpt>
      <trkpt lat="28.745971" lon="-13.815925">
        <ele>5.248</ele>
        <time>2016-11-19T14:37:00Z</time>
      </trkpt>
      <trkpt lat="28.745847" lon="-13.815867">
        <ele>5.035</ele>
        <time>2016-11-19T14:37:19Z</time>
      </trkpt>
      <trkpt lat="28.745711" lon="-13.815890">
        <ele>4.744</ele>
        <time>2016-11-19T14:37:54Z</time>
      </trkpt>
      <trkpt lat="28.745308" lon="-13.816055">
        <ele>6.572</ele>
        <time>2016-11-19T14:38:30Z</time>
      </trkpt>
      <trkpt lat="28.744941" lon="-13.816051">
        <ele>7.113</ele>
        <time>2016-11-19T14:39:01Z</time>
      </trkpt>
      <trkpt lat="28.744508" lon="-13.816114">
        <ele>9.514</ele>
        <time>2016-11-19T14:39:41Z</time>
      </trkpt>
      <trkpt lat="28.744324" lon="-13.816106">
        <ele>9.608</ele>
        <time>2016-11-19T14:39:57Z</time>
      </trkpt>
      <trkpt lat="28.743959" lon="-13.816334">
        <ele>8.178</ele>
        <time>2016-11-19T14:40:37Z</time>
      </trkpt>
      <trkpt lat="28.743866" lon="-13.816372">
        <ele>8.112</ele>
        <time>2016-11-19T14:40:52Z</time>
      </trkpt>
      <trkpt lat="28.743780" lon="-13.816378">
        <ele>8.432</ele>
        <time>2016-11-19T14:41:03Z</time>
      </trkpt>
      <trkpt lat="28.743387" lon="-13.816219">
        <ele>9.092</ele>
        <time>2016-11-19T14:41:38Z</time>
      </trkpt>
      <trkpt lat="28.743190" lon="-13.816100">
        <ele>8.490</ele>
        <time>2016-11-19T14:41:58Z</time>
      </trkpt>
      <trkpt lat="28.743102" lon="-13.815744">
        <ele>5.823</ele>
        <time>2016-11-19T14:42:26Z</time>
      </trkpt>
      <trkpt lat="28.743047" lon="-13.815690">
        <ele>5.660</ele>
        <time>2016-11-19T14:42:32Z</time>
      </trkpt>
      <trkpt lat="28.742969" lon="-13.815660">
        <ele>6.969</ele>
        <time>2016-11-19T14:42:41Z</time>
      </trkpt>
      <trkpt lat="28.742960" lon="-13.815607">
        <ele>6.945</ele>
        <time>2016-11-19T14:43:16Z</time>
      </trkpt>
      <trkpt lat="28.742687" lon="-13.815186">
        <ele>8.347</ele>
        <time>2016-11-19T14:43:55Z</time>
      </trkpt>
      <trkpt lat="28.742452" lon="-13.815094">
        <ele>10.911</ele>
        <time>2016-11-19T14:44:16Z</time>
      </trkpt>
      <trkpt lat="28.742160" lon="-13.814940">
        <ele>11.008</ele>
        <time>2016-11-19T14:44:43Z</time>
      </trkpt>
      <trkpt lat="28.742093" lon="-13.814887">
        <ele>10.395</ele>
        <time>2016-11-19T14:44:50Z</time>
      </trkpt>
      <trkpt lat="28.741995" lon="-13.814755">
        <ele>9.099</ele>
        <time>2016-11-19T14:45:03Z</time>
      </trkpt>
      <trkpt lat="28.741772" lon="-13.814649">
        <ele>8.729</ele>
        <time>2016-11-19T14:45:26Z</time>
      </trkpt>
      <trkpt lat="28.741709" lon="-13.814660">
        <ele>9.029</ele>
        <time>2016-11-19T14:45:46Z</time>
      </trkpt>
      <trkpt lat="28.741589" lon="-13.814769">
        <ele>10.297</ele>
        <time>2016-11-19T14:46:13Z</time>
      </trkpt>
      <trkpt lat="28.741554" lon="-13.814771">
        <ele>10.140</ele>
        <time>2016-11-19T14:46:19Z</time>
      </trkpt>
      <trkpt lat="28.741532" lon="-13.814749">
        <ele>9.887</ele>
        <time>2016-11-19T14:46:24Z</time>
      </trkpt>
      <trkpt lat="28.741503" lon="-13.814796">
        <ele>10.286</ele>
        <time>2016-11-19T14:46:42Z</time>
      </trkpt>
      <trkpt lat="28.741413" lon="-13.814852">
        <ele>10.578</ele>
        <time>2016-11-19T14:46:54Z</time>
      </trkpt>
      <trkpt lat="28.741264" lon="-13.814884">
        <ele>9.133</ele>
        <time>2016-11-19T14:47:31Z</time>
      </trkpt>
      <trkpt lat="28.741228" lon="-13.815090">
        <ele>10.526</ele>
        <time>2016-11-19T14:48:03Z</time>
      </trkpt>
      <trkpt lat="28.741230" lon="-13.815342">
        <ele>12.308</ele>
        <time>2016-11-19T14:48:28Z</time>
      </trkpt>
      <trkpt lat="28.741129" lon="-13.815727">
        <ele>11.178</ele>
        <time>2016-11-19T14:49:17Z</time>
      </trkpt>
      <trkpt lat="28.740984" lon="-13.815940">
        <ele>7.632</ele>
        <time>2016-11-19T14:49:49Z</time>
      </trkpt>
      <trkpt lat="28.740841" lon="-13.816070">
        <ele>4.292</ele>
        <time>2016-11-19T14:50:10Z</time>
      </trkpt>
      <trkpt lat="28.740771" lon="-13.815952">
        <ele>4.252</ele>
        <time>2016-11-19T14:50:25Z</time>
      </trkpt>
      <trkpt lat="28.740687" lon="-13.815872">
        <ele>4.560</ele>
        <time>2016-11-19T14:50:38Z</time>
      </trkpt>
      <trkpt lat="28.740806" lon="-13.816032">
        <ele>4.123</ele>
        <time>2016-11-19T14:51:07Z</time>
      </trkpt>
      <trkpt lat="28.740823" lon="-13.816175">
        <ele>4.570</ele>
        <time>2016-11-19T14:51:28Z</time>
      </trkpt>
      <trkpt lat="28.740650" lon="-13.816578">
        <ele>6.759</ele>
        <time>2016-11-19T14:52:14Z</time>
      </trkpt>
      <trkpt lat="28.740415" lon="-13.816813">
        <ele>7.794</ele>
        <time>2016-11-19T14:53:06Z</time>
      </trkpt>
      <trkpt lat="28.740184" lon="-13.816887">
        <ele>7.957</ele>
        <time>2016-11-19T14:53:36Z</time>
      </trkpt>
      <trkpt lat="28.740049" lon="-13.817020">
        <ele>6.522</ele>
        <time>2016-11-19T14:54:05Z</time>
      </trkpt>
      <trkpt lat="28.739846" lon="-13.817146">
        <ele>5.808</ele>
        <time>2016-11-19T14:54:27Z</time>
      </trkpt>
      <trkpt lat="28.739491" lon="-13.817267">
        <ele>6.830</ele>
        <time>2016-11-19T14:54:58Z</time>
      </trkpt>
      <trkpt lat="28.739380" lon="-13.817381">
        <ele>6.974</ele>
        <time>2016-11-19T14:55:11Z</time>
      </trkpt>
      <trkpt lat="28.739314" lon="-13.817401">
        <ele>6.834</ele>
        <time>2016-11-19T14:55:18Z</time>
      </trkpt>
      <trkpt lat="28.739204" lon="-13.817349">
        <ele>6.574</ele>
        <time>2016-11-19T14:55:34Z</time>
      </trkpt>
      <trkpt lat="28.739092" lon="-13.817327">
        <ele>6.552</ele>
        <time>2016-11-19T14:55:51Z</time>
      </trkpt>
      <trkpt lat="28.738534" lon="-13.816922">
        <ele>4.715</ele>
        <time>2016-11-19T14:56:48Z</time>
      </trkpt>
      <trkpt lat="28.738484" lon="-13.816900">
        <ele>4.582</ele>
        <time>2016-11-19T14:57:00Z</time>
      </trkpt>
      <trkpt lat="28.738344" lon="-13.816963">
        <ele>4.291</ele>
        <time>2016-11-19T14:57:46Z</time>
      </trkpt>
      <trkpt lat="28.738349" lon="-13.816885">
        <ele>4.098</ele>
        <time>2016-11-19T14:57:58Z</time>
      </trkpt>
      <trkpt lat="28.738262" lon="-13.816854">
        <ele>3.715</ele>
        <time>2016-11-19T14:58:14Z</time>
      </trkpt>
      <trkpt lat="28.738328" lon="-13.816869">
        <ele>4.026</ele>
        <time>2016-11-19T14:59:07Z</time>
      </trkpt>
      <trkpt lat="28.738382" lon="-13.816937">
        <ele>4.208</ele>
        <time>2016-11-19T14:59:24Z</time>
      </trkpt>
      <trkpt lat="28.738310" lon="-13.817209">
        <ele>5.710</ele>
        <time>2016-11-19T14:59:51Z</time>
      </trkpt>
      <trkpt lat="28.738288" lon="-13.817412">
        <ele>7.784</ele>
        <time>2016-11-19T15:00:11Z</time>
      </trkpt>
      <trkpt lat="28.738135" lon="-13.817765">
        <ele>7.624</ele>
        <time>2016-11-19T15:00:44Z</time>
      </trkpt>
      <trkpt lat="28.738089" lon="-13.817825">
        <ele>7.244</ele>
        <time>2016-11-19T15:00:52Z</time>
      </trkpt>
      <trkpt lat="28.737915" lon="-13.817883">
        <ele>6.532</ele>
        <time>2016-11-19T15:01:29Z</time>
      </trkpt>
      <trkpt lat="28.737859" lon="-13.817864">
        <ele>6.355</ele>
        <time>2016-11-19T15:01:35Z</time>
      </trkpt>
      <trkpt lat="28.737679" lon="-13.817717">
        <ele>4.972</ele>
        <time>2016-11-19T15:02:36Z</time>
      </trkpt>
      <trkpt lat="28.737572" lon="-13.817778">
        <ele>4.511</ele>
        <time>2016-11-19T15:03:08Z</time>
      </trkpt>
      <trkpt lat="28.737435" lon="-13.817737">
        <ele>3.967</ele>
        <time>2016-11-19T15:03:34Z</time>
      </trkpt>
      <trkpt lat="28.737514" lon="-13.817768">
        <ele>4.181</ele>
        <time>2016-11-19T15:04:52Z</time>
      </trkpt>
      <trkpt lat="28.737579" lon="-13.817768">
        <ele>4.519</ele>
        <time>2016-11-19T15:05:12Z</time>
      </trkpt>
      <trkpt lat="28.737611" lon="-13.817792">
        <ele>4.808</ele>
        <time>2016-11-19T15:05:17Z</time>
      </trkpt>
      <trkpt lat="28.737748" lon="-13.818018">
        <ele>5.987</ele>
        <time>2016-11-19T15:05:45Z</time>
      </trkpt>
      <trkpt lat="28.737752" lon="-13.818202">
        <ele>5.421</ele>
        <time>2016-11-19T15:06:14Z</time>
      </trkpt>
      <trkpt lat="28.737679" lon="-13.818322">
        <ele>4.731</ele>
        <time>2016-11-19T15:06:31Z</time>
      </trkpt>
      <trkpt lat="28.737683" lon="-13.818374">
        <ele>4.891</ele>
        <time>2016-11-19T15:06:44Z</time>
      </trkpt>
      <trkpt lat="28.737702" lon="-13.818414">
        <ele>4.919</ele>
        <time>2016-11-19T15:07:01Z</time>
      </trkpt>
      <trkpt lat="28.737752" lon="-13.818445">
        <ele>5.372</ele>
        <time>2016-11-19T15:07:08Z</time>
      </trkpt>
      <trkpt lat="28.737781" lon="-13.818515">
        <ele>5.739</ele>
        <time>2016-11-19T15:07:17Z</time>
      </trkpt>
      <trkpt lat="28.737930" lon="-13.818655">
        <ele>6.868</ele>
        <time>2016-11-19T15:07:35Z</time>
      </trkpt>
      <trkpt lat="28.738017" lon="-13.818724">
        <ele>7.663</ele>
        <time>2016-11-19T15:07:44Z</time>
      </trkpt>
      <trkpt lat="28.738040" lon="-13.818724">
        <ele>7.744</ele>
        <time>2016-11-19T15:07:51Z</time>
      </trkpt>
      <trkpt lat="28.738045" lon="-13.818698">
        <ele>7.618</ele>
        <time>2016-11-19T15:08:09Z</time>
      </trkpt>
      <trkpt lat="28.738108" lon="-13.818871">
        <ele>9.008</ele>
        <time>2016-11-19T15:08:37Z</time>
      </trkpt>
      <trkpt lat="28.738116" lon="-13.819184">
        <ele>9.447</ele>
        <time>2016-11-19T15:09:10Z</time>
      </trkpt>
      <trkpt lat="28.738179" lon="-13.819480">
        <ele>8.951</ele>
        <time>2016-11-19T15:09:37Z</time>
      </trkpt>
      <trkpt lat="28.738302" lon="-13.819737">
        <ele>9.761</ele>
        <time>2016-11-19T15:09:59Z</time>
      </trkpt>
      <trkpt lat="28.738459" lon="-13.819922">
        <ele>9.011</ele>
        <time>2016-11-19T15:10:20Z</time>
      </trkpt>
      <trkpt lat="28.738477" lon="-13.819988">
        <ele>8.549</ele>
        <time>2016-11-19T15:10:26Z</time>
      </trkpt>
      <trkpt lat="28.738465" lon="-13.820103">
        <ele>8.272</ele>
        <time>2016-11-19T15:10:36Z</time>
      </trkpt>
      <trkpt lat="28.738245" lon="-13.820312">
        <ele>7.969</ele>
        <time>2016-11-19T15:11:01Z</time>
      </trkpt>
      <trkpt lat="28.738131" lon="-13.820522">
        <ele>7.188</ele>
        <time>2016-11-19T15:11:19Z</time>
      </trkpt>
      <trkpt lat="28.738114" lon="-13.820760">
        <ele>6.343</ele>
        <time>2016-11-19T15:11:37Z</time>
      </trkpt>
      <trkpt lat="28.738074" lon="-13.820874">
        <ele>6.164</ele>
        <time>2016-11-19T15:11:46Z</time>
      </trkpt>
      <trkpt lat="28.737859" lon="-13.821077">
        <ele>6.910</ele>
        <time>2016-11-19T15:12:12Z</time>
      </trkpt>
      <trkpt lat="28.737812" lon="-13.821146">
        <ele>7.108</ele>
        <time>2016-11-19T15:12:20Z</time>
      </trkpt>
      <trkpt lat="28.737692" lon="-13.821135">
        <ele>7.195</ele>
        <time>2016-11-19T15:12:37Z</time>
      </trkpt>
      <trkpt lat="28.737776" lon="-13.821216">
        <ele>7.479</ele>
        <time>2016-11-19T15:12:59Z</time>
      </trkpt>
      <trkpt lat="28.737809" lon="-13.821346">
        <ele>7.879</ele>
        <time>2016-11-19T15:13:11Z</time>
      </trkpt>
      <trkpt lat="28.737778" lon="-13.821521">
        <ele>7.519</ele>
        <time>2016-11-19T15:13:28Z</time>
      </trkpt>
      <trkpt lat="28.737743" lon="-13.821603">
        <ele>7.427</ele>
        <time>2016-11-19T15:13:36Z</time>
      </trkpt>
      <trkpt lat="28.737678" lon="-13.821666">
        <ele>7.450</ele>
        <time>2016-11-19T15:13:47Z</time>
      </trkpt>
      <trkpt lat="28.737677" lon="-13.821797">
        <ele>6.747</ele>
        <time>2016-11-19T15:14:27Z</time>
      </trkpt>
    </trkseg>
  </trk></gpx>