<?xml version="1.0" encoding="UTF-8"?>
<gpx version="1.1" creator="Aventuras en Cada Paso" xmlns="http://www.topografix.com/GPX/1/1">
  <metadata>
    <name>Vilaflor – Paisaje Lunar (PR-TF 72)</name>
    <desc>Circular desde Vilaflor por pinares hasta el Paisaje Lunar, formaciones de piedra pómez erosionada que parecen de otro planeta. Impresionante.</desc>
    <author><name>Aventuras en Cada Paso</name></author>
    <time>2026-07-08T08:12:58.154Z</time>
    <keywords>Tenerife, Senderismo, Media, senderismo Canarias</keywords>
  </metadata>
  <wpt lat="28.1582" lon="-16.6419">
    <name>Vilaflor – Paisaje Lunar (PR-TF 72)</name>
    <desc>Circular desde Vilaflor por pinares hasta el Paisaje Lunar, formaciones de piedra pómez erosionada que parecen de otro planeta. Impresionante. | Isla: Tenerife | Tipo: Senderismo | Dificultad: Media | Distancia: 13km | Duración: 4-8 horas</desc>
    <type>Senderismo</type>
    <extensions>
      <isla>Tenerife</isla>
      <dificultad>Media</dificultad>
      <distancia>13</distancia>
      <duracion>4-8 horas</duracion>
    </extensions>
  </wpt>
</gpx>