<?xml version="1.0" encoding="UTF-8"?>
<gpx creator="Wikiloc - https://www.wikiloc.com" version="1.1" xmlns="http://www.topografix.com/GPX/1/1" xmlns:xsi="http://www.w3.org/2001/XMLSchema-instance" xsi:schemaLocation="http://www.topografix.com/GPX/1/1 http://www.topografix.com/GPX/1/1/gpx.xsd">
  <metadata>
    <name>Wikiloc - Playa Mujeres, Playa del Pozo y Playa Papagayo desde Playa B...</name>
    <link href="https://www.wikiloc.com/hiking-trails/playa-mujeres-playa-del-pozo-y-playa-papagayo-desde-playa-blanca-lanzarote-canarias-200186731">
      <text>Playa Mujeres, Playa del Pozo y Playa Papagayo desde Playa B... on Wikiloc</text>
    </link>
    <time>2026-07-29T11:02:23.847Z</time>
  </metadata>
  <trk>
    <name>Playa Mujeres, Playa del Pozo y Playa Papagayo desde Playa B... - Wikiloc</name>
    <cmt></cmt>
    <desc></desc>
    <trkseg>
      <trkpt lat="28.861169" lon="-13.797111">
        <ele>25.116</ele>
        <time>2026-07-29T11:02:23.846Z</time>
      </trkpt>
      <trkpt lat="28.860840" lon="-13.797430">
        <ele>23.176</ele>
        <time>2026-07-29T11:03:03.846Z</time>
      </trkpt>
      <trkpt lat="28.860770" lon="-13.797387">
        <ele>21.813</ele>
        <time>2026-07-29T11:03:43.846Z</time>
      </trkpt>
      <trkpt lat="28.860767" lon="-13.797052">
        <ele>22.609</ele>
        <time>2026-07-29T11:04:23.846Z</time>
      </trkpt>
      <trkpt lat="28.860568" lon="-13.796507">
        <ele>25.243</ele>
        <time>2026-07-29T11:05:03.846Z</time>
      </trkpt>
      <trkpt lat="28.860354" lon="-13.796188">
        <ele>25.921</ele>
        <time>2026-07-29T11:05:43.846Z</time>
      </trkpt>
      <trkpt lat="28.860415" lon="-13.795657">
        <ele>30.431</ele>
        <time>2026-07-29T11:06:23.846Z</time>
      </trkpt>
      <trkpt lat="28.860356" lon="-13.795280">
        <ele>28.772</ele>
        <time>2026-07-29T11:07:03.846Z</time>
      </trkpt>
      <trkpt lat="28.860361" lon="-13.795143">
        <ele>28.599</ele>
        <time>2026-07-29T11:07:43.846Z</time>
      </trkpt>
      <trkpt lat="28.860319" lon="-13.795014">
        <ele>27.697</ele>
        <time>2026-07-29T11:08:23.846Z</time>
      </trkpt>
      <trkpt lat="28.858974" lon="-13.795026">
        <ele>35.838</ele>
        <time>2026-07-29T11:09:03.846Z</time>
      </trkpt>
      <trkpt lat="28.857344" lon="-13.794912">
        <ele>40.944</ele>
        <time>2026-07-29T11:09:43.846Z</time>
      </trkpt>
      <trkpt lat="28.856845" lon="-13.795061">
        <ele>38.152</ele>
        <time>2026-07-29T11:10:23.846Z</time>
      </trkpt>
      <trkpt lat="28.856295" lon="-13.795405">
        <ele>30.953</ele>
        <time>2026-07-29T11:11:03.846Z</time>
      </trkpt>
      <trkpt lat="28.856083" lon="-13.795442">
        <ele>28.104</ele>
        <time>2026-07-29T11:11:43.846Z</time>
      </trkpt>
      <trkpt lat="28.855942" lon="-13.795297">
        <ele>26.514</ele>
        <time>2026-07-29T11:12:23.846Z</time>
      </trkpt>
      <trkpt lat="28.855858" lon="-13.794916">
        <ele>23.209</ele>
        <time>2026-07-29T11:13:03.846Z</time>
      </trkpt>
      <trkpt lat="28.855843" lon="-13.794477">
        <ele>23.127</ele>
        <time>2026-07-29T11:13:43.846Z</time>
      </trkpt>
      <trkpt lat="28.855368" lon="-13.794202">
        <ele>17.025</ele>
        <time>2026-07-29T11:14:23.846Z</time>
      </trkpt>
      <trkpt lat="28.854705" lon="-13.793971">
        <ele>6.395</ele>
        <time>2026-07-29T11:15:03.846Z</time>
      </trkpt>
      <trkpt lat="28.854122" lon="-13.793767">
        <ele>3.886</ele>
        <time>2026-07-29T11:15:43.846Z</time>
      </trkpt>
      <trkpt lat="28.853261" lon="-13.793163">
        <ele>3.213</ele>
        <time>2026-07-29T11:16:23.846Z</time>
      </trkpt>
      <trkpt lat="28.852730" lon="-13.792804">
        <ele>0.051</ele>
        <time>2026-07-29T11:17:03.846Z</time>
      </trkpt>
      <trkpt lat="28.852063" lon="-13.792364">
        <ele>0.062</ele>
        <time>2026-07-29T11:17:43.846Z</time>
      </trkpt>
      <trkpt lat="28.852340" lon="-13.791715">
        <ele>12.898</ele>
        <time>2026-07-29T11:18:23.846Z</time>
      </trkpt>
      <trkpt lat="28.852335" lon="-13.791296">
        <ele>16.776</ele>
        <time>2026-07-29T11:19:03.846Z</time>
      </trkpt>
      <trkpt lat="28.851804" lon="-13.791189">
        <ele>20.822</ele>
        <time>2026-07-29T11:19:43.846Z</time>
      </trkpt>
      <trkpt lat="28.851278" lon="-13.790857">
        <ele>22.062</ele>
        <time>2026-07-29T11:20:23.846Z</time>
      </trkpt>
      <trkpt lat="28.851146" lon="-13.790681">
        <ele>23.908</ele>
        <time>2026-07-29T11:21:03.846Z</time>
      </trkpt>
      <trkpt lat="28.849962" lon="-13.790364">
        <ele>20.609</ele>
        <time>2026-07-29T11:21:43.846Z</time>
      </trkpt>
      <trkpt lat="28.849352" lon="-13.789993">
        <ele>19.394</ele>
        <time>2026-07-29T11:22:23.846Z</time>
      </trkpt>
      <trkpt lat="28.849005" lon="-13.789918">
        <ele>16.052</ele>
        <time>2026-07-29T11:23:03.846Z</time>
      </trkpt>
      <trkpt lat="28.848713" lon="-13.789306">
        <ele>14.872</ele>
        <time>2026-07-29T11:23:43.846Z</time>
      </trkpt>
      <trkpt lat="28.848331" lon="-13.789210">
        <ele>7.523</ele>
        <time>2026-07-29T11:24:23.846Z</time>
      </trkpt>
      <trkpt lat="28.848145" lon="-13.789227">
        <ele>7.190</ele>
        <time>2026-07-29T11:25:03.846Z</time>
      </trkpt>
      <trkpt lat="28.847863" lon="-13.789300">
        <ele>6.298</ele>
        <time>2026-07-29T11:25:43.846Z</time>
      </trkpt>
      <trkpt lat="28.847663" lon="-13.789289">
        <ele>5.759</ele>
        <time>2026-07-29T11:26:23.846Z</time>
      </trkpt>
      <trkpt lat="28.847394" lon="-13.789282">
        <ele>5.725</ele>
        <time>2026-07-29T11:27:03.846Z</time>
      </trkpt>
      <trkpt lat="28.846954" lon="-13.788979">
        <ele>4.153</ele>
        <time>2026-07-29T11:27:43.846Z</time>
      </trkpt>
      <trkpt lat="28.846444" lon="-13.788512">
        <ele>11.321</ele>
        <time>2026-07-29T11:28:23.846Z</time>
      </trkpt>
      <trkpt lat="28.846146" lon="-13.788244">
        <ele>18.841</ele>
        <time>2026-07-29T11:29:03.846Z</time>
      </trkpt>
      <trkpt lat="28.845878" lon="-13.788013">
        <ele>22.305</ele>
        <time>2026-07-29T11:29:43.846Z</time>
      </trkpt>
      <trkpt lat="28.844977" lon="-13.787959">
        <ele>18.209</ele>
        <time>2026-07-29T11:30:23.846Z</time>
      </trkpt>
      <trkpt lat="28.844779" lon="-13.788082">
        <ele>15.024</ele>
        <time>2026-07-29T11:31:03.846Z</time>
      </trkpt>
      <trkpt lat="28.844394" lon="-13.788136">
        <ele>18.412</ele>
        <time>2026-07-29T11:31:43.846Z</time>
      </trkpt>
      <trkpt lat="28.844201" lon="-13.787953">
        <ele>21.612</ele>
        <time>2026-07-29T11:32:23.846Z</time>
      </trkpt>
      <trkpt lat="28.843807" lon="-13.787768">
        <ele>24.653</ele>
        <time>2026-07-29T11:33:03.847Z</time>
      </trkpt>
      <trkpt lat="28.843680" lon="-13.787500">
        <ele>26.310</ele>
        <time>2026-07-29T11:33:43.847Z</time>
      </trkpt>
      <trkpt lat="28.843563" lon="-13.787408">
        <ele>27.748</ele>
        <time>2026-07-29T11:34:23.847Z</time>
      </trkpt>
      <trkpt lat="28.843534" lon="-13.787832">
        <ele>24.919</ele>
        <time>2026-07-29T11:35:03.847Z</time>
      </trkpt>
      <trkpt lat="28.843478" lon="-13.788428">
        <ele>15.515</ele>
        <time>2026-07-29T11:35:43.847Z</time>
      </trkpt>
      <trkpt lat="28.843177" lon="-13.788540">
        <ele>9.793</ele>
        <time>2026-07-29T11:36:23.847Z</time>
      </trkpt>
      <trkpt lat="28.843088" lon="-13.788674">
        <ele>7.027</ele>
        <time>2026-07-29T11:37:03.847Z</time>
      </trkpt>
      <trkpt lat="28.843027" lon="-13.788803">
        <ele>5.568</ele>
        <time>2026-07-29T11:37:43.847Z</time>
      </trkpt>
      <trkpt lat="28.842937" lon="-13.788878">
        <ele>4.614</ele>
        <time>2026-07-29T11:38:23.847Z</time>
      </trkpt>
      <trkpt lat="28.843013" lon="-13.789334">
        <ele>2.109</ele>
        <time>2026-07-29T11:39:03.847Z</time>
      </trkpt>
      <trkpt lat="28.843102" lon="-13.789425">
        <ele>1.254</ele>
        <time>2026-07-29T11:39:43.847Z</time>
      </trkpt>
      <trkpt lat="28.843149" lon="-13.789356">
        <ele>2.112</ele>
        <time>2026-07-29T11:40:23.847Z</time>
      </trkpt>
      <trkpt lat="28.843102" lon="-13.789366">
        <ele>1.972</ele>
        <time>2026-07-29T11:41:03.847Z</time>
      </trkpt>
      <trkpt lat="28.843078" lon="-13.789382">
        <ele>1.773</ele>
        <time>2026-07-29T11:41:43.847Z</time>
      </trkpt>
      <trkpt lat="28.843013" lon="-13.789297">
        <ele>2.530</ele>
        <time>2026-07-29T11:42:23.847Z</time>
      </trkpt>
      <trkpt lat="28.842933" lon="-13.788867">
        <ele>4.798</ele>
        <time>2026-07-29T11:43:03.847Z</time>
      </trkpt>
      <trkpt lat="28.843036" lon="-13.788782">
        <ele>5.739</ele>
        <time>2026-07-29T11:43:43.847Z</time>
      </trkpt>
      <trkpt lat="28.843163" lon="-13.788551">
        <ele>9.425</ele>
        <time>2026-07-29T11:44:23.847Z</time>
      </trkpt>
      <trkpt lat="28.843478" lon="-13.788411">
        <ele>15.883</ele>
        <time>2026-07-29T11:45:03.847Z</time>
      </trkpt>
      <trkpt lat="28.843567" lon="-13.787666">
        <ele>26.112</ele>
        <time>2026-07-29T11:45:43.847Z</time>
      </trkpt>
      <trkpt lat="28.843483" lon="-13.787816">
        <ele>24.432</ele>
        <time>2026-07-29T11:46:23.847Z</time>
      </trkpt>
      <trkpt lat="28.843337" lon="-13.787816">
        <ele>22.605</ele>
        <time>2026-07-29T11:47:03.847Z</time>
      </trkpt>
      <trkpt lat="28.843140" lon="-13.787644">
        <ele>21.209</ele>
        <time>2026-07-29T11:47:43.847Z</time>
      </trkpt>
      <trkpt lat="28.842933" lon="-13.787650">
        <ele>18.473</ele>
        <time>2026-07-29T11:48:23.847Z</time>
      </trkpt>
      <trkpt lat="28.842260" lon="-13.787653">
        <ele>19.861</ele>
        <time>2026-07-29T11:49:03.847Z</time>
      </trkpt>
      <trkpt lat="28.842016" lon="-13.787637">
        <ele>18.911</ele>
        <time>2026-07-29T11:49:43.847Z</time>
      </trkpt>
      <trkpt lat="28.841757" lon="-13.787803">
        <ele>18.652</ele>
        <time>2026-07-29T11:50:23.847Z</time>
      </trkpt>
      <trkpt lat="28.841654" lon="-13.787975">
        <ele>20.689</ele>
        <time>2026-07-29T11:51:03.847Z</time>
      </trkpt>
      <trkpt lat="28.841527" lon="-13.788297">
        <ele>21.227</ele>
        <time>2026-07-29T11:51:43.847Z</time>
      </trkpt>
      <trkpt lat="28.841739" lon="-13.788629">
        <ele>11.858</ele>
        <time>2026-07-29T11:52:23.847Z</time>
      </trkpt>
      <trkpt lat="28.841757" lon="-13.788822">
        <ele>10.544</ele>
        <time>2026-07-29T11:53:03.847Z</time>
      </trkpt>
      <trkpt lat="28.841602" lon="-13.788973">
        <ele>14.872</ele>
        <time>2026-07-29T11:53:43.847Z</time>
      </trkpt>
      <trkpt lat="28.841522" lon="-13.788957">
        <ele>17.377</ele>
        <time>2026-07-29T11:54:23.847Z</time>
      </trkpt>
      <trkpt lat="28.841433" lon="-13.788726">
        <ele>21.861</ele>
        <time>2026-07-29T11:55:03.847Z</time>
      </trkpt>
      <trkpt lat="28.841325" lon="-13.788694">
        <ele>23.127</ele>
        <time>2026-07-29T11:55:43.847Z</time>
      </trkpt>
      <trkpt lat="28.841496" lon="-13.788351">
        <ele>21.609</ele>
        <time>2026-07-29T11:56:23.847Z</time>
      </trkpt>
      <trkpt lat="28.841642" lon="-13.787971">
        <ele>20.769</ele>
        <time>2026-07-29T11:57:03.847Z</time>
      </trkpt>
      <trkpt lat="28.841365" lon="-13.788078">
        <ele>24.247</ele>
        <time>2026-07-29T11:57:43.847Z</time>
      </trkpt>
      <trkpt lat="28.840993" lon="-13.787981">
        <ele>25.957</ele>
        <time>2026-07-29T11:58:23.847Z</time>
      </trkpt>
      <trkpt lat="28.840542" lon="-13.787960">
        <ele>26.028</ele>
        <time>2026-07-29T11:59:03.847Z</time>
      </trkpt>
      <trkpt lat="28.840335" lon="-13.788035">
        <ele>26.125</ele>
        <time>2026-07-29T11:59:43.847Z</time>
      </trkpt>
      <trkpt lat="28.840297" lon="-13.787992">
        <ele>26.423</ele>
        <time>2026-07-29T12:00:23.847Z</time>
      </trkpt>
      <trkpt lat="28.840265" lon="-13.788094">
        <ele>25.444</ele>
        <time>2026-07-29T12:01:03.847Z</time>
      </trkpt>
      <trkpt lat="28.840246" lon="-13.788040">
        <ele>25.860</ele>
        <time>2026-07-29T12:01:43.847Z</time>
      </trkpt>
      <trkpt lat="28.840185" lon="-13.788089">
        <ele>24.528</ele>
        <time>2026-07-29T12:02:23.847Z</time>
      </trkpt>
      <trkpt lat="28.839798" lon="-13.788173">
        <ele>13.458</ele>
        <time>2026-07-29T12:03:03.847Z</time>
      </trkpt>
      <trkpt lat="28.839699" lon="-13.788211">
        <ele>9.452</ele>
        <time>2026-07-29T12:03:43.847Z</time>
      </trkpt>
      <trkpt lat="28.839483" lon="-13.788683">
        <ele>5.117</ele>
        <time>2026-07-29T12:04:23.847Z</time>
      </trkpt>
      <trkpt lat="28.839428" lon="-13.788882">
        <ele>7.009</ele>
        <time>2026-07-29T12:05:03.847Z</time>
      </trkpt>
      <trkpt lat="28.839508" lon="-13.789194">
        <ele>6.477</ele>
        <time>2026-07-29T12:05:43.847Z</time>
      </trkpt>
      <trkpt lat="28.839687" lon="-13.789199">
        <ele>7.975</ele>
        <time>2026-07-29T12:06:23.847Z</time>
      </trkpt>
      <trkpt lat="28.839800" lon="-13.788791">
        <ele>8.685</ele>
        <time>2026-07-29T12:07:03.847Z</time>
      </trkpt>
      <trkpt lat="28.840100" lon="-13.788421">
        <ele>16.986</ele>
        <time>2026-07-29T12:07:43.847Z</time>
      </trkpt>
      <trkpt lat="28.840429" lon="-13.788292">
        <ele>23.023</ele>
        <time>2026-07-29T12:08:23.847Z</time>
      </trkpt>
      <trkpt lat="28.840730" lon="-13.788260">
        <ele>25.151</ele>
        <time>2026-07-29T12:09:03.847Z</time>
      </trkpt>
      <trkpt lat="28.841092" lon="-13.788577">
        <ele>24.062</ele>
        <time>2026-07-29T12:09:43.847Z</time>
      </trkpt>
      <trkpt lat="28.841294" lon="-13.788668">
        <ele>23.258</ele>
        <time>2026-07-29T12:10:23.847Z</time>
      </trkpt>
      <trkpt lat="28.841637" lon="-13.787984">
        <ele>20.876</ele>
        <time>2026-07-29T12:11:03.847Z</time>
      </trkpt>
      <trkpt lat="28.841802" lon="-13.787748">
        <ele>18.536</ele>
        <time>2026-07-29T12:11:43.847Z</time>
      </trkpt>
      <trkpt lat="28.842037" lon="-13.787614">
        <ele>19.217</ele>
        <time>2026-07-29T12:12:23.847Z</time>
      </trkpt>
      <trkpt lat="28.843113" lon="-13.787614">
        <ele>21.618</ele>
        <time>2026-07-29T12:13:03.847Z</time>
      </trkpt>
      <trkpt lat="28.843362" lon="-13.787802">
        <ele>23.109</ele>
        <time>2026-07-29T12:13:43.847Z</time>
      </trkpt>
      <trkpt lat="28.843565" lon="-13.787673">
        <ele>26.095</ele>
        <time>2026-07-29T12:14:23.847Z</time>
      </trkpt>
      <trkpt lat="28.843593" lon="-13.787443">
        <ele>27.483</ele>
        <time>2026-07-29T12:15:03.847Z</time>
      </trkpt>
      <trkpt lat="28.843779" lon="-13.787771">
        <ele>24.893</ele>
        <time>2026-07-29T12:15:43.847Z</time>
      </trkpt>
      <trkpt lat="28.844235" lon="-13.787980">
        <ele>21.364</ele>
        <time>2026-07-29T12:16:23.847Z</time>
      </trkpt>
      <trkpt lat="28.844428" lon="-13.788130">
        <ele>18.351</ele>
        <time>2026-07-29T12:17:03.847Z</time>
      </trkpt>
      <trkpt lat="28.844818" lon="-13.788034">
        <ele>16.049</ele>
        <time>2026-07-29T12:17:43.847Z</time>
      </trkpt>
      <trkpt lat="28.844995" lon="-13.787948">
        <ele>18.540</ele>
        <time>2026-07-29T12:18:23.847Z</time>
      </trkpt>
      <trkpt lat="28.845860" lon="-13.788012">
        <ele>22.386</ele>
        <time>2026-07-29T12:19:03.847Z</time>
      </trkpt>
      <trkpt lat="28.846358" lon="-13.787872">
        <ele>19.594</ele>
        <time>2026-07-29T12:19:43.847Z</time>
      </trkpt>
      <trkpt lat="28.847204" lon="-13.788349">
        <ele>6.199</ele>
        <time>2026-07-29T12:20:23.847Z</time>
      </trkpt>
      <trkpt lat="28.847924" lon="-13.788419">
        <ele>11.007</ele>
        <time>2026-07-29T12:21:03.847Z</time>
      </trkpt>
      <trkpt lat="28.848224" lon="-13.788620">
        <ele>7.727</ele>
        <time>2026-07-29T12:21:43.847Z</time>
      </trkpt>
      <trkpt lat="28.848676" lon="-13.789237">
        <ele>13.109</ele>
        <time>2026-07-29T12:22:23.847Z</time>
      </trkpt>
      <trkpt lat="28.848920" lon="-13.789505">
        <ele>18.771</ele>
        <time>2026-07-29T12:23:03.847Z</time>
      </trkpt>
      <trkpt lat="28.849359" lon="-13.789610">
        <ele>18.549</ele>
        <time>2026-07-29T12:23:43.847Z</time>
      </trkpt>
      <trkpt lat="28.849712" lon="-13.789626">
        <ele>21.849</ele>
        <time>2026-07-29T12:24:23.847Z</time>
      </trkpt>
      <trkpt lat="28.850229" lon="-13.789985">
        <ele>23.280</ele>
        <time>2026-07-29T12:25:03.847Z</time>
      </trkpt>
      <trkpt lat="28.850442" lon="-13.790089">
        <ele>21.277</ele>
        <time>2026-07-29T12:25:43.847Z</time>
      </trkpt>
      <trkpt lat="28.851098" lon="-13.790639">
        <ele>24.555</ele>
        <time>2026-07-29T12:26:23.847Z</time>
      </trkpt>
      <trkpt lat="28.851263" lon="-13.790827">
        <ele>22.226</ele>
        <time>2026-07-29T12:27:03.847Z</time>
      </trkpt>
      <trkpt lat="28.851785" lon="-13.791186">
        <ele>21.142</ele>
        <time>2026-07-29T12:27:43.847Z</time>
      </trkpt>
      <trkpt lat="28.852328" lon="-13.791292">
        <ele>16.940</ele>
        <time>2026-07-29T12:28:23.847Z</time>
      </trkpt>
      <trkpt lat="28.852457" lon="-13.791321">
        <ele>14.634</ele>
        <time>2026-07-29T12:29:03.847Z</time>
      </trkpt>
      <trkpt lat="28.852759" lon="-13.791578">
        <ele>11.455</ele>
        <time>2026-07-29T12:29:43.847Z</time>
      </trkpt>
      <trkpt lat="28.853168" lon="-13.791943">
        <ele>5.610</ele>
        <time>2026-07-29T12:30:23.847Z</time>
      </trkpt>
      <trkpt lat="28.853629" lon="-13.792356">
        <ele>9.409</ele>
        <time>2026-07-29T12:31:03.847Z</time>
      </trkpt>
      <trkpt lat="28.853845" lon="-13.792613">
        <ele>6.695</ele>
        <time>2026-07-29T12:31:43.847Z</time>
      </trkpt>
      <trkpt lat="28.853986" lon="-13.792705">
        <ele>5.463</ele>
        <time>2026-07-29T12:32:23.847Z</time>
      </trkpt>
      <trkpt lat="28.854345" lon="-13.793023">
        <ele>3.773</ele>
        <time>2026-07-29T12:33:03.847Z</time>
      </trkpt>
      <trkpt lat="28.854625" lon="-13.793261">
        <ele>3.114</ele>
        <time>2026-07-29T12:33:43.847Z</time>
      </trkpt>
      <trkpt lat="28.854893" lon="-13.793643">
        <ele>5.291</ele>
        <time>2026-07-29T12:34:23.847Z</time>
      </trkpt>
      <trkpt lat="28.855059" lon="-13.793804">
        <ele>7.399</ele>
        <time>2026-07-29T12:35:03.847Z</time>
      </trkpt>
      <trkpt lat="28.855250" lon="-13.794140">
        <ele>15.180</ele>
        <time>2026-07-29T12:35:43.847Z</time>
      </trkpt>
      <trkpt lat="28.855824" lon="-13.794437">
        <ele>23.016</ele>
        <time>2026-07-29T12:36:23.847Z</time>
      </trkpt>
      <trkpt lat="28.855873" lon="-13.794606">
        <ele>23.354</ele>
        <time>2026-07-29T12:37:03.847Z</time>
      </trkpt>
      <trkpt lat="28.855840" lon="-13.794914">
        <ele>22.839</ele>
        <time>2026-07-29T12:37:43.847Z</time>
      </trkpt>
      <trkpt lat="28.855921" lon="-13.795300">
        <ele>26.201</ele>
        <time>2026-07-29T12:38:23.847Z</time>
      </trkpt>
      <trkpt lat="28.856102" lon="-13.795467">
        <ele>28.221</ele>
        <time>2026-07-29T12:39:03.847Z</time>
      </trkpt>
      <trkpt lat="28.856269" lon="-13.795397">
        <ele>30.609</ele>
        <time>2026-07-29T12:39:43.847Z</time>
      </trkpt>
      <trkpt lat="28.857334" lon="-13.794966">
        <ele>40.855</ele>
        <time>2026-07-29T12:40:23.847Z</time>
      </trkpt>
      <trkpt lat="28.859494" lon="-13.795011">
        <ele>35.583</ele>
        <time>2026-07-29T12:41:03.847Z</time>
      </trkpt>
      <trkpt lat="28.860246" lon="-13.794979">
        <ele>27.383</ele>
        <time>2026-07-29T12:41:43.847Z</time>
      </trkpt>
      <trkpt lat="28.860339" lon="-13.795076">
        <ele>28.094</ele>
        <time>2026-07-29T12:42:23.847Z</time>
      </trkpt>
      <trkpt lat="28.860391" lon="-13.795674">
        <ele>29.931</ele>
        <time>2026-07-29T12:43:03.847Z</time>
      </trkpt>
      <trkpt lat="28.860375" lon="-13.796188">
        <ele>26.439</ele>
        <time>2026-07-29T12:43:43.847Z</time>
      </trkpt>
      <trkpt lat="28.860612" lon="-13.796556">
        <ele>25.010</ele>
        <time>2026-07-29T12:44:23.847Z</time>
      </trkpt>
      <trkpt lat="28.860788" lon="-13.797087">
        <ele>22.766</ele>
        <time>2026-07-29T12:45:03.847Z</time>
      </trkpt>
      <trkpt lat="28.860741" lon="-13.797315">
        <ele>21.424</ele>
        <time>2026-07-29T12:45:43.847Z</time>
      </trkpt>
      <trkpt lat="28.860866" lon="-13.797366">
        <ele>23.456</ele>
        <time>2026-07-29T12:46:23.847Z</time>
      </trkpt>
      <trkpt lat="28.861167" lon="-13.797082">
        <ele>25.159</ele>
        <time>2026-07-29T12:47:03.847Z</time>
      </trkpt>
    </trkseg>
  </trk></gpx>