<?xml version="1.0" encoding="UTF-8"?>
<gpx version="1.1" creator="Aventuras en Cada Paso" xmlns="http://www.topografix.com/GPX/1/1">
  <metadata>
    <name>Barranco de Pecenescal – Playa Barlovento</name>
    <desc>Sendero GR-131/SL-FV11 técnico con tramos de mucho desnivel hasta la Playa Barlovento. No apta para vértigo. Paisaje salvaje del Parque Natural de Jandía.</desc>
    <author><name>Aventuras en Cada Paso</name></author>
    <time>2026-07-08T08:12:58.182Z</time>
    <keywords>Fuerteventura, Senderismo, Difícil, senderismo Canarias</keywords>
  </metadata>
  <wpt lat="28.1167" lon="-14.3333">
    <name>Barranco de Pecenescal – Playa Barlovento</name>
    <desc>Sendero GR-131/SL-FV11 técnico con tramos de mucho desnivel hasta la Playa Barlovento. No apta para vértigo. Paisaje salvaje del Parque Natural de Jandía. | Isla: Fuerteventura | Tipo: Senderismo | Dificultad: Difícil | Distancia: 12km | Duración: 4-8 horas</desc>
    <type>Senderismo</type>
    <extensions>
      <isla>Fuerteventura</isla>
      <dificultad>Difícil</dificultad>
      <distancia>12</distancia>
      <duracion>4-8 horas</duracion>
    </extensions>
  </wpt>
</gpx>