<?xml version="1.0" encoding="UTF-8"?>
<gpx version="1.1" creator="Aventuras en Cada Paso" xmlns="http://www.topografix.com/GPX/1/1">
  <metadata>
    <name>Peñas del Chache – Punto más alto</name>
    <desc>Ascenso al punto más alto de Lanzarote (670 m). Vistas espectaculares al acantilado de Famara y a La Graciosa. Sin sombra, llevar agua.</desc>
    <author><name>Aventuras en Cada Paso</name></author>
    <time>2026-07-08T08:12:58.169Z</time>
    <keywords>Lanzarote, Senderismo, Media, senderismo Canarias</keywords>
  </metadata>
  <wpt lat="29.1556" lon="-13.5422">
    <name>Peñas del Chache – Punto más alto</name>
    <desc>Ascenso al punto más alto de Lanzarote (670 m). Vistas espectaculares al acantilado de Famara y a La Graciosa. Sin sombra, llevar agua. | Isla: Lanzarote | Tipo: Senderismo | Dificultad: Media | Distancia: 11km | Duración: 4-8 horas</desc>
    <type>Senderismo</type>
    <extensions>
      <isla>Lanzarote</isla>
      <dificultad>Media</dificultad>
      <distancia>11</distancia>
      <duracion>4-8 horas</duracion>
    </extensions>
  </wpt>
</gpx>