<?xml version="1.0" encoding="UTF-8"?>
<gpx version="1.1" creator="Aventuras en Cada Paso" xmlns="http://www.topografix.com/GPX/1/1">
  <metadata>
    <name>Ruta Historia – Puerto de Lobos</name>
    <desc>Paseo por el pequeño puerto y las antiguas chozas de pescadores restauradas. Historia de los lobos de mar (focas monje) que dieron nombre al islote.</desc>
    <author><name>Aventuras en Cada Paso</name></author>
    <time>2026-07-08T08:12:58.213Z</time>
    <keywords>Isla de Lobos, Senderismo, Fácil, senderismo Canarias</keywords>
  </metadata>
  <wpt lat="28.7489" lon="-13.8175">
    <name>Ruta Historia – Puerto de Lobos</name>
    <desc>Paseo por el pequeño puerto y las antiguas chozas de pescadores restauradas. Historia de los lobos de mar (focas monje) que dieron nombre al islote. | Isla: Isla de Lobos | Tipo: Senderismo | Dificultad: Fácil | Distancia: 1km | Duración: Menos de 2h</desc>
    <type>Senderismo</type>
    <extensions>
      <isla>Isla de Lobos</isla>
      <dificultad>Fácil</dificultad>
      <distancia>1</distancia>
      <duracion>Menos de 2h</duracion>
    </extensions>
  </wpt>
</gpx>