<?xml version="1.0" encoding="UTF-8"?>
<gpx version="1.1" creator="Aventuras en Cada Paso" xmlns="http://www.topografix.com/GPX/1/1">
  <metadata>
    <name>Pico de la Cruz – Roque de los Muchachos (GR 131)</name>
    <desc>Tramo del GR 131 por la crestería a más de 2.300 m. Vistas a la Caldera, Mirador de Los Andenes y el observatorio astronómico más importante del hemisferio norte.</desc>
    <author><name>Aventuras en Cada Paso</name></author>
    <time>2026-07-08T08:12:58.192Z</time>
    <keywords>La Palma, Senderismo, Media, senderismo Canarias</keywords>
  </metadata>
  <wpt lat="28.7544" lon="-17.8833">
    <name>Pico de la Cruz – Roque de los Muchachos (GR 131)</name>
    <desc>Tramo del GR 131 por la crestería a más de 2.300 m. Vistas a la Caldera, Mirador de Los Andenes y el observatorio astronómico más importante del hemisferio norte. | Isla: La Palma | Tipo: Senderismo | Dificultad: Media | Distancia: 10km | Duración: 2-4 horas</desc>
    <type>Senderismo</type>
    <extensions>
      <isla>La Palma</isla>
      <dificultad>Media</dificultad>
      <distancia>10</distancia>
      <duracion>2-4 horas</duracion>
    </extensions>
  </wpt>
</gpx>