<?xml version="1.0" encoding="UTF-8"?>
<gpx version="1.1" creator="Aventuras en Cada Paso" xmlns="http://www.topografix.com/GPX/1/1">
  <metadata>
    <name>Pico Viejo – Sendero 13</name>
    <desc>Ascenso al volcán hermano del Teide con vistas únicas al cráter de Pico Viejo. Pinar canario milenario y panorámicas de los conos volcánicos.</desc>
    <author><name>Aventuras en Cada Paso</name></author>
    <time>2026-07-08T08:12:58.153Z</time>
    <keywords>Tenerife, Senderismo, Media, senderismo Canarias</keywords>
  </metadata>
  <wpt lat="28.2636" lon="-16.6819">
    <name>Pico Viejo – Sendero 13</name>
    <desc>Ascenso al volcán hermano del Teide con vistas únicas al cráter de Pico Viejo. Pinar canario milenario y panorámicas de los conos volcánicos. | Isla: Tenerife | Tipo: Senderismo | Dificultad: Media | Distancia: 12km | Duración: 4-8 horas</desc>
    <type>Senderismo</type>
    <extensions>
      <isla>Tenerife</isla>
      <dificultad>Media</dificultad>
      <distancia>12</distancia>
      <duracion>4-8 horas</duracion>
    </extensions>
  </wpt>
</gpx>