<?xml version="1.0" encoding="UTF-8"?>
<gpx version="1.1" creator="Aventuras en Cada Paso" xmlns="http://www.topografix.com/GPX/1/1">
  <metadata>
    <name>Pico de La Sabina – Pico de la Nieve (PR LP 3)</name>
    <desc>Circular bien marcada por los picos del sur de la cumbre. Bosques de pinos, chovas piquirrojas y vistas a Tenerife y La Gomera en días despejados.</desc>
    <author><name>Aventuras en Cada Paso</name></author>
    <time>2026-07-08T08:12:58.192Z</time>
    <keywords>La Palma, Senderismo, Media, senderismo Canarias</keywords>
  </metadata>
  <wpt lat="28.59" lon="-17.8394">
    <name>Pico de La Sabina – Pico de la Nieve (PR LP 3)</name>
    <desc>Circular bien marcada por los picos del sur de la cumbre. Bosques de pinos, chovas piquirrojas y vistas a Tenerife y La Gomera en días despejados. | Isla: La Palma | Tipo: Senderismo | Dificultad: Media | Distancia: 11km | Duración: 4-8 horas</desc>
    <type>Senderismo</type>
    <extensions>
      <isla>La Palma</isla>
      <dificultad>Media</dificultad>
      <distancia>11</distancia>
      <duracion>4-8 horas</duracion>
    </extensions>
  </wpt>
</gpx>