<?xml version="1.0" encoding="UTF-8"?>
<gpx creator="Wikiloc - https://www.wikiloc.com" version="1.1" xmlns="http://www.topografix.com/GPX/1/1" xmlns:xsi="http://www.w3.org/2001/XMLSchema-instance" xsi:schemaLocation="http://www.topografix.com/GPX/1/1 http://www.topografix.com/GPX/1/1/gpx.xsd">
  <metadata>
    <name>Wikiloc - PR LP 3 Pico de la Nieve (carretera LP 4)</name>
    <link href="https://www.wikiloc.com/hiking-trails/pr-lp-3-pico-de-la-nieve-carretera-lp-4-88926437">
      <text>PR LP 3 Pico de la Nieve (carretera LP 4) - Wikiloc on Wikiloc</text>
    </link>
    <time>2021-11-14T18:28:51Z</time>
  </metadata>
  <trk>
    <name>PR LP 3 Pico de la Nieve (carretera LP 4) - Wikiloc</name>
    <cmt></cmt>
    <desc></desc>
    <trkseg>
      <trkpt lat="28.733377" lon="-17.822444">
        <ele>1894.495</ele>
        <time>2021-11-14T14:56:22Z</time>
      </trkpt>
      <trkpt lat="28.733387" lon="-17.822549">
        <ele>1896.049</ele>
        <time>2021-11-14T14:56:39Z</time>
      </trkpt>
      <trkpt lat="28.733508" lon="-17.822621">
        <ele>1898.523</ele>
        <time>2021-11-14T14:57:00Z</time>
      </trkpt>
      <trkpt lat="28.733521" lon="-17.822879">
        <ele>1902.308</ele>
        <time>2021-11-14T14:57:22Z</time>
      </trkpt>
      <trkpt lat="28.733803" lon="-17.823434">
        <ele>1914.147</ele>
        <time>2021-11-14T14:58:23Z</time>
      </trkpt>
      <trkpt lat="28.733441" lon="-17.823403">
        <ele>1924.787</ele>
        <time>2021-11-14T14:59:09Z</time>
      </trkpt>
      <trkpt lat="28.733312" lon="-17.823724">
        <ele>1928.348</ele>
        <time>2021-11-14T14:59:36Z</time>
      </trkpt>
      <trkpt lat="28.733637" lon="-17.824772">
        <ele>1943.121</ele>
        <time>2021-11-14T15:01:44Z</time>
      </trkpt>
      <trkpt lat="28.733770" lon="-17.825539">
        <ele>1952.015</ele>
        <time>2021-11-14T15:02:46Z</time>
      </trkpt>
      <trkpt lat="28.733496" lon="-17.826379">
        <ele>1965.763</ele>
        <time>2021-11-14T15:03:59Z</time>
      </trkpt>
      <trkpt lat="28.733655" lon="-17.827288">
        <ele>1979.132</ele>
        <time>2021-11-14T15:05:18Z</time>
      </trkpt>
      <trkpt lat="28.733768" lon="-17.827533">
        <ele>1982.826</ele>
        <time>2021-11-14T15:05:44Z</time>
      </trkpt>
      <trkpt lat="28.733548" lon="-17.827819">
        <ele>1988.546</ele>
        <time>2021-11-14T15:06:23Z</time>
      </trkpt>
      <trkpt lat="28.733639" lon="-17.828406">
        <ele>2001.288</ele>
        <time>2021-11-14T15:07:29Z</time>
      </trkpt>
      <trkpt lat="28.733530" lon="-17.828499">
        <ele>2003.716</ele>
        <time>2021-11-14T15:07:46Z</time>
      </trkpt>
      <trkpt lat="28.732759" lon="-17.828432">
        <ele>2017.408</ele>
        <time>2021-11-14T15:09:21Z</time>
      </trkpt>
      <trkpt lat="28.732788" lon="-17.828596">
        <ele>2019.612</ele>
        <time>2021-11-14T15:09:54Z</time>
      </trkpt>
      <trkpt lat="28.733059" lon="-17.828992">
        <ele>2027.442</ele>
        <time>2021-11-14T15:10:40Z</time>
      </trkpt>
      <trkpt lat="28.732871" lon="-17.828947">
        <ele>2030.283</ele>
        <time>2021-11-14T15:11:27Z</time>
      </trkpt>
      <trkpt lat="28.732938" lon="-17.828971">
        <ele>2034.016</ele>
        <time>2021-11-14T15:11:39Z</time>
      </trkpt>
      <trkpt lat="28.732849" lon="-17.829021">
        <ele>2034.610</ele>
        <time>2021-11-14T15:12:53Z</time>
      </trkpt>
      <trkpt lat="28.732362" lon="-17.830095">
        <ele>2040.968</ele>
        <time>2021-11-14T15:16:31Z</time>
      </trkpt>
      <trkpt lat="28.731517" lon="-17.830706">
        <ele>2035.947</ele>
        <time>2021-11-14T15:19:41Z</time>
      </trkpt>
      <trkpt lat="28.731278" lon="-17.830649">
        <ele>2034.851</ele>
        <time>2021-11-14T15:20:01Z</time>
      </trkpt>
      <trkpt lat="28.731074" lon="-17.829924">
        <ele>2042.387</ele>
        <time>2021-11-14T15:21:41Z</time>
      </trkpt>
      <trkpt lat="28.730920" lon="-17.829811">
        <ele>2046.542</ele>
        <time>2021-11-14T15:22:02Z</time>
      </trkpt>
      <trkpt lat="28.730933" lon="-17.830234">
        <ele>2057.126</ele>
        <time>2021-11-14T15:23:37Z</time>
      </trkpt>
      <trkpt lat="28.730724" lon="-17.830070">
        <ele>2059.708</ele>
        <time>2021-11-14T15:24:06Z</time>
      </trkpt>
      <trkpt lat="28.730654" lon="-17.830207">
        <ele>2062.866</ele>
        <time>2021-11-14T15:24:34Z</time>
      </trkpt>
      <trkpt lat="28.730681" lon="-17.830451">
        <ele>2069.576</ele>
        <time>2021-11-14T15:24:57Z</time>
      </trkpt>
      <trkpt lat="28.730494" lon="-17.830361">
        <ele>2073.967</ele>
        <time>2021-11-14T15:26:05Z</time>
      </trkpt>
      <trkpt lat="28.730259" lon="-17.830421">
        <ele>2078.360</ele>
        <time>2021-11-14T15:26:51Z</time>
      </trkpt>
      <trkpt lat="28.730424" lon="-17.830859">
        <ele>2087.324</ele>
        <time>2021-11-14T15:27:42Z</time>
      </trkpt>
      <trkpt lat="28.730165" lon="-17.830820">
        <ele>2093.292</ele>
        <time>2021-11-14T15:28:49Z</time>
      </trkpt>
      <trkpt lat="28.730328" lon="-17.831053">
        <ele>2096.611</ele>
        <time>2021-11-14T15:30:08Z</time>
      </trkpt>
      <trkpt lat="28.730322" lon="-17.831106">
        <ele>2097.335</ele>
        <time>2021-11-14T15:30:15Z</time>
      </trkpt>
      <trkpt lat="28.730092" lon="-17.831109">
        <ele>2102.148</ele>
        <time>2021-11-14T15:30:45Z</time>
      </trkpt>
      <trkpt lat="28.730211" lon="-17.831404">
        <ele>2107.461</ele>
        <time>2021-11-14T15:31:21Z</time>
      </trkpt>
      <trkpt lat="28.730036" lon="-17.831523">
        <ele>2112.917</ele>
        <time>2021-11-14T15:32:06Z</time>
      </trkpt>
      <trkpt lat="28.730097" lon="-17.831732">
        <ele>2117.608</ele>
        <time>2021-11-14T15:32:30Z</time>
      </trkpt>
      <trkpt lat="28.729921" lon="-17.831785">
        <ele>2122.122</ele>
        <time>2021-11-14T15:33:00Z</time>
      </trkpt>
      <trkpt lat="28.730044" lon="-17.832002">
        <ele>2127.262</ele>
        <time>2021-11-14T15:33:32Z</time>
      </trkpt>
      <trkpt lat="28.729594" lon="-17.832235">
        <ele>2135.173</ele>
        <time>2021-11-14T15:34:21Z</time>
      </trkpt>
      <trkpt lat="28.729366" lon="-17.832705">
        <ele>2142.676</ele>
        <time>2021-11-14T15:35:17Z</time>
      </trkpt>
      <trkpt lat="28.729775" lon="-17.832721">
        <ele>2151.690</ele>
        <time>2021-11-14T15:37:02Z</time>
      </trkpt>
      <trkpt lat="28.730046" lon="-17.833186">
        <ele>2161.748</ele>
        <time>2021-11-14T15:38:38Z</time>
      </trkpt>
      <trkpt lat="28.729783" lon="-17.833288">
        <ele>2169.197</ele>
        <time>2021-11-14T15:39:16Z</time>
      </trkpt>
      <trkpt lat="28.729708" lon="-17.833610">
        <ele>2177.331</ele>
        <time>2021-11-14T15:40:09Z</time>
      </trkpt>
      <trkpt lat="28.729022" lon="-17.834135">
        <ele>2190.645</ele>
        <time>2021-11-14T15:44:04Z</time>
      </trkpt>
      <trkpt lat="28.728864" lon="-17.834561">
        <ele>2196.247</ele>
        <time>2021-11-14T15:47:04Z</time>
      </trkpt>
      <trkpt lat="28.728888" lon="-17.835524">
        <ele>2202.011</ele>
        <time>2021-11-14T15:49:06Z</time>
      </trkpt>
      <trkpt lat="28.728805" lon="-17.835675">
        <ele>2202.608</ele>
        <time>2021-11-14T15:49:48Z</time>
      </trkpt>
      <trkpt lat="28.728921" lon="-17.835498">
        <ele>2201.342</ele>
        <time>2021-11-14T15:53:14Z</time>
      </trkpt>
      <trkpt lat="28.729089" lon="-17.834797">
        <ele>2210.072</ele>
        <time>2021-11-14T15:54:22Z</time>
      </trkpt>
      <trkpt lat="28.729319" lon="-17.834575">
        <ele>2213.513</ele>
        <time>2021-11-14T15:54:50Z</time>
      </trkpt>
      <trkpt lat="28.729666" lon="-17.834781">
        <ele>2219.146</ele>
        <time>2021-11-14T15:55:35Z</time>
      </trkpt>
      <trkpt lat="28.729712" lon="-17.835171">
        <ele>2226.240</ele>
        <time>2021-11-14T15:56:21Z</time>
      </trkpt>
      <trkpt lat="28.729635" lon="-17.835407">
        <ele>2233.778</ele>
        <time>2021-11-14T15:56:54Z</time>
      </trkpt>
      <trkpt lat="28.730009" lon="-17.835661">
        <ele>2236.727</ele>
        <time>2021-11-14T16:39:41Z</time>
      </trkpt>
      <trkpt lat="28.730355" lon="-17.835431">
        <ele>2230.921</ele>
        <time>2021-11-14T16:40:32Z</time>
      </trkpt>
      <trkpt lat="28.730278" lon="-17.835246">
        <ele>2224.755</ele>
        <time>2021-11-14T16:41:05Z</time>
      </trkpt>
      <trkpt lat="28.730340" lon="-17.835192">
        <ele>2222.007</ele>
        <time>2021-11-14T16:41:15Z</time>
      </trkpt>
      <trkpt lat="28.730955" lon="-17.835688">
        <ele>2218.917</ele>
        <time>2021-11-14T16:42:37Z</time>
      </trkpt>
      <trkpt lat="28.732126" lon="-17.835006">
        <ele>2219.008</ele>
        <time>2021-11-14T16:44:23Z</time>
      </trkpt>
      <trkpt lat="28.732423" lon="-17.834646">
        <ele>2219.413</ele>
        <time>2021-11-14T16:45:00Z</time>
      </trkpt>
      <trkpt lat="28.732632" lon="-17.834617">
        <ele>2219.233</ele>
        <time>2021-11-14T16:45:19Z</time>
      </trkpt>
      <trkpt lat="28.733186" lon="-17.834846">
        <ele>2212.954</ele>
        <time>2021-11-14T16:47:20Z</time>
      </trkpt>
      <trkpt lat="28.733415" lon="-17.835132">
        <ele>2210.917</ele>
        <time>2021-11-14T16:47:47Z</time>
      </trkpt>
      <trkpt lat="28.733786" lon="-17.835341">
        <ele>2209.611</ele>
        <time>2021-11-14T16:48:30Z</time>
      </trkpt>
      <trkpt lat="28.733777" lon="-17.835447">
        <ele>2207.939</ele>
        <time>2021-11-14T16:48:43Z</time>
      </trkpt>
      <trkpt lat="28.733819" lon="-17.835341">
        <ele>2206.748</ele>
        <time>2021-11-14T16:49:54Z</time>
      </trkpt>
      <trkpt lat="28.734669" lon="-17.835665">
        <ele>2199.032</ele>
        <time>2021-11-14T16:51:06Z</time>
      </trkpt>
      <trkpt lat="28.734842" lon="-17.835553">
        <ele>2195.975</ele>
        <time>2021-11-14T16:51:21Z</time>
      </trkpt>
      <trkpt lat="28.735142" lon="-17.835630">
        <ele>2192.928</ele>
        <time>2021-11-14T16:51:46Z</time>
      </trkpt>
      <trkpt lat="28.735797" lon="-17.835431">
        <ele>2193.020</ele>
        <time>2021-11-14T16:52:52Z</time>
      </trkpt>
      <trkpt lat="28.736066" lon="-17.835091">
        <ele>2198.508</ele>
        <time>2021-11-14T16:53:34Z</time>
      </trkpt>
      <trkpt lat="28.736116" lon="-17.835377">
        <ele>2205.085</ele>
        <time>2021-11-14T16:54:24Z</time>
      </trkpt>
      <trkpt lat="28.736412" lon="-17.835051">
        <ele>2216.385</ele>
        <time>2021-11-14T16:55:32Z</time>
      </trkpt>
      <trkpt lat="28.736474" lon="-17.835121">
        <ele>2217.356</ele>
        <time>2021-11-14T16:55:53Z</time>
      </trkpt>
      <trkpt lat="28.737583" lon="-17.834873">
        <ele>2232.889</ele>
        <time>2021-11-14T16:57:58Z</time>
      </trkpt>
      <trkpt lat="28.737872" lon="-17.834749">
        <ele>2236.393</ele>
        <time>2021-11-14T16:58:25Z</time>
      </trkpt>
      <trkpt lat="28.738117" lon="-17.834381">
        <ele>2234.591</ele>
        <time>2021-11-14T16:59:06Z</time>
      </trkpt>
      <trkpt lat="28.738218" lon="-17.834407">
        <ele>2233.420</ele>
        <time>2021-11-14T16:59:12Z</time>
      </trkpt>
      <trkpt lat="28.738576" lon="-17.834903">
        <ele>2230.384</ele>
        <time>2021-11-14T17:01:06Z</time>
      </trkpt>
      <trkpt lat="28.739038" lon="-17.835132">
        <ele>2226.896</ele>
        <time>2021-11-14T17:03:02Z</time>
      </trkpt>
      <trkpt lat="28.739306" lon="-17.835464">
        <ele>2221.231</ele>
        <time>2021-11-14T17:03:31Z</time>
      </trkpt>
      <trkpt lat="28.739268" lon="-17.835410">
        <ele>2220.724</ele>
        <time>2021-11-14T17:03:52Z</time>
      </trkpt>
      <trkpt lat="28.740119" lon="-17.835518">
        <ele>2218.308</ele>
        <time>2021-11-14T17:05:20Z</time>
      </trkpt>
      <trkpt lat="28.740225" lon="-17.835578">
        <ele>2219.317</ele>
        <time>2021-11-14T17:05:30Z</time>
      </trkpt>
      <trkpt lat="28.740220" lon="-17.835782">
        <ele>2221.267</ele>
        <time>2021-11-14T17:06:31Z</time>
      </trkpt>
      <trkpt lat="28.740207" lon="-17.835602">
        <ele>2221.798</ele>
        <time>2021-11-14T17:08:48Z</time>
      </trkpt>
      <trkpt lat="28.740064" lon="-17.835524">
        <ele>2221.541</ele>
        <time>2021-11-14T17:09:09Z</time>
      </trkpt>
      <trkpt lat="28.739255" lon="-17.835380">
        <ele>2217.615</ele>
        <time>2021-11-14T17:12:48Z</time>
      </trkpt>
      <trkpt lat="28.738996" lon="-17.835112">
        <ele>2221.693</ele>
        <time>2021-11-14T17:13:21Z</time>
      </trkpt>
      <trkpt lat="28.738652" lon="-17.834974">
        <ele>2226.722</ele>
        <time>2021-11-14T17:13:54Z</time>
      </trkpt>
      <trkpt lat="28.738358" lon="-17.834563">
        <ele>2229.936</ele>
        <time>2021-11-14T17:14:35Z</time>
      </trkpt>
      <trkpt lat="28.738090" lon="-17.834382">
        <ele>2232.411</ele>
        <time>2021-11-14T17:15:00Z</time>
      </trkpt>
      <trkpt lat="28.737981" lon="-17.834614">
        <ele>2233.721</ele>
        <time>2021-11-14T17:15:26Z</time>
      </trkpt>
      <trkpt lat="28.737782" lon="-17.834794">
        <ele>2236.603</ele>
        <time>2021-11-14T17:15:48Z</time>
      </trkpt>
      <trkpt lat="28.737100" lon="-17.834979">
        <ele>2230.908</ele>
        <time>2021-11-14T17:16:49Z</time>
      </trkpt>
      <trkpt lat="28.736545" lon="-17.835024">
        <ele>2225.469</ele>
        <time>2021-11-14T17:17:32Z</time>
      </trkpt>
      <trkpt lat="28.736414" lon="-17.835114">
        <ele>2223.749</ele>
        <time>2021-11-14T17:17:45Z</time>
      </trkpt>
      <trkpt lat="28.736386" lon="-17.835059">
        <ele>2222.340</ele>
        <time>2021-11-14T17:18:07Z</time>
      </trkpt>
      <trkpt lat="28.736147" lon="-17.835340">
        <ele>2211.853</ele>
        <time>2021-11-14T17:19:09Z</time>
      </trkpt>
      <trkpt lat="28.736058" lon="-17.835100">
        <ele>2206.047</ele>
        <time>2021-11-14T17:19:34Z</time>
      </trkpt>
      <trkpt lat="28.735768" lon="-17.835422">
        <ele>2199.265</ele>
        <time>2021-11-14T17:20:05Z</time>
      </trkpt>
      <trkpt lat="28.735352" lon="-17.835552">
        <ele>2193.574</ele>
        <time>2021-11-14T17:23:25Z</time>
      </trkpt>
      <trkpt lat="28.732423" lon="-17.834658">
        <ele>2218.548</ele>
        <time>2021-11-14T17:30:16Z</time>
      </trkpt>
      <trkpt lat="28.732070" lon="-17.835033">
        <ele>2219.235</ele>
        <time>2021-11-14T17:30:56Z</time>
      </trkpt>
      <trkpt lat="28.731354" lon="-17.835352">
        <ele>2220.586</ele>
        <time>2021-11-14T17:31:53Z</time>
      </trkpt>
      <trkpt lat="28.731212" lon="-17.835518">
        <ele>2219.914</ele>
        <time>2021-11-14T17:32:08Z</time>
      </trkpt>
      <trkpt lat="28.730908" lon="-17.835665">
        <ele>2219.108</ele>
        <time>2021-11-14T17:32:48Z</time>
      </trkpt>
      <trkpt lat="28.730619" lon="-17.835482">
        <ele>2219.071</ele>
        <time>2021-11-14T17:33:11Z</time>
      </trkpt>
      <trkpt lat="28.730415" lon="-17.835214">
        <ele>2218.591</ele>
        <time>2021-11-14T17:33:35Z</time>
      </trkpt>
      <trkpt lat="28.729785" lon="-17.834898">
        <ele>2220.482</ele>
        <time>2021-11-14T17:34:27Z</time>
      </trkpt>
      <trkpt lat="28.729371" lon="-17.834556">
        <ele>2217.615</ele>
        <time>2021-11-14T17:35:48Z</time>
      </trkpt>
      <trkpt lat="28.729130" lon="-17.834791">
        <ele>2214.579</ele>
        <time>2021-11-14T17:36:47Z</time>
      </trkpt>
      <trkpt lat="28.728947" lon="-17.835501">
        <ele>2206.677</ele>
        <time>2021-11-14T17:38:01Z</time>
      </trkpt>
      <trkpt lat="28.728892" lon="-17.834546">
        <ele>2200.896</ele>
        <time>2021-11-14T17:39:29Z</time>
      </trkpt>
      <trkpt lat="28.729086" lon="-17.834037">
        <ele>2195.710</ele>
        <time>2021-11-14T17:40:22Z</time>
      </trkpt>
      <trkpt lat="28.729692" lon="-17.833673">
        <ele>2183.046</ele>
        <time>2021-11-14T17:41:31Z</time>
      </trkpt>
      <trkpt lat="28.729831" lon="-17.833434">
        <ele>2180.888</ele>
        <time>2021-11-14T17:42:02Z</time>
      </trkpt>
      <trkpt lat="28.729765" lon="-17.833352">
        <ele>2178.716</ele>
        <time>2021-11-14T17:42:16Z</time>
      </trkpt>
      <trkpt lat="28.730116" lon="-17.833153">
        <ele>2168.908</ele>
        <time>2021-11-14T17:42:50Z</time>
      </trkpt>
      <trkpt lat="28.729765" lon="-17.832653">
        <ele>2157.382</ele>
        <time>2021-11-14T17:43:35Z</time>
      </trkpt>
      <trkpt lat="28.729417" lon="-17.832720">
        <ele>2150.712</ele>
        <time>2021-11-14T17:44:09Z</time>
      </trkpt>
      <trkpt lat="28.729623" lon="-17.832209">
        <ele>2139.433</ele>
        <time>2021-11-14T17:44:58Z</time>
      </trkpt>
      <trkpt lat="28.730090" lon="-17.831992">
        <ele>2132.666</ele>
        <time>2021-11-14T17:46:21Z</time>
      </trkpt>
      <trkpt lat="28.729950" lon="-17.831773">
        <ele>2128.380</ele>
        <time>2021-11-14T17:46:46Z</time>
      </trkpt>
      <trkpt lat="28.730108" lon="-17.831763">
        <ele>2124.498</ele>
        <time>2021-11-14T17:47:06Z</time>
      </trkpt>
      <trkpt lat="28.730051" lon="-17.831454">
        <ele>2118.487</ele>
        <time>2021-11-14T17:47:36Z</time>
      </trkpt>
      <trkpt lat="28.730199" lon="-17.831496">
        <ele>2116.211</ele>
        <time>2021-11-14T17:47:53Z</time>
      </trkpt>
      <trkpt lat="28.730255" lon="-17.831388">
        <ele>2114.042</ele>
        <time>2021-11-14T17:48:01Z</time>
      </trkpt>
      <trkpt lat="28.730118" lon="-17.831145">
        <ele>2108.422</ele>
        <time>2021-11-14T17:48:28Z</time>
      </trkpt>
      <trkpt lat="28.730350" lon="-17.831109">
        <ele>2102.814</ele>
        <time>2021-11-14T17:48:57Z</time>
      </trkpt>
      <trkpt lat="28.730221" lon="-17.830811">
        <ele>2097.008</ele>
        <time>2021-11-14T17:49:28Z</time>
      </trkpt>
      <trkpt lat="28.730449" lon="-17.830912">
        <ele>2093.162</ele>
        <time>2021-11-14T17:50:17Z</time>
      </trkpt>
      <trkpt lat="28.730262" lon="-17.830462">
        <ele>2085.982</ele>
        <time>2021-11-14T17:51:00Z</time>
      </trkpt>
      <trkpt lat="28.730500" lon="-17.830375">
        <ele>2079.833</ele>
        <time>2021-11-14T17:51:26Z</time>
      </trkpt>
      <trkpt lat="28.730692" lon="-17.830494">
        <ele>2075.716</ele>
        <time>2021-11-14T17:51:50Z</time>
      </trkpt>
      <trkpt lat="28.730737" lon="-17.830318">
        <ele>2072.410</ele>
        <time>2021-11-14T17:52:06Z</time>
      </trkpt>
      <trkpt lat="28.730673" lon="-17.830109">
        <ele>2069.268</ele>
        <time>2021-11-14T17:52:28Z</time>
      </trkpt>
      <trkpt lat="28.730907" lon="-17.830224">
        <ele>2061.687</ele>
        <time>2021-11-14T17:53:00Z</time>
      </trkpt>
      <trkpt lat="28.730925" lon="-17.829866">
        <ele>2055.071</ele>
        <time>2021-11-14T17:53:36Z</time>
      </trkpt>
      <trkpt lat="28.731087" lon="-17.830006">
        <ele>2048.432</ele>
        <time>2021-11-14T17:54:02Z</time>
      </trkpt>
      <trkpt lat="28.731350" lon="-17.830710">
        <ele>2038.092</ele>
        <time>2021-11-14T17:55:08Z</time>
      </trkpt>
      <trkpt lat="28.731561" lon="-17.830734">
        <ele>2035.511</ele>
        <time>2021-11-14T17:55:24Z</time>
      </trkpt>
      <trkpt lat="28.731717" lon="-17.830499">
        <ele>2036.808</ele>
        <time>2021-11-14T17:55:49Z</time>
      </trkpt>
      <trkpt lat="28.732195" lon="-17.830197">
        <ele>2036.831</ele>
        <time>2021-11-14T17:56:29Z</time>
      </trkpt>
      <trkpt lat="28.732523" lon="-17.829859">
        <ele>2040.791</ele>
        <time>2021-11-14T17:57:08Z</time>
      </trkpt>
      <trkpt lat="28.732793" lon="-17.829099">
        <ele>2037.262</ele>
        <time>2021-11-14T17:58:02Z</time>
      </trkpt>
      <trkpt lat="28.732938" lon="-17.828994">
        <ele>2036.925</ele>
        <time>2021-11-14T17:58:25Z</time>
      </trkpt>
      <trkpt lat="28.732754" lon="-17.828983">
        <ele>2034.549</ele>
        <time>2021-11-14T18:03:48Z</time>
      </trkpt>
      <trkpt lat="28.732582" lon="-17.829505">
        <ele>2031.617</ele>
        <time>2021-11-14T18:05:28Z</time>
      </trkpt>
      <trkpt lat="28.732258" lon="-17.829939">
        <ele>2028.646</ele>
        <time>2021-11-14T18:06:07Z</time>
      </trkpt>
      <trkpt lat="28.731992" lon="-17.830139">
        <ele>2025.620</ele>
        <time>2021-11-14T18:06:33Z</time>
      </trkpt>
      <trkpt lat="28.731621" lon="-17.830227">
        <ele>2022.486</ele>
        <time>2021-11-14T18:07:01Z</time>
      </trkpt>
      <trkpt lat="28.731461" lon="-17.830052">
        <ele>2019.760</ele>
        <time>2021-11-14T18:07:16Z</time>
      </trkpt>
      <trkpt lat="28.731565" lon="-17.829718">
        <ele>2018.126</ele>
        <time>2021-11-14T18:07:38Z</time>
      </trkpt>
      <trkpt lat="28.731489" lon="-17.829240">
        <ele>2013.908</ele>
        <time>2021-11-14T18:08:11Z</time>
      </trkpt>
      <trkpt lat="28.731416" lon="-17.829164">
        <ele>2013.036</ele>
        <time>2021-11-14T18:08:19Z</time>
      </trkpt>
      <trkpt lat="28.731010" lon="-17.829060">
        <ele>2009.076</ele>
        <time>2021-11-14T18:08:51Z</time>
      </trkpt>
      <trkpt lat="28.730800" lon="-17.828811">
        <ele>2006.747</ele>
        <time>2021-11-14T18:09:13Z</time>
      </trkpt>
      <trkpt lat="28.730503" lon="-17.828870">
        <ele>2004.740</ele>
        <time>2021-11-14T18:09:35Z</time>
      </trkpt>
      <trkpt lat="28.730300" lon="-17.828806">
        <ele>2003.114</ele>
        <time>2021-11-14T18:09:49Z</time>
      </trkpt>
      <trkpt lat="28.730182" lon="-17.828714">
        <ele>2001.232</ele>
        <time>2021-11-14T18:10:00Z</time>
      </trkpt>
      <trkpt lat="28.730084" lon="-17.828306">
        <ele>1997.381</ele>
        <time>2021-11-14T18:10:30Z</time>
      </trkpt>
      <trkpt lat="28.729938" lon="-17.828098">
        <ele>1994.575</ele>
        <time>2021-11-14T18:10:49Z</time>
      </trkpt>
      <trkpt lat="28.729173" lon="-17.827776">
        <ele>1986.216</ele>
        <time>2021-11-14T18:11:50Z</time>
      </trkpt>
      <trkpt lat="28.728869" lon="-17.827780">
        <ele>1984.676</ele>
        <time>2021-11-14T18:12:17Z</time>
      </trkpt>
      <trkpt lat="28.728688" lon="-17.827606">
        <ele>1982.813</ele>
        <time>2021-11-14T18:12:37Z</time>
      </trkpt>
      <trkpt lat="28.729233" lon="-17.827430">
        <ele>1975.208</ele>
        <time>2021-11-14T18:15:06Z</time>
      </trkpt>
      <trkpt lat="28.729690" lon="-17.827563">
        <ele>1970.829</ele>
        <time>2021-11-14T18:15:39Z</time>
      </trkpt>
      <trkpt lat="28.729953" lon="-17.827499">
        <ele>1968.799</ele>
        <time>2021-11-14T18:15:58Z</time>
      </trkpt>
      <trkpt lat="28.730403" lon="-17.827986">
        <ele>1963.370</ele>
        <time>2021-11-14T18:16:41Z</time>
      </trkpt>
      <trkpt lat="28.730798" lon="-17.827719">
        <ele>1959.323</ele>
        <time>2021-11-14T18:17:22Z</time>
      </trkpt>
      <trkpt lat="28.731218" lon="-17.828051">
        <ele>1955.447</ele>
        <time>2021-11-14T18:17:56Z</time>
      </trkpt>
      <trkpt lat="28.731432" lon="-17.828001">
        <ele>1953.825</ele>
        <time>2021-11-14T18:18:14Z</time>
      </trkpt>
      <trkpt lat="28.731449" lon="-17.827698">
        <ele>1952.124</ele>
        <time>2021-11-14T18:18:31Z</time>
      </trkpt>
      <trkpt lat="28.731387" lon="-17.827241">
        <ele>1950.918</ele>
        <time>2021-11-14T18:18:59Z</time>
      </trkpt>
      <trkpt lat="28.731277" lon="-17.827041">
        <ele>1950.248</ele>
        <time>2021-11-14T18:19:17Z</time>
      </trkpt>
      <trkpt lat="28.731271" lon="-17.826484">
        <ele>1945.861</ele>
        <time>2021-11-14T18:19:50Z</time>
      </trkpt>
      <trkpt lat="28.731131" lon="-17.826127">
        <ele>1943.017</ele>
        <time>2021-11-14T18:20:17Z</time>
      </trkpt>
      <trkpt lat="28.731130" lon="-17.825693">
        <ele>1939.608</ele>
        <time>2021-11-14T18:20:43Z</time>
      </trkpt>
      <trkpt lat="28.731197" lon="-17.825613">
        <ele>1938.852</ele>
        <time>2021-11-14T18:20:51Z</time>
      </trkpt>
      <trkpt lat="28.731552" lon="-17.825705">
        <ele>1935.782</ele>
        <time>2021-11-14T18:21:20Z</time>
      </trkpt>
      <trkpt lat="28.731708" lon="-17.825658">
        <ele>1934.663</ele>
        <time>2021-11-14T18:21:31Z</time>
      </trkpt>
      <trkpt lat="28.731964" lon="-17.825105">
        <ele>1929.766</ele>
        <time>2021-11-14T18:22:09Z</time>
      </trkpt>
      <trkpt lat="28.732318" lon="-17.825190">
        <ele>1926.580</ele>
        <time>2021-11-14T18:22:38Z</time>
      </trkpt>
      <trkpt lat="28.732454" lon="-17.824646">
        <ele>1923.498</ele>
        <time>2021-11-14T18:23:15Z</time>
      </trkpt>
      <trkpt lat="28.732418" lon="-17.824414">
        <ele>1922.477</ele>
        <time>2021-11-14T18:23:27Z</time>
      </trkpt>
      <trkpt lat="28.732070" lon="-17.823988">
        <ele>1918.161</ele>
        <time>2021-11-14T18:24:09Z</time>
      </trkpt>
      <trkpt lat="28.732092" lon="-17.823302">
        <ele>1913.876</ele>
        <time>2021-11-14T18:24:50Z</time>
      </trkpt>
      <trkpt lat="28.731810" lon="-17.822183">
        <ele>1904.690</ele>
        <time>2021-11-14T18:26:20Z</time>
      </trkpt>
      <trkpt lat="28.731897" lon="-17.822026">
        <ele>1903.319</ele>
        <time>2021-11-14T18:26:32Z</time>
      </trkpt>
      <trkpt lat="28.732336" lon="-17.821850">
        <ele>1899.708</ele>
        <time>2021-11-14T18:27:50Z</time>
      </trkpt>
      <trkpt lat="28.732492" lon="-17.821863">
        <ele>1898.185</ele>
        <time>2021-11-14T18:28:02Z</time>
      </trkpt>
      <trkpt lat="28.732789" lon="-17.822125">
        <ele>1894.865</ele>
        <time>2021-11-14T18:28:26Z</time>
      </trkpt>
      <trkpt lat="28.733133" lon="-17.822026">
        <ele>1891.986</ele>
        <time>2021-11-14T18:28:51Z</time>
      </trkpt>
    </trkseg>
  </trk></gpx>