<?xml version="1.0" encoding="UTF-8"?>
<gpx version="1.1" creator="Aventuras en Cada Paso" xmlns="http://www.topografix.com/GPX/1/1">
  <metadata>
    <name>Pico de la Zarza – Morro Jable (PR-FV 54)</name>
    <desc>Ascenso al punto más alto de Fuerteventura (807 m) con vistas a Cofete, las playas vírgenes y en días despejados hasta Gran Canaria.</desc>
    <author><name>Aventuras en Cada Paso</name></author>
    <time>2026-07-08T08:12:58.175Z</time>
    <keywords>Fuerteventura, Senderismo, Media, senderismo Canarias</keywords>
  </metadata>
  <wpt lat="28.0956" lon="-14.3783">
    <name>Pico de la Zarza – Morro Jable (PR-FV 54)</name>
    <desc>Ascenso al punto más alto de Fuerteventura (807 m) con vistas a Cofete, las playas vírgenes y en días despejados hasta Gran Canaria. | Isla: Fuerteventura | Tipo: Senderismo | Dificultad: Media | Distancia: 13km | Duración: 4-8 horas</desc>
    <type>Senderismo</type>
    <extensions>
      <isla>Fuerteventura</isla>
      <dificultad>Media</dificultad>
      <distancia>13</distancia>
      <duracion>4-8 horas</duracion>
    </extensions>
  </wpt>
</gpx>