<?xml version="1.0" encoding="UTF-8"?>
<gpx creator="Wikiloc - https://www.wikiloc.com" version="1.1" xmlns="http://www.topografix.com/GPX/1/1" xmlns:xsi="http://www.w3.org/2001/XMLSchema-instance" xsi:schemaLocation="http://www.topografix.com/GPX/1/1 http://www.topografix.com/GPX/1/1/gpx.xsd">
  <metadata>
    <name>Wikiloc - Llanos de la pez pico campanario pico de las nieves morro de...</name>
    <link href="https://www.wikiloc.com/hiking-trails/llanos-de-la-pez-pico-campanario-pico-de-las-nieves-morro-de-la-agujereada-circular-18669535">
      <text>Llanos de la pez pico campanario pico de las nieves morro de... on Wikiloc</text>
    </link>
    <time>2017-07-15T12:46:30Z</time>
  </metadata>
  <trk>
    <name>Llanos de la pez pico campanario pico de las nieves morro de... - Wikiloc</name>
    <cmt></cmt>
    <desc></desc>
    <trkseg>
      <trkpt lat="27.966184" lon="-15.583660">
        <ele>1715.047</ele>
        <time>2017-07-15T08:57:07Z</time>
      </trkpt>
      <trkpt lat="27.965821" lon="-15.584098">
        <ele>1706.029</ele>
        <time>2017-07-15T08:57:48Z</time>
      </trkpt>
      <trkpt lat="27.965670" lon="-15.584527">
        <ele>1700.021</ele>
        <time>2017-07-15T08:58:20Z</time>
      </trkpt>
      <trkpt lat="27.965299" lon="-15.585792">
        <ele>1695.008</ele>
        <time>2017-07-15T08:59:28Z</time>
      </trkpt>
      <trkpt lat="27.965249" lon="-15.586353">
        <ele>1694.075</ele>
        <time>2017-07-15T08:59:55Z</time>
      </trkpt>
      <trkpt lat="27.964801" lon="-15.587637">
        <ele>1687.062</ele>
        <time>2017-07-15T09:01:39Z</time>
      </trkpt>
      <trkpt lat="27.964331" lon="-15.588332">
        <ele>1683.030</ele>
        <time>2017-07-15T09:02:31Z</time>
      </trkpt>
      <trkpt lat="27.963803" lon="-15.588689">
        <ele>1675.090</ele>
        <time>2017-07-15T09:03:03Z</time>
      </trkpt>
      <trkpt lat="27.963677" lon="-15.588991">
        <ele>1673.033</ele>
        <time>2017-07-15T09:03:21Z</time>
      </trkpt>
      <trkpt lat="27.963151" lon="-15.589272">
        <ele>1678.029</ele>
        <time>2017-07-15T09:03:58Z</time>
      </trkpt>
      <trkpt lat="27.962582" lon="-15.589296">
        <ele>1683.057</ele>
        <time>2017-07-15T09:04:34Z</time>
      </trkpt>
      <trkpt lat="27.962556" lon="-15.589396">
        <ele>1678.019</ele>
        <time>2017-07-15T09:04:53Z</time>
      </trkpt>
      <trkpt lat="27.962300" lon="-15.589258">
        <ele>1677.071</ele>
        <time>2017-07-15T09:05:52Z</time>
      </trkpt>
      <trkpt lat="27.961741" lon="-15.589241">
        <ele>1678.041</ele>
        <time>2017-07-15T09:06:34Z</time>
      </trkpt>
      <trkpt lat="27.960766" lon="-15.589424">
        <ele>1689.015</ele>
        <time>2017-07-15T09:07:46Z</time>
      </trkpt>
      <trkpt lat="27.960197" lon="-15.589303">
        <ele>1692.008</ele>
        <time>2017-07-15T09:08:19Z</time>
      </trkpt>
      <trkpt lat="27.959910" lon="-15.589388">
        <ele>1686.098</ele>
        <time>2017-07-15T09:08:37Z</time>
      </trkpt>
      <trkpt lat="27.959652" lon="-15.589827">
        <ele>1681.025</ele>
        <time>2017-07-15T09:09:19Z</time>
      </trkpt>
      <trkpt lat="27.957442" lon="-15.590284">
        <ele>1704.083</ele>
        <time>2017-07-15T09:11:49Z</time>
      </trkpt>
      <trkpt lat="27.956654" lon="-15.590320">
        <ele>1706.053</ele>
        <time>2017-07-15T09:13:04Z</time>
      </trkpt>
      <trkpt lat="27.956220" lon="-15.590712">
        <ele>1722.026</ele>
        <time>2017-07-15T09:14:00Z</time>
      </trkpt>
      <trkpt lat="27.956457" lon="-15.591022">
        <ele>1734.032</ele>
        <time>2017-07-15T09:14:39Z</time>
      </trkpt>
      <trkpt lat="27.956323" lon="-15.591184">
        <ele>1734.050</ele>
        <time>2017-07-15T09:15:03Z</time>
      </trkpt>
      <trkpt lat="27.955556" lon="-15.591373">
        <ele>1750.052</ele>
        <time>2017-07-15T09:17:38Z</time>
      </trkpt>
      <trkpt lat="27.954798" lon="-15.591866">
        <ele>1770.035</ele>
        <time>2017-07-15T09:19:08Z</time>
      </trkpt>
      <trkpt lat="27.953988" lon="-15.591158">
        <ele>1781.086</ele>
        <time>2017-07-15T09:20:27Z</time>
      </trkpt>
      <trkpt lat="27.953362" lon="-15.590081">
        <ele>1794.014</ele>
        <time>2017-07-15T09:22:30Z</time>
      </trkpt>
      <trkpt lat="27.953302" lon="-15.589109">
        <ele>1799.008</ele>
        <time>2017-07-15T09:23:30Z</time>
      </trkpt>
      <trkpt lat="27.953166" lon="-15.588470">
        <ele>1802.014</ele>
        <time>2017-07-15T09:24:11Z</time>
      </trkpt>
      <trkpt lat="27.952962" lon="-15.588114">
        <ele>1809.031</ele>
        <time>2017-07-15T09:24:36Z</time>
      </trkpt>
      <trkpt lat="27.953116" lon="-15.587851">
        <ele>1815.019</ele>
        <time>2017-07-15T09:25:01Z</time>
      </trkpt>
      <trkpt lat="27.953031" lon="-15.587787">
        <ele>1815.019</ele>
        <time>2017-07-15T09:25:22Z</time>
      </trkpt>
      <trkpt lat="27.952770" lon="-15.587899">
        <ele>1822.032</ele>
        <time>2017-07-15T09:25:48Z</time>
      </trkpt>
      <trkpt lat="27.952744" lon="-15.587800">
        <ele>1830.038</ele>
        <time>2017-07-15T09:26:36Z</time>
      </trkpt>
      <trkpt lat="27.952816" lon="-15.587378">
        <ele>1836.026</ele>
        <time>2017-07-15T09:27:20Z</time>
      </trkpt>
      <trkpt lat="27.952571" lon="-15.586387">
        <ele>1841.038</ele>
        <time>2017-07-15T09:28:22Z</time>
      </trkpt>
      <trkpt lat="27.952612" lon="-15.585719">
        <ele>1836.034</ele>
        <time>2017-07-15T09:29:00Z</time>
      </trkpt>
      <trkpt lat="27.952966" lon="-15.585089">
        <ele>1837.055</ele>
        <time>2017-07-15T09:30:08Z</time>
      </trkpt>
      <trkpt lat="27.953730" lon="-15.584249">
        <ele>1844.010</ele>
        <time>2017-07-15T09:31:52Z</time>
      </trkpt>
      <trkpt lat="27.954072" lon="-15.583570">
        <ele>1849.008</ele>
        <time>2017-07-15T09:32:40Z</time>
      </trkpt>
      <trkpt lat="27.954659" lon="-15.583049">
        <ele>1857.044</ele>
        <time>2017-07-15T09:34:18Z</time>
      </trkpt>
      <trkpt lat="27.954776" lon="-15.582606">
        <ele>1859.071</ele>
        <time>2017-07-15T09:34:49Z</time>
      </trkpt>
      <trkpt lat="27.955359" lon="-15.581984">
        <ele>1866.099</ele>
        <time>2017-07-15T09:35:45Z</time>
      </trkpt>
      <trkpt lat="27.955704" lon="-15.581774">
        <ele>1871.039</ele>
        <time>2017-07-15T09:36:11Z</time>
      </trkpt>
      <trkpt lat="27.956235" lon="-15.581985">
        <ele>1871.042</ele>
        <time>2017-07-15T09:36:51Z</time>
      </trkpt>
      <trkpt lat="27.956580" lon="-15.581852">
        <ele>1877.078</ele>
        <time>2017-07-15T09:37:20Z</time>
      </trkpt>
      <trkpt lat="27.956465" lon="-15.581579">
        <ele>1878.046</ele>
        <time>2017-07-15T09:38:47Z</time>
      </trkpt>
      <trkpt lat="27.956287" lon="-15.581579">
        <ele>1878.048</ele>
        <time>2017-07-15T09:39:10Z</time>
      </trkpt>
      <trkpt lat="27.956173" lon="-15.581268">
        <ele>1888.078</ele>
        <time>2017-07-15T09:39:55Z</time>
      </trkpt>
      <trkpt lat="27.956014" lon="-15.581207">
        <ele>1898.033</ele>
        <time>2017-07-15T09:40:38Z</time>
      </trkpt>
      <trkpt lat="27.956034" lon="-15.580602">
        <ele>1913.026</ele>
        <time>2017-07-15T09:42:21Z</time>
      </trkpt>
      <trkpt lat="27.955851" lon="-15.580608">
        <ele>1920.008</ele>
        <time>2017-07-15T09:42:44Z</time>
      </trkpt>
      <trkpt lat="27.955868" lon="-15.580322">
        <ele>1925.088</ele>
        <time>2017-07-15T09:43:24Z</time>
      </trkpt>
      <trkpt lat="27.956005" lon="-15.580184">
        <ele>1934.025</ele>
        <time>2017-07-15T09:43:53Z</time>
      </trkpt>
      <trkpt lat="27.955994" lon="-15.579682">
        <ele>1949.013</ele>
        <time>2017-07-15T09:46:08Z</time>
      </trkpt>
      <trkpt lat="27.956421" lon="-15.579267">
        <ele>1957.093</ele>
        <time>2017-07-15T09:47:52Z</time>
      </trkpt>
      <trkpt lat="27.956275" lon="-15.579144">
        <ele>1959.036</ele>
        <time>2017-07-15T09:50:59Z</time>
      </trkpt>
      <trkpt lat="27.956092" lon="-15.579184">
        <ele>1955.022</ele>
        <time>2017-07-15T09:53:18Z</time>
      </trkpt>
      <trkpt lat="27.956192" lon="-15.579312">
        <ele>1962.050</ele>
        <time>2017-07-15T09:55:04Z</time>
      </trkpt>
      <trkpt lat="27.956282" lon="-15.579310">
        <ele>1965.062</ele>
        <time>2017-07-15T09:56:38Z</time>
      </trkpt>
      <trkpt lat="27.956113" lon="-15.579225">
        <ele>1956.024</ele>
        <time>2017-07-15T10:12:43Z</time>
      </trkpt>
      <trkpt lat="27.956385" lon="-15.579195">
        <ele>1959.004</ele>
        <time>2017-07-15T10:13:27Z</time>
      </trkpt>
      <trkpt lat="27.956383" lon="-15.579306">
        <ele>1957.014</ele>
        <time>2017-07-15T10:13:45Z</time>
      </trkpt>
      <trkpt lat="27.955959" lon="-15.579848">
        <ele>1941.008</ele>
        <time>2017-07-15T10:15:23Z</time>
      </trkpt>
      <trkpt lat="27.956006" lon="-15.580176">
        <ele>1934.053</ele>
        <time>2017-07-15T10:15:49Z</time>
      </trkpt>
      <trkpt lat="27.955854" lon="-15.580288">
        <ele>1927.080</ele>
        <time>2017-07-15T10:16:12Z</time>
      </trkpt>
      <trkpt lat="27.956016" lon="-15.580649">
        <ele>1915.058</ele>
        <time>2017-07-15T10:17:01Z</time>
      </trkpt>
      <trkpt lat="27.955945" lon="-15.580959">
        <ele>1904.038</ele>
        <time>2017-07-15T10:17:26Z</time>
      </trkpt>
      <trkpt lat="27.956024" lon="-15.581274">
        <ele>1895.091</ele>
        <time>2017-07-15T10:18:02Z</time>
      </trkpt>
      <trkpt lat="27.956373" lon="-15.581580">
        <ele>1887.087</ele>
        <time>2017-07-15T10:19:14Z</time>
      </trkpt>
      <trkpt lat="27.957658" lon="-15.580500">
        <ele>1870.025</ele>
        <time>2017-07-15T10:21:45Z</time>
      </trkpt>
      <trkpt lat="27.957942" lon="-15.579959">
        <ele>1868.087</ele>
        <time>2017-07-15T10:22:29Z</time>
      </trkpt>
      <trkpt lat="27.958236" lon="-15.579670">
        <ele>1871.097</ele>
        <time>2017-07-15T10:22:55Z</time>
      </trkpt>
      <trkpt lat="27.958880" lon="-15.579427">
        <ele>1877.023</ele>
        <time>2017-07-15T10:23:39Z</time>
      </trkpt>
      <trkpt lat="27.959188" lon="-15.578614">
        <ele>1868.025</ele>
        <time>2017-07-15T10:24:33Z</time>
      </trkpt>
      <trkpt lat="27.961251" lon="-15.577308">
        <ele>1855.008</ele>
        <time>2017-07-15T10:29:22Z</time>
      </trkpt>
      <trkpt lat="27.961630" lon="-15.576589">
        <ele>1883.080</ele>
        <time>2017-07-15T10:31:11Z</time>
      </trkpt>
      <trkpt lat="27.962179" lon="-15.576017">
        <ele>1897.037</ele>
        <time>2017-07-15T10:32:36Z</time>
      </trkpt>
      <trkpt lat="27.962430" lon="-15.574775">
        <ele>1923.015</ele>
        <time>2017-07-15T10:35:32Z</time>
      </trkpt>
      <trkpt lat="27.962264" lon="-15.574280">
        <ele>1927.025</ele>
        <time>2017-07-15T10:36:13Z</time>
      </trkpt>
      <trkpt lat="27.962597" lon="-15.573528">
        <ele>1939.028</ele>
        <time>2017-07-15T10:38:37Z</time>
      </trkpt>
      <trkpt lat="27.962399" lon="-15.573160">
        <ele>1946.054</ele>
        <time>2017-07-15T10:39:09Z</time>
      </trkpt>
      <trkpt lat="27.962203" lon="-15.572287">
        <ele>1973.092</ele>
        <time>2017-07-15T10:42:52Z</time>
      </trkpt>
      <trkpt lat="27.962389" lon="-15.572055">
        <ele>1978.044</ele>
        <time>2017-07-15T10:43:36Z</time>
      </trkpt>
      <trkpt lat="27.962582" lon="-15.572059">
        <ele>1979.081</ele>
        <time>2017-07-15T10:43:54Z</time>
      </trkpt>
      <trkpt lat="27.961693" lon="-15.571805">
        <ele>1967.061</ele>
        <time>2017-07-15T10:52:41Z</time>
      </trkpt>
      <trkpt lat="27.961678" lon="-15.572358">
        <ele>1960.017</ele>
        <time>2017-07-15T10:56:26Z</time>
      </trkpt>
      <trkpt lat="27.961407" lon="-15.572114">
        <ele>1948.008</ele>
        <time>2017-07-15T11:03:53Z</time>
      </trkpt>
      <trkpt lat="27.961409" lon="-15.571705">
        <ele>1957.099</ele>
        <time>2017-07-15T11:08:47Z</time>
      </trkpt>
      <trkpt lat="27.961268" lon="-15.571411">
        <ele>1961.066</ele>
        <time>2017-07-15T11:11:14Z</time>
      </trkpt>
      <trkpt lat="27.961084" lon="-15.571355">
        <ele>1952.064</ele>
        <time>2017-07-15T11:11:44Z</time>
      </trkpt>
      <trkpt lat="27.961038" lon="-15.571468">
        <ele>1954.074</ele>
        <time>2017-07-15T11:13:39Z</time>
      </trkpt>
      <trkpt lat="27.961086" lon="-15.571311">
        <ele>1946.097</ele>
        <time>2017-07-15T11:23:40Z</time>
      </trkpt>
      <trkpt lat="27.961439" lon="-15.571627">
        <ele>1957.013</ele>
        <time>2017-07-15T11:35:54Z</time>
      </trkpt>
      <trkpt lat="27.961450" lon="-15.572047">
        <ele>1952.091</ele>
        <time>2017-07-15T11:36:21Z</time>
      </trkpt>
      <trkpt lat="27.961247" lon="-15.572197">
        <ele>1945.083</ele>
        <time>2017-07-15T11:38:50Z</time>
      </trkpt>
      <trkpt lat="27.961502" lon="-15.572155">
        <ele>1952.015</ele>
        <time>2017-07-15T11:40:37Z</time>
      </trkpt>
      <trkpt lat="27.961763" lon="-15.572437">
        <ele>1963.065</ele>
        <time>2017-07-15T11:41:45Z</time>
      </trkpt>
      <trkpt lat="27.962138" lon="-15.572470">
        <ele>1969.011</ele>
        <time>2017-07-15T11:42:28Z</time>
      </trkpt>
      <trkpt lat="27.962265" lon="-15.572235">
        <ele>1979.008</ele>
        <time>2017-07-15T11:44:23Z</time>
      </trkpt>
      <trkpt lat="27.961888" lon="-15.571752">
        <ele>1995.022</ele>
        <time>2017-07-15T11:46:01Z</time>
      </trkpt>
      <trkpt lat="27.962064" lon="-15.571816">
        <ele>1994.079</ele>
        <time>2017-07-15T11:48:41Z</time>
      </trkpt>
      <trkpt lat="27.961972" lon="-15.571800">
        <ele>1991.047</ele>
        <time>2017-07-15T11:49:16Z</time>
      </trkpt>
      <trkpt lat="27.962062" lon="-15.571971">
        <ele>1988.057</ele>
        <time>2017-07-15T11:49:31Z</time>
      </trkpt>
      <trkpt lat="27.962742" lon="-15.571960">
        <ele>1982.090</ele>
        <time>2017-07-15T11:50:12Z</time>
      </trkpt>
      <trkpt lat="27.963587" lon="-15.572343">
        <ele>1977.036</ele>
        <time>2017-07-15T11:51:09Z</time>
      </trkpt>
      <trkpt lat="27.964259" lon="-15.571867">
        <ele>1967.054</ele>
        <time>2017-07-15T11:51:54Z</time>
      </trkpt>
      <trkpt lat="27.964179" lon="-15.571100">
        <ele>1963.076</ele>
        <time>2017-07-15T11:52:36Z</time>
      </trkpt>
      <trkpt lat="27.963455" lon="-15.569520">
        <ele>1969.066</ele>
        <time>2017-07-15T11:54:08Z</time>
      </trkpt>
      <trkpt lat="27.963113" lon="-15.569315">
        <ele>1964.029</ele>
        <time>2017-07-15T11:54:35Z</time>
      </trkpt>
      <trkpt lat="27.962922" lon="-15.569554">
        <ele>1958.021</ele>
        <time>2017-07-15T11:54:58Z</time>
      </trkpt>
      <trkpt lat="27.962802" lon="-15.569516">
        <ele>1958.008</ele>
        <time>2017-07-15T11:57:22Z</time>
      </trkpt>
      <trkpt lat="27.962827" lon="-15.569620">
        <ele>1958.087</ele>
        <time>2017-07-15T11:57:29Z</time>
      </trkpt>
      <trkpt lat="27.963246" lon="-15.569237">
        <ele>1965.024</ele>
        <time>2017-07-15T12:00:13Z</time>
      </trkpt>
      <trkpt lat="27.963170" lon="-15.568675">
        <ele>1966.052</ele>
        <time>2017-07-15T12:00:47Z</time>
      </trkpt>
      <trkpt lat="27.962595" lon="-15.567207">
        <ele>1969.032</ele>
        <time>2017-07-15T12:02:09Z</time>
      </trkpt>
      <trkpt lat="27.962822" lon="-15.566420">
        <ele>1952.065</ele>
        <time>2017-07-15T12:04:13Z</time>
      </trkpt>
      <trkpt lat="27.962644" lon="-15.566193">
        <ele>1939.021</ele>
        <time>2017-07-15T12:04:34Z</time>
      </trkpt>
      <trkpt lat="27.962617" lon="-15.565872">
        <ele>1936.029</ele>
        <time>2017-07-15T12:05:10Z</time>
      </trkpt>
      <trkpt lat="27.963794" lon="-15.564620">
        <ele>1911.061</ele>
        <time>2017-07-15T12:06:51Z</time>
      </trkpt>
      <trkpt lat="27.963670" lon="-15.563061">
        <ele>1883.065</ele>
        <time>2017-07-15T12:08:11Z</time>
      </trkpt>
      <trkpt lat="27.963912" lon="-15.562367">
        <ele>1877.068</ele>
        <time>2017-07-15T12:08:56Z</time>
      </trkpt>
      <trkpt lat="27.963568" lon="-15.561371">
        <ele>1876.014</ele>
        <time>2017-07-15T12:10:01Z</time>
      </trkpt>
      <trkpt lat="27.963935" lon="-15.560650">
        <ele>1867.008</ele>
        <time>2017-07-15T12:11:02Z</time>
      </trkpt>
      <trkpt lat="27.964448" lon="-15.560356">
        <ele>1865.067</ele>
        <time>2017-07-15T12:11:39Z</time>
      </trkpt>
      <trkpt lat="27.964530" lon="-15.559921">
        <ele>1862.064</ele>
        <time>2017-07-15T12:12:01Z</time>
      </trkpt>
      <trkpt lat="27.964861" lon="-15.559678">
        <ele>1857.062</ele>
        <time>2017-07-15T12:12:27Z</time>
      </trkpt>
      <trkpt lat="27.965060" lon="-15.559891">
        <ele>1859.022</ele>
        <time>2017-07-15T12:12:48Z</time>
      </trkpt>
      <trkpt lat="27.965841" lon="-15.559945">
        <ele>1869.055</ele>
        <time>2017-07-15T12:13:37Z</time>
      </trkpt>
      <trkpt lat="27.966357" lon="-15.560261">
        <ele>1877.021</ele>
        <time>2017-07-15T12:14:26Z</time>
      </trkpt>
      <trkpt lat="27.966621" lon="-15.560591">
        <ele>1874.099</ele>
        <time>2017-07-15T12:14:51Z</time>
      </trkpt>
      <trkpt lat="27.966895" lon="-15.561548">
        <ele>1877.031</ele>
        <time>2017-07-15T12:15:46Z</time>
      </trkpt>
      <trkpt lat="27.967575" lon="-15.562514">
        <ele>1891.023</ele>
        <time>2017-07-15T12:16:53Z</time>
      </trkpt>
      <trkpt lat="27.968702" lon="-15.563696">
        <ele>1909.083</ele>
        <time>2017-07-15T12:18:32Z</time>
      </trkpt>
      <trkpt lat="27.969035" lon="-15.564340">
        <ele>1909.011</ele>
        <time>2017-07-15T12:19:16Z</time>
      </trkpt>
      <trkpt lat="27.968969" lon="-15.564649">
        <ele>1909.008</ele>
        <time>2017-07-15T12:19:34Z</time>
      </trkpt>
      <trkpt lat="27.968615" lon="-15.565185">
        <ele>1907.023</ele>
        <time>2017-07-15T12:20:10Z</time>
      </trkpt>
      <trkpt lat="27.968603" lon="-15.565844">
        <ele>1902.090</ele>
        <time>2017-07-15T12:20:50Z</time>
      </trkpt>
      <trkpt lat="27.968437" lon="-15.566391">
        <ele>1898.038</ele>
        <time>2017-07-15T12:21:21Z</time>
      </trkpt>
      <trkpt lat="27.968539" lon="-15.567741">
        <ele>1883.038</ele>
        <time>2017-07-15T12:22:34Z</time>
      </trkpt>
      <trkpt lat="27.968985" lon="-15.568169">
        <ele>1881.041</ele>
        <time>2017-07-15T12:23:10Z</time>
      </trkpt>
      <trkpt lat="27.968820" lon="-15.568261">
        <ele>1882.067</ele>
        <time>2017-07-15T12:23:30Z</time>
      </trkpt>
      <trkpt lat="27.968838" lon="-15.568482">
        <ele>1884.035</ele>
        <time>2017-07-15T12:23:49Z</time>
      </trkpt>
      <trkpt lat="27.968591" lon="-15.568945">
        <ele>1882.097</ele>
        <time>2017-07-15T12:24:22Z</time>
      </trkpt>
      <trkpt lat="27.968327" lon="-15.569072">
        <ele>1880.086</ele>
        <time>2017-07-15T12:24:40Z</time>
      </trkpt>
      <trkpt lat="27.968079" lon="-15.568909">
        <ele>1879.060</ele>
        <time>2017-07-15T12:24:59Z</time>
      </trkpt>
      <trkpt lat="27.968008" lon="-15.568973">
        <ele>1881.026</ele>
        <time>2017-07-15T12:25:16Z</time>
      </trkpt>
      <trkpt lat="27.967959" lon="-15.569406">
        <ele>1875.008</ele>
        <time>2017-07-15T12:25:40Z</time>
      </trkpt>
      <trkpt lat="27.967726" lon="-15.569604">
        <ele>1871.019</ele>
        <time>2017-07-15T12:26:01Z</time>
      </trkpt>
      <trkpt lat="27.967806" lon="-15.570018">
        <ele>1869.036</ele>
        <time>2017-07-15T12:26:22Z</time>
      </trkpt>
      <trkpt lat="27.967579" lon="-15.570204">
        <ele>1861.064</ele>
        <time>2017-07-15T12:26:48Z</time>
      </trkpt>
      <trkpt lat="27.967521" lon="-15.570420">
        <ele>1860.074</ele>
        <time>2017-07-15T12:27:09Z</time>
      </trkpt>
      <trkpt lat="27.967601" lon="-15.570841">
        <ele>1859.037</ele>
        <time>2017-07-15T12:27:34Z</time>
      </trkpt>
      <trkpt lat="27.967182" lon="-15.571713">
        <ele>1858.033</ele>
        <time>2017-07-15T12:28:34Z</time>
      </trkpt>
      <trkpt lat="27.967170" lon="-15.571952">
        <ele>1855.091</ele>
        <time>2017-07-15T12:28:48Z</time>
      </trkpt>
      <trkpt lat="27.967343" lon="-15.572076">
        <ele>1856.023</ele>
        <time>2017-07-15T12:28:59Z</time>
      </trkpt>
      <trkpt lat="27.967556" lon="-15.572679">
        <ele>1853.063</ele>
        <time>2017-07-15T12:29:40Z</time>
      </trkpt>
      <trkpt lat="27.967499" lon="-15.573015">
        <ele>1851.044</ele>
        <time>2017-07-15T12:29:58Z</time>
      </trkpt>
      <trkpt lat="27.967698" lon="-15.573501">
        <ele>1842.018</ele>
        <time>2017-07-15T12:30:54Z</time>
      </trkpt>
      <trkpt lat="27.967473" lon="-15.574037">
        <ele>1832.008</ele>
        <time>2017-07-15T12:31:29Z</time>
      </trkpt>
      <trkpt lat="27.967731" lon="-15.574649">
        <ele>1822.057</ele>
        <time>2017-07-15T12:32:03Z</time>
      </trkpt>
      <trkpt lat="27.967680" lon="-15.574980">
        <ele>1804.064</ele>
        <time>2017-07-15T12:32:28Z</time>
      </trkpt>
      <trkpt lat="27.967898" lon="-15.575595">
        <ele>1798.092</ele>
        <time>2017-07-15T12:33:40Z</time>
      </trkpt>
      <trkpt lat="27.967882" lon="-15.576033">
        <ele>1787.062</ele>
        <time>2017-07-15T12:34:05Z</time>
      </trkpt>
      <trkpt lat="27.967627" lon="-15.576168">
        <ele>1775.085</ele>
        <time>2017-07-15T12:34:31Z</time>
      </trkpt>
      <trkpt lat="27.967418" lon="-15.576563">
        <ele>1774.041</ele>
        <time>2017-07-15T12:35:22Z</time>
      </trkpt>
      <trkpt lat="27.967284" lon="-15.577672">
        <ele>1763.079</ele>
        <time>2017-07-15T12:36:45Z</time>
      </trkpt>
      <trkpt lat="27.966916" lon="-15.578349">
        <ele>1753.041</ele>
        <time>2017-07-15T12:38:19Z</time>
      </trkpt>
      <trkpt lat="27.966906" lon="-15.578451">
        <ele>1756.025</ele>
        <time>2017-07-15T12:38:40Z</time>
      </trkpt>
      <trkpt lat="27.967275" lon="-15.578752">
        <ele>1752.026</ele>
        <time>2017-07-15T12:39:19Z</time>
      </trkpt>
      <trkpt lat="27.967182" lon="-15.578754">
        <ele>1745.008</ele>
        <time>2017-07-15T12:39:35Z</time>
      </trkpt>
      <trkpt lat="27.967231" lon="-15.579001">
        <ele>1738.008</ele>
        <time>2017-07-15T12:40:26Z</time>
      </trkpt>
      <trkpt lat="27.967097" lon="-15.579144">
        <ele>1733.023</ele>
        <time>2017-07-15T12:40:40Z</time>
      </trkpt>
      <trkpt lat="27.967235" lon="-15.579418">
        <ele>1740.080</ele>
        <time>2017-07-15T12:41:00Z</time>
      </trkpt>
      <trkpt lat="27.967172" lon="-15.579985">
        <ele>1735.048</ele>
        <time>2017-07-15T12:41:51Z</time>
      </trkpt>
      <trkpt lat="27.967331" lon="-15.580371">
        <ele>1736.058</ele>
        <time>2017-07-15T12:42:27Z</time>
      </trkpt>
      <trkpt lat="27.966965" lon="-15.581267">
        <ele>1721.061</ele>
        <time>2017-07-15T12:43:28Z</time>
      </trkpt>
      <trkpt lat="27.967081" lon="-15.582135">
        <ele>1718.047</ele>
        <time>2017-07-15T12:44:17Z</time>
      </trkpt>
      <trkpt lat="27.966685" lon="-15.583019">
        <ele>1707.015</ele>
        <time>2017-07-15T12:45:31Z</time>
      </trkpt>
      <trkpt lat="27.966258" lon="-15.583575">
        <ele>1714.057</ele>
        <time>2017-07-15T12:46:30Z</time>
      </trkpt>
    </trkseg>
  </trk></gpx>