<?xml version="1.0" encoding="UTF-8"?>
<gpx version="1.1" creator="Aventuras en Cada Paso" xmlns="http://www.topografix.com/GPX/1/1">
  <metadata>
    <name>Sendero de El Pijaral – Anaga</name>
    <desc>La laurisilva más protegida de Tenerife. Reserva Natural Integral de El Pijaral. Requiere permiso del Cabildo. Experiencia única e irrepetible.</desc>
    <author><name>Aventuras en Cada Paso</name></author>
    <time>2026-07-08T08:12:58.157Z</time>
    <keywords>Tenerife, Senderismo, Media, senderismo Canarias</keywords>
  </metadata>
  <wpt lat="28.578" lon="-16.162">
    <name>Sendero de El Pijaral – Anaga</name>
    <desc>La laurisilva más protegida de Tenerife. Reserva Natural Integral de El Pijaral. Requiere permiso del Cabildo. Experiencia única e irrepetible. | Isla: Tenerife | Tipo: Senderismo | Dificultad: Media | Distancia: 12km | Duración: 4-8 horas</desc>
    <type>Senderismo</type>
    <extensions>
      <isla>Tenerife</isla>
      <dificultad>Media</dificultad>
      <distancia>12</distancia>
      <duracion>4-8 horas</duracion>
    </extensions>
  </wpt>
</gpx>