<?xml version="1.0" encoding="UTF-8"?>
<gpx creator="Wikiloc - https://www.wikiloc.com" version="1.1" xmlns="http://www.topografix.com/GPX/1/1" xmlns:xsi="http://www.w3.org/2001/XMLSchema-instance" xsi:schemaLocation="http://www.topografix.com/GPX/1/1 http://www.topografix.com/GPX/1/1/gpx.xsd">
  <metadata>
    <name>Wikiloc - Parque natural Pilancones</name>
    <link href="https://www.wikiloc.com/hiking-trails/parque-natural-pilancones-212019621">
      <text>Parque natural Pilancones - Wikiloc on Wikiloc</text>
    </link>
    <time>2025-05-03T13:48:10.941Z</time>
  </metadata>
  <trk>
    <name>Parque natural Pilancones - Wikiloc</name>
    <cmt></cmt>
    <desc></desc>
    <trkseg>
      <trkpt lat="27.836030" lon="-15.612805">
        <ele>479.184</ele>
        <time>2025-05-03T07:50:07Z</time>
      </trkpt>
      <trkpt lat="27.835989" lon="-15.612715">
        <ele>477.707</ele>
        <time>2025-05-03T07:50:56.400Z</time>
      </trkpt>
      <trkpt lat="27.836214" lon="-15.612858">
        <ele>479.317</ele>
        <time>2025-05-03T07:54:04.400Z</time>
      </trkpt>
      <trkpt lat="27.836919" lon="-15.612860">
        <ele>480.609</ele>
        <time>2025-05-03T07:57:19.404Z</time>
      </trkpt>
      <trkpt lat="27.837461" lon="-15.613214">
        <ele>476.580</ele>
        <time>2025-05-03T07:58:39.400Z</time>
      </trkpt>
      <trkpt lat="27.837657" lon="-15.613155">
        <ele>481.149</ele>
        <time>2025-05-03T07:58:56.403Z</time>
      </trkpt>
      <trkpt lat="27.837906" lon="-15.613228">
        <ele>481.410</ele>
        <time>2025-05-03T07:59:23.401Z</time>
      </trkpt>
      <trkpt lat="27.839281" lon="-15.614171">
        <ele>490.198</ele>
        <time>2025-05-03T08:02:19.400Z</time>
      </trkpt>
      <trkpt lat="27.839758" lon="-15.614298">
        <ele>488.919</ele>
        <time>2025-05-03T08:03:12.402Z</time>
      </trkpt>
      <trkpt lat="27.841969" lon="-15.614573">
        <ele>507.057</ele>
        <time>2025-05-03T08:06:42.403Z</time>
      </trkpt>
      <trkpt lat="27.844630" lon="-15.614564">
        <ele>537.414</ele>
        <time>2025-05-03T08:12:42.402Z</time>
      </trkpt>
      <trkpt lat="27.844876" lon="-15.614595">
        <ele>538.920</ele>
        <time>2025-05-03T08:13:03.402Z</time>
      </trkpt>
      <trkpt lat="27.845703" lon="-15.615004">
        <ele>549.099</ele>
        <time>2025-05-03T08:14:28.404Z</time>
      </trkpt>
      <trkpt lat="27.845748" lon="-15.614901">
        <ele>550.868</ele>
        <time>2025-05-03T08:14:40.404Z</time>
      </trkpt>
      <trkpt lat="27.845583" lon="-15.614464">
        <ele>547.642</ele>
        <time>2025-05-03T08:15:17.402Z</time>
      </trkpt>
      <trkpt lat="27.845749" lon="-15.614332">
        <ele>548.126</ele>
        <time>2025-05-03T08:15:37.405Z</time>
      </trkpt>
      <trkpt lat="27.846009" lon="-15.614301">
        <ele>550.109</ele>
        <time>2025-05-03T08:16:43.405Z</time>
      </trkpt>
      <trkpt lat="27.846295" lon="-15.614383">
        <ele>548.068</ele>
        <time>2025-05-03T08:17:10.404Z</time>
      </trkpt>
      <trkpt lat="27.847032" lon="-15.614972">
        <ele>549.987</ele>
        <time>2025-05-03T08:18:35.403Z</time>
      </trkpt>
      <trkpt lat="27.848330" lon="-15.615383">
        <ele>558.628</ele>
        <time>2025-05-03T08:20:55.403Z</time>
      </trkpt>
      <trkpt lat="27.848845" lon="-15.615674">
        <ele>569.096</ele>
        <time>2025-05-03T08:21:52.403Z</time>
      </trkpt>
      <trkpt lat="27.849242" lon="-15.616371">
        <ele>580.887</ele>
        <time>2025-05-03T08:23:07.404Z</time>
      </trkpt>
      <trkpt lat="27.849261" lon="-15.616816">
        <ele>582.015</ele>
        <time>2025-05-03T08:23:32.403Z</time>
      </trkpt>
      <trkpt lat="27.849538" lon="-15.617122">
        <ele>595.522</ele>
        <time>2025-05-03T08:24:24.401Z</time>
      </trkpt>
      <trkpt lat="27.850066" lon="-15.618241">
        <ele>604.168</ele>
        <time>2025-05-03T08:29:13.402Z</time>
      </trkpt>
      <trkpt lat="27.850416" lon="-15.618381">
        <ele>619.017</ele>
        <time>2025-05-03T08:30:34.404Z</time>
      </trkpt>
      <trkpt lat="27.850401" lon="-15.618555">
        <ele>616.627</ele>
        <time>2025-05-03T08:30:52.403Z</time>
      </trkpt>
      <trkpt lat="27.850685" lon="-15.618678">
        <ele>623.668</ele>
        <time>2025-05-03T08:31:58.398Z</time>
      </trkpt>
      <trkpt lat="27.851018" lon="-15.619078">
        <ele>628.314</ele>
        <time>2025-05-03T08:34:03.401Z</time>
      </trkpt>
      <trkpt lat="27.851203" lon="-15.619121">
        <ele>631.609</ele>
        <time>2025-05-03T08:35:32.396Z</time>
      </trkpt>
      <trkpt lat="27.851200" lon="-15.619269">
        <ele>631.914</ele>
        <time>2025-05-03T08:39:00.396Z</time>
      </trkpt>
      <trkpt lat="27.851225" lon="-15.619192">
        <ele>631.733</ele>
        <time>2025-05-03T08:43:03.396Z</time>
      </trkpt>
      <trkpt lat="27.850875" lon="-15.619363">
        <ele>634.134</ele>
        <time>2025-05-03T08:47:08.397Z</time>
      </trkpt>
      <trkpt lat="27.850845" lon="-15.619526">
        <ele>640.322</ele>
        <time>2025-05-03T08:48:19.399Z</time>
      </trkpt>
      <trkpt lat="27.850577" lon="-15.619381">
        <ele>639.373</ele>
        <time>2025-05-03T08:49:55.397Z</time>
      </trkpt>
      <trkpt lat="27.850565" lon="-15.619793">
        <ele>659.321</ele>
        <time>2025-05-03T08:50:54.399Z</time>
      </trkpt>
      <trkpt lat="27.850363" lon="-15.619702">
        <ele>660.328</ele>
        <time>2025-05-03T08:51:42.399Z</time>
      </trkpt>
      <trkpt lat="27.850137" lon="-15.619822">
        <ele>673.674</ele>
        <time>2025-05-03T08:52:46.400Z</time>
      </trkpt>
      <trkpt lat="27.850212" lon="-15.619870">
        <ele>674.833</ele>
        <time>2025-05-03T08:53:11.397Z</time>
      </trkpt>
      <trkpt lat="27.850087" lon="-15.620001">
        <ele>684.166</ele>
        <time>2025-05-03T08:54:14.399Z</time>
      </trkpt>
      <trkpt lat="27.849675" lon="-15.620090">
        <ele>685.529</ele>
        <time>2025-05-03T08:55:35.396Z</time>
      </trkpt>
      <trkpt lat="27.849757" lon="-15.620635">
        <ele>707.221</ele>
        <time>2025-05-03T09:01:41.395Z</time>
      </trkpt>
      <trkpt lat="27.849671" lon="-15.621749">
        <ele>711.009</ele>
        <time>2025-05-03T09:03:47.394Z</time>
      </trkpt>
      <trkpt lat="27.849787" lon="-15.622239">
        <ele>728.488</ele>
        <time>2025-05-03T09:06:08.392Z</time>
      </trkpt>
      <trkpt lat="27.849946" lon="-15.622462">
        <ele>735.557</ele>
        <time>2025-05-03T09:06:54.395Z</time>
      </trkpt>
      <trkpt lat="27.850014" lon="-15.622806">
        <ele>740.018</ele>
        <time>2025-05-03T09:07:50.395Z</time>
      </trkpt>
      <trkpt lat="27.850155" lon="-15.622853">
        <ele>740.846</ele>
        <time>2025-05-03T09:08:16.394Z</time>
      </trkpt>
      <trkpt lat="27.850353" lon="-15.623186">
        <ele>743.797</ele>
        <time>2025-05-03T09:09:46.394Z</time>
      </trkpt>
      <trkpt lat="27.850780" lon="-15.623590">
        <ele>748.245</ele>
        <time>2025-05-03T09:11:26.394Z</time>
      </trkpt>
      <trkpt lat="27.851125" lon="-15.624132">
        <ele>759.682</ele>
        <time>2025-05-03T09:12:50.394Z</time>
      </trkpt>
      <trkpt lat="27.851752" lon="-15.624622">
        <ele>760.268</ele>
        <time>2025-05-03T09:15:13.392Z</time>
      </trkpt>
      <trkpt lat="27.852081" lon="-15.625120">
        <ele>763.217</ele>
        <time>2025-05-03T09:16:34.393Z</time>
      </trkpt>
      <trkpt lat="27.852510" lon="-15.625400">
        <ele>767.886</ele>
        <time>2025-05-03T09:17:16.389Z</time>
      </trkpt>
      <trkpt lat="27.852991" lon="-15.625427">
        <ele>771.760</ele>
        <time>2025-05-03T09:18:10.392Z</time>
      </trkpt>
      <trkpt lat="27.853072" lon="-15.625359">
        <ele>771.426</ele>
        <time>2025-05-03T09:18:27.390Z</time>
      </trkpt>
      <trkpt lat="27.853312" lon="-15.625084">
        <ele>775.009</ele>
        <time>2025-05-03T09:20:30.392Z</time>
      </trkpt>
      <trkpt lat="27.853217" lon="-15.624451">
        <ele>776.160</ele>
        <time>2025-05-03T09:22:00.392Z</time>
      </trkpt>
      <trkpt lat="27.853345" lon="-15.624366">
        <ele>779.219</ele>
        <time>2025-05-03T09:22:25.391Z</time>
      </trkpt>
      <trkpt lat="27.853435" lon="-15.624106">
        <ele>780.280</ele>
        <time>2025-05-03T09:23:12.392Z</time>
      </trkpt>
      <trkpt lat="27.854119" lon="-15.623769">
        <ele>784.978</ele>
        <time>2025-05-03T09:25:41.392Z</time>
      </trkpt>
      <trkpt lat="27.854569" lon="-15.623860">
        <ele>792.229</ele>
        <time>2025-05-03T09:26:41.390Z</time>
      </trkpt>
      <trkpt lat="27.854961" lon="-15.624085">
        <ele>802.057</ele>
        <time>2025-05-03T09:27:28.388Z</time>
      </trkpt>
      <trkpt lat="27.855345" lon="-15.623989">
        <ele>801.944</ele>
        <time>2025-05-03T09:28:12.389Z</time>
      </trkpt>
      <trkpt lat="27.855884" lon="-15.623507">
        <ele>797.770</ele>
        <time>2025-05-03T09:29:29.387Z</time>
      </trkpt>
      <trkpt lat="27.856249" lon="-15.623454">
        <ele>800.549</ele>
        <time>2025-05-03T09:30:29.391Z</time>
      </trkpt>
      <trkpt lat="27.856781" lon="-15.623532">
        <ele>802.047</ele>
        <time>2025-05-03T09:33:16.389Z</time>
      </trkpt>
      <trkpt lat="27.857468" lon="-15.623339">
        <ele>807.529</ele>
        <time>2025-05-03T09:34:42.388Z</time>
      </trkpt>
      <trkpt lat="27.857878" lon="-15.623042">
        <ele>806.121</ele>
        <time>2025-05-03T09:35:39.392Z</time>
      </trkpt>
      <trkpt lat="27.858611" lon="-15.622985">
        <ele>813.509</ele>
        <time>2025-05-03T09:37:02.390Z</time>
      </trkpt>
      <trkpt lat="27.860702" lon="-15.623640">
        <ele>819.326</ele>
        <time>2025-05-03T09:41:16.386Z</time>
      </trkpt>
      <trkpt lat="27.860955" lon="-15.623611">
        <ele>811.685</ele>
        <time>2025-05-03T09:41:48.385Z</time>
      </trkpt>
      <trkpt lat="27.861352" lon="-15.623761">
        <ele>792.146</ele>
        <time>2025-05-03T09:43:05.385Z</time>
      </trkpt>
      <trkpt lat="27.861628" lon="-15.623650">
        <ele>803.864</ele>
        <time>2025-05-03T09:44:40.387Z</time>
      </trkpt>
      <trkpt lat="27.862149" lon="-15.623758">
        <ele>801.985</ele>
        <time>2025-05-03T09:50:02.386Z</time>
      </trkpt>
      <trkpt lat="27.862063" lon="-15.623645">
        <ele>806.543</ele>
        <time>2025-05-03T09:55:18.384Z</time>
      </trkpt>
      <trkpt lat="27.862630" lon="-15.623481">
        <ele>814.120</ele>
        <time>2025-05-03T10:03:25.950Z</time>
      </trkpt>
      <trkpt lat="27.863257" lon="-15.623503">
        <ele>807.546</ele>
        <time>2025-05-03T10:04:57.949Z</time>
      </trkpt>
      <trkpt lat="27.864306" lon="-15.623127">
        <ele>857.775</ele>
        <time>2025-05-03T10:07:23.948Z</time>
      </trkpt>
      <trkpt lat="27.864539" lon="-15.622843">
        <ele>861.069</ele>
        <time>2025-05-03T10:08:00.945Z</time>
      </trkpt>
      <trkpt lat="27.865207" lon="-15.622358">
        <ele>870.604</ele>
        <time>2025-05-03T10:09:40.949Z</time>
      </trkpt>
      <trkpt lat="27.866118" lon="-15.622152">
        <ele>885.424</ele>
        <time>2025-05-03T10:11:31.949Z</time>
      </trkpt>
      <trkpt lat="27.866618" lon="-15.622276">
        <ele>900.009</ele>
        <time>2025-05-03T10:12:45.949Z</time>
      </trkpt>
      <trkpt lat="27.866727" lon="-15.622194">
        <ele>901.818</ele>
        <time>2025-05-03T10:13:10.950Z</time>
      </trkpt>
      <trkpt lat="27.867009" lon="-15.622283">
        <ele>912.037</ele>
        <time>2025-05-03T10:14:10.949Z</time>
      </trkpt>
      <trkpt lat="27.867013" lon="-15.622548">
        <ele>915.188</ele>
        <time>2025-05-03T10:14:48.952Z</time>
      </trkpt>
      <trkpt lat="27.867106" lon="-15.622558">
        <ele>917.136</ele>
        <time>2025-05-03T10:15:08.949Z</time>
      </trkpt>
      <trkpt lat="27.867027" lon="-15.622697">
        <ele>917.247</ele>
        <time>2025-05-03T10:15:36.953Z</time>
      </trkpt>
      <trkpt lat="27.867278" lon="-15.622675">
        <ele>921.495</ele>
        <time>2025-05-03T10:16:48.952Z</time>
      </trkpt>
      <trkpt lat="27.867232" lon="-15.622772">
        <ele>921.272</ele>
        <time>2025-05-03T10:16:59.950Z</time>
      </trkpt>
      <trkpt lat="27.867401" lon="-15.622912">
        <ele>926.688</ele>
        <time>2025-05-03T10:18:06.952Z</time>
      </trkpt>
      <trkpt lat="27.867620" lon="-15.622800">
        <ele>928.027</ele>
        <time>2025-05-03T10:18:42.950Z</time>
      </trkpt>
      <trkpt lat="27.867689" lon="-15.622428">
        <ele>927.974</ele>
        <time>2025-05-03T10:19:27.950Z</time>
      </trkpt>
      <trkpt lat="27.868114" lon="-15.622011">
        <ele>940.856</ele>
        <time>2025-05-03T10:20:43.950Z</time>
      </trkpt>
      <trkpt lat="27.868547" lon="-15.622086">
        <ele>942.821</ele>
        <time>2025-05-03T10:21:27.949Z</time>
      </trkpt>
      <trkpt lat="27.868945" lon="-15.621949">
        <ele>956.209</ele>
        <time>2025-05-03T10:22:04.949Z</time>
      </trkpt>
      <trkpt lat="27.869284" lon="-15.622052">
        <ele>964.139</ele>
        <time>2025-05-03T10:22:33.950Z</time>
      </trkpt>
      <trkpt lat="27.869421" lon="-15.622262">
        <ele>958.568</ele>
        <time>2025-05-03T10:22:54.951Z</time>
      </trkpt>
      <trkpt lat="27.869418" lon="-15.622667">
        <ele>944.039</ele>
        <time>2025-05-03T10:23:19.949Z</time>
      </trkpt>
      <trkpt lat="27.869147" lon="-15.623009">
        <ele>925.467</ele>
        <time>2025-05-03T10:23:59.950Z</time>
      </trkpt>
      <trkpt lat="27.869198" lon="-15.623394">
        <ele>920.648</ele>
        <time>2025-05-03T10:24:35.946Z</time>
      </trkpt>
      <trkpt lat="27.869607" lon="-15.623459">
        <ele>926.256</ele>
        <time>2025-05-03T10:25:17.946Z</time>
      </trkpt>
      <trkpt lat="27.870164" lon="-15.623298">
        <ele>916.413</ele>
        <time>2025-05-03T10:26:22.946Z</time>
      </trkpt>
      <trkpt lat="27.870138" lon="-15.623172">
        <ele>924.259</ele>
        <time>2025-05-03T10:27:08.947Z</time>
      </trkpt>
      <trkpt lat="27.870269" lon="-15.623021">
        <ele>923.778</ele>
        <time>2025-05-03T10:27:53.946Z</time>
      </trkpt>
      <trkpt lat="27.870917" lon="-15.622644">
        <ele>934.325</ele>
        <time>2025-05-03T10:29:09.948Z</time>
      </trkpt>
      <trkpt lat="27.871314" lon="-15.622728">
        <ele>935.926</ele>
        <time>2025-05-03T10:29:44.951Z</time>
      </trkpt>
      <trkpt lat="27.871771" lon="-15.622987">
        <ele>914.808</ele>
        <time>2025-05-03T10:30:48.952Z</time>
      </trkpt>
      <trkpt lat="27.872162" lon="-15.622887">
        <ele>934.909</ele>
        <time>2025-05-03T10:31:37.947Z</time>
      </trkpt>
      <trkpt lat="27.872520" lon="-15.623131">
        <ele>928.514</ele>
        <time>2025-05-03T10:32:06.951Z</time>
      </trkpt>
      <trkpt lat="27.872863" lon="-15.623555">
        <ele>898.063</ele>
        <time>2025-05-03T10:32:44.951Z</time>
      </trkpt>
      <trkpt lat="27.873146" lon="-15.623540">
        <ele>898.384</ele>
        <time>2025-05-03T10:33:14.951Z</time>
      </trkpt>
      <trkpt lat="27.873366" lon="-15.623772">
        <ele>891.262</ele>
        <time>2025-05-03T10:33:35.949Z</time>
      </trkpt>
      <trkpt lat="27.873749" lon="-15.623678">
        <ele>904.223</ele>
        <time>2025-05-03T10:34:25.947Z</time>
      </trkpt>
      <trkpt lat="27.873969" lon="-15.623813">
        <ele>902.731</ele>
        <time>2025-05-03T10:34:46.946Z</time>
      </trkpt>
      <trkpt lat="27.874382" lon="-15.624223">
        <ele>900.828</ele>
        <time>2025-05-03T10:35:44.951Z</time>
      </trkpt>
      <trkpt lat="27.874429" lon="-15.624655">
        <ele>880.514</ele>
        <time>2025-05-03T10:36:46.950Z</time>
      </trkpt>
      <trkpt lat="27.874610" lon="-15.624936">
        <ele>871.673</ele>
        <time>2025-05-03T10:37:13.948Z</time>
      </trkpt>
      <trkpt lat="27.875287" lon="-15.624995">
        <ele>888.862</ele>
        <time>2025-05-03T10:38:30.951Z</time>
      </trkpt>
      <trkpt lat="27.875663" lon="-15.625187">
        <ele>893.183</ele>
        <time>2025-05-03T10:39:09.950Z</time>
      </trkpt>
      <trkpt lat="27.876025" lon="-15.625771">
        <ele>887.411</ele>
        <time>2025-05-03T10:40:04.948Z</time>
      </trkpt>
      <trkpt lat="27.876100" lon="-15.626148">
        <ele>872.209</ele>
        <time>2025-05-03T10:40:34.951Z</time>
      </trkpt>
      <trkpt lat="27.876771" lon="-15.626618">
        <ele>873.978</ele>
        <time>2025-05-03T10:41:57.951Z</time>
      </trkpt>
      <trkpt lat="27.877298" lon="-15.626766">
        <ele>890.787</ele>
        <time>2025-05-03T10:42:50.951Z</time>
      </trkpt>
      <trkpt lat="27.877503" lon="-15.627074">
        <ele>887.418</ele>
        <time>2025-05-03T10:43:21.951Z</time>
      </trkpt>
      <trkpt lat="27.877853" lon="-15.627303">
        <ele>890.366</ele>
        <time>2025-05-03T10:44:04.949Z</time>
      </trkpt>
      <trkpt lat="27.878130" lon="-15.627196">
        <ele>900.747</ele>
        <time>2025-05-03T10:44:36.953Z</time>
      </trkpt>
      <trkpt lat="27.878289" lon="-15.627233">
        <ele>904.465</ele>
        <time>2025-05-03T10:45:00.947Z</time>
      </trkpt>
      <trkpt lat="27.878710" lon="-15.627547">
        <ele>906.012</ele>
        <time>2025-05-03T10:45:45.947Z</time>
      </trkpt>
      <trkpt lat="27.878681" lon="-15.627354">
        <ele>908.638</ele>
        <time>2025-05-03T10:46:05.947Z</time>
      </trkpt>
      <trkpt lat="27.878018" lon="-15.626878">
        <ele>904.637</ele>
        <time>2025-05-03T10:47:24.945Z</time>
      </trkpt>
      <trkpt lat="27.878073" lon="-15.626800">
        <ele>905.746</ele>
        <time>2025-05-03T10:47:33.951Z</time>
      </trkpt>
      <trkpt lat="27.878539" lon="-15.626867">
        <ele>907.888</ele>
        <time>2025-05-03T10:48:27.948Z</time>
      </trkpt>
      <trkpt lat="27.878666" lon="-15.626499">
        <ele>898.216</ele>
        <time>2025-05-03T10:55:45.950Z</time>
      </trkpt>
      <trkpt lat="27.878811" lon="-15.626631">
        <ele>900.509</ele>
        <time>2025-05-03T10:56:26.948Z</time>
      </trkpt>
      <trkpt lat="27.879229" lon="-15.626601">
        <ele>895.066</ele>
        <time>2025-05-03T10:57:34.950Z</time>
      </trkpt>
      <trkpt lat="27.879538" lon="-15.626436">
        <ele>877.835</ele>
        <time>2025-05-03T10:58:44.951Z</time>
      </trkpt>
      <trkpt lat="27.879737" lon="-15.626465">
        <ele>880.066</ele>
        <time>2025-05-03T10:59:13.949Z</time>
      </trkpt>
      <trkpt lat="27.880138" lon="-15.626172">
        <ele>867.464</ele>
        <time>2025-05-03T11:00:08.950Z</time>
      </trkpt>
      <trkpt lat="27.880664" lon="-15.626170">
        <ele>862.935</ele>
        <time>2025-05-03T11:01:13.949Z</time>
      </trkpt>
      <trkpt lat="27.880861" lon="-15.626267">
        <ele>863.583</ele>
        <time>2025-05-03T11:01:40.948Z</time>
      </trkpt>
      <trkpt lat="27.881240" lon="-15.626182">
        <ele>858.470</ele>
        <time>2025-05-03T11:02:20.950Z</time>
      </trkpt>
      <trkpt lat="27.881534" lon="-15.625966">
        <ele>851.346</ele>
        <time>2025-05-03T11:02:54.952Z</time>
      </trkpt>
      <trkpt lat="27.882177" lon="-15.625961">
        <ele>852.055</ele>
        <time>2025-05-03T11:04:05.949Z</time>
      </trkpt>
      <trkpt lat="27.882500" lon="-15.625841">
        <ele>848.183</ele>
        <time>2025-05-03T11:04:52.946Z</time>
      </trkpt>
      <trkpt lat="27.882827" lon="-15.625119">
        <ele>850.125</ele>
        <time>2025-05-03T11:06:27.946Z</time>
      </trkpt>
      <trkpt lat="27.882923" lon="-15.624634">
        <ele>848.317</ele>
        <time>2025-05-03T11:07:21.948Z</time>
      </trkpt>
      <trkpt lat="27.883214" lon="-15.624341">
        <ele>851.209</ele>
        <time>2025-05-03T11:08:07.949Z</time>
      </trkpt>
      <trkpt lat="27.883140" lon="-15.623840">
        <ele>845.180</ele>
        <time>2025-05-03T11:08:59.947Z</time>
      </trkpt>
      <trkpt lat="27.883442" lon="-15.623292">
        <ele>842.699</ele>
        <time>2025-05-03T11:10:09.947Z</time>
      </trkpt>
      <trkpt lat="27.883321" lon="-15.623447">
        <ele>843.150</ele>
        <time>2025-05-03T11:41:00.950Z</time>
      </trkpt>
      <trkpt lat="27.882636" lon="-15.623029">
        <ele>832.898</ele>
        <time>2025-05-03T11:42:53.948Z</time>
      </trkpt>
      <trkpt lat="27.881829" lon="-15.623034">
        <ele>820.719</ele>
        <time>2025-05-03T11:45:06.948Z</time>
      </trkpt>
      <trkpt lat="27.881505" lon="-15.622883">
        <ele>816.427</ele>
        <time>2025-05-03T11:45:50.949Z</time>
      </trkpt>
      <trkpt lat="27.881166" lon="-15.622877">
        <ele>812.854</ele>
        <time>2025-05-03T11:46:37.945Z</time>
      </trkpt>
      <trkpt lat="27.880804" lon="-15.622620">
        <ele>807.940</ele>
        <time>2025-05-03T11:47:28.946Z</time>
      </trkpt>
      <trkpt lat="27.880572" lon="-15.622578">
        <ele>805.779</ele>
        <time>2025-05-03T11:47:53.949Z</time>
      </trkpt>
      <trkpt lat="27.880481" lon="-15.622448">
        <ele>802.954</ele>
        <time>2025-05-03T11:48:26.946Z</time>
      </trkpt>
      <trkpt lat="27.880243" lon="-15.622442">
        <ele>801.456</ele>
        <time>2025-05-03T11:48:56.950Z</time>
      </trkpt>
      <trkpt lat="27.880036" lon="-15.622296">
        <ele>799.411</ele>
        <time>2025-05-03T11:49:23.945Z</time>
      </trkpt>
      <trkpt lat="27.880036" lon="-15.621834">
        <ele>791.709</ele>
        <time>2025-05-03T11:50:32.951Z</time>
      </trkpt>
      <trkpt lat="27.880525" lon="-15.621106">
        <ele>777.557</ele>
        <time>2025-05-03T11:53:11.945Z</time>
      </trkpt>
      <trkpt lat="27.880426" lon="-15.620528">
        <ele>770.276</ele>
        <time>2025-05-03T11:54:15.947Z</time>
      </trkpt>
      <trkpt lat="27.880732" lon="-15.620006">
        <ele>768.597</ele>
        <time>2025-05-03T11:55:09.949Z</time>
      </trkpt>
      <trkpt lat="27.880857" lon="-15.619080">
        <ele>751.955</ele>
        <time>2025-05-03T11:56:56.945Z</time>
      </trkpt>
      <trkpt lat="27.880566" lon="-15.618785">
        <ele>749.516</ele>
        <time>2025-05-03T12:00:42.948Z</time>
      </trkpt>
      <trkpt lat="27.880809" lon="-15.618740">
        <ele>742.324</ele>
        <time>2025-05-03T12:01:40.946Z</time>
      </trkpt>
      <trkpt lat="27.881183" lon="-15.618983">
        <ele>741.151</ele>
        <time>2025-05-03T12:02:50.950Z</time>
      </trkpt>
      <trkpt lat="27.881391" lon="-15.618864">
        <ele>730.017</ele>
        <time>2025-05-03T12:03:57.947Z</time>
      </trkpt>
      <trkpt lat="27.881590" lon="-15.619005">
        <ele>734.266</ele>
        <time>2025-05-03T12:04:21.947Z</time>
      </trkpt>
      <trkpt lat="27.881873" lon="-15.619021">
        <ele>728.156</ele>
        <time>2025-05-03T12:04:57.947Z</time>
      </trkpt>
      <trkpt lat="27.881879" lon="-15.618717">
        <ele>712.259</ele>
        <time>2025-05-03T12:06:04.950Z</time>
      </trkpt>
      <trkpt lat="27.882154" lon="-15.618775">
        <ele>709.914</ele>
        <time>2025-05-03T12:07:10.948Z</time>
      </trkpt>
      <trkpt lat="27.882257" lon="-15.618662">
        <ele>700.809</ele>
        <time>2025-05-03T12:07:38.951Z</time>
      </trkpt>
      <trkpt lat="27.882477" lon="-15.617871">
        <ele>669.967</ele>
        <time>2025-05-03T12:09:52.948Z</time>
      </trkpt>
      <trkpt lat="27.883163" lon="-15.617256">
        <ele>657.836</ele>
        <time>2025-05-03T12:11:58.945Z</time>
      </trkpt>
      <trkpt lat="27.883391" lon="-15.616855">
        <ele>655.537</ele>
        <time>2025-05-03T12:12:49.949Z</time>
      </trkpt>
      <trkpt lat="27.883728" lon="-15.616691">
        <ele>650.755</ele>
        <time>2025-05-03T12:14:00.946Z</time>
      </trkpt>
      <trkpt lat="27.884826" lon="-15.616512">
        <ele>620.946</ele>
        <time>2025-05-03T12:16:42.950Z</time>
      </trkpt>
      <trkpt lat="27.885109" lon="-15.616551">
        <ele>617.294</ele>
        <time>2025-05-03T12:17:27.946Z</time>
      </trkpt>
      <trkpt lat="27.885281" lon="-15.616236">
        <ele>606.551</ele>
        <time>2025-05-03T12:18:16.949Z</time>
      </trkpt>
      <trkpt lat="27.885528" lon="-15.616237">
        <ele>601.847</ele>
        <time>2025-05-03T12:19:01.947Z</time>
      </trkpt>
      <trkpt lat="27.885719" lon="-15.615915">
        <ele>585.786</ele>
        <time>2025-05-03T12:20:12.948Z</time>
      </trkpt>
      <trkpt lat="27.885719" lon="-15.615620">
        <ele>575.842</ele>
        <time>2025-05-03T12:21:36.949Z</time>
      </trkpt>
      <trkpt lat="27.886007" lon="-15.615487">
        <ele>566.322</ele>
        <time>2025-05-03T12:22:38.951Z</time>
      </trkpt>
      <trkpt lat="27.885989" lon="-15.615258">
        <ele>558.614</ele>
        <time>2025-05-03T12:23:29.949Z</time>
      </trkpt>
      <trkpt lat="27.886114" lon="-15.615221">
        <ele>555.909</ele>
        <time>2025-05-03T12:23:50.950Z</time>
      </trkpt>
      <trkpt lat="27.885980" lon="-15.614998">
        <ele>548.926</ele>
        <time>2025-05-03T12:24:36.948Z</time>
      </trkpt>
      <trkpt lat="27.886266" lon="-15.615006">
        <ele>545.985</ele>
        <time>2025-05-03T12:26:16.944Z</time>
      </trkpt>
      <trkpt lat="27.886169" lon="-15.614893">
        <ele>545.016</ele>
        <time>2025-05-03T12:29:10.944Z</time>
      </trkpt>
      <trkpt lat="27.885889" lon="-15.614821">
        <ele>545.214</ele>
        <time>2025-05-03T12:30:00.949Z</time>
      </trkpt>
      <trkpt lat="27.884737" lon="-15.614994">
        <ele>544.925</ele>
        <time>2025-05-03T12:32:42.947Z</time>
      </trkpt>
      <trkpt lat="27.884303" lon="-15.614861">
        <ele>544.373</ele>
        <time>2025-05-03T12:33:14.948Z</time>
      </trkpt>
      <trkpt lat="27.883902" lon="-15.614512">
        <ele>544.280</ele>
        <time>2025-05-03T12:33:51.950Z</time>
      </trkpt>
      <trkpt lat="27.883763" lon="-15.614182">
        <ele>535.866</ele>
        <time>2025-05-03T12:34:15.949Z</time>
      </trkpt>
      <trkpt lat="27.883165" lon="-15.613996">
        <ele>541.945</ele>
        <time>2025-05-03T12:35:04.949Z</time>
      </trkpt>
      <trkpt lat="27.882998" lon="-15.613726">
        <ele>534.633</ele>
        <time>2025-05-03T12:35:27.944Z</time>
      </trkpt>
      <trkpt lat="27.882547" lon="-15.613576">
        <ele>539.423</ele>
        <time>2025-05-03T12:36:04.949Z</time>
      </trkpt>
      <trkpt lat="27.882225" lon="-15.613103">
        <ele>525.615</ele>
        <time>2025-05-03T12:36:46.945Z</time>
      </trkpt>
      <trkpt lat="27.882064" lon="-15.613068">
        <ele>527.109</ele>
        <time>2025-05-03T12:36:58.943Z</time>
      </trkpt>
      <trkpt lat="27.881635" lon="-15.613244">
        <ele>539.175</ele>
        <time>2025-05-03T12:37:34.943Z</time>
      </trkpt>
      <trkpt lat="27.880935" lon="-15.613299">
        <ele>542.274</ele>
        <time>2025-05-03T12:38:32.948Z</time>
      </trkpt>
      <trkpt lat="27.880285" lon="-15.613475">
        <ele>531.925</ele>
        <time>2025-05-03T12:39:24.949Z</time>
      </trkpt>
      <trkpt lat="27.880168" lon="-15.613593">
        <ele>531.983</ele>
        <time>2025-05-03T12:39:40.945Z</time>
      </trkpt>
      <trkpt lat="27.880126" lon="-15.613864">
        <ele>539.534</ele>
        <time>2025-05-03T12:40:00.947Z</time>
      </trkpt>
      <trkpt lat="27.879856" lon="-15.614036">
        <ele>539.852</ele>
        <time>2025-05-03T12:40:22.943Z</time>
      </trkpt>
      <trkpt lat="27.879656" lon="-15.613665">
        <ele>527.889</ele>
        <time>2025-05-03T12:40:49.948Z</time>
      </trkpt>
      <trkpt lat="27.878972" lon="-15.613846">
        <ele>523.515</ele>
        <time>2025-05-03T12:41:46.943Z</time>
      </trkpt>
      <trkpt lat="27.878612" lon="-15.613830">
        <ele>517.044</ele>
        <time>2025-05-03T12:42:14.948Z</time>
      </trkpt>
      <trkpt lat="27.878392" lon="-15.614095">
        <ele>522.061</ele>
        <time>2025-05-03T12:42:37.947Z</time>
      </trkpt>
      <trkpt lat="27.877516" lon="-15.614502">
        <ele>516.321</ele>
        <time>2025-05-03T12:43:48.948Z</time>
      </trkpt>
      <trkpt lat="27.877430" lon="-15.614317">
        <ele>520.213</ele>
        <time>2025-05-03T12:44:04.946Z</time>
      </trkpt>
      <trkpt lat="27.877617" lon="-15.613825">
        <ele>511.709</ele>
        <time>2025-05-03T12:44:36.948Z</time>
      </trkpt>
      <trkpt lat="27.877622" lon="-15.613099">
        <ele>504.558</ele>
        <time>2025-05-03T12:45:35.943Z</time>
      </trkpt>
      <trkpt lat="27.877276" lon="-15.613144">
        <ele>515.827</ele>
        <time>2025-05-03T12:46:05.948Z</time>
      </trkpt>
      <trkpt lat="27.876893" lon="-15.613001">
        <ele>516.328</ele>
        <time>2025-05-03T12:46:37.944Z</time>
      </trkpt>
      <trkpt lat="27.876596" lon="-15.612686">
        <ele>517.156</ele>
        <time>2025-05-03T12:47:16.943Z</time>
      </trkpt>
      <trkpt lat="27.875949" lon="-15.612356">
        <ele>522.327</ele>
        <time>2025-05-03T12:48:09.943Z</time>
      </trkpt>
      <trkpt lat="27.875271" lon="-15.611809">
        <ele>522.615</ele>
        <time>2025-05-03T12:49:15.948Z</time>
      </trkpt>
      <trkpt lat="27.874215" lon="-15.610607">
        <ele>516.172</ele>
        <time>2025-05-03T12:51:16.948Z</time>
      </trkpt>
      <trkpt lat="27.872941" lon="-15.610226">
        <ele>516.178</ele>
        <time>2025-05-03T12:53:04.947Z</time>
      </trkpt>
      <trkpt lat="27.872247" lon="-15.609901">
        <ele>511.237</ele>
        <time>2025-05-03T12:54:07.948Z</time>
      </trkpt>
      <trkpt lat="27.871573" lon="-15.609861">
        <ele>507.322</ele>
        <time>2025-05-03T12:54:59.947Z</time>
      </trkpt>
      <trkpt lat="27.871307" lon="-15.610079">
        <ele>509.662</ele>
        <time>2025-05-03T12:55:27.945Z</time>
      </trkpt>
      <trkpt lat="27.870925" lon="-15.609922">
        <ele>510.208</ele>
        <time>2025-05-03T12:55:59.948Z</time>
      </trkpt>
      <trkpt lat="27.870640" lon="-15.609675">
        <ele>509.909</ele>
        <time>2025-05-03T12:56:27.949Z</time>
      </trkpt>
      <trkpt lat="27.870574" lon="-15.609283">
        <ele>505.184</ele>
        <time>2025-05-03T12:56:59.947Z</time>
      </trkpt>
      <trkpt lat="27.870462" lon="-15.609171">
        <ele>503.173</ele>
        <time>2025-05-03T12:57:11.948Z</time>
      </trkpt>
      <trkpt lat="27.869801" lon="-15.609344">
        <ele>504.834</ele>
        <time>2025-05-03T12:58:03.947Z</time>
      </trkpt>
      <trkpt lat="27.868835" lon="-15.609372">
        <ele>489.492</ele>
        <time>2025-05-03T12:59:18.947Z</time>
      </trkpt>
      <trkpt lat="27.868164" lon="-15.609167">
        <ele>488.683</ele>
        <time>2025-05-03T13:00:13.948Z</time>
      </trkpt>
      <trkpt lat="27.867961" lon="-15.608997">
        <ele>485.021</ele>
        <time>2025-05-03T13:00:32.948Z</time>
      </trkpt>
      <trkpt lat="27.867714" lon="-15.609019">
        <ele>484.958</ele>
        <time>2025-05-03T13:00:53.943Z</time>
      </trkpt>
      <trkpt lat="27.866837" lon="-15.608713">
        <ele>475.334</ele>
        <time>2025-05-03T13:02:08.944Z</time>
      </trkpt>
      <trkpt lat="27.866635" lon="-15.608717">
        <ele>473.383</ele>
        <time>2025-05-03T13:02:28.941Z</time>
      </trkpt>
      <trkpt lat="27.866587" lon="-15.608924">
        <ele>481.248</ele>
        <time>2025-05-03T13:03:17.941Z</time>
      </trkpt>
      <trkpt lat="27.866467" lon="-15.609009">
        <ele>484.061</ele>
        <time>2025-05-03T13:03:34.941Z</time>
      </trkpt>
      <trkpt lat="27.865811" lon="-15.608960">
        <ele>471.817</ele>
        <time>2025-05-03T13:04:32.944Z</time>
      </trkpt>
      <trkpt lat="27.865499" lon="-15.609127">
        <ele>474.809</ele>
        <time>2025-05-03T13:05:05.946Z</time>
      </trkpt>
      <trkpt lat="27.864477" lon="-15.609154">
        <ele>491.266</ele>
        <time>2025-05-03T13:06:29.946Z</time>
      </trkpt>
      <trkpt lat="27.863992" lon="-15.609045">
        <ele>477.025</ele>
        <time>2025-05-03T13:07:15.942Z</time>
      </trkpt>
      <trkpt lat="27.863671" lon="-15.608679">
        <ele>452.766</ele>
        <time>2025-05-03T13:07:54.948Z</time>
      </trkpt>
      <trkpt lat="27.863271" lon="-15.608555">
        <ele>459.264</ele>
        <time>2025-05-03T13:08:25.944Z</time>
      </trkpt>
      <trkpt lat="27.862015" lon="-15.608594">
        <ele>456.715</ele>
        <time>2025-05-03T13:10:04.946Z</time>
      </trkpt>
      <trkpt lat="27.861940" lon="-15.608188">
        <ele>447.063</ele>
        <time>2025-05-03T13:10:37.945Z</time>
      </trkpt>
      <trkpt lat="27.861848" lon="-15.608145">
        <ele>448.060</ele>
        <time>2025-05-03T13:10:46.947Z</time>
      </trkpt>
      <trkpt lat="27.861511" lon="-15.608293">
        <ele>458.376</ele>
        <time>2025-05-03T13:11:18.945Z</time>
      </trkpt>
      <trkpt lat="27.861324" lon="-15.608234">
        <ele>461.695</ele>
        <time>2025-05-03T13:11:34.946Z</time>
      </trkpt>
      <trkpt lat="27.861175" lon="-15.608003">
        <ele>459.589</ele>
        <time>2025-05-03T13:11:55.944Z</time>
      </trkpt>
      <trkpt lat="27.861135" lon="-15.607674">
        <ele>457.106</ele>
        <time>2025-05-03T13:12:26.948Z</time>
      </trkpt>
      <trkpt lat="27.860793" lon="-15.607594">
        <ele>467.326</ele>
        <time>2025-05-03T13:16:13.947Z</time>
      </trkpt>
      <trkpt lat="27.860412" lon="-15.607324">
        <ele>466.009</ele>
        <time>2025-05-03T13:16:54.947Z</time>
      </trkpt>
      <trkpt lat="27.860086" lon="-15.607565">
        <ele>475.770</ele>
        <time>2025-05-03T13:17:28.942Z</time>
      </trkpt>
      <trkpt lat="27.859671" lon="-15.607416">
        <ele>459.589</ele>
        <time>2025-05-03T13:18:04.946Z</time>
      </trkpt>
      <trkpt lat="27.859494" lon="-15.607803">
        <ele>461.970</ele>
        <time>2025-05-03T13:19:00.943Z</time>
      </trkpt>
      <trkpt lat="27.859170" lon="-15.608169">
        <ele>460.898</ele>
        <time>2025-05-03T13:19:38.943Z</time>
      </trkpt>
      <trkpt lat="27.859120" lon="-15.608677">
        <ele>473.269</ele>
        <time>2025-05-03T13:20:41.945Z</time>
      </trkpt>
      <trkpt lat="27.858838" lon="-15.608820">
        <ele>472.337</ele>
        <time>2025-05-03T13:21:08.947Z</time>
      </trkpt>
      <trkpt lat="27.858833" lon="-15.608633">
        <ele>463.244</ele>
        <time>2025-05-03T13:21:27.947Z</time>
      </trkpt>
      <trkpt lat="27.859023" lon="-15.608439">
        <ele>462.450</ele>
        <time>2025-05-03T13:21:47.949Z</time>
      </trkpt>
      <trkpt lat="27.858976" lon="-15.608153">
        <ele>450.569</ele>
        <time>2025-05-03T13:22:09.943Z</time>
      </trkpt>
      <trkpt lat="27.859152" lon="-15.607686">
        <ele>447.349</ele>
        <time>2025-05-03T13:22:48.946Z</time>
      </trkpt>
      <trkpt lat="27.859142" lon="-15.607132">
        <ele>447.502</ele>
        <time>2025-05-03T13:23:31.944Z</time>
      </trkpt>
      <trkpt lat="27.858729" lon="-15.606802">
        <ele>437.322</ele>
        <time>2025-05-03T13:24:10.945Z</time>
      </trkpt>
      <trkpt lat="27.857985" lon="-15.606727">
        <ele>417.009</ele>
        <time>2025-05-03T13:25:06.947Z</time>
      </trkpt>
      <trkpt lat="27.857570" lon="-15.606463">
        <ele>407.266</ele>
        <time>2025-05-03T13:26:21.944Z</time>
      </trkpt>
      <trkpt lat="27.857478" lon="-15.606131">
        <ele>401.125</ele>
        <time>2025-05-03T13:26:50.942Z</time>
      </trkpt>
      <trkpt lat="27.857681" lon="-15.605851">
        <ele>408.366</ele>
        <time>2025-05-03T13:27:57.944Z</time>
      </trkpt>
      <trkpt lat="27.857679" lon="-15.605686">
        <ele>406.254</ele>
        <time>2025-05-03T13:28:08.947Z</time>
      </trkpt>
      <trkpt lat="27.857305" lon="-15.605025">
        <ele>383.835</ele>
        <time>2025-05-03T13:29:06.945Z</time>
      </trkpt>
      <trkpt lat="27.857009" lon="-15.605107">
        <ele>375.153</ele>
        <time>2025-05-03T13:29:57.945Z</time>
      </trkpt>
      <trkpt lat="27.857246" lon="-15.604694">
        <ele>382.170</ele>
        <time>2025-05-03T13:30:52.942Z</time>
      </trkpt>
      <trkpt lat="27.857303" lon="-15.604122">
        <ele>365.946</ele>
        <time>2025-05-03T13:31:35.947Z</time>
      </trkpt>
      <trkpt lat="27.857193" lon="-15.604146">
        <ele>363.525</ele>
        <time>2025-05-03T13:31:50.947Z</time>
      </trkpt>
      <trkpt lat="27.857110" lon="-15.604454">
        <ele>372.651</ele>
        <time>2025-05-03T13:32:18.944Z</time>
      </trkpt>
      <trkpt lat="27.856845" lon="-15.603700">
        <ele>347.601</ele>
        <time>2025-05-03T13:33:52.945Z</time>
      </trkpt>
      <trkpt lat="27.856688" lon="-15.604161">
        <ele>343.811</ele>
        <time>2025-05-03T13:34:56.949Z</time>
      </trkpt>
      <trkpt lat="27.856500" lon="-15.603737">
        <ele>338.409</ele>
        <time>2025-05-03T13:35:31.946Z</time>
      </trkpt>
      <trkpt lat="27.856409" lon="-15.603737">
        <ele>335.287</ele>
        <time>2025-05-03T13:35:39.945Z</time>
      </trkpt>
      <trkpt lat="27.856389" lon="-15.604577">
        <ele>339.076</ele>
        <time>2025-05-03T13:37:27.946Z</time>
      </trkpt>
      <trkpt lat="27.856173" lon="-15.604978">
        <ele>337.397</ele>
        <time>2025-05-03T13:38:06.945Z</time>
      </trkpt>
      <trkpt lat="27.855609" lon="-15.605064">
        <ele>329.085</ele>
        <time>2025-05-03T13:38:54.949Z</time>
      </trkpt>
      <trkpt lat="27.854727" lon="-15.605486">
        <ele>319.486</ele>
        <time>2025-05-03T13:40:09.942Z</time>
      </trkpt>
      <trkpt lat="27.854707" lon="-15.605589">
        <ele>318.684</ele>
        <time>2025-05-03T13:40:16.942Z</time>
      </trkpt>
      <trkpt lat="27.855110" lon="-15.606199">
        <ele>328.691</ele>
        <time>2025-05-03T13:41:08.946Z</time>
      </trkpt>
      <trkpt lat="27.855058" lon="-15.606346">
        <ele>327.337</ele>
        <time>2025-05-03T13:41:19.945Z</time>
      </trkpt>
      <trkpt lat="27.854243" lon="-15.606294">
        <ele>322.386</ele>
        <time>2025-05-03T13:42:27.944Z</time>
      </trkpt>
      <trkpt lat="27.853482" lon="-15.607006">
        <ele>323.259</ele>
        <time>2025-05-03T13:43:49.941Z</time>
      </trkpt>
      <trkpt lat="27.852714" lon="-15.606759">
        <ele>315.503</ele>
        <time>2025-05-03T13:44:51.943Z</time>
      </trkpt>
      <trkpt lat="27.852021" lon="-15.606740">
        <ele>317.423</ele>
        <time>2025-05-03T13:45:52.946Z</time>
      </trkpt>
      <trkpt lat="27.851595" lon="-15.607071">
        <ele>319.909</ele>
        <time>2025-05-03T13:46:31.944Z</time>
      </trkpt>
      <trkpt lat="27.851383" lon="-15.607451">
        <ele>318.337</ele>
        <time>2025-05-03T13:47:05.941Z</time>
      </trkpt>
      <trkpt lat="27.850566" lon="-15.607447">
        <ele>303.396</ele>
        <time>2025-05-03T13:48:10.941Z</time>
      </trkpt>
    </trkseg>
  </trk></gpx>