<?xml version="1.0" encoding="UTF-8"?>
<gpx version="1.1" creator="Aventuras en Cada Paso" xmlns="http://www.topografix.com/GPX/1/1">
  <metadata>
    <name>El Pinar – Circular por el Bosque</name>
    <desc>Circular tranquila por el Pinar de El Hierro, uno de los bosques de pino canario más densos del archipiélago. Fácil, sombreada y perfecta para familias.</desc>
    <author><name>Aventuras en Cada Paso</name></author>
    <time>2026-07-08T08:12:58.204Z</time>
    <keywords>El Hierro, Senderismo, Fácil, senderismo Canarias</keywords>
  </metadata>
  <wpt lat="27.72" lon="-17.98">
    <name>El Pinar – Circular por el Bosque</name>
    <desc>Circular tranquila por el Pinar de El Hierro, uno de los bosques de pino canario más densos del archipiélago. Fácil, sombreada y perfecta para familias. | Isla: El Hierro | Tipo: Senderismo | Dificultad: Fácil | Distancia: 8km | Duración: 2-4 horas</desc>
    <type>Senderismo</type>
    <extensions>
      <isla>El Hierro</isla>
      <dificultad>Fácil</dificultad>
      <distancia>8</distancia>
      <duracion>2-4 horas</duracion>
    </extensions>
  </wpt>
</gpx>