<?xml version="1.0" encoding="UTF-8"?>
<gpx creator="Wikiloc - https://www.wikiloc.com" version="1.1" xmlns="http://www.topografix.com/GPX/1/1" xmlns:xsi="http://www.w3.org/2001/XMLSchema-instance" xsi:schemaLocation="http://www.topografix.com/GPX/1/1 http://www.topografix.com/GPX/1/1/gpx.xsd">
  <metadata>
    <name>Wikiloc - Circular faro de Arinaga playa - Cuervo Grande</name>
    <link href="https://www.wikiloc.com/hiking-trails/circular-faro-de-arinaga-playa-cuervo-grande-50940255">
      <text>Circular faro de Arinaga playa - Cuervo Grande - Wikiloc on Wikiloc</text>
    </link>
    <time>2020-06-13T17:24:00Z</time>
  </metadata>
  <trk>
    <name>Circular faro de Arinaga playa - Cuervo Grande - Wikiloc</name>
    <cmt></cmt>
    <desc></desc>
    <trkseg>
      <trkpt lat="27.865830" lon="-15.387930">
        <ele>18.974</ele>
        <time>2020-06-13T11:18:31Z</time>
      </trkpt>
      <trkpt lat="27.865871" lon="-15.387951">
        <ele>18.956</ele>
        <time>2020-06-13T11:19:30Z</time>
      </trkpt>
      <trkpt lat="27.865818" lon="-15.387287">
        <ele>18.921</ele>
        <time>2020-06-13T11:22:39Z</time>
      </trkpt>
      <trkpt lat="27.866031" lon="-15.387156">
        <ele>15.708</ele>
        <time>2020-06-13T11:22:59Z</time>
      </trkpt>
      <trkpt lat="27.866097" lon="-15.386822">
        <ele>12.882</ele>
        <time>2020-06-13T11:23:24Z</time>
      </trkpt>
      <trkpt lat="27.866197" lon="-15.386818">
        <ele>12.377</ele>
        <time>2020-06-13T11:23:40Z</time>
      </trkpt>
      <trkpt lat="27.866291" lon="-15.386934">
        <ele>12.416</ele>
        <time>2020-06-13T11:24:02Z</time>
      </trkpt>
      <trkpt lat="27.866390" lon="-15.386941">
        <ele>12.381</ele>
        <time>2020-06-13T11:24:09Z</time>
      </trkpt>
      <trkpt lat="27.866610" lon="-15.387158">
        <ele>19.047</ele>
        <time>2020-06-13T11:25:19Z</time>
      </trkpt>
      <trkpt lat="27.866908" lon="-15.387156">
        <ele>21.149</ele>
        <time>2020-06-13T11:26:17Z</time>
      </trkpt>
      <trkpt lat="27.867190" lon="-15.387331">
        <ele>21.292</ele>
        <time>2020-06-13T11:27:35Z</time>
      </trkpt>
      <trkpt lat="27.867254" lon="-15.387241">
        <ele>21.172</ele>
        <time>2020-06-13T11:27:45Z</time>
      </trkpt>
      <trkpt lat="27.867232" lon="-15.387027">
        <ele>19.311</ele>
        <time>2020-06-13T11:28:02Z</time>
      </trkpt>
      <trkpt lat="27.867370" lon="-15.387036">
        <ele>19.521</ele>
        <time>2020-06-13T11:41:20Z</time>
      </trkpt>
      <trkpt lat="27.867604" lon="-15.386686">
        <ele>16.903</ele>
        <time>2020-06-13T11:41:56Z</time>
      </trkpt>
      <trkpt lat="27.867693" lon="-15.386430">
        <ele>16.908</ele>
        <time>2020-06-13T11:42:19Z</time>
      </trkpt>
      <trkpt lat="27.867877" lon="-15.386375">
        <ele>17.296</ele>
        <time>2020-06-13T11:42:53Z</time>
      </trkpt>
      <trkpt lat="27.867855" lon="-15.386468">
        <ele>19.121</ele>
        <time>2020-06-13T11:43:03Z</time>
      </trkpt>
      <trkpt lat="27.868158" lon="-15.386239">
        <ele>17.590</ele>
        <time>2020-06-13T11:43:47Z</time>
      </trkpt>
      <trkpt lat="27.868549" lon="-15.386446">
        <ele>18.735</ele>
        <time>2020-06-13T11:44:33Z</time>
      </trkpt>
      <trkpt lat="27.868722" lon="-15.386392">
        <ele>19.341</ele>
        <time>2020-06-13T11:44:54Z</time>
      </trkpt>
      <trkpt lat="27.868873" lon="-15.386430">
        <ele>20.553</ele>
        <time>2020-06-13T11:45:10Z</time>
      </trkpt>
      <trkpt lat="27.869154" lon="-15.386658">
        <ele>21.866</ele>
        <time>2020-06-13T11:46:01Z</time>
      </trkpt>
      <trkpt lat="27.869405" lon="-15.386607">
        <ele>21.046</ele>
        <time>2020-06-13T11:46:27Z</time>
      </trkpt>
      <trkpt lat="27.869812" lon="-15.386673">
        <ele>16.196</ele>
        <time>2020-06-13T11:47:33Z</time>
      </trkpt>
      <trkpt lat="27.870018" lon="-15.386814">
        <ele>12.131</ele>
        <time>2020-06-13T11:47:59Z</time>
      </trkpt>
      <trkpt lat="27.870105" lon="-15.386762">
        <ele>13.024</ele>
        <time>2020-06-13T11:48:19Z</time>
      </trkpt>
      <trkpt lat="27.870178" lon="-15.386815">
        <ele>13.808</ele>
        <time>2020-06-13T11:48:31Z</time>
      </trkpt>
      <trkpt lat="27.870129" lon="-15.386789">
        <ele>14.184</ele>
        <time>2020-06-13T11:48:46Z</time>
      </trkpt>
      <trkpt lat="27.870164" lon="-15.386755">
        <ele>14.059</ele>
        <time>2020-06-13T11:50:29Z</time>
      </trkpt>
      <trkpt lat="27.870810" lon="-15.386477">
        <ele>11.138</ele>
        <time>2020-06-13T11:52:02Z</time>
      </trkpt>
      <trkpt lat="27.871304" lon="-15.386014">
        <ele>11.193</ele>
        <time>2020-06-13T11:53:04Z</time>
      </trkpt>
      <trkpt lat="27.871461" lon="-15.386000">
        <ele>13.029</ele>
        <time>2020-06-13T11:53:20Z</time>
      </trkpt>
      <trkpt lat="27.871605" lon="-15.386135">
        <ele>15.091</ele>
        <time>2020-06-13T11:54:09Z</time>
      </trkpt>
      <trkpt lat="27.871732" lon="-15.385906">
        <ele>18.314</ele>
        <time>2020-06-13T11:54:47Z</time>
      </trkpt>
      <trkpt lat="27.871857" lon="-15.385080">
        <ele>14.454</ele>
        <time>2020-06-13T11:55:55Z</time>
      </trkpt>
      <trkpt lat="27.871822" lon="-15.384979">
        <ele>14.686</ele>
        <time>2020-06-13T11:56:05Z</time>
      </trkpt>
      <trkpt lat="27.871679" lon="-15.384987">
        <ele>14.260</ele>
        <time>2020-06-13T11:56:18Z</time>
      </trkpt>
      <trkpt lat="27.871466" lon="-15.384841">
        <ele>14.526</ele>
        <time>2020-06-13T11:56:44Z</time>
      </trkpt>
      <trkpt lat="27.871402" lon="-15.384971">
        <ele>13.108</ele>
        <time>2020-06-13T11:57:12Z</time>
      </trkpt>
      <trkpt lat="27.871448" lon="-15.384581">
        <ele>11.183</ele>
        <time>2020-06-13T11:57:55Z</time>
      </trkpt>
      <trkpt lat="27.871236" lon="-15.384235">
        <ele>11.348</ele>
        <time>2020-06-13T11:58:31Z</time>
      </trkpt>
      <trkpt lat="27.871274" lon="-15.383683">
        <ele>15.027</ele>
        <time>2020-06-13T11:59:36Z</time>
      </trkpt>
      <trkpt lat="27.871437" lon="-15.383211">
        <ele>12.482</ele>
        <time>2020-06-13T12:00:35Z</time>
      </trkpt>
      <trkpt lat="27.871906" lon="-15.383068">
        <ele>11.198</ele>
        <time>2020-06-13T12:01:33Z</time>
      </trkpt>
      <trkpt lat="27.871854" lon="-15.383160">
        <ele>11.710</ele>
        <time>2020-06-13T12:02:35Z</time>
      </trkpt>
      <trkpt lat="27.871928" lon="-15.383209">
        <ele>13.553</ele>
        <time>2020-06-13T12:02:45Z</time>
      </trkpt>
      <trkpt lat="27.871905" lon="-15.383460">
        <ele>16.173</ele>
        <time>2020-06-13T12:03:19Z</time>
      </trkpt>
      <trkpt lat="27.871960" lon="-15.383590">
        <ele>13.081</ele>
        <time>2020-06-13T12:04:06Z</time>
      </trkpt>
      <trkpt lat="27.872091" lon="-15.383645">
        <ele>12.361</ele>
        <time>2020-06-13T12:04:21Z</time>
      </trkpt>
      <trkpt lat="27.872275" lon="-15.383455">
        <ele>9.617</ele>
        <time>2020-06-13T12:04:46Z</time>
      </trkpt>
      <trkpt lat="27.872742" lon="-15.383778">
        <ele>13.708</ele>
        <time>2020-06-13T12:05:54Z</time>
      </trkpt>
      <trkpt lat="27.873330" lon="-15.383223">
        <ele>14.083</ele>
        <time>2020-06-13T12:07:36Z</time>
      </trkpt>
      <trkpt lat="27.873290" lon="-15.383086">
        <ele>14.178</ele>
        <time>2020-06-13T12:08:17Z</time>
      </trkpt>
      <trkpt lat="27.873209" lon="-15.383136">
        <ele>14.297</ele>
        <time>2020-06-13T12:08:46Z</time>
      </trkpt>
      <trkpt lat="27.873253" lon="-15.383122">
        <ele>14.392</ele>
        <time>2020-06-13T12:09:20Z</time>
      </trkpt>
      <trkpt lat="27.873252" lon="-15.383181">
        <ele>14.178</ele>
        <time>2020-06-13T12:09:28Z</time>
      </trkpt>
      <trkpt lat="27.873174" lon="-15.383321">
        <ele>13.630</ele>
        <time>2020-06-13T12:09:48Z</time>
      </trkpt>
      <trkpt lat="27.873130" lon="-15.383305">
        <ele>13.843</ele>
        <time>2020-06-13T12:09:52Z</time>
      </trkpt>
      <trkpt lat="27.873325" lon="-15.383233">
        <ele>13.493</ele>
        <time>2020-06-13T12:10:19Z</time>
      </trkpt>
      <trkpt lat="27.873608" lon="-15.383000">
        <ele>13.763</ele>
        <time>2020-06-13T12:10:52Z</time>
      </trkpt>
      <trkpt lat="27.873909" lon="-15.382941">
        <ele>14.744</ele>
        <time>2020-06-13T12:11:21Z</time>
      </trkpt>
      <trkpt lat="27.874099" lon="-15.382617">
        <ele>14.418</ele>
        <time>2020-06-13T12:11:52Z</time>
      </trkpt>
      <trkpt lat="27.874164" lon="-15.382305">
        <ele>13.408</ele>
        <time>2020-06-13T12:12:19Z</time>
      </trkpt>
      <trkpt lat="27.874410" lon="-15.382248">
        <ele>15.271</ele>
        <time>2020-06-13T12:13:07Z</time>
      </trkpt>
      <trkpt lat="27.874602" lon="-15.382058">
        <ele>14.166</ele>
        <time>2020-06-13T12:13:28Z</time>
      </trkpt>
      <trkpt lat="27.874679" lon="-15.381735">
        <ele>13.125</ele>
        <time>2020-06-13T12:13:54Z</time>
      </trkpt>
      <trkpt lat="27.874774" lon="-15.381609">
        <ele>12.830</ele>
        <time>2020-06-13T12:14:06Z</time>
      </trkpt>
      <trkpt lat="27.875146" lon="-15.381531">
        <ele>12.876</ele>
        <time>2020-06-13T12:14:41Z</time>
      </trkpt>
      <trkpt lat="27.875300" lon="-15.381246">
        <ele>11.228</ele>
        <time>2020-06-13T12:15:08Z</time>
      </trkpt>
      <trkpt lat="27.875265" lon="-15.381147">
        <ele>12.141</ele>
        <time>2020-06-13T12:15:18Z</time>
      </trkpt>
      <trkpt lat="27.875215" lon="-15.381155">
        <ele>12.081</ele>
        <time>2020-06-13T12:15:30Z</time>
      </trkpt>
      <trkpt lat="27.875450" lon="-15.381178">
        <ele>12.299</ele>
        <time>2020-06-13T12:16:17Z</time>
      </trkpt>
      <trkpt lat="27.875894" lon="-15.380939">
        <ele>13.507</ele>
        <time>2020-06-13T12:17:22Z</time>
      </trkpt>
      <trkpt lat="27.875649" lon="-15.381057">
        <ele>12.927</ele>
        <time>2020-06-13T12:18:48Z</time>
      </trkpt>
      <trkpt lat="27.875681" lon="-15.381293">
        <ele>15.008</ele>
        <time>2020-06-13T12:20:12Z</time>
      </trkpt>
      <trkpt lat="27.875500" lon="-15.381495">
        <ele>14.594</ele>
        <time>2020-06-13T12:20:39Z</time>
      </trkpt>
      <trkpt lat="27.875468" lon="-15.381659">
        <ele>14.929</ele>
        <time>2020-06-13T12:20:56Z</time>
      </trkpt>
      <trkpt lat="27.875676" lon="-15.382387">
        <ele>15.198</ele>
        <time>2020-06-13T12:22:58Z</time>
      </trkpt>
      <trkpt lat="27.875929" lon="-15.382870">
        <ele>15.923</ele>
        <time>2020-06-13T12:23:42Z</time>
      </trkpt>
      <trkpt lat="27.875875" lon="-15.383309">
        <ele>17.999</ele>
        <time>2020-06-13T12:24:18Z</time>
      </trkpt>
      <trkpt lat="27.875917" lon="-15.383394">
        <ele>17.771</ele>
        <time>2020-06-13T12:24:30Z</time>
      </trkpt>
      <trkpt lat="27.875609" lon="-15.383886">
        <ele>17.114</ele>
        <time>2020-06-13T12:25:24Z</time>
      </trkpt>
      <trkpt lat="27.875533" lon="-15.383920">
        <ele>17.234</ele>
        <time>2020-06-13T12:25:39Z</time>
      </trkpt>
      <trkpt lat="27.875467" lon="-15.384131">
        <ele>19.299</ele>
        <time>2020-06-13T12:26:17Z</time>
      </trkpt>
      <trkpt lat="27.875395" lon="-15.384619">
        <ele>19.907</ele>
        <time>2020-06-13T12:26:53Z</time>
      </trkpt>
      <trkpt lat="27.875485" lon="-15.384820">
        <ele>20.227</ele>
        <time>2020-06-13T12:27:09Z</time>
      </trkpt>
      <trkpt lat="27.875484" lon="-15.385234">
        <ele>20.108</ele>
        <time>2020-06-13T12:27:42Z</time>
      </trkpt>
      <trkpt lat="27.875462" lon="-15.385405">
        <ele>21.324</ele>
        <time>2020-06-13T12:27:55Z</time>
      </trkpt>
      <trkpt lat="27.875178" lon="-15.386012">
        <ele>23.179</ele>
        <time>2020-06-13T12:28:43Z</time>
      </trkpt>
      <trkpt lat="27.875216" lon="-15.386175">
        <ele>24.878</ele>
        <time>2020-06-13T12:28:55Z</time>
      </trkpt>
      <trkpt lat="27.875297" lon="-15.386318">
        <ele>26.233</ele>
        <time>2020-06-13T12:29:07Z</time>
      </trkpt>
      <trkpt lat="27.875533" lon="-15.386450">
        <ele>25.039</ele>
        <time>2020-06-13T12:29:27Z</time>
      </trkpt>
      <trkpt lat="27.875827" lon="-15.386394">
        <ele>22.861</ele>
        <time>2020-06-13T12:29:52Z</time>
      </trkpt>
      <trkpt lat="27.875878" lon="-15.386659">
        <ele>19.294</ele>
        <time>2020-06-13T12:30:11Z</time>
      </trkpt>
      <trkpt lat="27.876023" lon="-15.386683">
        <ele>17.644</ele>
        <time>2020-06-13T12:30:24Z</time>
      </trkpt>
      <trkpt lat="27.876259" lon="-15.386498">
        <ele>16.788</ele>
        <time>2020-06-13T12:30:48Z</time>
      </trkpt>
      <trkpt lat="27.876552" lon="-15.385930">
        <ele>15.224</ele>
        <time>2020-06-13T12:31:37Z</time>
      </trkpt>
      <trkpt lat="27.877252" lon="-15.385966">
        <ele>27.626</ele>
        <time>2020-06-13T12:33:04Z</time>
      </trkpt>
      <trkpt lat="27.877310" lon="-15.386064">
        <ele>27.708</ele>
        <time>2020-06-13T12:33:12Z</time>
      </trkpt>
      <trkpt lat="27.877065" lon="-15.387109">
        <ele>29.923</ele>
        <time>2020-06-13T12:36:45Z</time>
      </trkpt>
      <trkpt lat="27.877279" lon="-15.388042">
        <ele>32.688</ele>
        <time>2020-06-13T12:38:01Z</time>
      </trkpt>
      <trkpt lat="27.877421" lon="-15.388212">
        <ele>31.417</ele>
        <time>2020-06-13T12:38:18Z</time>
      </trkpt>
      <trkpt lat="27.877666" lon="-15.388199">
        <ele>32.172</ele>
        <time>2020-06-13T12:39:04Z</time>
      </trkpt>
      <trkpt lat="27.877903" lon="-15.388278">
        <ele>34.698</ele>
        <time>2020-06-13T12:39:24Z</time>
      </trkpt>
      <trkpt lat="27.878067" lon="-15.388401">
        <ele>35.370</ele>
        <time>2020-06-13T12:39:42Z</time>
      </trkpt>
      <trkpt lat="27.878330" lon="-15.388873">
        <ele>33.753</ele>
        <time>2020-06-13T12:40:25Z</time>
      </trkpt>
      <trkpt lat="27.878623" lon="-15.388924">
        <ele>29.543</ele>
        <time>2020-06-13T12:40:49Z</time>
      </trkpt>
      <trkpt lat="27.879059" lon="-15.389305">
        <ele>28.177</ele>
        <time>2020-06-13T12:41:35Z</time>
      </trkpt>
      <trkpt lat="27.879091" lon="-15.389409">
        <ele>27.361</ele>
        <time>2020-06-13T12:41:45Z</time>
      </trkpt>
      <trkpt lat="27.879242" lon="-15.389411">
        <ele>24.627</ele>
        <time>2020-06-13T12:41:58Z</time>
      </trkpt>
      <trkpt lat="27.879315" lon="-15.389632">
        <ele>20.808</ele>
        <time>2020-06-13T12:42:37Z</time>
      </trkpt>
      <trkpt lat="27.879404" lon="-15.389670">
        <ele>17.972</ele>
        <time>2020-06-13T12:42:45Z</time>
      </trkpt>
      <trkpt lat="27.879357" lon="-15.389836">
        <ele>16.017</ele>
        <time>2020-06-13T12:42:55Z</time>
      </trkpt>
      <trkpt lat="27.879560" lon="-15.389848">
        <ele>12.516</ele>
        <time>2020-06-13T12:43:15Z</time>
      </trkpt>
      <trkpt lat="27.879687" lon="-15.390241">
        <ele>11.291</ele>
        <time>2020-06-13T12:44:05Z</time>
      </trkpt>
      <trkpt lat="27.879540" lon="-15.389859">
        <ele>6.557</ele>
        <time>2020-06-13T14:50:55Z</time>
      </trkpt>
      <trkpt lat="27.879464" lon="-15.389801">
        <ele>6.829</ele>
        <time>2020-06-13T14:51:05Z</time>
      </trkpt>
      <trkpt lat="27.879466" lon="-15.389594">
        <ele>10.692</ele>
        <time>2020-06-13T14:51:26Z</time>
      </trkpt>
      <trkpt lat="27.879117" lon="-15.389096">
        <ele>24.962</ele>
        <time>2020-06-13T14:52:30Z</time>
      </trkpt>
      <trkpt lat="27.878813" lon="-15.389051">
        <ele>29.681</ele>
        <time>2020-06-13T14:53:00Z</time>
      </trkpt>
      <trkpt lat="27.878536" lon="-15.388917">
        <ele>27.561</ele>
        <time>2020-06-13T14:53:30Z</time>
      </trkpt>
      <trkpt lat="27.878295" lon="-15.388910">
        <ele>24.917</ele>
        <time>2020-06-13T14:53:54Z</time>
      </trkpt>
      <trkpt lat="27.878119" lon="-15.388516">
        <ele>26.608</ele>
        <time>2020-06-13T14:54:37Z</time>
      </trkpt>
      <trkpt lat="27.877895" lon="-15.388301">
        <ele>32.373</ele>
        <time>2020-06-13T14:55:04Z</time>
      </trkpt>
      <trkpt lat="27.877701" lon="-15.388227">
        <ele>32.398</ele>
        <time>2020-06-13T14:55:23Z</time>
      </trkpt>
      <trkpt lat="27.877469" lon="-15.388281">
        <ele>30.677</ele>
        <time>2020-06-13T14:55:48Z</time>
      </trkpt>
      <trkpt lat="27.877339" lon="-15.388218">
        <ele>26.182</ele>
        <time>2020-06-13T14:56:09Z</time>
      </trkpt>
      <trkpt lat="27.877173" lon="-15.387651">
        <ele>22.928</ele>
        <time>2020-06-13T14:57:02Z</time>
      </trkpt>
      <trkpt lat="27.877084" lon="-15.387036">
        <ele>26.530</ele>
        <time>2020-06-13T14:57:49Z</time>
      </trkpt>
      <trkpt lat="27.876889" lon="-15.386779">
        <ele>26.443</ele>
        <time>2020-06-13T14:58:17Z</time>
      </trkpt>
      <trkpt lat="27.876759" lon="-15.386425">
        <ele>23.753</ele>
        <time>2020-06-13T14:58:51Z</time>
      </trkpt>
      <trkpt lat="27.876709" lon="-15.386439">
        <ele>23.473</ele>
        <time>2020-06-13T14:59:05Z</time>
      </trkpt>
      <trkpt lat="27.876927" lon="-15.386636">
        <ele>24.885</ele>
        <time>2020-06-13T14:59:48Z</time>
      </trkpt>
      <trkpt lat="27.876734" lon="-15.386436">
        <ele>23.713</ele>
        <time>2020-06-13T15:00:37Z</time>
      </trkpt>
      <trkpt lat="27.876460" lon="-15.386333">
        <ele>20.908</ele>
        <time>2020-06-13T15:01:01Z</time>
      </trkpt>
      <trkpt lat="27.876242" lon="-15.386463">
        <ele>19.022</ele>
        <time>2020-06-13T15:01:25Z</time>
      </trkpt>
      <trkpt lat="27.876050" lon="-15.386459">
        <ele>15.567</ele>
        <time>2020-06-13T15:01:44Z</time>
      </trkpt>
      <trkpt lat="27.875919" lon="-15.386314">
        <ele>14.886</ele>
        <time>2020-06-13T15:02:03Z</time>
      </trkpt>
      <trkpt lat="27.875789" lon="-15.386373">
        <ele>17.891</ele>
        <time>2020-06-13T15:02:20Z</time>
      </trkpt>
      <trkpt lat="27.875314" lon="-15.385958">
        <ele>18.577</ele>
        <time>2020-06-13T15:03:10Z</time>
      </trkpt>
      <trkpt lat="27.875285" lon="-15.385788">
        <ele>21.329</ele>
        <time>2020-06-13T15:03:23Z</time>
      </trkpt>
      <trkpt lat="27.875471" lon="-15.385342">
        <ele>24.772</ele>
        <time>2020-06-13T15:03:59Z</time>
      </trkpt>
      <trkpt lat="27.875486" lon="-15.384876">
        <ele>19.472</ele>
        <time>2020-06-13T15:04:31Z</time>
      </trkpt>
      <trkpt lat="27.875384" lon="-15.384625">
        <ele>20.037</ele>
        <time>2020-06-13T15:04:51Z</time>
      </trkpt>
      <trkpt lat="27.875514" lon="-15.383931">
        <ele>20.049</ele>
        <time>2020-06-13T15:05:39Z</time>
      </trkpt>
      <trkpt lat="27.875506" lon="-15.383606">
        <ele>18.513</ele>
        <time>2020-06-13T15:06:03Z</time>
      </trkpt>
      <trkpt lat="27.875704" lon="-15.382895">
        <ele>21.008</ele>
        <time>2020-06-13T15:06:55Z</time>
      </trkpt>
      <trkpt lat="27.875409" lon="-15.382065">
        <ele>18.938</ele>
        <time>2020-06-13T15:07:59Z</time>
      </trkpt>
      <trkpt lat="27.875470" lon="-15.381089">
        <ele>16.673</ele>
        <time>2020-06-13T15:09:09Z</time>
      </trkpt>
      <trkpt lat="27.875304" lon="-15.380952">
        <ele>8.942</ele>
        <time>2020-06-13T15:09:48Z</time>
      </trkpt>
      <trkpt lat="27.875354" lon="-15.380948">
        <ele>9.317</ele>
        <time>2020-06-13T15:09:57Z</time>
      </trkpt>
      <trkpt lat="27.875455" lon="-15.381050">
        <ele>7.143</ele>
        <time>2020-06-13T17:03:45Z</time>
      </trkpt>
      <trkpt lat="27.875403" lon="-15.381131">
        <ele>9.265</ele>
        <time>2020-06-13T17:04:04Z</time>
      </trkpt>
      <trkpt lat="27.875464" lon="-15.381396">
        <ele>12.318</ele>
        <time>2020-06-13T17:04:34Z</time>
      </trkpt>
      <trkpt lat="27.875399" lon="-15.381962">
        <ele>14.568</ele>
        <time>2020-06-13T17:05:24Z</time>
      </trkpt>
      <trkpt lat="27.875058" lon="-15.381865">
        <ele>12.941</ele>
        <time>2020-06-13T17:06:00Z</time>
      </trkpt>
      <trkpt lat="27.874713" lon="-15.381955">
        <ele>13.881</ele>
        <time>2020-06-13T17:06:34Z</time>
      </trkpt>
      <trkpt lat="27.874468" lon="-15.382331">
        <ele>13.709</ele>
        <time>2020-06-13T17:07:09Z</time>
      </trkpt>
      <trkpt lat="27.874233" lon="-15.382393">
        <ele>13.808</ele>
        <time>2020-06-13T17:07:32Z</time>
      </trkpt>
      <trkpt lat="27.873926" lon="-15.382916">
        <ele>14.329</ele>
        <time>2020-06-13T17:08:25Z</time>
      </trkpt>
      <trkpt lat="27.873331" lon="-15.383194">
        <ele>13.194</ele>
        <time>2020-06-13T17:09:31Z</time>
      </trkpt>
      <trkpt lat="27.873054" lon="-15.383511">
        <ele>13.863</ele>
        <time>2020-06-13T17:10:07Z</time>
      </trkpt>
      <trkpt lat="27.872877" lon="-15.383814">
        <ele>12.938</ele>
        <time>2020-06-13T17:10:37Z</time>
      </trkpt>
      <trkpt lat="27.872469" lon="-15.384242">
        <ele>16.034</ele>
        <time>2020-06-13T17:11:30Z</time>
      </trkpt>
      <trkpt lat="27.872174" lon="-15.384774">
        <ele>17.356</ele>
        <time>2020-06-13T17:12:32Z</time>
      </trkpt>
      <trkpt lat="27.871902" lon="-15.384879">
        <ele>15.699</ele>
        <time>2020-06-13T17:12:58Z</time>
      </trkpt>
      <trkpt lat="27.871757" lon="-15.385531">
        <ele>17.519</ele>
        <time>2020-06-13T17:13:49Z</time>
      </trkpt>
      <trkpt lat="27.871729" lon="-15.386312">
        <ele>20.929</ele>
        <time>2020-06-13T17:14:46Z</time>
      </trkpt>
      <trkpt lat="27.871409" lon="-15.386595">
        <ele>23.100</ele>
        <time>2020-06-13T17:15:19Z</time>
      </trkpt>
      <trkpt lat="27.870813" lon="-15.387356">
        <ele>31.320</ele>
        <time>2020-06-13T17:17:05Z</time>
      </trkpt>
      <trkpt lat="27.870531" lon="-15.387504">
        <ele>34.008</ele>
        <time>2020-06-13T17:17:30Z</time>
      </trkpt>
      <trkpt lat="27.870184" lon="-15.387457">
        <ele>34.427</ele>
        <time>2020-06-13T17:17:59Z</time>
      </trkpt>
      <trkpt lat="27.869898" lon="-15.387614">
        <ele>36.392</ele>
        <time>2020-06-13T17:18:24Z</time>
      </trkpt>
      <trkpt lat="27.869578" lon="-15.387553">
        <ele>36.741</ele>
        <time>2020-06-13T17:18:49Z</time>
      </trkpt>
      <trkpt lat="27.868654" lon="-15.387652">
        <ele>35.546</ele>
        <time>2020-06-13T17:20:05Z</time>
      </trkpt>
      <trkpt lat="27.868264" lon="-15.387861">
        <ele>41.372</ele>
        <time>2020-06-13T17:20:37Z</time>
      </trkpt>
      <trkpt lat="27.867920" lon="-15.388213">
        <ele>39.854</ele>
        <time>2020-06-13T17:21:14Z</time>
      </trkpt>
      <trkpt lat="27.867323" lon="-15.388131">
        <ele>34.677</ele>
        <time>2020-06-13T17:22:02Z</time>
      </trkpt>
      <trkpt lat="27.866829" lon="-15.387935">
        <ele>29.527</ele>
        <time>2020-06-13T17:22:43Z</time>
      </trkpt>
      <trkpt lat="27.866368" lon="-15.388036">
        <ele>27.667</ele>
        <time>2020-06-13T17:23:19Z</time>
      </trkpt>
      <trkpt lat="27.865857" lon="-15.387979">
        <ele>28.781</ele>
        <time>2020-06-13T17:24:00Z</time>
      </trkpt>
    </trkseg>
  </trk></gpx>