<?xml version="1.0" encoding="UTF-8"?>
<gpx creator="Wikiloc - https://www.wikiloc.com" version="1.1" xmlns="http://www.topografix.com/GPX/1/1" xmlns:xsi="http://www.w3.org/2001/XMLSchema-instance" xsi:schemaLocation="http://www.topografix.com/GPX/1/1 http://www.topografix.com/GPX/1/1/gpx.xsd">
  <metadata>
    <name>Wikiloc - Fuerteventura Playa de Jarubio desde Los Molinos</name>
    <link href="https://www.wikiloc.com/hiking-trails/fuerteventura-playa-de-jarubio-desde-los-molinos-164847802">
      <text>Fuerteventura Playa de Jarubio desde Los Molinos - Wikiloc on Wikiloc</text>
    </link>
    <time>2024-03-23T19:14:19.511Z</time>
  </metadata>
  <trk>
    <name>Fuerteventura Playa de Jarubio desde Los Molinos - Wikiloc</name>
    <cmt></cmt>
    <desc></desc>
    <trkseg>
      <trkpt lat="28.542634" lon="-14.063229">
        <ele>5.475</ele>
        <time>2024-03-23T16:36:02.830Z</time>
      </trkpt>
      <trkpt lat="28.542575" lon="-14.063211">
        <ele>5.428</ele>
        <time>2024-03-23T16:36:11.575Z</time>
      </trkpt>
      <trkpt lat="28.542662" lon="-14.062889">
        <ele>3.420</ele>
        <time>2024-03-23T16:36:42.575Z</time>
      </trkpt>
      <trkpt lat="28.542907" lon="-14.062827">
        <ele>2.709</ele>
        <time>2024-03-23T16:37:02.575Z</time>
      </trkpt>
      <trkpt lat="28.543087" lon="-14.062894">
        <ele>4.438</ele>
        <time>2024-03-23T16:37:19.575Z</time>
      </trkpt>
      <trkpt lat="28.543014" lon="-14.062494">
        <ele>13.213</ele>
        <time>2024-03-23T16:37:55.575Z</time>
      </trkpt>
      <trkpt lat="28.543061" lon="-14.062343">
        <ele>16.841</ele>
        <time>2024-03-23T16:38:10.575Z</time>
      </trkpt>
      <trkpt lat="28.543303" lon="-14.062753">
        <ele>20.315</ele>
        <time>2024-03-23T16:39:03.574Z</time>
      </trkpt>
      <trkpt lat="28.543435" lon="-14.062833">
        <ele>24.791</ele>
        <time>2024-03-23T16:39:21.574Z</time>
      </trkpt>
      <trkpt lat="28.543637" lon="-14.062519">
        <ele>34.294</ele>
        <time>2024-03-23T16:40:14.574Z</time>
      </trkpt>
      <trkpt lat="28.543831" lon="-14.062529">
        <ele>36.395</ele>
        <time>2024-03-23T16:40:38.574Z</time>
      </trkpt>
      <trkpt lat="28.544368" lon="-14.062927">
        <ele>39.857</ele>
        <time>2024-03-23T16:41:39.573Z</time>
      </trkpt>
      <trkpt lat="28.544703" lon="-14.063047">
        <ele>42.549</ele>
        <time>2024-03-23T16:42:14.573Z</time>
      </trkpt>
      <trkpt lat="28.545172" lon="-14.063353">
        <ele>45.914</ele>
        <time>2024-03-23T16:43:19.572Z</time>
      </trkpt>
      <trkpt lat="28.545412" lon="-14.063854">
        <ele>48.954</ele>
        <time>2024-03-23T16:44:42.572Z</time>
      </trkpt>
      <trkpt lat="28.545363" lon="-14.064233">
        <ele>48.309</ele>
        <time>2024-03-23T16:45:12.571Z</time>
      </trkpt>
      <trkpt lat="28.545845" lon="-14.064594">
        <ele>44.709</ele>
        <time>2024-03-23T16:46:32.571Z</time>
      </trkpt>
      <trkpt lat="28.546006" lon="-14.065102">
        <ele>47.322</ele>
        <time>2024-03-23T16:48:04.570Z</time>
      </trkpt>
      <trkpt lat="28.546069" lon="-14.065022">
        <ele>46.877</ele>
        <time>2024-03-23T16:48:20.570Z</time>
      </trkpt>
      <trkpt lat="28.547191" lon="-14.065314">
        <ele>48.675</ele>
        <time>2024-03-23T16:50:02.569Z</time>
      </trkpt>
      <trkpt lat="28.547271" lon="-14.065161">
        <ele>48.699</ele>
        <time>2024-03-23T16:50:19.569Z</time>
      </trkpt>
      <trkpt lat="28.547425" lon="-14.065104">
        <ele>50.315</ele>
        <time>2024-03-23T16:50:33.569Z</time>
      </trkpt>
      <trkpt lat="28.547554" lon="-14.065200">
        <ele>50.238</ele>
        <time>2024-03-23T16:50:45.569Z</time>
      </trkpt>
      <trkpt lat="28.548259" lon="-14.065308">
        <ele>50.119</ele>
        <time>2024-03-23T16:52:17.568Z</time>
      </trkpt>
      <trkpt lat="28.548551" lon="-14.065013">
        <ele>51.441</ele>
        <time>2024-03-23T16:53:08.568Z</time>
      </trkpt>
      <trkpt lat="28.548766" lon="-14.064995">
        <ele>51.123</ele>
        <time>2024-03-23T16:53:25.568Z</time>
      </trkpt>
      <trkpt lat="28.549787" lon="-14.065735">
        <ele>48.676</ele>
        <time>2024-03-23T16:55:04.567Z</time>
      </trkpt>
      <trkpt lat="28.550036" lon="-14.065775">
        <ele>47.790</ele>
        <time>2024-03-23T16:55:28.567Z</time>
      </trkpt>
      <trkpt lat="28.550435" lon="-14.066019">
        <ele>47.619</ele>
        <time>2024-03-23T16:56:06.566Z</time>
      </trkpt>
      <trkpt lat="28.550855" lon="-14.066043">
        <ele>45.309</ele>
        <time>2024-03-23T16:56:51.566Z</time>
      </trkpt>
      <trkpt lat="28.551370" lon="-14.065263">
        <ele>45.018</ele>
        <time>2024-03-23T16:58:20.565Z</time>
      </trkpt>
      <trkpt lat="28.551664" lon="-14.065180">
        <ele>44.733</ele>
        <time>2024-03-23T16:58:44.565Z</time>
      </trkpt>
      <trkpt lat="28.552037" lon="-14.065262">
        <ele>44.221</ele>
        <time>2024-03-23T16:59:21.565Z</time>
      </trkpt>
      <trkpt lat="28.552344" lon="-14.064627">
        <ele>48.665</ele>
        <time>2024-03-23T17:00:38.564Z</time>
      </trkpt>
      <trkpt lat="28.552650" lon="-14.064284">
        <ele>45.551</ele>
        <time>2024-03-23T17:01:23.564Z</time>
      </trkpt>
      <trkpt lat="28.553003" lon="-14.064088">
        <ele>43.524</ele>
        <time>2024-03-23T17:01:55.564Z</time>
      </trkpt>
      <trkpt lat="28.553352" lon="-14.064059">
        <ele>43.475</ele>
        <time>2024-03-23T17:02:24.563Z</time>
      </trkpt>
      <trkpt lat="28.553763" lon="-14.063791">
        <ele>43.927</ele>
        <time>2024-03-23T17:03:15.563Z</time>
      </trkpt>
      <trkpt lat="28.553910" lon="-14.063403">
        <ele>42.029</ele>
        <time>2024-03-23T17:04:11.563Z</time>
      </trkpt>
      <trkpt lat="28.553584" lon="-14.062857">
        <ele>50.916</ele>
        <time>2024-03-23T17:06:17.562Z</time>
      </trkpt>
      <trkpt lat="28.553339" lon="-14.062148">
        <ele>58.376</ele>
        <time>2024-03-23T17:07:08.562Z</time>
      </trkpt>
      <trkpt lat="28.553243" lon="-14.060989">
        <ele>59.513</ele>
        <time>2024-03-23T17:09:02.561Z</time>
      </trkpt>
      <trkpt lat="28.553640" lon="-14.060181">
        <ele>58.009</ele>
        <time>2024-03-23T17:10:09.560Z</time>
      </trkpt>
      <trkpt lat="28.553863" lon="-14.060067">
        <ele>54.782</ele>
        <time>2024-03-23T17:10:31.560Z</time>
      </trkpt>
      <trkpt lat="28.554026" lon="-14.059849">
        <ele>53.397</ele>
        <time>2024-03-23T17:10:55.560Z</time>
      </trkpt>
      <trkpt lat="28.554227" lon="-14.059805">
        <ele>54.295</ele>
        <time>2024-03-23T17:11:14.560Z</time>
      </trkpt>
      <trkpt lat="28.554479" lon="-14.059594">
        <ele>52.229</ele>
        <time>2024-03-23T17:11:42.560Z</time>
      </trkpt>
      <trkpt lat="28.554631" lon="-14.059240">
        <ele>52.985</ele>
        <time>2024-03-23T17:12:19.559Z</time>
      </trkpt>
      <trkpt lat="28.554959" lon="-14.058817">
        <ele>56.138</ele>
        <time>2024-03-23T17:13:23.559Z</time>
      </trkpt>
      <trkpt lat="28.555531" lon="-14.058263">
        <ele>50.339</ele>
        <time>2024-03-23T17:14:25.558Z</time>
      </trkpt>
      <trkpt lat="28.556090" lon="-14.057943">
        <ele>47.921</ele>
        <time>2024-03-23T17:15:35.558Z</time>
      </trkpt>
      <trkpt lat="28.556589" lon="-14.058081">
        <ele>48.513</ele>
        <time>2024-03-23T17:16:15.558Z</time>
      </trkpt>
      <trkpt lat="28.556976" lon="-14.057953">
        <ele>47.365</ele>
        <time>2024-03-23T17:16:51.557Z</time>
      </trkpt>
      <trkpt lat="28.557924" lon="-14.057903">
        <ele>45.968</ele>
        <time>2024-03-23T17:18:08.557Z</time>
      </trkpt>
      <trkpt lat="28.558977" lon="-14.058258">
        <ele>43.714</ele>
        <time>2024-03-23T17:19:38.556Z</time>
      </trkpt>
      <trkpt lat="28.559458" lon="-14.058169">
        <ele>41.309</ele>
        <time>2024-03-23T17:20:20.556Z</time>
      </trkpt>
      <trkpt lat="28.559685" lon="-14.057506">
        <ele>43.387</ele>
        <time>2024-03-23T17:21:33.556Z</time>
      </trkpt>
      <trkpt lat="28.560962" lon="-14.056606">
        <ele>41.492</ele>
        <time>2024-03-23T17:24:02.555Z</time>
      </trkpt>
      <trkpt lat="28.562383" lon="-14.056310">
        <ele>36.160</ele>
        <time>2024-03-23T17:26:09.554Z</time>
      </trkpt>
      <trkpt lat="28.562504" lon="-14.056473">
        <ele>36.014</ele>
        <time>2024-03-23T17:26:28.554Z</time>
      </trkpt>
      <trkpt lat="28.562875" lon="-14.056605">
        <ele>32.880</ele>
        <time>2024-03-23T17:27:01.553Z</time>
      </trkpt>
      <trkpt lat="28.562991" lon="-14.056352">
        <ele>33.363</ele>
        <time>2024-03-23T17:27:47.553Z</time>
      </trkpt>
      <trkpt lat="28.563797" lon="-14.055811">
        <ele>36.694</ele>
        <time>2024-03-23T17:29:10.552Z</time>
      </trkpt>
      <trkpt lat="28.564939" lon="-14.055552">
        <ele>31.966</ele>
        <time>2024-03-23T17:31:05.552Z</time>
      </trkpt>
      <trkpt lat="28.565188" lon="-14.055124">
        <ele>34.768</ele>
        <time>2024-03-23T17:31:46.551Z</time>
      </trkpt>
      <trkpt lat="28.565238" lon="-14.054666">
        <ele>36.141</ele>
        <time>2024-03-23T17:32:32.551Z</time>
      </trkpt>
      <trkpt lat="28.565458" lon="-14.054110">
        <ele>37.481</ele>
        <time>2024-03-23T17:34:01.550Z</time>
      </trkpt>
      <trkpt lat="28.565783" lon="-14.053693">
        <ele>37.009</ele>
        <time>2024-03-23T17:34:44.550Z</time>
      </trkpt>
      <trkpt lat="28.566183" lon="-14.052886">
        <ele>33.209</ele>
        <time>2024-03-23T17:35:52.550Z</time>
      </trkpt>
      <trkpt lat="28.566553" lon="-14.052457">
        <ele>31.195</ele>
        <time>2024-03-23T17:36:37.549Z</time>
      </trkpt>
      <trkpt lat="28.566929" lon="-14.052311">
        <ele>29.090</ele>
        <time>2024-03-23T17:37:10.549Z</time>
      </trkpt>
      <trkpt lat="28.567235" lon="-14.052358">
        <ele>27.198</ele>
        <time>2024-03-23T17:37:34.549Z</time>
      </trkpt>
      <trkpt lat="28.567395" lon="-14.052488">
        <ele>28.052</ele>
        <time>2024-03-23T17:37:56.549Z</time>
      </trkpt>
      <trkpt lat="28.567796" lon="-14.052542">
        <ele>29.878</ele>
        <time>2024-03-23T17:38:30.549Z</time>
      </trkpt>
      <trkpt lat="28.567939" lon="-14.052490">
        <ele>30.691</ele>
        <time>2024-03-23T17:38:43.549Z</time>
      </trkpt>
      <trkpt lat="28.568245" lon="-14.052266">
        <ele>30.152</ele>
        <time>2024-03-23T17:39:16.548Z</time>
      </trkpt>
      <trkpt lat="28.568336" lon="-14.052072">
        <ele>28.454</ele>
        <time>2024-03-23T17:39:34.548Z</time>
      </trkpt>
      <trkpt lat="28.568383" lon="-14.052048">
        <ele>28.116</ele>
        <time>2024-03-23T17:39:39.548Z</time>
      </trkpt>
      <trkpt lat="28.568341" lon="-14.052146">
        <ele>29.012</ele>
        <time>2024-03-23T17:40:08.548Z</time>
      </trkpt>
      <trkpt lat="28.568501" lon="-14.052015">
        <ele>28.332</ele>
        <time>2024-03-23T17:40:48.548Z</time>
      </trkpt>
      <trkpt lat="28.568493" lon="-14.051743">
        <ele>24.605</ele>
        <time>2024-03-23T17:41:12.547Z</time>
      </trkpt>
      <trkpt lat="28.568682" lon="-14.051221">
        <ele>23.209</ele>
        <time>2024-03-23T17:42:08.547Z</time>
      </trkpt>
      <trkpt lat="28.568603" lon="-14.050930">
        <ele>26.872</ele>
        <time>2024-03-23T17:42:42.547Z</time>
      </trkpt>
      <trkpt lat="28.568887" lon="-14.050417">
        <ele>24.687</ele>
        <time>2024-03-23T17:43:31.546Z</time>
      </trkpt>
      <trkpt lat="28.569117" lon="-14.050325">
        <ele>23.115</ele>
        <time>2024-03-23T17:43:52.546Z</time>
      </trkpt>
      <trkpt lat="28.569880" lon="-14.050434">
        <ele>18.159</ele>
        <time>2024-03-23T17:45:20.545Z</time>
      </trkpt>
      <trkpt lat="28.570272" lon="-14.050395">
        <ele>15.435</ele>
        <time>2024-03-23T17:45:55.545Z</time>
      </trkpt>
      <trkpt lat="28.570251" lon="-14.050222">
        <ele>14.948</ele>
        <time>2024-03-23T17:46:39.545Z</time>
      </trkpt>
      <trkpt lat="28.570386" lon="-14.049787">
        <ele>16.769</ele>
        <time>2024-03-23T17:47:13.545Z</time>
      </trkpt>
      <trkpt lat="28.570522" lon="-14.049714">
        <ele>17.091</ele>
        <time>2024-03-23T17:47:27.544Z</time>
      </trkpt>
      <trkpt lat="28.570378" lon="-14.049695">
        <ele>18.893</ele>
        <time>2024-03-23T17:49:19.544Z</time>
      </trkpt>
      <trkpt lat="28.570257" lon="-14.049426">
        <ele>19.994</ele>
        <time>2024-03-23T17:49:42.543Z</time>
      </trkpt>
      <trkpt lat="28.570106" lon="-14.049398">
        <ele>18.457</ele>
        <time>2024-03-23T17:49:55.543Z</time>
      </trkpt>
      <trkpt lat="28.570011" lon="-14.049233">
        <ele>19.522</ele>
        <time>2024-03-23T17:50:13.543Z</time>
      </trkpt>
      <trkpt lat="28.569897" lon="-14.049337">
        <ele>19.809</ele>
        <time>2024-03-23T17:50:28.543Z</time>
      </trkpt>
      <trkpt lat="28.569759" lon="-14.049287">
        <ele>20.740</ele>
        <time>2024-03-23T17:50:40.543Z</time>
      </trkpt>
      <trkpt lat="28.569369" lon="-14.049355">
        <ele>23.115</ele>
        <time>2024-03-23T17:51:13.543Z</time>
      </trkpt>
      <trkpt lat="28.569074" lon="-14.049132">
        <ele>14.843</ele>
        <time>2024-03-23T17:52:14.542Z</time>
      </trkpt>
      <trkpt lat="28.569428" lon="-14.049097">
        <ele>10.627</ele>
        <time>2024-03-23T17:53:26.542Z</time>
      </trkpt>
      <trkpt lat="28.569878" lon="-14.048685">
        <ele>13.653</ele>
        <time>2024-03-23T17:54:57.541Z</time>
      </trkpt>
      <trkpt lat="28.570366" lon="-14.048727">
        <ele>8.026</ele>
        <time>2024-03-23T17:55:46.541Z</time>
      </trkpt>
      <trkpt lat="28.570707" lon="-14.048855">
        <ele>5.127</ele>
        <time>2024-03-23T17:56:21.541Z</time>
      </trkpt>
      <trkpt lat="28.570893" lon="-14.048795">
        <ele>3.979</ele>
        <time>2024-03-23T17:56:45.541Z</time>
      </trkpt>
      <trkpt lat="28.571838" lon="-14.047894">
        <ele>3.031</ele>
        <time>2024-03-23T17:58:54.540Z</time>
      </trkpt>
      <trkpt lat="28.572066" lon="-14.047482">
        <ele>3.852</ele>
        <time>2024-03-23T17:59:31.539Z</time>
      </trkpt>
      <trkpt lat="28.571781" lon="-14.047515">
        <ele>5.153</ele>
        <time>2024-03-23T18:00:05.539Z</time>
      </trkpt>
      <trkpt lat="28.571425" lon="-14.047402">
        <ele>10.208</ele>
        <time>2024-03-23T18:00:49.539Z</time>
      </trkpt>
      <trkpt lat="28.570852" lon="-14.047539">
        <ele>13.909</ele>
        <time>2024-03-23T18:01:52.539Z</time>
      </trkpt>
      <trkpt lat="28.570790" lon="-14.047462">
        <ele>14.166</ele>
        <time>2024-03-23T18:02:03.539Z</time>
      </trkpt>
      <trkpt lat="28.570646" lon="-14.047473">
        <ele>16.471</ele>
        <time>2024-03-23T18:02:18.538Z</time>
      </trkpt>
      <trkpt lat="28.570320" lon="-14.047061">
        <ele>22.799</ele>
        <time>2024-03-23T18:03:08.538Z</time>
      </trkpt>
      <trkpt lat="28.569540" lon="-14.046754">
        <ele>23.513</ele>
        <time>2024-03-23T18:04:18.538Z</time>
      </trkpt>
      <trkpt lat="28.568972" lon="-14.046980">
        <ele>26.939</ele>
        <time>2024-03-23T18:05:07.538Z</time>
      </trkpt>
      <trkpt lat="28.568300" lon="-14.047508">
        <ele>20.662</ele>
        <time>2024-03-23T18:06:11.537Z</time>
      </trkpt>
      <trkpt lat="28.568182" lon="-14.047693">
        <ele>19.423</ele>
        <time>2024-03-23T18:06:27.537Z</time>
      </trkpt>
      <trkpt lat="28.568229" lon="-14.047857">
        <ele>18.675</ele>
        <time>2024-03-23T18:06:39.537Z</time>
      </trkpt>
      <trkpt lat="28.568491" lon="-14.048105">
        <ele>11.747</ele>
        <time>2024-03-23T18:07:08.537Z</time>
      </trkpt>
      <trkpt lat="28.568452" lon="-14.048301">
        <ele>10.032</ele>
        <time>2024-03-23T18:07:24.536Z</time>
      </trkpt>
      <trkpt lat="28.567988" lon="-14.048513">
        <ele>8.692</ele>
        <time>2024-03-23T18:08:04.536Z</time>
      </trkpt>
      <trkpt lat="28.567490" lon="-14.048485">
        <ele>13.011</ele>
        <time>2024-03-23T18:08:47.536Z</time>
      </trkpt>
      <trkpt lat="28.567240" lon="-14.048678">
        <ele>16.809</ele>
        <time>2024-03-23T18:09:15.536Z</time>
      </trkpt>
      <trkpt lat="28.567261" lon="-14.048886">
        <ele>17.524</ele>
        <time>2024-03-23T18:09:31.536Z</time>
      </trkpt>
      <trkpt lat="28.567446" lon="-14.049004">
        <ele>16.579</ele>
        <time>2024-03-23T18:09:51.536Z</time>
      </trkpt>
      <trkpt lat="28.567629" lon="-14.049399">
        <ele>18.957</ele>
        <time>2024-03-23T18:10:25.535Z</time>
      </trkpt>
      <trkpt lat="28.567680" lon="-14.049681">
        <ele>20.811</ele>
        <time>2024-03-23T18:10:46.535Z</time>
      </trkpt>
      <trkpt lat="28.567557" lon="-14.049865">
        <ele>23.157</ele>
        <time>2024-03-23T18:11:03.535Z</time>
      </trkpt>
      <trkpt lat="28.564909" lon="-14.050236">
        <ele>37.450</ele>
        <time>2024-03-23T18:14:33.534Z</time>
      </trkpt>
      <trkpt lat="28.564287" lon="-14.050490">
        <ele>38.991</ele>
        <time>2024-03-23T18:15:21.533Z</time>
      </trkpt>
      <trkpt lat="28.563002" lon="-14.051545">
        <ele>41.423</ele>
        <time>2024-03-23T18:17:21.533Z</time>
      </trkpt>
      <trkpt lat="28.561653" lon="-14.052208">
        <ele>46.085</ele>
        <time>2024-03-23T18:19:13.532Z</time>
      </trkpt>
      <trkpt lat="28.560610" lon="-14.053217">
        <ele>49.119</ele>
        <time>2024-03-23T18:20:53.531Z</time>
      </trkpt>
      <trkpt lat="28.558886" lon="-14.053796">
        <ele>54.509</ele>
        <time>2024-03-23T18:23:10.530Z</time>
      </trkpt>
      <trkpt lat="28.558079" lon="-14.054276">
        <ele>56.819</ele>
        <time>2024-03-23T18:24:18.530Z</time>
      </trkpt>
      <trkpt lat="28.557477" lon="-14.054480">
        <ele>59.109</ele>
        <time>2024-03-23T18:25:06.530Z</time>
      </trkpt>
      <trkpt lat="28.556431" lon="-14.054986">
        <ele>61.182</ele>
        <time>2024-03-23T18:26:31.529Z</time>
      </trkpt>
      <trkpt lat="28.555156" lon="-14.055151">
        <ele>65.317</ele>
        <time>2024-03-23T18:28:07.527Z</time>
      </trkpt>
      <trkpt lat="28.554663" lon="-14.055090">
        <ele>69.065</ele>
        <time>2024-03-23T18:28:42.528Z</time>
      </trkpt>
      <trkpt lat="28.551292" lon="-14.055592">
        <ele>78.969</ele>
        <time>2024-03-23T18:32:39.527Z</time>
      </trkpt>
      <trkpt lat="28.548845" lon="-14.055113">
        <ele>79.455</ele>
        <time>2024-03-23T18:35:25.525Z</time>
      </trkpt>
      <trkpt lat="28.548294" lon="-14.054847">
        <ele>79.458</ele>
        <time>2024-03-23T18:36:05.525Z</time>
      </trkpt>
      <trkpt lat="28.547929" lon="-14.054777">
        <ele>76.449</ele>
        <time>2024-03-23T18:36:32.525Z</time>
      </trkpt>
      <trkpt lat="28.547709" lon="-14.055022">
        <ele>75.681</ele>
        <time>2024-03-23T18:36:54.525Z</time>
      </trkpt>
      <trkpt lat="28.547437" lon="-14.056037">
        <ele>74.293</ele>
        <time>2024-03-23T18:37:58.524Z</time>
      </trkpt>
      <trkpt lat="28.547293" lon="-14.056320">
        <ele>74.553</ele>
        <time>2024-03-23T18:38:18.524Z</time>
      </trkpt>
      <trkpt lat="28.546888" lon="-14.056606">
        <ele>75.404</ele>
        <time>2024-03-23T18:39:10.524Z</time>
      </trkpt>
      <trkpt lat="28.546296" lon="-14.057436">
        <ele>65.714</ele>
        <time>2024-03-23T18:40:14.523Z</time>
      </trkpt>
      <trkpt lat="28.546306" lon="-14.057928">
        <ele>62.909</ele>
        <time>2024-03-23T18:40:44.523Z</time>
      </trkpt>
      <trkpt lat="28.546141" lon="-14.058929">
        <ele>63.266</ele>
        <time>2024-03-23T18:41:54.523Z</time>
      </trkpt>
      <trkpt lat="28.545971" lon="-14.059519">
        <ele>63.371</ele>
        <time>2024-03-23T18:42:34.523Z</time>
      </trkpt>
      <trkpt lat="28.545801" lon="-14.059820">
        <ele>62.959</ele>
        <time>2024-03-23T18:42:56.522Z</time>
      </trkpt>
      <trkpt lat="28.545919" lon="-14.060412">
        <ele>61.553</ele>
        <time>2024-03-23T18:43:36.522Z</time>
      </trkpt>
      <trkpt lat="28.545477" lon="-14.061633">
        <ele>60.119</ele>
        <time>2024-03-23T18:44:59.522Z</time>
      </trkpt>
      <trkpt lat="28.545292" lon="-14.061529">
        <ele>59.822</ele>
        <time>2024-03-23T18:45:17.522Z</time>
      </trkpt>
      <trkpt lat="28.545183" lon="-14.061822">
        <ele>58.713</ele>
        <time>2024-03-23T18:45:37.521Z</time>
      </trkpt>
      <trkpt lat="28.544970" lon="-14.062074">
        <ele>58.175</ele>
        <time>2024-03-23T18:45:58.521Z</time>
      </trkpt>
      <trkpt lat="28.544655" lon="-14.062185">
        <ele>57.287</ele>
        <time>2024-03-23T18:46:21.521Z</time>
      </trkpt>
      <trkpt lat="28.544443" lon="-14.062156">
        <ele>54.238</ele>
        <time>2024-03-23T18:46:36.521Z</time>
      </trkpt>
      <trkpt lat="28.544260" lon="-14.062254">
        <ele>53.470</ele>
        <time>2024-03-23T18:46:55.521Z</time>
      </trkpt>
      <trkpt lat="28.544016" lon="-14.062159">
        <ele>51.817</ele>
        <time>2024-03-23T18:47:18.521Z</time>
      </trkpt>
      <trkpt lat="28.543713" lon="-14.062302">
        <ele>48.009</ele>
        <time>2024-03-23T18:48:31.520Z</time>
      </trkpt>
      <trkpt lat="28.543572" lon="-14.062233">
        <ele>48.094</ele>
        <time>2024-03-23T18:48:45.520Z</time>
      </trkpt>
      <trkpt lat="28.543621" lon="-14.062627">
        <ele>40.239</ele>
        <time>2024-03-23T18:49:20.520Z</time>
      </trkpt>
      <trkpt lat="28.543474" lon="-14.062787">
        <ele>39.297</ele>
        <time>2024-03-23T18:50:07.520Z</time>
      </trkpt>
      <trkpt lat="28.543297" lon="-14.062684">
        <ele>33.611</ele>
        <time>2024-03-23T18:50:22.520Z</time>
      </trkpt>
      <trkpt lat="28.543106" lon="-14.062357">
        <ele>27.187</ele>
        <time>2024-03-23T18:50:50.520Z</time>
      </trkpt>
      <trkpt lat="28.543078" lon="-14.062885">
        <ele>18.950</ele>
        <time>2024-03-23T18:51:24.519Z</time>
      </trkpt>
      <trkpt lat="28.542949" lon="-14.062822">
        <ele>15.871</ele>
        <time>2024-03-23T18:51:35.519Z</time>
      </trkpt>
      <trkpt lat="28.542797" lon="-14.062892">
        <ele>13.733</ele>
        <time>2024-03-23T18:51:46.519Z</time>
      </trkpt>
      <trkpt lat="28.542558" lon="-14.063267">
        <ele>13.255</ele>
        <time>2024-03-23T18:52:15.519Z</time>
      </trkpt>
      <trkpt lat="28.542704" lon="-14.063742">
        <ele>14.996</ele>
        <time>2024-03-23T18:52:52.519Z</time>
      </trkpt>
      <trkpt lat="28.542702" lon="-14.064048">
        <ele>17.831</ele>
        <time>2024-03-23T18:53:29.519Z</time>
      </trkpt>
      <trkpt lat="28.542755" lon="-14.063909">
        <ele>20.924</ele>
        <time>2024-03-23T19:11:20.512Z</time>
      </trkpt>
      <trkpt lat="28.542570" lon="-14.063327">
        <ele>11.609</ele>
        <time>2024-03-23T19:12:20.512Z</time>
      </trkpt>
      <trkpt lat="28.542668" lon="-14.063290">
        <ele>10.660</ele>
        <time>2024-03-23T19:12:33.511Z</time>
      </trkpt>
      <trkpt lat="28.542833" lon="-14.063399">
        <ele>7.085</ele>
        <time>2024-03-23T19:12:52.511Z</time>
      </trkpt>
      <trkpt lat="28.542842" lon="-14.063339">
        <ele>4.863</ele>
        <time>2024-03-23T19:13:00.511Z</time>
      </trkpt>
      <trkpt lat="28.542619" lon="-14.063142">
        <ele>7.837</ele>
        <time>2024-03-23T19:14:09.511Z</time>
      </trkpt>
      <trkpt lat="28.542543" lon="-14.063203">
        <ele>8.343</ele>
        <time>2024-03-23T19:14:19.511Z</time>
      </trkpt>
    </trkseg>
  </trk></gpx>