<?xml version="1.0" encoding="UTF-8"?>
<gpx version="1.1" creator="Aventuras en Cada Paso" xmlns="http://www.topografix.com/GPX/1/1">
  <metadata>
    <name>Playa de Santiago – Trekking Costa Sur</name>
    <desc>Ruta costera desde Playa de Santiago hacia el este. Acantilados volcánicos, playas de arena negra y el contraste árido del sur de la isla.</desc>
    <author><name>Aventuras en Cada Paso</name></author>
    <time>2026-07-08T08:12:58.200Z</time>
    <keywords>La Gomera, Senderismo, Media, senderismo Canarias</keywords>
  </metadata>
  <wpt lat="28.06" lon="-17.19">
    <name>Playa de Santiago – Trekking Costa Sur</name>
    <desc>Ruta costera desde Playa de Santiago hacia el este. Acantilados volcánicos, playas de arena negra y el contraste árido del sur de la isla. | Isla: La Gomera | Tipo: Senderismo | Dificultad: Media | Distancia: 9km | Duración: 4-8 horas</desc>
    <type>Senderismo</type>
    <extensions>
      <isla>La Gomera</isla>
      <dificultad>Media</dificultad>
      <distancia>9</distancia>
      <duracion>4-8 horas</duracion>
    </extensions>
  </wpt>
</gpx>