<?xml version="1.0" encoding="UTF-8"?>
<gpx creator="Wikiloc - https://www.wikiloc.com" version="1.1" xmlns="http://www.topografix.com/GPX/1/1" xmlns:xsi="http://www.w3.org/2001/XMLSchema-instance" xsi:schemaLocation="http://www.topografix.com/GPX/1/1 http://www.topografix.com/GPX/1/1/gpx.xsd">
  <metadata>
    <name>Wikiloc - GRAN CANARIA: PLAYA SAN AGUSTIN-LAS BURRAS-EL VERIL-DEL COCH...</name>
    <link href="https://www.wikiloc.com/walking-trails/gran-canaria-playa-san-agustin-las-burras-el-veril-del-cochino-y-del-ingles-16-de-abril-de-2022-100750469">
      <text>GRAN CANARIA: PLAYA SAN AGUSTIN-LAS BURRAS-EL VERIL-DEL COCH... on Wikiloc</text>
    </link>
    <time>2022-04-15T18:25:52Z</time>
  </metadata>
  <trk>
    <name>GRAN CANARIA: PLAYA SAN AGUSTIN-LAS BURRAS-EL VERIL-DEL COCH... - Wikiloc</name>
    <cmt></cmt>
    <desc></desc>
    <trkseg>
      <trkpt lat="27.771125" lon="-15.540543">
        <ele>45.751</ele>
        <time>2022-04-15T11:21:11Z</time>
      </trkpt>
      <trkpt lat="27.770985" lon="-15.539797">
        <ele>36.701</ele>
        <time>2022-04-15T11:27:44Z</time>
      </trkpt>
      <trkpt lat="27.770838" lon="-15.539726">
        <ele>36.411</ele>
        <time>2022-04-15T11:28:25Z</time>
      </trkpt>
      <trkpt lat="27.770153" lon="-15.540037">
        <ele>36.909</ele>
        <time>2022-04-15T11:29:48Z</time>
      </trkpt>
      <trkpt lat="27.769640" lon="-15.541117">
        <ele>33.826</ele>
        <time>2022-04-15T11:32:30Z</time>
      </trkpt>
      <trkpt lat="27.768626" lon="-15.541859">
        <ele>34.035</ele>
        <time>2022-04-15T11:35:45Z</time>
      </trkpt>
      <trkpt lat="27.768381" lon="-15.542178">
        <ele>34.395</ele>
        <time>2022-04-15T11:37:18Z</time>
      </trkpt>
      <trkpt lat="27.768403" lon="-15.542636">
        <ele>33.552</ele>
        <time>2022-04-15T11:38:30Z</time>
      </trkpt>
      <trkpt lat="27.768155" lon="-15.542986">
        <ele>34.660</ele>
        <time>2022-04-15T11:39:17Z</time>
      </trkpt>
      <trkpt lat="27.768051" lon="-15.543440">
        <ele>32.985</ele>
        <time>2022-04-15T11:40:05Z</time>
      </trkpt>
      <trkpt lat="27.767903" lon="-15.543612">
        <ele>32.959</ele>
        <time>2022-04-15T11:40:29Z</time>
      </trkpt>
      <trkpt lat="27.767260" lon="-15.543865">
        <ele>32.881</ele>
        <time>2022-04-15T11:41:47Z</time>
      </trkpt>
      <trkpt lat="27.767116" lon="-15.544059">
        <ele>33.744</ele>
        <time>2022-04-15T11:42:17Z</time>
      </trkpt>
      <trkpt lat="27.767005" lon="-15.544722">
        <ele>31.978</ele>
        <time>2022-04-15T11:44:14Z</time>
      </trkpt>
      <trkpt lat="27.767299" lon="-15.547868">
        <ele>31.433</ele>
        <time>2022-04-15T11:50:33Z</time>
      </trkpt>
      <trkpt lat="27.767223" lon="-15.548106">
        <ele>29.926</ele>
        <time>2022-04-15T11:50:57Z</time>
      </trkpt>
      <trkpt lat="27.767010" lon="-15.548117">
        <ele>29.109</ele>
        <time>2022-04-15T11:52:23Z</time>
      </trkpt>
      <trkpt lat="27.767003" lon="-15.548304">
        <ele>29.088</ele>
        <time>2022-04-15T11:52:41Z</time>
      </trkpt>
      <trkpt lat="27.767670" lon="-15.549831">
        <ele>28.057</ele>
        <time>2022-04-15T11:57:24Z</time>
      </trkpt>
      <trkpt lat="27.767542" lon="-15.550480">
        <ele>25.667</ele>
        <time>2022-04-15T11:58:43Z</time>
      </trkpt>
      <trkpt lat="27.767350" lon="-15.551025">
        <ele>25.194</ele>
        <time>2022-04-15T12:00:11Z</time>
      </trkpt>
      <trkpt lat="27.766736" lon="-15.551979">
        <ele>23.912</ele>
        <time>2022-04-15T12:02:15Z</time>
      </trkpt>
      <trkpt lat="27.765924" lon="-15.551909">
        <ele>22.627</ele>
        <time>2022-04-15T12:03:59Z</time>
      </trkpt>
      <trkpt lat="27.765295" lon="-15.551604">
        <ele>22.611</ele>
        <time>2022-04-15T12:05:53Z</time>
      </trkpt>
      <trkpt lat="27.765174" lon="-15.551382">
        <ele>21.323</ele>
        <time>2022-04-15T12:06:45Z</time>
      </trkpt>
      <trkpt lat="27.765207" lon="-15.550892">
        <ele>24.886</ele>
        <time>2022-04-15T12:08:14Z</time>
      </trkpt>
      <trkpt lat="27.765291" lon="-15.551635">
        <ele>22.793</ele>
        <time>2022-04-15T12:10:28Z</time>
      </trkpt>
      <trkpt lat="27.765920" lon="-15.552079">
        <ele>19.865</ele>
        <time>2022-04-15T12:12:03Z</time>
      </trkpt>
      <trkpt lat="27.766285" lon="-15.552681">
        <ele>21.121</ele>
        <time>2022-04-15T12:13:28Z</time>
      </trkpt>
      <trkpt lat="27.765901" lon="-15.553609">
        <ele>20.109</ele>
        <time>2022-04-15T12:36:30Z</time>
      </trkpt>
      <trkpt lat="27.765462" lon="-15.554060">
        <ele>19.570</ele>
        <time>2022-04-15T12:37:53Z</time>
      </trkpt>
      <trkpt lat="27.764398" lon="-15.556695">
        <ele>20.149</ele>
        <time>2022-04-15T12:43:04Z</time>
      </trkpt>
      <trkpt lat="27.763793" lon="-15.558276">
        <ele>19.699</ele>
        <time>2022-04-15T12:45:52Z</time>
      </trkpt>
      <trkpt lat="27.763199" lon="-15.560549">
        <ele>37.886</ele>
        <time>2022-04-15T12:54:37Z</time>
      </trkpt>
      <trkpt lat="27.761796" lon="-15.562669">
        <ele>40.394</ele>
        <time>2022-04-15T13:00:29Z</time>
      </trkpt>
      <trkpt lat="27.758468" lon="-15.566244">
        <ele>39.039</ele>
        <time>2022-04-15T13:11:02Z</time>
      </trkpt>
      <trkpt lat="27.758576" lon="-15.565999">
        <ele>34.073</ele>
        <time>2022-04-15T13:12:01Z</time>
      </trkpt>
      <trkpt lat="27.757317" lon="-15.566173">
        <ele>14.845</ele>
        <time>2022-04-15T13:15:52Z</time>
      </trkpt>
      <trkpt lat="27.755760" lon="-15.566808">
        <ele>14.898</ele>
        <time>2022-04-15T13:19:45Z</time>
      </trkpt>
      <trkpt lat="27.753246" lon="-15.567589">
        <ele>15.398</ele>
        <time>2022-04-15T13:24:30Z</time>
      </trkpt>
      <trkpt lat="27.747980" lon="-15.568448">
        <ele>17.215</ele>
        <time>2022-04-15T13:33:44Z</time>
      </trkpt>
      <trkpt lat="27.748569" lon="-15.568164">
        <ele>7.926</ele>
        <time>2022-04-15T15:12:41Z</time>
      </trkpt>
      <trkpt lat="27.753130" lon="-15.567384">
        <ele>8.009</ele>
        <time>2022-04-15T15:21:57Z</time>
      </trkpt>
      <trkpt lat="27.755859" lon="-15.566529">
        <ele>7.410</ele>
        <time>2022-04-15T15:27:10Z</time>
      </trkpt>
      <trkpt lat="27.758594" lon="-15.565186">
        <ele>6.569</ele>
        <time>2022-04-15T15:33:37Z</time>
      </trkpt>
      <trkpt lat="27.760252" lon="-15.563870">
        <ele>8.499</ele>
        <time>2022-04-15T15:38:32Z</time>
      </trkpt>
      <trkpt lat="27.760375" lon="-15.563494">
        <ele>7.556</ele>
        <time>2022-04-15T15:39:18Z</time>
      </trkpt>
      <trkpt lat="27.760881" lon="-15.562963">
        <ele>6.824</ele>
        <time>2022-04-15T15:42:56Z</time>
      </trkpt>
      <trkpt lat="27.761300" lon="-15.562264">
        <ele>8.349</ele>
        <time>2022-04-15T15:44:22Z</time>
      </trkpt>
      <trkpt lat="27.762048" lon="-15.561608">
        <ele>8.713</ele>
        <time>2022-04-15T15:47:18Z</time>
      </trkpt>
      <trkpt lat="27.762168" lon="-15.560961">
        <ele>7.615</ele>
        <time>2022-04-15T15:48:50Z</time>
      </trkpt>
      <trkpt lat="27.762805" lon="-15.559598">
        <ele>7.938</ele>
        <time>2022-04-15T15:52:30Z</time>
      </trkpt>
      <trkpt lat="27.763812" lon="-15.558288">
        <ele>12.855</ele>
        <time>2022-04-15T16:03:24Z</time>
      </trkpt>
      <trkpt lat="27.765461" lon="-15.553991">
        <ele>12.407</ele>
        <time>2022-04-15T16:11:10Z</time>
      </trkpt>
      <trkpt lat="27.766009" lon="-15.553383">
        <ele>12.817</ele>
        <time>2022-04-15T16:13:00Z</time>
      </trkpt>
      <trkpt lat="27.766404" lon="-15.552345">
        <ele>10.509</ele>
        <time>2022-04-15T16:14:56Z</time>
      </trkpt>
      <trkpt lat="27.766955" lon="-15.551815">
        <ele>10.196</ele>
        <time>2022-04-15T16:16:08Z</time>
      </trkpt>
      <trkpt lat="27.767561" lon="-15.550571">
        <ele>12.015</ele>
        <time>2022-04-15T16:19:30Z</time>
      </trkpt>
      <trkpt lat="27.767680" lon="-15.549951">
        <ele>12.845</ele>
        <time>2022-04-15T16:21:03Z</time>
      </trkpt>
      <trkpt lat="27.767115" lon="-15.548757">
        <ele>16.882</ele>
        <time>2022-04-15T16:23:51Z</time>
      </trkpt>
      <trkpt lat="27.767008" lon="-15.548122">
        <ele>16.570</ele>
        <time>2022-04-15T16:26:43Z</time>
      </trkpt>
      <trkpt lat="27.767199" lon="-15.548117">
        <ele>16.885</ele>
        <time>2022-04-15T16:27:35Z</time>
      </trkpt>
      <trkpt lat="27.767313" lon="-15.547897">
        <ele>18.169</ele>
        <time>2022-04-15T16:28:26Z</time>
      </trkpt>
      <trkpt lat="27.767058" lon="-15.545964">
        <ele>18.481</ele>
        <time>2022-04-15T16:31:42Z</time>
      </trkpt>
      <trkpt lat="27.767143" lon="-15.545581">
        <ele>18.644</ele>
        <time>2022-04-15T16:32:14Z</time>
      </trkpt>
      <trkpt lat="27.767003" lon="-15.544733">
        <ele>16.192</ele>
        <time>2022-04-15T16:33:32Z</time>
      </trkpt>
      <trkpt lat="27.767086" lon="-15.544135">
        <ele>15.873</ele>
        <time>2022-04-15T16:34:27Z</time>
      </trkpt>
      <trkpt lat="27.767353" lon="-15.543835">
        <ele>15.620</ele>
        <time>2022-04-15T16:35:04Z</time>
      </trkpt>
      <trkpt lat="27.767974" lon="-15.543615">
        <ele>25.509</ele>
        <time>2022-04-15T17:48:29Z</time>
      </trkpt>
      <trkpt lat="27.768398" lon="-15.542717">
        <ele>24.250</ele>
        <time>2022-04-15T17:52:49Z</time>
      </trkpt>
      <trkpt lat="27.768468" lon="-15.542117">
        <ele>23.149</ele>
        <time>2022-04-15T17:55:25Z</time>
      </trkpt>
      <trkpt lat="27.769642" lon="-15.541156">
        <ele>21.069</ele>
        <time>2022-04-15T17:58:19Z</time>
      </trkpt>
      <trkpt lat="27.770227" lon="-15.540028">
        <ele>21.056</ele>
        <time>2022-04-15T18:00:59Z</time>
      </trkpt>
      <trkpt lat="27.771057" lon="-15.539604">
        <ele>19.314</ele>
        <time>2022-04-15T18:02:36Z</time>
      </trkpt>
      <trkpt lat="27.771212" lon="-15.539329">
        <ele>18.719</ele>
        <time>2022-04-15T18:03:19Z</time>
      </trkpt>
      <trkpt lat="27.771158" lon="-15.538818">
        <ele>18.763</ele>
        <time>2022-04-15T18:04:29Z</time>
      </trkpt>
      <trkpt lat="27.770534" lon="-15.538223">
        <ele>17.065</ele>
        <time>2022-04-15T18:06:15Z</time>
      </trkpt>
      <trkpt lat="27.770446" lon="-15.537473">
        <ele>17.268</ele>
        <time>2022-04-15T18:08:23Z</time>
      </trkpt>
      <trkpt lat="27.770252" lon="-15.537247">
        <ele>15.385</ele>
        <time>2022-04-15T18:09:27Z</time>
      </trkpt>
      <trkpt lat="27.769983" lon="-15.536345">
        <ele>15.589</ele>
        <time>2022-04-15T18:11:32Z</time>
      </trkpt>
      <trkpt lat="27.769868" lon="-15.536573">
        <ele>14.417</ele>
        <time>2022-04-15T18:12:42Z</time>
      </trkpt>
      <trkpt lat="27.769973" lon="-15.536532">
        <ele>14.009</ele>
        <time>2022-04-15T18:13:28Z</time>
      </trkpt>
      <trkpt lat="27.770419" lon="-15.537583">
        <ele>12.869</ele>
        <time>2022-04-15T18:15:52Z</time>
      </trkpt>
      <trkpt lat="27.770603" lon="-15.538512">
        <ele>7.828</ele>
        <time>2022-04-15T18:19:07Z</time>
      </trkpt>
      <trkpt lat="27.770580" lon="-15.539042">
        <ele>7.428</ele>
        <time>2022-04-15T18:20:10Z</time>
      </trkpt>
      <trkpt lat="27.771033" lon="-15.539587">
        <ele>8.315</ele>
        <time>2022-04-15T18:21:40Z</time>
      </trkpt>
      <trkpt lat="27.771240" lon="-15.540518">
        <ele>15.083</ele>
        <time>2022-04-15T18:25:52Z</time>
      </trkpt>
    </trkseg>
  </trk></gpx>