<?xml version="1.0" encoding="UTF-8"?>
<gpx version="1.1" creator="Aventuras en Cada Paso" xmlns="http://www.topografix.com/GPX/1/1">
  <metadata>
    <name>Las Playitas – Costa Sur Este</name>
    <desc>Circular con subibajas constantes y vistas a la costa este. Paisaje volcánico rojizo, playas poco frecuentadas y la sensación de explorar el sur más tranquilo.</desc>
    <author><name>Aventuras en Cada Paso</name></author>
    <time>2026-07-08T08:12:58.181Z</time>
    <keywords>Fuerteventura, Senderismo, Media, senderismo Canarias</keywords>
  </metadata>
  <wpt lat="28.2167" lon="-13.9833">
    <name>Las Playitas – Costa Sur Este</name>
    <desc>Circular con subibajas constantes y vistas a la costa este. Paisaje volcánico rojizo, playas poco frecuentadas y la sensación de explorar el sur más tranquilo. | Isla: Fuerteventura | Tipo: Senderismo | Dificultad: Media | Distancia: 9km | Duración: 2-4 horas</desc>
    <type>Senderismo</type>
    <extensions>
      <isla>Fuerteventura</isla>
      <dificultad>Media</dificultad>
      <distancia>9</distancia>
      <duracion>2-4 horas</duracion>
    </extensions>
  </wpt>
</gpx>