<?xml version="1.0" encoding="UTF-8"?>
<gpx version="1.1" creator="Aventuras en Cada Paso" xmlns="http://www.topografix.com/GPX/1/1">
  <metadata>
    <name>Risco de Famara – Playa del Risco</name>
    <desc>Bajada desde el acantilado hasta la solitaria Playa del Risco. Vistas a La Graciosa en el descenso. Pendiente considerable, buen calzado.</desc>
    <author><name>Aventuras en Cada Paso</name></author>
    <time>2026-07-08T08:12:58.172Z</time>
    <keywords>Lanzarote, Senderismo, Media, senderismo Canarias</keywords>
  </metadata>
  <wpt lat="29.1983" lon="-13.5111">
    <name>Risco de Famara – Playa del Risco</name>
    <desc>Bajada desde el acantilado hasta la solitaria Playa del Risco. Vistas a La Graciosa en el descenso. Pendiente considerable, buen calzado. | Isla: Lanzarote | Tipo: Senderismo | Dificultad: Media | Distancia: 5km | Duración: 2-4 horas</desc>
    <type>Senderismo</type>
    <extensions>
      <isla>Lanzarote</isla>
      <dificultad>Media</dificultad>
      <distancia>5</distancia>
      <duracion>2-4 horas</duracion>
    </extensions>
  </wpt>
</gpx>