<?xml version="1.0" encoding="UTF-8"?>
<gpx creator="Wikiloc - https://www.wikiloc.com" version="1.1" xmlns="http://www.topografix.com/GPX/1/1" xmlns:xsi="http://www.w3.org/2001/XMLSchema-instance" xsi:schemaLocation="http://www.topografix.com/GPX/1/1 http://www.topografix.com/GPX/1/1/gpx.xsd">
  <metadata>
    <name>Wikiloc - 262. Playa de La Calera (La Concha de Lobos)</name>
    <link href="https://www.wikiloc.com/swimming-trails/262-playa-de-la-calera-la-concha-de-lobos-185525733">
      <text>262. Playa de La Calera (La Concha de Lobos) - Wikiloc on Wikiloc</text>
    </link>
    <time>2024-09-20T14:11:29Z</time>
  </metadata>
  <trk>
    <name>262. Playa de La Calera (La Concha de Lobos) - Wikiloc</name>
    <cmt></cmt>
    <desc></desc>
    <trkseg>
      <trkpt lat="28.742157" lon="-13.826466">
        <ele>4.517</ele>
        <time>2024-09-20T13:49:06Z</time>
      </trkpt>
      <trkpt lat="28.742116" lon="-13.826422">
        <ele>4.087</ele>
        <time>2024-09-20T13:49:07Z</time>
      </trkpt>
      <trkpt lat="28.742067" lon="-13.826299">
        <ele>3.615</ele>
        <time>2024-09-20T13:49:32Z</time>
      </trkpt>
      <trkpt lat="28.742053" lon="-13.826155">
        <ele>4.009</ele>
        <time>2024-09-20T13:49:52Z</time>
      </trkpt>
      <trkpt lat="28.742055" lon="-13.825920">
        <ele>2.452</ele>
        <time>2024-09-20T13:50:28Z</time>
      </trkpt>
      <trkpt lat="28.742040" lon="-13.825834">
        <ele>1.469</ele>
        <time>2024-09-20T13:50:40Z</time>
      </trkpt>
      <trkpt lat="28.742020" lon="-13.825765">
        <ele>0.946</ele>
        <time>2024-09-20T13:50:50Z</time>
      </trkpt>
      <trkpt lat="28.741983" lon="-13.825686">
        <ele>0.326</ele>
        <time>2024-09-20T13:51:04Z</time>
      </trkpt>
      <trkpt lat="28.741948" lon="-13.825637">
        <ele>0.093</ele>
        <time>2024-09-20T13:51:15Z</time>
      </trkpt>
      <trkpt lat="28.741889" lon="-13.825581">
        <ele>-0.346</ele>
        <time>2024-09-20T13:51:29Z</time>
      </trkpt>
      <trkpt lat="28.741776" lon="-13.825492">
        <ele>-0.148</ele>
        <time>2024-09-20T13:51:52Z</time>
      </trkpt>
      <trkpt lat="28.741728" lon="-13.825438">
        <ele>0.354</ele>
        <time>2024-09-20T13:52:04Z</time>
      </trkpt>
      <trkpt lat="28.741700" lon="-13.825380">
        <ele>0.984</ele>
        <time>2024-09-20T13:52:24Z</time>
      </trkpt>
      <trkpt lat="28.741686" lon="-13.825315">
        <ele>1.564</ele>
        <time>2024-09-20T13:52:46Z</time>
      </trkpt>
      <trkpt lat="28.741693" lon="-13.825296">
        <ele>1.706</ele>
        <time>2024-09-20T13:53:03Z</time>
      </trkpt>
      <trkpt lat="28.741701" lon="-13.825320">
        <ele>1.516</ele>
        <time>2024-09-20T13:53:27Z</time>
      </trkpt>
      <trkpt lat="28.741703" lon="-13.825385">
        <ele>0.809</ele>
        <time>2024-09-20T13:53:48Z</time>
      </trkpt>
      <trkpt lat="28.741681" lon="-13.825564">
        <ele>-1.137</ele>
        <time>2024-09-20T13:54:09Z</time>
      </trkpt>
      <trkpt lat="28.741698" lon="-13.825586">
        <ele>-1.384</ele>
        <time>2024-09-20T13:54:17Z</time>
      </trkpt>
      <trkpt lat="28.741710" lon="-13.825646">
        <ele>-1.971</ele>
        <time>2024-09-20T13:54:29Z</time>
      </trkpt>
      <trkpt lat="28.741720" lon="-13.825651">
        <ele>-1.981</ele>
        <time>2024-09-20T13:54:32Z</time>
      </trkpt>
      <trkpt lat="28.741734" lon="-13.825677">
        <ele>-2.158</ele>
        <time>2024-09-20T13:54:39Z</time>
      </trkpt>
      <trkpt lat="28.741767" lon="-13.825841">
        <ele>-3.271</ele>
        <time>2024-09-20T13:55:05Z</time>
      </trkpt>
      <trkpt lat="28.741790" lon="-13.825918">
        <ele>-2.523</ele>
        <time>2024-09-20T13:55:17Z</time>
      </trkpt>
      <trkpt lat="28.741830" lon="-13.826017">
        <ele>-1.229</ele>
        <time>2024-09-20T13:55:35Z</time>
      </trkpt>
      <trkpt lat="28.741875" lon="-13.826103">
        <ele>0.789</ele>
        <time>2024-09-20T13:55:56Z</time>
      </trkpt>
      <trkpt lat="28.741860" lon="-13.826150">
        <ele>0.013</ele>
        <time>2024-09-20T13:56:06Z</time>
      </trkpt>
      <trkpt lat="28.741850" lon="-13.826260">
        <ele>-0.943</ele>
        <time>2024-09-20T13:56:28Z</time>
      </trkpt>
      <trkpt lat="28.741869" lon="-13.826356">
        <ele>-1.007</ele>
        <time>2024-09-20T13:56:51Z</time>
      </trkpt>
      <trkpt lat="28.741885" lon="-13.826398">
        <ele>-0.809</ele>
        <time>2024-09-20T13:57:03Z</time>
      </trkpt>
      <trkpt lat="28.741830" lon="-13.826546">
        <ele>-3.152</ele>
        <time>2024-09-20T13:57:42Z</time>
      </trkpt>
      <trkpt lat="28.741830" lon="-13.826608">
        <ele>-3.479</ele>
        <time>2024-09-20T13:57:52Z</time>
      </trkpt>
      <trkpt lat="28.741846" lon="-13.826715">
        <ele>-3.116</ele>
        <time>2024-09-20T13:58:11Z</time>
      </trkpt>
      <trkpt lat="28.741838" lon="-13.826789">
        <ele>-3.136</ele>
        <time>2024-09-20T13:58:24Z</time>
      </trkpt>
      <trkpt lat="28.741777" lon="-13.826946">
        <ele>-4.243</ele>
        <time>2024-09-20T13:58:53Z</time>
      </trkpt>
      <trkpt lat="28.741751" lon="-13.827079">
        <ele>-3.416</ele>
        <time>2024-09-20T13:59:15Z</time>
      </trkpt>
      <trkpt lat="28.741710" lon="-13.827234">
        <ele>-2.278</ele>
        <time>2024-09-20T13:59:47Z</time>
      </trkpt>
      <trkpt lat="28.741705" lon="-13.827295">
        <ele>-1.574</ele>
        <time>2024-09-20T14:00:05Z</time>
      </trkpt>
      <trkpt lat="28.741672" lon="-13.827348">
        <ele>-1.174</ele>
        <time>2024-09-20T14:00:20Z</time>
      </trkpt>
      <trkpt lat="28.741564" lon="-13.827450">
        <ele>-0.429</ele>
        <time>2024-09-20T14:00:47Z</time>
      </trkpt>
      <trkpt lat="28.741523" lon="-13.827495">
        <ele>-0.100</ele>
        <time>2024-09-20T14:00:57Z</time>
      </trkpt>
      <trkpt lat="28.741480" lon="-13.827557">
        <ele>-0.620</ele>
        <time>2024-09-20T14:01:15Z</time>
      </trkpt>
      <trkpt lat="28.741403" lon="-13.827632">
        <ele>-1.809</ele>
        <time>2024-09-20T14:01:32Z</time>
      </trkpt>
      <trkpt lat="28.741324" lon="-13.827685">
        <ele>-2.333</ele>
        <time>2024-09-20T14:01:48Z</time>
      </trkpt>
      <trkpt lat="28.741207" lon="-13.827737">
        <ele>-2.740</ele>
        <time>2024-09-20T14:02:14Z</time>
      </trkpt>
      <trkpt lat="28.741073" lon="-13.827826">
        <ele>-2.347</ele>
        <time>2024-09-20T14:02:38Z</time>
      </trkpt>
      <trkpt lat="28.741000" lon="-13.827857">
        <ele>-0.587</ele>
        <time>2024-09-20T14:02:54Z</time>
      </trkpt>
      <trkpt lat="28.740997" lon="-13.827846">
        <ele>-0.534</ele>
        <time>2024-09-20T14:03:00Z</time>
      </trkpt>
      <trkpt lat="28.740968" lon="-13.827840">
        <ele>0.237</ele>
        <time>2024-09-20T14:03:10Z</time>
      </trkpt>
      <trkpt lat="28.740954" lon="-13.827824">
        <ele>0.339</ele>
        <time>2024-09-20T14:03:18Z</time>
      </trkpt>
      <trkpt lat="28.740853" lon="-13.827816">
        <ele>2.445</ele>
        <time>2024-09-20T14:03:40Z</time>
      </trkpt>
      <trkpt lat="28.740762" lon="-13.827800">
        <ele>3.595</ele>
        <time>2024-09-20T14:03:55Z</time>
      </trkpt>
      <trkpt lat="28.740667" lon="-13.827778">
        <ele>4.426</ele>
        <time>2024-09-20T14:04:09Z</time>
      </trkpt>
      <trkpt lat="28.740644" lon="-13.827758">
        <ele>4.647</ele>
        <time>2024-09-20T14:04:15Z</time>
      </trkpt>
      <trkpt lat="28.740567" lon="-13.827767">
        <ele>5.811</ele>
        <time>2024-09-20T14:05:00Z</time>
      </trkpt>
      <trkpt lat="28.740612" lon="-13.827744">
        <ele>4.909</ele>
        <time>2024-09-20T14:05:27Z</time>
      </trkpt>
      <trkpt lat="28.740675" lon="-13.827691">
        <ele>3.733</ele>
        <time>2024-09-20T14:05:42Z</time>
      </trkpt>
      <trkpt lat="28.740838" lon="-13.827506">
        <ele>0.050</ele>
        <time>2024-09-20T14:06:20Z</time>
      </trkpt>
      <trkpt lat="28.741052" lon="-13.827313">
        <ele>-0.697</ele>
        <time>2024-09-20T14:07:15Z</time>
      </trkpt>
      <trkpt lat="28.741074" lon="-13.827254">
        <ele>-0.777</ele>
        <time>2024-09-20T14:07:24Z</time>
      </trkpt>
      <trkpt lat="28.741139" lon="-13.827166">
        <ele>-1.464</ele>
        <time>2024-09-20T14:07:42Z</time>
      </trkpt>
      <trkpt lat="28.741247" lon="-13.827084">
        <ele>-3.297</ele>
        <time>2024-09-20T14:08:06Z</time>
      </trkpt>
      <trkpt lat="28.741370" lon="-13.826944">
        <ele>-6.619</ele>
        <time>2024-09-20T14:08:39Z</time>
      </trkpt>
      <trkpt lat="28.741578" lon="-13.826762">
        <ele>-8.545</ele>
        <time>2024-09-20T14:09:28Z</time>
      </trkpt>
      <trkpt lat="28.741671" lon="-13.826701">
        <ele>-8.645</ele>
        <time>2024-09-20T14:09:49Z</time>
      </trkpt>
      <trkpt lat="28.741760" lon="-13.826673">
        <ele>-5.965</ele>
        <time>2024-09-20T14:10:09Z</time>
      </trkpt>
      <trkpt lat="28.741833" lon="-13.826671">
        <ele>-3.668</ele>
        <time>2024-09-20T14:10:24Z</time>
      </trkpt>
      <trkpt lat="28.741977" lon="-13.826687">
        <ele>0.614</ele>
        <time>2024-09-20T14:10:55Z</time>
      </trkpt>
      <trkpt lat="28.742026" lon="-13.826686">
        <ele>1.509</ele>
        <time>2024-09-20T14:11:06Z</time>
      </trkpt>
      <trkpt lat="28.742031" lon="-13.826695">
        <ele>1.697</ele>
        <time>2024-09-20T14:11:09Z</time>
      </trkpt>
      <trkpt lat="28.742073" lon="-13.826697">
        <ele>2.324</ele>
        <time>2024-09-20T14:11:17Z</time>
      </trkpt>
      <trkpt lat="28.742082" lon="-13.826693">
        <ele>2.591</ele>
        <time>2024-09-20T14:11:18Z</time>
      </trkpt>
      <trkpt lat="28.742075" lon="-13.826683">
        <ele>2.421</ele>
        <time>2024-09-20T14:11:19Z</time>
      </trkpt>
      <trkpt lat="28.742093" lon="-13.826679">
        <ele>2.738</ele>
        <time>2024-09-20T14:11:23Z</time>
      </trkpt>
      <trkpt lat="28.742093" lon="-13.826670">
        <ele>2.741</ele>
        <time>2024-09-20T14:11:26Z</time>
      </trkpt>
      <trkpt lat="28.742109" lon="-13.826665">
        <ele>3.013</ele>
        <time>2024-09-20T14:11:29Z</time>
      </trkpt>
    </trkseg>
  </trk></gpx>