<?xml version="1.0" encoding="UTF-8"?>
<gpx version="1.1" creator="Aventuras en Cada Paso" xmlns="http://www.topografix.com/GPX/1/1">
  <metadata>
    <name>Playa Francesa – Graciosa</name>
    <desc>Sendero en bicicleta o a pie hasta la Playa Francesa, la más cercana a Caleta de Sebo. Aguas turquesas protegidas y arena dorada sin masificación turística.</desc>
    <author><name>Aventuras en Cada Paso</name></author>
    <time>2026-07-08T08:12:58.210Z</time>
    <keywords>La Graciosa, Senderismo, Fácil, senderismo Canarias</keywords>
  </metadata>
  <wpt lat="29.225" lon="-13.51">
    <name>Playa Francesa – Graciosa</name>
    <desc>Sendero en bicicleta o a pie hasta la Playa Francesa, la más cercana a Caleta de Sebo. Aguas turquesas protegidas y arena dorada sin masificación turística. | Isla: La Graciosa | Tipo: Senderismo | Dificultad: Fácil | Distancia: 5km | Duración: 2-4 horas</desc>
    <type>Senderismo</type>
    <extensions>
      <isla>La Graciosa</isla>
      <dificultad>Fácil</dificultad>
      <distancia>5</distancia>
      <duracion>2-4 horas</duracion>
    </extensions>
  </wpt>
</gpx>