<?xml version="1.0" encoding="UTF-8"?>
<gpx version="1.1" creator="Aventuras en Cada Paso" xmlns="http://www.topografix.com/GPX/1/1">
  <metadata>
    <name>Las Portelas – Monte del Agua</name>
    <desc>Laurisilva muy bien conservada en el Parque Rural de Teno gomero. Vistas al norte de La Gomera y senderos de niebla únicos en Europa.</desc>
    <author><name>Aventuras en Cada Paso</name></author>
    <time>2026-07-08T08:12:58.196Z</time>
    <keywords>La Gomera, Senderismo, Media, senderismo Canarias</keywords>
  </metadata>
  <wpt lat="28.1847" lon="-17.2767">
    <name>Las Portelas – Monte del Agua</name>
    <desc>Laurisilva muy bien conservada en el Parque Rural de Teno gomero. Vistas al norte de La Gomera y senderos de niebla únicos en Europa. | Isla: La Gomera | Tipo: Senderismo | Dificultad: Media | Distancia: 14km | Duración: 4-8 horas</desc>
    <type>Senderismo</type>
    <extensions>
      <isla>La Gomera</isla>
      <dificultad>Media</dificultad>
      <distancia>14</distancia>
      <duracion>4-8 horas</duracion>
    </extensions>
  </wpt>
</gpx>