<?xml version="1.0" encoding="UTF-8"?>
<gpx creator="Wikiloc - https://www.wikiloc.com" version="1.1" xmlns="http://www.topografix.com/GPX/1/1" xmlns:xsi="http://www.w3.org/2001/XMLSchema-instance" xsi:schemaLocation="http://www.topografix.com/GPX/1/1 http://www.topografix.com/GPX/1/1/gpx.xsd">
  <metadata>
    <name>Wikiloc - Mocanal- Mirador del pozo de las Calcosas. El Hierro - Wikil...</name>
    <link href="https://www.wikiloc.com/hiking-trails/mocanal-mirador-del-pozo-de-las-calcosas-el-hierro-77347251">
      <text>Mocanal- Mirador del pozo de las Calcosas. El Hierro - Wikil... on Wikiloc</text>
    </link>
    <time>2021-07-03T23:00:22Z</time>
  </metadata>
  <trk>
    <name>Mocanal- Mirador del pozo de las Calcosas. El Hierro - Wikil... - Wikiloc</name>
    <cmt></cmt>
    <desc></desc>
    <trkseg>
      <trkpt lat="27.821721" lon="-17.943571">
        <ele>481.967</ele>
        <time>2021-07-03T20:04:34Z</time>
      </trkpt>
      <trkpt lat="27.821898" lon="-17.943766">
        <ele>463.981</ele>
        <time>2021-07-03T20:05:59Z</time>
      </trkpt>
      <trkpt lat="27.822043" lon="-17.943765">
        <ele>463.519</ele>
        <time>2021-07-03T20:06:15Z</time>
      </trkpt>
      <trkpt lat="27.821816" lon="-17.943737">
        <ele>463.708</ele>
        <time>2021-07-03T20:06:55Z</time>
      </trkpt>
      <trkpt lat="27.821814" lon="-17.943686">
        <ele>465.883</ele>
        <time>2021-07-03T20:07:05Z</time>
      </trkpt>
      <trkpt lat="27.821811" lon="-17.943738">
        <ele>462.983</ele>
        <time>2021-07-03T20:07:38Z</time>
      </trkpt>
      <trkpt lat="27.821949" lon="-17.943718">
        <ele>459.529</ele>
        <time>2021-07-03T20:08:00Z</time>
      </trkpt>
      <trkpt lat="27.822170" lon="-17.943808">
        <ele>455.180</ele>
        <time>2021-07-03T20:09:04Z</time>
      </trkpt>
      <trkpt lat="27.822742" lon="-17.943729">
        <ele>442.963</ele>
        <time>2021-07-03T20:10:34Z</time>
      </trkpt>
      <trkpt lat="27.823459" lon="-17.943927">
        <ele>430.268</ele>
        <time>2021-07-03T20:13:16Z</time>
      </trkpt>
      <trkpt lat="27.823659" lon="-17.944045">
        <ele>424.351</ele>
        <time>2021-07-03T20:14:03Z</time>
      </trkpt>
      <trkpt lat="27.823933" lon="-17.943846">
        <ele>416.737</ele>
        <time>2021-07-03T20:15:03Z</time>
      </trkpt>
      <trkpt lat="27.824115" lon="-17.943810">
        <ele>411.983</ele>
        <time>2021-07-03T20:15:34Z</time>
      </trkpt>
      <trkpt lat="27.824203" lon="-17.943687">
        <ele>408.925</ele>
        <time>2021-07-03T20:16:03Z</time>
      </trkpt>
      <trkpt lat="27.824336" lon="-17.943633">
        <ele>406.717</ele>
        <time>2021-07-03T20:16:35Z</time>
      </trkpt>
      <trkpt lat="27.824363" lon="-17.943482">
        <ele>403.008</ele>
        <time>2021-07-03T20:17:01Z</time>
      </trkpt>
      <trkpt lat="27.824662" lon="-17.943345">
        <ele>394.145</ele>
        <time>2021-07-03T20:18:16Z</time>
      </trkpt>
      <trkpt lat="27.825006" lon="-17.943401">
        <ele>390.265</ele>
        <time>2021-07-03T20:18:49Z</time>
      </trkpt>
      <trkpt lat="27.825837" lon="-17.943396">
        <ele>376.741</ele>
        <time>2021-07-03T20:20:46Z</time>
      </trkpt>
      <trkpt lat="27.826382" lon="-17.943306">
        <ele>364.682</ele>
        <time>2021-07-03T20:22:25Z</time>
      </trkpt>
      <trkpt lat="27.826444" lon="-17.943247">
        <ele>358.935</ele>
        <time>2021-07-03T20:23:02Z</time>
      </trkpt>
      <trkpt lat="27.826686" lon="-17.943378">
        <ele>352.780</ele>
        <time>2021-07-03T20:23:56Z</time>
      </trkpt>
      <trkpt lat="27.827247" lon="-17.943343">
        <ele>346.663</ele>
        <time>2021-07-03T20:25:17Z</time>
      </trkpt>
      <trkpt lat="27.827343" lon="-17.943173">
        <ele>346.699</ele>
        <time>2021-07-03T20:26:11Z</time>
      </trkpt>
      <trkpt lat="27.827551" lon="-17.943088">
        <ele>345.846</ele>
        <time>2021-07-03T20:28:13Z</time>
      </trkpt>
      <trkpt lat="27.827579" lon="-17.942998">
        <ele>343.388</ele>
        <time>2021-07-03T20:28:32Z</time>
      </trkpt>
      <trkpt lat="27.827822" lon="-17.942949">
        <ele>341.916</ele>
        <time>2021-07-03T20:29:01Z</time>
      </trkpt>
      <trkpt lat="27.827895" lon="-17.942694">
        <ele>340.008</ele>
        <time>2021-07-03T20:29:31Z</time>
      </trkpt>
      <trkpt lat="27.828114" lon="-17.942502">
        <ele>335.151</ele>
        <time>2021-07-03T20:30:11Z</time>
      </trkpt>
      <trkpt lat="27.828342" lon="-17.942539">
        <ele>329.841</ele>
        <time>2021-07-03T20:30:53Z</time>
      </trkpt>
      <trkpt lat="27.828965" lon="-17.942897">
        <ele>314.157</ele>
        <time>2021-07-03T20:32:51Z</time>
      </trkpt>
      <trkpt lat="27.829682" lon="-17.943132">
        <ele>295.788</ele>
        <time>2021-07-03T20:35:07Z</time>
      </trkpt>
      <trkpt lat="27.829811" lon="-17.943404">
        <ele>287.691</ele>
        <time>2021-07-03T20:36:02Z</time>
      </trkpt>
      <trkpt lat="27.830256" lon="-17.943707">
        <ele>276.376</ele>
        <time>2021-07-03T20:37:42Z</time>
      </trkpt>
      <trkpt lat="27.830678" lon="-17.943683">
        <ele>268.069</ele>
        <time>2021-07-03T20:38:52Z</time>
      </trkpt>
      <trkpt lat="27.830925" lon="-17.943814">
        <ele>263.575</ele>
        <time>2021-07-03T20:39:27Z</time>
      </trkpt>
      <trkpt lat="27.831168" lon="-17.944047">
        <ele>253.928</ele>
        <time>2021-07-03T20:40:52Z</time>
      </trkpt>
      <trkpt lat="27.831524" lon="-17.944148">
        <ele>242.689</ele>
        <time>2021-07-03T20:42:34Z</time>
      </trkpt>
      <trkpt lat="27.831797" lon="-17.944313">
        <ele>232.917</ele>
        <time>2021-07-03T20:43:35Z</time>
      </trkpt>
      <trkpt lat="27.832655" lon="-17.944555">
        <ele>222.208</ele>
        <time>2021-07-03T20:45:48Z</time>
      </trkpt>
      <trkpt lat="27.833031" lon="-17.945088">
        <ele>215.439</ele>
        <time>2021-07-03T20:46:59Z</time>
      </trkpt>
      <trkpt lat="27.833398" lon="-17.945106">
        <ele>208.799</ele>
        <time>2021-07-03T20:48:02Z</time>
      </trkpt>
      <trkpt lat="27.833997" lon="-17.945742">
        <ele>187.465</ele>
        <time>2021-07-03T20:50:49Z</time>
      </trkpt>
      <trkpt lat="27.834082" lon="-17.945866">
        <ele>185.556</ele>
        <time>2021-07-03T20:51:06Z</time>
      </trkpt>
      <trkpt lat="27.834089" lon="-17.946080">
        <ele>184.729</ele>
        <time>2021-07-03T20:51:23Z</time>
      </trkpt>
      <trkpt lat="27.833950" lon="-17.946356">
        <ele>180.844</ele>
        <time>2021-07-03T20:52:19Z</time>
      </trkpt>
      <trkpt lat="27.833961" lon="-17.946460">
        <ele>180.027</ele>
        <time>2021-07-03T20:52:30Z</time>
      </trkpt>
      <trkpt lat="27.834873" lon="-17.947259">
        <ele>148.613</ele>
        <time>2021-07-03T20:56:26Z</time>
      </trkpt>
      <trkpt lat="27.835079" lon="-17.946671">
        <ele>147.693</ele>
        <time>2021-07-03T20:57:55Z</time>
      </trkpt>
      <trkpt lat="27.835151" lon="-17.946615">
        <ele>147.065</ele>
        <time>2021-07-03T20:58:05Z</time>
      </trkpt>
      <trkpt lat="27.835518" lon="-17.946685">
        <ele>144.721</ele>
        <time>2021-07-03T21:00:27Z</time>
      </trkpt>
      <trkpt lat="27.835686" lon="-17.946924">
        <ele>138.108</ele>
        <time>2021-07-03T21:01:28Z</time>
      </trkpt>
      <trkpt lat="27.836055" lon="-17.946886">
        <ele>128.916</ele>
        <time>2021-07-03T21:02:38Z</time>
      </trkpt>
      <trkpt lat="27.836267" lon="-17.947020">
        <ele>127.836</ele>
        <time>2021-07-03T21:02:59Z</time>
      </trkpt>
      <trkpt lat="27.836545" lon="-17.947074">
        <ele>124.362</ele>
        <time>2021-07-03T21:03:45Z</time>
      </trkpt>
      <trkpt lat="27.836688" lon="-17.947194">
        <ele>121.363</ele>
        <time>2021-07-03T21:04:05Z</time>
      </trkpt>
      <trkpt lat="27.837062" lon="-17.947127">
        <ele>117.826</ele>
        <time>2021-07-03T21:04:40Z</time>
      </trkpt>
      <trkpt lat="27.837297" lon="-17.947330">
        <ele>114.971</ele>
        <time>2021-07-03T21:05:01Z</time>
      </trkpt>
      <trkpt lat="27.837617" lon="-17.947270">
        <ele>110.814</ele>
        <time>2021-07-03T21:05:30Z</time>
      </trkpt>
      <trkpt lat="27.837983" lon="-17.947389">
        <ele>105.860</ele>
        <time>2021-07-03T21:06:16Z</time>
      </trkpt>
      <trkpt lat="27.839032" lon="-17.947473">
        <ele>94.566</ele>
        <time>2021-07-03T21:07:57Z</time>
      </trkpt>
      <trkpt lat="27.839205" lon="-17.947544">
        <ele>92.529</ele>
        <time>2021-07-03T21:08:16Z</time>
      </trkpt>
      <trkpt lat="27.839287" lon="-17.947418">
        <ele>92.121</ele>
        <time>2021-07-03T21:08:47Z</time>
      </trkpt>
      <trkpt lat="27.839591" lon="-17.947631">
        <ele>90.308</ele>
        <time>2021-07-03T21:10:41Z</time>
      </trkpt>
      <trkpt lat="27.839614" lon="-17.947728">
        <ele>88.473</ele>
        <time>2021-07-03T21:12:40Z</time>
      </trkpt>
      <trkpt lat="27.839749" lon="-17.947772">
        <ele>86.513</ele>
        <time>2021-07-03T21:12:57Z</time>
      </trkpt>
      <trkpt lat="27.839714" lon="-17.947861">
        <ele>84.869</ele>
        <time>2021-07-03T21:13:42Z</time>
      </trkpt>
      <trkpt lat="27.839881" lon="-17.948051">
        <ele>82.380</ele>
        <time>2021-07-03T21:14:04Z</time>
      </trkpt>
      <trkpt lat="27.839851" lon="-17.948148">
        <ele>81.363</ele>
        <time>2021-07-03T21:15:21Z</time>
      </trkpt>
      <trkpt lat="27.839935" lon="-17.948341">
        <ele>80.048</ele>
        <time>2021-07-03T21:15:43Z</time>
      </trkpt>
      <trkpt lat="27.839798" lon="-17.948336">
        <ele>79.631</ele>
        <time>2021-07-03T21:18:48Z</time>
      </trkpt>
      <trkpt lat="27.839825" lon="-17.948295">
        <ele>79.967</ele>
        <time>2021-07-03T21:22:04Z</time>
      </trkpt>
      <trkpt lat="27.839782" lon="-17.948360">
        <ele>83.448</ele>
        <time>2021-07-03T21:25:50Z</time>
      </trkpt>
      <trkpt lat="27.839807" lon="-17.948202">
        <ele>82.161</ele>
        <time>2021-07-03T21:26:26Z</time>
      </trkpt>
      <trkpt lat="27.839556" lon="-17.947962">
        <ele>86.117</ele>
        <time>2021-07-03T21:28:05Z</time>
      </trkpt>
      <trkpt lat="27.839393" lon="-17.947553">
        <ele>87.408</ele>
        <time>2021-07-03T21:29:49Z</time>
      </trkpt>
      <trkpt lat="27.839259" lon="-17.947664">
        <ele>89.861</ele>
        <time>2021-07-03T21:31:50Z</time>
      </trkpt>
      <trkpt lat="27.839037" lon="-17.947561">
        <ele>91.191</ele>
        <time>2021-07-03T21:32:16Z</time>
      </trkpt>
      <trkpt lat="27.837866" lon="-17.947433">
        <ele>104.757</ele>
        <time>2021-07-03T21:34:25Z</time>
      </trkpt>
      <trkpt lat="27.837500" lon="-17.947312">
        <ele>108.268</ele>
        <time>2021-07-03T21:35:03Z</time>
      </trkpt>
      <trkpt lat="27.837368" lon="-17.947352">
        <ele>110.581</ele>
        <time>2021-07-03T21:35:19Z</time>
      </trkpt>
      <trkpt lat="27.836966" lon="-17.947201">
        <ele>116.666</ele>
        <time>2021-07-03T21:36:08Z</time>
      </trkpt>
      <trkpt lat="27.836268" lon="-17.947076">
        <ele>124.969</ele>
        <time>2021-07-03T21:37:22Z</time>
      </trkpt>
      <trkpt lat="27.835700" lon="-17.948207">
        <ele>123.285</ele>
        <time>2021-07-03T21:39:08Z</time>
      </trkpt>
      <trkpt lat="27.835687" lon="-17.948623">
        <ele>127.718</ele>
        <time>2021-07-03T21:40:00Z</time>
      </trkpt>
      <trkpt lat="27.835377" lon="-17.948689">
        <ele>129.698</ele>
        <time>2021-07-03T21:40:47Z</time>
      </trkpt>
      <trkpt lat="27.835209" lon="-17.949806">
        <ele>133.217</ele>
        <time>2021-07-03T21:42:33Z</time>
      </trkpt>
      <trkpt lat="27.834851" lon="-17.949743">
        <ele>136.808</ele>
        <time>2021-07-03T21:43:13Z</time>
      </trkpt>
      <trkpt lat="27.835180" lon="-17.949929">
        <ele>133.018</ele>
        <time>2021-07-03T21:45:32Z</time>
      </trkpt>
      <trkpt lat="27.835188" lon="-17.950032">
        <ele>130.468</ele>
        <time>2021-07-03T21:46:14Z</time>
      </trkpt>
      <trkpt lat="27.834970" lon="-17.950234">
        <ele>129.194</ele>
        <time>2021-07-03T21:46:45Z</time>
      </trkpt>
      <trkpt lat="27.834818" lon="-17.950748">
        <ele>127.985</ele>
        <time>2021-07-03T21:47:40Z</time>
      </trkpt>
      <trkpt lat="27.834936" lon="-17.950886">
        <ele>128.088</ele>
        <time>2021-07-03T21:48:06Z</time>
      </trkpt>
      <trkpt lat="27.834883" lon="-17.951299">
        <ele>127.933</ele>
        <time>2021-07-03T21:48:56Z</time>
      </trkpt>
      <trkpt lat="27.835069" lon="-17.951447">
        <ele>126.766</ele>
        <time>2021-07-03T21:49:15Z</time>
      </trkpt>
      <trkpt lat="27.834976" lon="-17.951565">
        <ele>127.412</ele>
        <time>2021-07-03T21:49:28Z</time>
      </trkpt>
      <trkpt lat="27.834824" lon="-17.952719">
        <ele>136.186</ele>
        <time>2021-07-03T21:51:46Z</time>
      </trkpt>
      <trkpt lat="27.834818" lon="-17.953352">
        <ele>140.960</ele>
        <time>2021-07-03T21:53:08Z</time>
      </trkpt>
      <trkpt lat="27.834612" lon="-17.954097">
        <ele>142.526</ele>
        <time>2021-07-03T21:54:10Z</time>
      </trkpt>
      <trkpt lat="27.834600" lon="-17.954508">
        <ele>141.608</ele>
        <time>2021-07-03T21:55:05Z</time>
      </trkpt>
      <trkpt lat="27.834362" lon="-17.954993">
        <ele>142.895</ele>
        <time>2021-07-03T21:55:57Z</time>
      </trkpt>
      <trkpt lat="27.834558" lon="-17.955142">
        <ele>143.595</ele>
        <time>2021-07-03T21:56:14Z</time>
      </trkpt>
      <trkpt lat="27.834566" lon="-17.955456">
        <ele>144.771</ele>
        <time>2021-07-03T21:56:54Z</time>
      </trkpt>
      <trkpt lat="27.834502" lon="-17.955652">
        <ele>147.292</ele>
        <time>2021-07-03T21:57:40Z</time>
      </trkpt>
      <trkpt lat="27.834542" lon="-17.955905">
        <ele>150.815</ele>
        <time>2021-07-03T21:58:26Z</time>
      </trkpt>
      <trkpt lat="27.833806" lon="-17.956480">
        <ele>164.970</ele>
        <time>2021-07-03T22:01:17Z</time>
      </trkpt>
      <trkpt lat="27.833143" lon="-17.956780">
        <ele>173.153</ele>
        <time>2021-07-03T22:03:09Z</time>
      </trkpt>
      <trkpt lat="27.832811" lon="-17.956812">
        <ele>176.639</ele>
        <time>2021-07-03T22:04:01Z</time>
      </trkpt>
      <trkpt lat="27.832627" lon="-17.956764">
        <ele>179.255</ele>
        <time>2021-07-03T22:04:28Z</time>
      </trkpt>
      <trkpt lat="27.832296" lon="-17.956832">
        <ele>186.607</ele>
        <time>2021-07-03T22:05:39Z</time>
      </trkpt>
      <trkpt lat="27.831487" lon="-17.956711">
        <ele>192.517</ele>
        <time>2021-07-03T22:07:39Z</time>
      </trkpt>
      <trkpt lat="27.831368" lon="-17.956622">
        <ele>193.508</ele>
        <time>2021-07-03T22:08:04Z</time>
      </trkpt>
      <trkpt lat="27.831176" lon="-17.956602">
        <ele>194.822</ele>
        <time>2021-07-03T22:08:25Z</time>
      </trkpt>
      <trkpt lat="27.831138" lon="-17.956509">
        <ele>196.842</ele>
        <time>2021-07-03T22:08:45Z</time>
      </trkpt>
      <trkpt lat="27.830926" lon="-17.956595">
        <ele>203.828</ele>
        <time>2021-07-03T22:10:04Z</time>
      </trkpt>
      <trkpt lat="27.830556" lon="-17.956592">
        <ele>209.389</ele>
        <time>2021-07-03T22:11:03Z</time>
      </trkpt>
      <trkpt lat="27.829697" lon="-17.956395">
        <ele>223.142</ele>
        <time>2021-07-03T22:13:53Z</time>
      </trkpt>
      <trkpt lat="27.829179" lon="-17.956424">
        <ele>232.577</ele>
        <time>2021-07-03T22:15:22Z</time>
      </trkpt>
      <trkpt lat="27.828746" lon="-17.956233">
        <ele>237.860</ele>
        <time>2021-07-03T22:16:27Z</time>
      </trkpt>
      <trkpt lat="27.828638" lon="-17.956014">
        <ele>240.766</ele>
        <time>2021-07-03T22:17:14Z</time>
      </trkpt>
      <trkpt lat="27.828379" lon="-17.955900">
        <ele>245.027</ele>
        <time>2021-07-03T22:18:07Z</time>
      </trkpt>
      <trkpt lat="27.828108" lon="-17.955521">
        <ele>252.668</ele>
        <time>2021-07-03T22:19:14Z</time>
      </trkpt>
      <trkpt lat="27.827886" lon="-17.955335">
        <ele>258.714</ele>
        <time>2021-07-03T22:20:00Z</time>
      </trkpt>
      <trkpt lat="27.827565" lon="-17.954766">
        <ele>275.508</ele>
        <time>2021-07-03T22:22:14Z</time>
      </trkpt>
      <trkpt lat="27.827366" lon="-17.954637">
        <ele>282.749</ele>
        <time>2021-07-03T22:23:04Z</time>
      </trkpt>
      <trkpt lat="27.827239" lon="-17.954425">
        <ele>288.519</ele>
        <time>2021-07-03T22:23:58Z</time>
      </trkpt>
      <trkpt lat="27.827158" lon="-17.954161">
        <ele>294.425</ele>
        <time>2021-07-03T22:24:45Z</time>
      </trkpt>
      <trkpt lat="27.827243" lon="-17.953976">
        <ele>298.096</ele>
        <time>2021-07-03T22:25:17Z</time>
      </trkpt>
      <trkpt lat="27.827227" lon="-17.953857">
        <ele>298.589</ele>
        <time>2021-07-03T22:25:25Z</time>
      </trkpt>
      <trkpt lat="27.827252" lon="-17.953901">
        <ele>298.784</ele>
        <time>2021-07-03T22:25:50Z</time>
      </trkpt>
      <trkpt lat="27.827238" lon="-17.953950">
        <ele>300.597</ele>
        <time>2021-07-03T22:26:03Z</time>
      </trkpt>
      <trkpt lat="27.827164" lon="-17.953892">
        <ele>300.663</ele>
        <time>2021-07-03T22:26:59Z</time>
      </trkpt>
      <trkpt lat="27.827245" lon="-17.953853">
        <ele>298.543</ele>
        <time>2021-07-03T22:27:41Z</time>
      </trkpt>
      <trkpt lat="27.827232" lon="-17.953800">
        <ele>298.964</ele>
        <time>2021-07-03T22:27:48Z</time>
      </trkpt>
      <trkpt lat="27.826992" lon="-17.953634">
        <ele>303.010</ele>
        <time>2021-07-03T22:28:34Z</time>
      </trkpt>
      <trkpt lat="27.826909" lon="-17.953491">
        <ele>304.908</ele>
        <time>2021-07-03T22:28:51Z</time>
      </trkpt>
      <trkpt lat="27.826820" lon="-17.952336">
        <ele>307.681</ele>
        <time>2021-07-03T22:30:30Z</time>
      </trkpt>
      <trkpt lat="27.826910" lon="-17.951299">
        <ele>307.041</ele>
        <time>2021-07-03T22:31:47Z</time>
      </trkpt>
      <trkpt lat="27.826834" lon="-17.950622">
        <ele>309.637</ele>
        <time>2021-07-03T22:33:16Z</time>
      </trkpt>
      <trkpt lat="27.826943" lon="-17.950340">
        <ele>314.788</ele>
        <time>2021-07-03T22:34:04Z</time>
      </trkpt>
      <trkpt lat="27.827152" lon="-17.950241">
        <ele>320.161</ele>
        <time>2021-07-03T22:34:38Z</time>
      </trkpt>
      <trkpt lat="27.827207" lon="-17.949722">
        <ele>322.336</ele>
        <time>2021-07-03T22:35:46Z</time>
      </trkpt>
      <trkpt lat="27.827148" lon="-17.949520">
        <ele>323.789</ele>
        <time>2021-07-03T22:36:14Z</time>
      </trkpt>
      <trkpt lat="27.826833" lon="-17.948997">
        <ele>323.195</ele>
        <time>2021-07-03T22:37:28Z</time>
      </trkpt>
      <trkpt lat="27.826808" lon="-17.948693">
        <ele>323.782</ele>
        <time>2021-07-03T22:38:06Z</time>
      </trkpt>
      <trkpt lat="27.826606" lon="-17.948323">
        <ele>327.443</ele>
        <time>2021-07-03T22:38:56Z</time>
      </trkpt>
      <trkpt lat="27.826596" lon="-17.948112">
        <ele>328.217</ele>
        <time>2021-07-03T22:39:18Z</time>
      </trkpt>
      <trkpt lat="27.826523" lon="-17.948049">
        <ele>329.608</ele>
        <time>2021-07-03T22:39:35Z</time>
      </trkpt>
      <trkpt lat="27.826483" lon="-17.947836">
        <ele>331.665</ele>
        <time>2021-07-03T22:40:04Z</time>
      </trkpt>
      <trkpt lat="27.826338" lon="-17.947713">
        <ele>336.575</ele>
        <time>2021-07-03T22:40:53Z</time>
      </trkpt>
      <trkpt lat="27.826240" lon="-17.947315">
        <ele>344.271</ele>
        <time>2021-07-03T22:41:51Z</time>
      </trkpt>
      <trkpt lat="27.826068" lon="-17.947141">
        <ele>349.542</ele>
        <time>2021-07-03T22:42:35Z</time>
      </trkpt>
      <trkpt lat="27.825990" lon="-17.946507">
        <ele>351.175</ele>
        <time>2021-07-03T22:43:54Z</time>
      </trkpt>
      <trkpt lat="27.825898" lon="-17.946389">
        <ele>355.510</ele>
        <time>2021-07-03T22:44:25Z</time>
      </trkpt>
      <trkpt lat="27.825457" lon="-17.946441">
        <ele>363.283</ele>
        <time>2021-07-03T22:45:26Z</time>
      </trkpt>
      <trkpt lat="27.825139" lon="-17.946395">
        <ele>369.739</ele>
        <time>2021-07-03T22:46:20Z</time>
      </trkpt>
      <trkpt lat="27.825160" lon="-17.946190">
        <ele>373.992</ele>
        <time>2021-07-03T22:46:51Z</time>
      </trkpt>
      <trkpt lat="27.824432" lon="-17.945582">
        <ele>396.673</ele>
        <time>2021-07-03T22:50:01Z</time>
      </trkpt>
      <trkpt lat="27.823976" lon="-17.945664">
        <ele>407.020</ele>
        <time>2021-07-03T22:51:40Z</time>
      </trkpt>
      <trkpt lat="27.823581" lon="-17.944831">
        <ele>412.508</ele>
        <time>2021-07-03T22:53:11Z</time>
      </trkpt>
      <trkpt lat="27.823471" lon="-17.944741">
        <ele>416.886</ele>
        <time>2021-07-03T22:53:42Z</time>
      </trkpt>
      <trkpt lat="27.823377" lon="-17.944767">
        <ele>419.226</ele>
        <time>2021-07-03T22:54:04Z</time>
      </trkpt>
      <trkpt lat="27.823323" lon="-17.944606">
        <ele>420.832</ele>
        <time>2021-07-03T22:54:23Z</time>
      </trkpt>
      <trkpt lat="27.823014" lon="-17.944456">
        <ele>428.763</ele>
        <time>2021-07-03T22:55:19Z</time>
      </trkpt>
      <trkpt lat="27.823051" lon="-17.943871">
        <ele>432.126</ele>
        <time>2021-07-03T22:56:35Z</time>
      </trkpt>
      <trkpt lat="27.822997" lon="-17.943789">
        <ele>434.371</ele>
        <time>2021-07-03T22:56:55Z</time>
      </trkpt>
      <trkpt lat="27.822730" lon="-17.943864">
        <ele>439.864</ele>
        <time>2021-07-03T22:57:46Z</time>
      </trkpt>
      <trkpt lat="27.822523" lon="-17.943756">
        <ele>442.760</ele>
        <time>2021-07-03T22:58:13Z</time>
      </trkpt>
      <trkpt lat="27.822348" lon="-17.943840">
        <ele>445.521</ele>
        <time>2021-07-03T22:58:34Z</time>
      </trkpt>
      <trkpt lat="27.821978" lon="-17.943876">
        <ele>452.841</ele>
        <time>2021-07-03T22:59:30Z</time>
      </trkpt>
      <trkpt lat="27.821895" lon="-17.943690">
        <ele>457.505</ele>
        <time>2021-07-03T22:59:59Z</time>
      </trkpt>
      <trkpt lat="27.821724" lon="-17.943745">
        <ele>460.008</ele>
        <time>2021-07-03T23:00:22Z</time>
      </trkpt>
    </trkseg>
  </trk></gpx>