<?xml version="1.0" encoding="UTF-8"?>
<gpx version="1.1" creator="Aventuras en Cada Paso" xmlns="http://www.topografix.com/GPX/1/1">
  <metadata>
    <name>Pozo de La Salud – Costa Oeste</name>
    <desc>Ruta costera hasta el famoso Pozo de La Salud con aguas mineromedicinales. Paisaje de lava negra y el horizonte abierto del Atlántico en el oeste de la isla.</desc>
    <author><name>Aventuras en Cada Paso</name></author>
    <time>2026-07-08T08:12:58.204Z</time>
    <keywords>El Hierro, Senderismo, Fácil, senderismo Canarias</keywords>
  </metadata>
  <wpt lat="27.78" lon="-18.14">
    <name>Pozo de La Salud – Costa Oeste</name>
    <desc>Ruta costera hasta el famoso Pozo de La Salud con aguas mineromedicinales. Paisaje de lava negra y el horizonte abierto del Atlántico en el oeste de la isla. | Isla: El Hierro | Tipo: Senderismo | Dificultad: Fácil | Distancia: 6km | Duración: 2-4 horas</desc>
    <type>Senderismo</type>
    <extensions>
      <isla>El Hierro</isla>
      <dificultad>Fácil</dificultad>
      <distancia>6</distancia>
      <duracion>2-4 horas</duracion>
    </extensions>
  </wpt>
</gpx>