<?xml version="1.0" encoding="UTF-8"?>
<gpx creator="Wikiloc - https://www.wikiloc.com" version="1.1" xmlns="http://www.topografix.com/GPX/1/1" xmlns:xsi="http://www.w3.org/2001/XMLSchema-instance" xsi:schemaLocation="http://www.topografix.com/GPX/1/1 http://www.topografix.com/GPX/1/1/gpx.xsd">
  <metadata>
    <name>Wikiloc - Pozo de la Salud- Sabinosa - Iglesia de nuestra Señora de la...</name>
    <link href="https://www.wikiloc.com/hiking-trails/pozo-de-la-salud-sabinosa-iglesia-de-nuestra-senora-de-la-consolacion-estacion-buses-frontera-160569032">
      <text>Pozo de la Salud- Sabinosa - Iglesia de nuestra Señora de la... on Wikiloc</text>
    </link>
    <time>2024-02-08T14:05:06Z</time>
  </metadata>
  <trk>
    <name>Pozo de la Salud- Sabinosa - Iglesia de nuestra Señora de la... - Wikiloc</name>
    <cmt></cmt>
    <desc></desc>
    <trkseg>
      <trkpt lat="27.756388" lon="-18.104579">
        <ele>25.259</ele>
        <time>2024-02-08T10:36:11Z</time>
      </trkpt>
      <trkpt lat="27.755829" lon="-18.104919">
        <ele>25.203</ele>
        <time>2024-02-08T10:36:13Z</time>
      </trkpt>
      <trkpt lat="27.755966" lon="-18.104939">
        <ele>25.223</ele>
        <time>2024-02-08T10:36:18Z</time>
      </trkpt>
      <trkpt lat="27.755708" lon="-18.104841">
        <ele>25.209</ele>
        <time>2024-02-08T10:37:09Z</time>
      </trkpt>
      <trkpt lat="27.755531" lon="-18.104436">
        <ele>28.326</ele>
        <time>2024-02-08T10:38:00Z</time>
      </trkpt>
      <trkpt lat="27.754044" lon="-18.104348">
        <ele>48.141</ele>
        <time>2024-02-08T10:41:51Z</time>
      </trkpt>
      <trkpt lat="27.753071" lon="-18.104437">
        <ele>61.085</ele>
        <time>2024-02-08T10:44:25Z</time>
      </trkpt>
      <trkpt lat="27.752592" lon="-18.104207">
        <ele>72.490</ele>
        <time>2024-02-08T10:46:08Z</time>
      </trkpt>
      <trkpt lat="27.752003" lon="-18.104200">
        <ele>83.171</ele>
        <time>2024-02-08T10:47:33Z</time>
      </trkpt>
      <trkpt lat="27.751839" lon="-18.104288">
        <ele>85.384</ele>
        <time>2024-02-08T10:47:59Z</time>
      </trkpt>
      <trkpt lat="27.751676" lon="-18.104845">
        <ele>93.765</ele>
        <time>2024-02-08T10:49:30Z</time>
      </trkpt>
      <trkpt lat="27.751555" lon="-18.104870">
        <ele>95.938</ele>
        <time>2024-02-08T10:49:53Z</time>
      </trkpt>
      <trkpt lat="27.750915" lon="-18.103897">
        <ele>114.797</ele>
        <time>2024-02-08T10:52:39Z</time>
      </trkpt>
      <trkpt lat="27.751241" lon="-18.102861">
        <ele>122.253</ele>
        <time>2024-02-08T10:54:13Z</time>
      </trkpt>
      <trkpt lat="27.750621" lon="-18.102540">
        <ele>139.504</ele>
        <time>2024-02-08T10:56:32Z</time>
      </trkpt>
      <trkpt lat="27.750562" lon="-18.101775">
        <ele>162.014</ele>
        <time>2024-02-08T10:59:21Z</time>
      </trkpt>
      <trkpt lat="27.750423" lon="-18.101785">
        <ele>166.809</ele>
        <time>2024-02-08T10:59:56Z</time>
      </trkpt>
      <trkpt lat="27.750378" lon="-18.101697">
        <ele>173.046</ele>
        <time>2024-02-08T11:00:27Z</time>
      </trkpt>
      <trkpt lat="27.750453" lon="-18.101449">
        <ele>178.951</ele>
        <time>2024-02-08T11:01:04Z</time>
      </trkpt>
      <trkpt lat="27.750416" lon="-18.100961">
        <ele>192.655</ele>
        <time>2024-02-08T11:03:05Z</time>
      </trkpt>
      <trkpt lat="27.750329" lon="-18.100945">
        <ele>199.150</ele>
        <time>2024-02-08T11:04:07Z</time>
      </trkpt>
      <trkpt lat="27.749872" lon="-18.101566">
        <ele>201.561</ele>
        <time>2024-02-08T11:05:10Z</time>
      </trkpt>
      <trkpt lat="27.749742" lon="-18.101632">
        <ele>203.584</ele>
        <time>2024-02-08T11:05:23Z</time>
      </trkpt>
      <trkpt lat="27.749684" lon="-18.101554">
        <ele>204.325</ele>
        <time>2024-02-08T11:05:32Z</time>
      </trkpt>
      <trkpt lat="27.750448" lon="-18.100432">
        <ele>212.638</ele>
        <time>2024-02-08T11:07:30Z</time>
      </trkpt>
      <trkpt lat="27.750361" lon="-18.099721">
        <ele>214.657</ele>
        <time>2024-02-08T11:08:29Z</time>
      </trkpt>
      <trkpt lat="27.749862" lon="-18.099392">
        <ele>223.071</ele>
        <time>2024-02-08T11:09:24Z</time>
      </trkpt>
      <trkpt lat="27.749674" lon="-18.099115">
        <ele>226.241</ele>
        <time>2024-02-08T11:09:55Z</time>
      </trkpt>
      <trkpt lat="27.749544" lon="-18.099100">
        <ele>229.715</ele>
        <time>2024-02-08T11:10:27Z</time>
      </trkpt>
      <trkpt lat="27.749532" lon="-18.099208">
        <ele>230.009</ele>
        <time>2024-02-08T11:10:38Z</time>
      </trkpt>
      <trkpt lat="27.750083" lon="-18.099757">
        <ele>232.628</ele>
        <time>2024-02-08T11:11:51Z</time>
      </trkpt>
      <trkpt lat="27.750048" lon="-18.100202">
        <ele>235.883</ele>
        <time>2024-02-08T11:12:35Z</time>
      </trkpt>
      <trkpt lat="27.749386" lon="-18.100842">
        <ele>243.827</ele>
        <time>2024-02-08T11:13:56Z</time>
      </trkpt>
      <trkpt lat="27.748900" lon="-18.100937">
        <ele>247.672</ele>
        <time>2024-02-08T11:14:43Z</time>
      </trkpt>
      <trkpt lat="27.748942" lon="-18.100753">
        <ele>248.413</ele>
        <time>2024-02-08T11:15:02Z</time>
      </trkpt>
      <trkpt lat="27.749348" lon="-18.100577">
        <ele>253.526</ele>
        <time>2024-02-08T11:15:45Z</time>
      </trkpt>
      <trkpt lat="27.749520" lon="-18.100309">
        <ele>257.177</ele>
        <time>2024-02-08T11:16:14Z</time>
      </trkpt>
      <trkpt lat="27.749545" lon="-18.100083">
        <ele>259.420</ele>
        <time>2024-02-08T11:16:33Z</time>
      </trkpt>
      <trkpt lat="27.748877" lon="-18.099502">
        <ele>267.139</ele>
        <time>2024-02-08T11:18:10Z</time>
      </trkpt>
      <trkpt lat="27.748243" lon="-18.098643">
        <ele>274.318</ele>
        <time>2024-02-08T11:19:43Z</time>
      </trkpt>
      <trkpt lat="27.747873" lon="-18.098517">
        <ele>277.198</ele>
        <time>2024-02-08T11:20:17Z</time>
      </trkpt>
      <trkpt lat="27.747789" lon="-18.098374">
        <ele>277.317</ele>
        <time>2024-02-08T11:20:30Z</time>
      </trkpt>
      <trkpt lat="27.747860" lon="-18.098007">
        <ele>283.609</ele>
        <time>2024-02-08T11:22:06Z</time>
      </trkpt>
      <trkpt lat="27.747463" lon="-18.097882">
        <ele>283.172</ele>
        <time>2024-02-08T11:26:51Z</time>
      </trkpt>
      <trkpt lat="27.747360" lon="-18.097620">
        <ele>282.017</ele>
        <time>2024-02-08T11:27:17Z</time>
      </trkpt>
      <trkpt lat="27.747385" lon="-18.097527">
        <ele>281.861</ele>
        <time>2024-02-08T11:27:39Z</time>
      </trkpt>
      <trkpt lat="27.747438" lon="-18.097802">
        <ele>281.266</ele>
        <time>2024-02-08T11:28:27Z</time>
      </trkpt>
      <trkpt lat="27.747709" lon="-18.097925">
        <ele>282.127</ele>
        <time>2024-02-08T11:28:57Z</time>
      </trkpt>
      <trkpt lat="27.747718" lon="-18.098084">
        <ele>283.160</ele>
        <time>2024-02-08T11:29:50Z</time>
      </trkpt>
      <trkpt lat="27.748201" lon="-18.097560">
        <ele>281.581</ele>
        <time>2024-02-08T11:32:25Z</time>
      </trkpt>
      <trkpt lat="27.748615" lon="-18.097496">
        <ele>271.784</ele>
        <time>2024-02-08T11:33:54Z</time>
      </trkpt>
      <trkpt lat="27.749010" lon="-18.097143">
        <ele>254.073</ele>
        <time>2024-02-08T11:35:52Z</time>
      </trkpt>
      <trkpt lat="27.749110" lon="-18.096385">
        <ele>232.574</ele>
        <time>2024-02-08T11:38:26Z</time>
      </trkpt>
      <trkpt lat="27.748989" lon="-18.095034">
        <ele>205.856</ele>
        <time>2024-02-08T11:42:41Z</time>
      </trkpt>
      <trkpt lat="27.749127" lon="-18.094737">
        <ele>203.121</ele>
        <time>2024-02-08T11:43:17Z</time>
      </trkpt>
      <trkpt lat="27.749105" lon="-18.094468">
        <ele>199.609</ele>
        <time>2024-02-08T11:43:51Z</time>
      </trkpt>
      <trkpt lat="27.749589" lon="-18.094144">
        <ele>175.218</ele>
        <time>2024-02-08T11:47:26Z</time>
      </trkpt>
      <trkpt lat="27.749915" lon="-18.093700">
        <ele>161.183</ele>
        <time>2024-02-08T11:49:40Z</time>
      </trkpt>
      <trkpt lat="27.749980" lon="-18.093137">
        <ele>155.347</ele>
        <time>2024-02-08T11:50:48Z</time>
      </trkpt>
      <trkpt lat="27.750123" lon="-18.092776">
        <ele>153.922</ele>
        <time>2024-02-08T11:51:19Z</time>
      </trkpt>
      <trkpt lat="27.750111" lon="-18.091930">
        <ele>154.813</ele>
        <time>2024-02-08T11:52:22Z</time>
      </trkpt>
      <trkpt lat="27.750195" lon="-18.091603">
        <ele>155.326</ele>
        <time>2024-02-08T11:52:48Z</time>
      </trkpt>
      <trkpt lat="27.750015" lon="-18.091194">
        <ele>155.867</ele>
        <time>2024-02-08T11:54:51Z</time>
      </trkpt>
      <trkpt lat="27.749950" lon="-18.090192">
        <ele>157.920</ele>
        <time>2024-02-08T11:56:14Z</time>
      </trkpt>
      <trkpt lat="27.749791" lon="-18.089502">
        <ele>158.529</ele>
        <time>2024-02-08T11:57:09Z</time>
      </trkpt>
      <trkpt lat="27.749565" lon="-18.088893">
        <ele>159.124</ele>
        <time>2024-02-08T11:58:02Z</time>
      </trkpt>
      <trkpt lat="27.748919" lon="-18.087937">
        <ele>159.404</ele>
        <time>2024-02-08T11:59:32Z</time>
      </trkpt>
      <trkpt lat="27.748698" lon="-18.087230">
        <ele>160.314</ele>
        <time>2024-02-08T12:00:31Z</time>
      </trkpt>
      <trkpt lat="27.748689" lon="-18.086745">
        <ele>160.809</ele>
        <time>2024-02-08T12:01:09Z</time>
      </trkpt>
      <trkpt lat="27.749026" lon="-18.086302">
        <ele>160.793</ele>
        <time>2024-02-08T12:02:10Z</time>
      </trkpt>
      <trkpt lat="27.749135" lon="-18.085575">
        <ele>161.858</ele>
        <time>2024-02-08T12:03:05Z</time>
      </trkpt>
      <trkpt lat="27.748922" lon="-18.084873">
        <ele>160.842</ele>
        <time>2024-02-08T12:04:00Z</time>
      </trkpt>
      <trkpt lat="27.748698" lon="-18.084568">
        <ele>160.657</ele>
        <time>2024-02-08T12:04:30Z</time>
      </trkpt>
      <trkpt lat="27.748462" lon="-18.083959">
        <ele>161.528</ele>
        <time>2024-02-08T12:06:20Z</time>
      </trkpt>
      <trkpt lat="27.748307" lon="-18.083304">
        <ele>163.021</ele>
        <time>2024-02-08T12:07:12Z</time>
      </trkpt>
      <trkpt lat="27.748253" lon="-18.082632">
        <ele>162.212</ele>
        <time>2024-02-08T12:08:04Z</time>
      </trkpt>
      <trkpt lat="27.748535" lon="-18.081890">
        <ele>162.275</ele>
        <time>2024-02-08T12:09:04Z</time>
      </trkpt>
      <trkpt lat="27.748313" lon="-18.081368">
        <ele>169.234</ele>
        <time>2024-02-08T12:10:01Z</time>
      </trkpt>
      <trkpt lat="27.748516" lon="-18.081254">
        <ele>170.627</ele>
        <time>2024-02-08T12:10:31Z</time>
      </trkpt>
      <trkpt lat="27.748681" lon="-18.080956">
        <ele>166.468</ele>
        <time>2024-02-08T12:11:07Z</time>
      </trkpt>
      <trkpt lat="27.748598" lon="-18.080488">
        <ele>163.514</ele>
        <time>2024-02-08T12:11:40Z</time>
      </trkpt>
      <trkpt lat="27.748667" lon="-18.080037">
        <ele>163.609</ele>
        <time>2024-02-08T12:12:14Z</time>
      </trkpt>
      <trkpt lat="27.749176" lon="-18.079729">
        <ele>164.563</ele>
        <time>2024-02-08T12:13:03Z</time>
      </trkpt>
      <trkpt lat="27.749310" lon="-18.079028">
        <ele>164.938</ele>
        <time>2024-02-08T12:13:54Z</time>
      </trkpt>
      <trkpt lat="27.749734" lon="-18.078392">
        <ele>165.042</ele>
        <time>2024-02-08T12:14:55Z</time>
      </trkpt>
      <trkpt lat="27.749874" lon="-18.077523">
        <ele>165.187</ele>
        <time>2024-02-08T12:15:56Z</time>
      </trkpt>
      <trkpt lat="27.749747" lon="-18.076654">
        <ele>166.928</ele>
        <time>2024-02-08T12:17:00Z</time>
      </trkpt>
      <trkpt lat="27.749894" lon="-18.076214">
        <ele>167.261</ele>
        <time>2024-02-08T12:17:36Z</time>
      </trkpt>
      <trkpt lat="27.749834" lon="-18.075734">
        <ele>167.872</ele>
        <time>2024-02-08T12:18:12Z</time>
      </trkpt>
      <trkpt lat="27.750092" lon="-18.073831">
        <ele>167.385</ele>
        <time>2024-02-08T12:20:37Z</time>
      </trkpt>
      <trkpt lat="27.750039" lon="-18.073481">
        <ele>166.464</ele>
        <time>2024-02-08T12:23:01Z</time>
      </trkpt>
      <trkpt lat="27.750148" lon="-18.073174">
        <ele>166.712</ele>
        <time>2024-02-08T12:23:47Z</time>
      </trkpt>
      <trkpt lat="27.750250" lon="-18.071983">
        <ele>168.532</ele>
        <time>2024-02-08T12:25:14Z</time>
      </trkpt>
      <trkpt lat="27.750584" lon="-18.070956">
        <ele>169.705</ele>
        <time>2024-02-08T12:26:34Z</time>
      </trkpt>
      <trkpt lat="27.750625" lon="-18.069981">
        <ele>170.209</ele>
        <time>2024-02-08T12:27:43Z</time>
      </trkpt>
      <trkpt lat="27.750832" lon="-18.069665">
        <ele>170.412</ele>
        <time>2024-02-08T12:28:12Z</time>
      </trkpt>
      <trkpt lat="27.751024" lon="-18.068744">
        <ele>170.967</ele>
        <time>2024-02-08T12:29:19Z</time>
      </trkpt>
      <trkpt lat="27.751276" lon="-18.068248">
        <ele>171.731</ele>
        <time>2024-02-08T12:30:01Z</time>
      </trkpt>
      <trkpt lat="27.751523" lon="-18.066744">
        <ele>172.546</ele>
        <time>2024-02-08T12:31:49Z</time>
      </trkpt>
      <trkpt lat="27.751828" lon="-18.065838">
        <ele>172.717</ele>
        <time>2024-02-08T12:33:00Z</time>
      </trkpt>
      <trkpt lat="27.751842" lon="-18.065415">
        <ele>173.390</ele>
        <time>2024-02-08T12:33:38Z</time>
      </trkpt>
      <trkpt lat="27.752055" lon="-18.064906">
        <ele>173.571</ele>
        <time>2024-02-08T12:34:19Z</time>
      </trkpt>
      <trkpt lat="27.752097" lon="-18.064389">
        <ele>173.394</ele>
        <time>2024-02-08T12:34:55Z</time>
      </trkpt>
      <trkpt lat="27.752317" lon="-18.064015">
        <ele>173.633</ele>
        <time>2024-02-08T12:35:27Z</time>
      </trkpt>
      <trkpt lat="27.752742" lon="-18.061597">
        <ele>174.834</ele>
        <time>2024-02-08T12:38:19Z</time>
      </trkpt>
      <trkpt lat="27.752999" lon="-18.061254">
        <ele>174.955</ele>
        <time>2024-02-08T12:38:51Z</time>
      </trkpt>
      <trkpt lat="27.753204" lon="-18.060716">
        <ele>175.110</ele>
        <time>2024-02-08T12:39:32Z</time>
      </trkpt>
      <trkpt lat="27.753233" lon="-18.060142">
        <ele>175.109</ele>
        <time>2024-02-08T12:40:13Z</time>
      </trkpt>
      <trkpt lat="27.753506" lon="-18.059734">
        <ele>175.664</ele>
        <time>2024-02-08T12:40:50Z</time>
      </trkpt>
      <trkpt lat="27.753637" lon="-18.059203">
        <ele>175.719</ele>
        <time>2024-02-08T12:41:59Z</time>
      </trkpt>
      <trkpt lat="27.753516" lon="-18.058226">
        <ele>174.533</ele>
        <time>2024-02-08T12:47:49Z</time>
      </trkpt>
      <trkpt lat="27.753617" lon="-18.057770">
        <ele>174.678</ele>
        <time>2024-02-08T12:48:22Z</time>
      </trkpt>
      <trkpt lat="27.753570" lon="-18.056311">
        <ele>175.319</ele>
        <time>2024-02-08T12:50:06Z</time>
      </trkpt>
      <trkpt lat="27.753638" lon="-18.056098">
        <ele>175.632</ele>
        <time>2024-02-08T12:50:23Z</time>
      </trkpt>
      <trkpt lat="27.753488" lon="-18.055674">
        <ele>175.913</ele>
        <time>2024-02-08T12:50:56Z</time>
      </trkpt>
      <trkpt lat="27.754069" lon="-18.055154">
        <ele>177.346</ele>
        <time>2024-02-08T12:51:58Z</time>
      </trkpt>
      <trkpt lat="27.754121" lon="-18.054750">
        <ele>178.095</ele>
        <time>2024-02-08T12:52:28Z</time>
      </trkpt>
      <trkpt lat="27.754346" lon="-18.054179">
        <ele>178.435</ele>
        <time>2024-02-08T12:53:14Z</time>
      </trkpt>
      <trkpt lat="27.754109" lon="-18.052865">
        <ele>179.386</ele>
        <time>2024-02-08T12:54:46Z</time>
      </trkpt>
      <trkpt lat="27.754107" lon="-18.052331">
        <ele>180.014</ele>
        <time>2024-02-08T12:55:23Z</time>
      </trkpt>
      <trkpt lat="27.753797" lon="-18.051646">
        <ele>180.309</ele>
        <time>2024-02-08T12:56:16Z</time>
      </trkpt>
      <trkpt lat="27.753877" lon="-18.050775">
        <ele>181.714</ele>
        <time>2024-02-08T12:57:17Z</time>
      </trkpt>
      <trkpt lat="27.753730" lon="-18.050479">
        <ele>181.719</ele>
        <time>2024-02-08T12:57:41Z</time>
      </trkpt>
      <trkpt lat="27.753879" lon="-18.049996">
        <ele>182.193</ele>
        <time>2024-02-08T12:58:17Z</time>
      </trkpt>
      <trkpt lat="27.753712" lon="-18.049523">
        <ele>182.528</ele>
        <time>2024-02-08T12:58:53Z</time>
      </trkpt>
      <trkpt lat="27.754027" lon="-18.048999">
        <ele>182.699</ele>
        <time>2024-02-08T12:59:35Z</time>
      </trkpt>
      <trkpt lat="27.754452" lon="-18.049102">
        <ele>183.762</ele>
        <time>2024-02-08T13:00:10Z</time>
      </trkpt>
      <trkpt lat="27.754876" lon="-18.048940">
        <ele>184.243</ele>
        <time>2024-02-08T13:00:47Z</time>
      </trkpt>
      <trkpt lat="27.754951" lon="-18.048797">
        <ele>184.256</ele>
        <time>2024-02-08T13:00:58Z</time>
      </trkpt>
      <trkpt lat="27.754494" lon="-18.046934">
        <ele>184.475</ele>
        <time>2024-02-08T13:03:13Z</time>
      </trkpt>
      <trkpt lat="27.754496" lon="-18.046411">
        <ele>185.166</ele>
        <time>2024-02-08T13:03:49Z</time>
      </trkpt>
      <trkpt lat="27.754354" lon="-18.045784">
        <ele>185.429</ele>
        <time>2024-02-08T13:04:35Z</time>
      </trkpt>
      <trkpt lat="27.753926" lon="-18.044912">
        <ele>186.121</ele>
        <time>2024-02-08T13:05:46Z</time>
      </trkpt>
      <trkpt lat="27.754002" lon="-18.044515">
        <ele>186.409</ele>
        <time>2024-02-08T13:06:16Z</time>
      </trkpt>
      <trkpt lat="27.753905" lon="-18.044133">
        <ele>186.677</ele>
        <time>2024-02-08T13:06:43Z</time>
      </trkpt>
      <trkpt lat="27.754073" lon="-18.043783">
        <ele>186.992</ele>
        <time>2024-02-08T13:07:11Z</time>
      </trkpt>
      <trkpt lat="27.754209" lon="-18.042995">
        <ele>188.096</ele>
        <time>2024-02-08T13:08:07Z</time>
      </trkpt>
      <trkpt lat="27.753667" lon="-18.042728">
        <ele>189.031</ele>
        <time>2024-02-08T13:09:01Z</time>
      </trkpt>
      <trkpt lat="27.753660" lon="-18.042498">
        <ele>189.072</ele>
        <time>2024-02-08T13:09:17Z</time>
      </trkpt>
      <trkpt lat="27.753845" lon="-18.042207">
        <ele>189.495</ele>
        <time>2024-02-08T13:09:41Z</time>
      </trkpt>
      <trkpt lat="27.753842" lon="-18.041830">
        <ele>190.596</ele>
        <time>2024-02-08T13:10:40Z</time>
      </trkpt>
      <trkpt lat="27.753723" lon="-18.041521">
        <ele>191.139</ele>
        <time>2024-02-08T13:11:06Z</time>
      </trkpt>
      <trkpt lat="27.753403" lon="-18.041145">
        <ele>190.828</ele>
        <time>2024-02-08T13:12:52Z</time>
      </trkpt>
      <trkpt lat="27.753494" lon="-18.040898">
        <ele>190.265</ele>
        <time>2024-02-08T13:13:12Z</time>
      </trkpt>
      <trkpt lat="27.753915" lon="-18.040588">
        <ele>190.768</ele>
        <time>2024-02-08T13:13:56Z</time>
      </trkpt>
      <trkpt lat="27.753854" lon="-18.039854">
        <ele>191.414</ele>
        <time>2024-02-08T13:14:55Z</time>
      </trkpt>
      <trkpt lat="27.753629" lon="-18.039417">
        <ele>192.409</ele>
        <time>2024-02-08T13:15:31Z</time>
      </trkpt>
      <trkpt lat="27.753070" lon="-18.039459">
        <ele>192.897</ele>
        <time>2024-02-08T13:16:21Z</time>
      </trkpt>
      <trkpt lat="27.752924" lon="-18.039270">
        <ele>194.312</ele>
        <time>2024-02-08T13:18:21Z</time>
      </trkpt>
      <trkpt lat="27.753100" lon="-18.038610">
        <ele>194.326</ele>
        <time>2024-02-08T13:19:19Z</time>
      </trkpt>
      <trkpt lat="27.753451" lon="-18.038396">
        <ele>194.661</ele>
        <time>2024-02-08T13:19:54Z</time>
      </trkpt>
      <trkpt lat="27.754011" lon="-18.037788">
        <ele>194.652</ele>
        <time>2024-02-08T13:20:57Z</time>
      </trkpt>
      <trkpt lat="27.754301" lon="-18.037177">
        <ele>195.695</ele>
        <time>2024-02-08T13:21:46Z</time>
      </trkpt>
      <trkpt lat="27.754356" lon="-18.036521">
        <ele>196.156</ele>
        <time>2024-02-08T13:22:35Z</time>
      </trkpt>
      <trkpt lat="27.754755" lon="-18.035879">
        <ele>196.599</ele>
        <time>2024-02-08T13:23:33Z</time>
      </trkpt>
      <trkpt lat="27.754794" lon="-18.035584">
        <ele>197.068</ele>
        <time>2024-02-08T13:25:08Z</time>
      </trkpt>
      <trkpt lat="27.754603" lon="-18.035274">
        <ele>196.639</ele>
        <time>2024-02-08T13:26:14Z</time>
      </trkpt>
      <trkpt lat="27.754652" lon="-18.034725">
        <ele>198.401</ele>
        <time>2024-02-08T13:26:53Z</time>
      </trkpt>
      <trkpt lat="27.754881" lon="-18.034136">
        <ele>199.421</ele>
        <time>2024-02-08T13:27:41Z</time>
      </trkpt>
      <trkpt lat="27.754790" lon="-18.033407">
        <ele>199.109</ele>
        <time>2024-02-08T13:28:34Z</time>
      </trkpt>
      <trkpt lat="27.755066" lon="-18.031967">
        <ele>199.794</ele>
        <time>2024-02-08T13:30:21Z</time>
      </trkpt>
      <trkpt lat="27.755309" lon="-18.031611">
        <ele>200.029</ele>
        <time>2024-02-08T13:30:53Z</time>
      </trkpt>
      <trkpt lat="27.755385" lon="-18.031274">
        <ele>200.343</ele>
        <time>2024-02-08T13:31:17Z</time>
      </trkpt>
      <trkpt lat="27.755361" lon="-18.030938">
        <ele>200.758</ele>
        <time>2024-02-08T13:31:41Z</time>
      </trkpt>
      <trkpt lat="27.755157" lon="-18.030398">
        <ele>201.079</ele>
        <time>2024-02-08T13:32:22Z</time>
      </trkpt>
      <trkpt lat="27.755690" lon="-18.029802">
        <ele>201.482</ele>
        <time>2024-02-08T13:33:21Z</time>
      </trkpt>
      <trkpt lat="27.756118" lon="-18.028482">
        <ele>202.643</ele>
        <time>2024-02-08T13:35:06Z</time>
      </trkpt>
      <trkpt lat="27.755954" lon="-18.027861">
        <ele>202.786</ele>
        <time>2024-02-08T13:35:55Z</time>
      </trkpt>
      <trkpt lat="27.756078" lon="-18.027542">
        <ele>203.695</ele>
        <time>2024-02-08T13:36:20Z</time>
      </trkpt>
      <trkpt lat="27.756339" lon="-18.027252">
        <ele>203.292</ele>
        <time>2024-02-08T13:36:50Z</time>
      </trkpt>
      <trkpt lat="27.756331" lon="-18.026960">
        <ele>204.073</ele>
        <time>2024-02-08T13:37:10Z</time>
      </trkpt>
      <trkpt lat="27.755955" lon="-18.026705">
        <ele>202.920</ele>
        <time>2024-02-08T13:37:45Z</time>
      </trkpt>
      <trkpt lat="27.755934" lon="-18.026364">
        <ele>203.709</ele>
        <time>2024-02-08T13:38:10Z</time>
      </trkpt>
      <trkpt lat="27.755736" lon="-18.026027">
        <ele>204.810</ele>
        <time>2024-02-08T13:38:38Z</time>
      </trkpt>
      <trkpt lat="27.755628" lon="-18.025543">
        <ele>205.085</ele>
        <time>2024-02-08T13:39:14Z</time>
      </trkpt>
      <trkpt lat="27.755795" lon="-18.025254">
        <ele>203.969</ele>
        <time>2024-02-08T13:39:38Z</time>
      </trkpt>
      <trkpt lat="27.755816" lon="-18.024751">
        <ele>204.964</ele>
        <time>2024-02-08T13:40:14Z</time>
      </trkpt>
      <trkpt lat="27.756229" lon="-18.024863">
        <ele>205.625</ele>
        <time>2024-02-08T13:40:51Z</time>
      </trkpt>
      <trkpt lat="27.756441" lon="-18.024670">
        <ele>205.588</ele>
        <time>2024-02-08T13:41:56Z</time>
      </trkpt>
      <trkpt lat="27.756244" lon="-18.024278">
        <ele>206.289</ele>
        <time>2024-02-08T13:42:45Z</time>
      </trkpt>
      <trkpt lat="27.756276" lon="-18.023442">
        <ele>205.492</ele>
        <time>2024-02-08T13:43:45Z</time>
      </trkpt>
      <trkpt lat="27.756567" lon="-18.022618">
        <ele>206.571</ele>
        <time>2024-02-08T13:44:46Z</time>
      </trkpt>
      <trkpt lat="27.756877" lon="-18.022235">
        <ele>206.946</ele>
        <time>2024-02-08T13:45:26Z</time>
      </trkpt>
      <trkpt lat="27.756951" lon="-18.021789">
        <ele>206.988</ele>
        <time>2024-02-08T13:45:58Z</time>
      </trkpt>
      <trkpt lat="27.756779" lon="-18.021138">
        <ele>208.116</ele>
        <time>2024-02-08T13:46:48Z</time>
      </trkpt>
      <trkpt lat="27.756141" lon="-18.020820">
        <ele>207.809</ele>
        <time>2024-02-08T13:47:45Z</time>
      </trkpt>
      <trkpt lat="27.756027" lon="-18.020429">
        <ele>209.255</ele>
        <time>2024-02-08T13:48:13Z</time>
      </trkpt>
      <trkpt lat="27.756391" lon="-18.019568">
        <ele>208.790</ele>
        <time>2024-02-08T13:49:24Z</time>
      </trkpt>
      <trkpt lat="27.756127" lon="-18.019240">
        <ele>209.054</ele>
        <time>2024-02-08T13:49:58Z</time>
      </trkpt>
      <trkpt lat="27.756118" lon="-18.018863">
        <ele>209.749</ele>
        <time>2024-02-08T13:50:28Z</time>
      </trkpt>
      <trkpt lat="27.756572" lon="-18.018162">
        <ele>212.390</ele>
        <time>2024-02-08T13:51:42Z</time>
      </trkpt>
      <trkpt lat="27.756679" lon="-18.017422">
        <ele>211.223</ele>
        <time>2024-02-08T13:52:34Z</time>
      </trkpt>
      <trkpt lat="27.757017" lon="-18.016508">
        <ele>212.464</ele>
        <time>2024-02-08T13:53:46Z</time>
      </trkpt>
      <trkpt lat="27.757002" lon="-18.016125">
        <ele>212.527</ele>
        <time>2024-02-08T13:54:16Z</time>
      </trkpt>
      <trkpt lat="27.756783" lon="-18.015552">
        <ele>212.446</ele>
        <time>2024-02-08T13:55:00Z</time>
      </trkpt>
      <trkpt lat="27.756990" lon="-18.014935">
        <ele>213.277</ele>
        <time>2024-02-08T13:55:45Z</time>
      </trkpt>
      <trkpt lat="27.757058" lon="-18.013956">
        <ele>214.061</ele>
        <time>2024-02-08T13:56:53Z</time>
      </trkpt>
      <trkpt lat="27.756834" lon="-18.013765">
        <ele>214.127</ele>
        <time>2024-02-08T13:57:21Z</time>
      </trkpt>
      <trkpt lat="27.756977" lon="-18.013786">
        <ele>215.709</ele>
        <time>2024-02-08T13:57:40Z</time>
      </trkpt>
      <trkpt lat="27.756677" lon="-18.013240">
        <ele>216.378</ele>
        <time>2024-02-08T13:58:29Z</time>
      </trkpt>
      <trkpt lat="27.756626" lon="-18.012834">
        <ele>218.913</ele>
        <time>2024-02-08T13:58:59Z</time>
      </trkpt>
      <trkpt lat="27.756370" lon="-18.012423">
        <ele>222.237</ele>
        <time>2024-02-08T13:59:37Z</time>
      </trkpt>
      <trkpt lat="27.756422" lon="-18.011863">
        <ele>225.222</ele>
        <time>2024-02-08T14:00:17Z</time>
      </trkpt>
      <trkpt lat="27.755954" lon="-18.010858">
        <ele>229.333</ele>
        <time>2024-02-08T14:01:34Z</time>
      </trkpt>
      <trkpt lat="27.755954" lon="-18.010004">
        <ele>233.596</ele>
        <time>2024-02-08T14:02:37Z</time>
      </trkpt>
      <trkpt lat="27.755507" lon="-18.010127">
        <ele>237.057</ele>
        <time>2024-02-08T14:03:17Z</time>
      </trkpt>
      <trkpt lat="27.754411" lon="-18.010897">
        <ele>248.280</ele>
        <time>2024-02-08T14:05:06Z</time>
      </trkpt>
    </trkseg>
  </trk></gpx>