<?xml version="1.0" encoding="UTF-8"?>
<gpx version="1.1" creator="Aventuras en Cada Paso" xmlns="http://www.topografix.com/GPX/1/1">
  <metadata>
    <name>Presa de Soria – Cascada</name>
    <desc>Ruta por zona semidesértica hasta la Presa de las Niñas. Cuando llueve se forma una cascada espectacular. Casi sin sombra, llevar protección solar.</desc>
    <author><name>Aventuras en Cada Paso</name></author>
    <time>2026-07-08T08:12:58.164Z</time>
    <keywords>Gran Canaria, Senderismo, Fácil, senderismo Canarias</keywords>
  </metadata>
  <wpt lat="27.8883" lon="-15.6136">
    <name>Presa de Soria – Cascada</name>
    <desc>Ruta por zona semidesértica hasta la Presa de las Niñas. Cuando llueve se forma una cascada espectacular. Casi sin sombra, llevar protección solar. | Isla: Gran Canaria | Tipo: Senderismo | Dificultad: Fácil | Distancia: 8km | Duración: 2-4 horas</desc>
    <type>Senderismo</type>
    <extensions>
      <isla>Gran Canaria</isla>
      <dificultad>Fácil</dificultad>
      <distancia>8</distancia>
      <duracion>2-4 horas</duracion>
    </extensions>
  </wpt>
</gpx>