<?xml version="1.0" encoding="UTF-8"?>
<gpx version="1.1" creator="Aventuras en Cada Paso" xmlns="http://www.topografix.com/GPX/1/1">
  <metadata>
    <name>Puerto Calero – Puerto del Carmen</name>
    <desc>Sendero costero desde Puerto Calero hasta Puerto del Carmen por el Mirador del Puerto, Barranco Quiquere y Playa Pila de la Barrilla.</desc>
    <author><name>Aventuras en Cada Paso</name></author>
    <time>2026-07-08T08:12:58.173Z</time>
    <keywords>Lanzarote, Senderismo, Fácil, senderismo Canarias</keywords>
  </metadata>
  <wpt lat="28.9231" lon="-13.6694">
    <name>Puerto Calero – Puerto del Carmen</name>
    <desc>Sendero costero desde Puerto Calero hasta Puerto del Carmen por el Mirador del Puerto, Barranco Quiquere y Playa Pila de la Barrilla. | Isla: Lanzarote | Tipo: Senderismo | Dificultad: Fácil | Distancia: 7km | Duración: 2-4 horas</desc>
    <type>Senderismo</type>
    <extensions>
      <isla>Lanzarote</isla>
      <dificultad>Fácil</dificultad>
      <distancia>7</distancia>
      <duracion>2-4 horas</duracion>
    </extensions>
  </wpt>
</gpx>