<?xml version="1.0" encoding="UTF-8"?>
<gpx creator="Wikiloc - https://www.wikiloc.com" version="1.1" xmlns="http://www.topografix.com/GPX/1/1" xmlns:xsi="http://www.w3.org/2001/XMLSchema-instance" xsi:schemaLocation="http://www.topografix.com/GPX/1/1 http://www.topografix.com/GPX/1/1/gpx.xsd">
  <metadata>
    <name>Wikiloc - Lomo Quiebre paseo por Puerto Mogan</name>
    <link href="https://www.wikiloc.com/hiking-trails/lomo-quiebre-paseo-por-puerto-mogan-36441601">
      <text>Lomo Quiebre paseo por Puerto Mogan - Wikiloc on Wikiloc</text>
    </link>
    <time>2019-05-14T15:33:01Z</time>
  </metadata>
  <trk>
    <name>Lomo Quiebre paseo por Puerto Mogan - Wikiloc</name>
    <cmt></cmt>
    <desc></desc>
    <trkseg>
      <trkpt lat="27.820595" lon="-15.762161">
        <ele>9.054</ele>
        <time>2019-05-14T11:28:03Z</time>
      </trkpt>
      <trkpt lat="27.820442" lon="-15.762127">
        <ele>9.056</ele>
        <time>2019-05-14T11:28:35Z</time>
      </trkpt>
      <trkpt lat="27.820533" lon="-15.762162">
        <ele>9.011</ele>
        <time>2019-05-14T11:29:01Z</time>
      </trkpt>
      <trkpt lat="27.820456" lon="-15.762496">
        <ele>9.008</ele>
        <time>2019-05-14T11:29:56Z</time>
      </trkpt>
      <trkpt lat="27.820370" lon="-15.762505">
        <ele>8.938</ele>
        <time>2019-05-14T11:30:49Z</time>
      </trkpt>
      <trkpt lat="27.820367" lon="-15.762762">
        <ele>8.921</ele>
        <time>2019-05-14T11:32:42Z</time>
      </trkpt>
      <trkpt lat="27.819843" lon="-15.763456">
        <ele>7.099</ele>
        <time>2019-05-14T11:34:05Z</time>
      </trkpt>
      <trkpt lat="27.819570" lon="-15.763623">
        <ele>6.559</ele>
        <time>2019-05-14T11:34:35Z</time>
      </trkpt>
      <trkpt lat="27.817484" lon="-15.764389">
        <ele>5.046</ele>
        <time>2019-05-14T11:42:13Z</time>
      </trkpt>
      <trkpt lat="27.817503" lon="-15.764655">
        <ele>4.941</ele>
        <time>2019-05-14T11:42:48Z</time>
      </trkpt>
      <trkpt lat="27.817257" lon="-15.764675">
        <ele>4.545</ele>
        <time>2019-05-14T11:43:23Z</time>
      </trkpt>
      <trkpt lat="27.817329" lon="-15.765865">
        <ele>4.586</ele>
        <time>2019-05-14T11:51:05Z</time>
      </trkpt>
      <trkpt lat="27.817933" lon="-15.765849">
        <ele>6.793</ele>
        <time>2019-05-14T11:53:32Z</time>
      </trkpt>
      <trkpt lat="27.818095" lon="-15.765910">
        <ele>7.265</ele>
        <time>2019-05-14T11:53:54Z</time>
      </trkpt>
      <trkpt lat="27.818097" lon="-15.766132">
        <ele>7.221</ele>
        <time>2019-05-14T11:54:15Z</time>
      </trkpt>
      <trkpt lat="27.817900" lon="-15.766188">
        <ele>6.508</ele>
        <time>2019-05-14T11:54:46Z</time>
      </trkpt>
      <trkpt lat="27.817927" lon="-15.766396">
        <ele>6.352</ele>
        <time>2019-05-14T11:55:19Z</time>
      </trkpt>
      <trkpt lat="27.817865" lon="-15.766556">
        <ele>6.415</ele>
        <time>2019-05-14T11:55:35Z</time>
      </trkpt>
      <trkpt lat="27.817784" lon="-15.766615">
        <ele>5.993</ele>
        <time>2019-05-14T11:55:43Z</time>
      </trkpt>
      <trkpt lat="27.817659" lon="-15.766569">
        <ele>5.913</ele>
        <time>2019-05-14T11:55:57Z</time>
      </trkpt>
      <trkpt lat="27.817672" lon="-15.767068">
        <ele>6.730</ele>
        <time>2019-05-14T11:56:59Z</time>
      </trkpt>
      <trkpt lat="27.817588" lon="-15.767137">
        <ele>6.765</ele>
        <time>2019-05-14T11:57:08Z</time>
      </trkpt>
      <trkpt lat="27.816528" lon="-15.767223">
        <ele>6.539</ele>
        <time>2019-05-14T11:58:51Z</time>
      </trkpt>
      <trkpt lat="27.816394" lon="-15.767167">
        <ele>6.590</ele>
        <time>2019-05-14T11:59:05Z</time>
      </trkpt>
      <trkpt lat="27.816135" lon="-15.766899">
        <ele>6.228</ele>
        <time>2019-05-14T11:59:48Z</time>
      </trkpt>
      <trkpt lat="27.815887" lon="-15.766348">
        <ele>6.589</ele>
        <time>2019-05-14T12:00:44Z</time>
      </trkpt>
      <trkpt lat="27.815748" lon="-15.764176">
        <ele>5.417</ele>
        <time>2019-05-14T12:04:33Z</time>
      </trkpt>
      <trkpt lat="27.815690" lon="-15.763738">
        <ele>5.608</ele>
        <time>2019-05-14T12:05:37Z</time>
      </trkpt>
      <trkpt lat="27.815615" lon="-15.763678">
        <ele>8.855</ele>
        <time>2019-05-14T12:06:02Z</time>
      </trkpt>
      <trkpt lat="27.815722" lon="-15.764217">
        <ele>5.218</ele>
        <time>2019-05-14T12:07:45Z</time>
      </trkpt>
      <trkpt lat="27.815663" lon="-15.764363">
        <ele>5.526</ele>
        <time>2019-05-14T12:08:32Z</time>
      </trkpt>
      <trkpt lat="27.815745" lon="-15.764403">
        <ele>5.026</ele>
        <time>2019-05-14T12:08:51Z</time>
      </trkpt>
      <trkpt lat="27.815820" lon="-15.764853">
        <ele>5.033</ele>
        <time>2019-05-14T12:09:29Z</time>
      </trkpt>
      <trkpt lat="27.815930" lon="-15.766400">
        <ele>6.488</ele>
        <time>2019-05-14T12:11:44Z</time>
      </trkpt>
      <trkpt lat="27.816279" lon="-15.767137">
        <ele>6.112</ele>
        <time>2019-05-14T12:12:59Z</time>
      </trkpt>
      <trkpt lat="27.816544" lon="-15.767289">
        <ele>5.943</ele>
        <time>2019-05-14T12:13:27Z</time>
      </trkpt>
      <trkpt lat="27.817532" lon="-15.767148">
        <ele>6.058</ele>
        <time>2019-05-14T12:15:04Z</time>
      </trkpt>
      <trkpt lat="27.817653" lon="-15.766859">
        <ele>5.152</ele>
        <time>2019-05-14T12:16:14Z</time>
      </trkpt>
      <trkpt lat="27.817600" lon="-15.766548">
        <ele>4.817</ele>
        <time>2019-05-14T12:16:51Z</time>
      </trkpt>
      <trkpt lat="27.817317" lon="-15.766503">
        <ele>4.708</ele>
        <time>2019-05-14T12:17:28Z</time>
      </trkpt>
      <trkpt lat="27.817133" lon="-15.766346">
        <ele>4.428</ele>
        <time>2019-05-14T12:18:29Z</time>
      </trkpt>
      <trkpt lat="27.816689" lon="-15.766367">
        <ele>4.491</ele>
        <time>2019-05-14T12:20:28Z</time>
      </trkpt>
      <trkpt lat="27.816660" lon="-15.766049">
        <ele>3.279</ele>
        <time>2019-05-14T12:21:04Z</time>
      </trkpt>
      <trkpt lat="27.817327" lon="-15.765912">
        <ele>3.579</ele>
        <time>2019-05-14T12:22:53Z</time>
      </trkpt>
      <trkpt lat="27.817311" lon="-15.764701">
        <ele>3.686</ele>
        <time>2019-05-14T12:24:58Z</time>
      </trkpt>
      <trkpt lat="27.817145" lon="-15.764594">
        <ele>3.661</ele>
        <time>2019-05-14T12:25:25Z</time>
      </trkpt>
      <trkpt lat="27.817095" lon="-15.764181">
        <ele>4.515</ele>
        <time>2019-05-14T12:28:45Z</time>
      </trkpt>
      <trkpt lat="27.816943" lon="-15.764135">
        <ele>4.676</ele>
        <time>2019-05-14T12:29:04Z</time>
      </trkpt>
      <trkpt lat="27.816438" lon="-15.764185">
        <ele>4.556</ele>
        <time>2019-05-14T12:30:33Z</time>
      </trkpt>
      <trkpt lat="27.816446" lon="-15.763933">
        <ele>3.559</ele>
        <time>2019-05-14T12:31:38Z</time>
      </trkpt>
      <trkpt lat="27.816497" lon="-15.764126">
        <ele>4.614</ele>
        <time>2019-05-14T12:32:57Z</time>
      </trkpt>
      <trkpt lat="27.816598" lon="-15.764239">
        <ele>4.308</ele>
        <time>2019-05-14T12:33:16Z</time>
      </trkpt>
      <trkpt lat="27.817002" lon="-15.764174">
        <ele>3.818</ele>
        <time>2019-05-14T12:33:56Z</time>
      </trkpt>
      <trkpt lat="27.817165" lon="-15.764068">
        <ele>4.061</ele>
        <time>2019-05-14T12:34:16Z</time>
      </trkpt>
      <trkpt lat="27.817368" lon="-15.764068">
        <ele>3.759</ele>
        <time>2019-05-14T12:34:36Z</time>
      </trkpt>
      <trkpt lat="27.817762" lon="-15.764372">
        <ele>4.419</ele>
        <time>2019-05-14T12:35:25Z</time>
      </trkpt>
      <trkpt lat="27.818241" lon="-15.764515">
        <ele>4.586</ele>
        <time>2019-05-14T12:36:21Z</time>
      </trkpt>
      <trkpt lat="27.818565" lon="-15.764038">
        <ele>4.931</ele>
        <time>2019-05-14T12:37:20Z</time>
      </trkpt>
      <trkpt lat="27.818671" lon="-15.763951">
        <ele>5.055</ele>
        <time>2019-05-14T12:39:34Z</time>
      </trkpt>
      <trkpt lat="27.819115" lon="-15.763811">
        <ele>4.526</ele>
        <time>2019-05-14T12:51:34Z</time>
      </trkpt>
      <trkpt lat="27.819189" lon="-15.763683">
        <ele>4.841</ele>
        <time>2019-05-14T12:52:43Z</time>
      </trkpt>
      <trkpt lat="27.819104" lon="-15.763641">
        <ele>4.581</ele>
        <time>2019-05-14T12:53:30Z</time>
      </trkpt>
      <trkpt lat="27.819295" lon="-15.763666">
        <ele>4.409</ele>
        <time>2019-05-14T12:55:13Z</time>
      </trkpt>
      <trkpt lat="27.818962" lon="-15.763880">
        <ele>4.408</ele>
        <time>2019-05-14T12:55:14Z</time>
      </trkpt>
      <trkpt lat="27.819097" lon="-15.763611">
        <ele>4.197</ele>
        <time>2019-05-14T12:56:32Z</time>
      </trkpt>
      <trkpt lat="27.819341" lon="-15.763531">
        <ele>4.140</ele>
        <time>2019-05-14T12:56:45Z</time>
      </trkpt>
      <trkpt lat="27.819305" lon="-15.763663">
        <ele>4.058</ele>
        <time>2019-05-14T12:57:23Z</time>
      </trkpt>
      <trkpt lat="27.819336" lon="-15.763468">
        <ele>4.148</ele>
        <time>2019-05-14T12:58:30Z</time>
      </trkpt>
      <trkpt lat="27.819381" lon="-15.763476">
        <ele>4.185</ele>
        <time>2019-05-14T12:59:42Z</time>
      </trkpt>
      <trkpt lat="27.819496" lon="-15.763709">
        <ele>4.190</ele>
        <time>2019-05-14T13:00:27Z</time>
      </trkpt>
      <trkpt lat="27.819395" lon="-15.763797">
        <ele>4.054</ele>
        <time>2019-05-14T13:00:33Z</time>
      </trkpt>
      <trkpt lat="27.819355" lon="-15.763738">
        <ele>4.085</ele>
        <time>2019-05-14T13:01:05Z</time>
      </trkpt>
      <trkpt lat="27.818962" lon="-15.764551">
        <ele>4.026</ele>
        <time>2019-05-14T13:01:08Z</time>
      </trkpt>
      <trkpt lat="27.818941" lon="-15.765025">
        <ele>3.947</ele>
        <time>2019-05-14T13:01:24Z</time>
      </trkpt>
      <trkpt lat="27.819050" lon="-15.764859">
        <ele>4.011</ele>
        <time>2019-05-14T13:02:06Z</time>
      </trkpt>
      <trkpt lat="27.819110" lon="-15.763726">
        <ele>3.608</ele>
        <time>2019-05-14T13:02:37Z</time>
      </trkpt>
      <trkpt lat="27.818363" lon="-15.764264">
        <ele>2.725</ele>
        <time>2019-05-14T13:05:32Z</time>
      </trkpt>
      <trkpt lat="27.818283" lon="-15.764430">
        <ele>2.658</ele>
        <time>2019-05-14T13:05:55Z</time>
      </trkpt>
      <trkpt lat="27.817855" lon="-15.764346">
        <ele>2.536</ele>
        <time>2019-05-14T13:06:38Z</time>
      </trkpt>
      <trkpt lat="27.817347" lon="-15.764006">
        <ele>1.876</ele>
        <time>2019-05-14T13:08:27Z</time>
      </trkpt>
      <trkpt lat="27.817075" lon="-15.764107">
        <ele>2.023</ele>
        <time>2019-05-14T13:09:01Z</time>
      </trkpt>
      <trkpt lat="27.817038" lon="-15.764273">
        <ele>1.668</ele>
        <time>2019-05-14T13:09:17Z</time>
      </trkpt>
      <trkpt lat="27.817104" lon="-15.764631">
        <ele>2.252</ele>
        <time>2019-05-14T13:11:31Z</time>
      </trkpt>
      <trkpt lat="27.817229" lon="-15.764698">
        <ele>1.433</ele>
        <time>2019-05-14T13:11:52Z</time>
      </trkpt>
      <trkpt lat="27.817322" lon="-15.764864">
        <ele>0.436</ele>
        <time>2019-05-14T13:16:03Z</time>
      </trkpt>
      <trkpt lat="27.817379" lon="-15.764790">
        <ele>1.017</ele>
        <time>2019-05-14T13:38:20Z</time>
      </trkpt>
      <trkpt lat="27.816694" lon="-15.765943">
        <ele>1.418</ele>
        <time>2019-05-14T14:02:01Z</time>
      </trkpt>
      <trkpt lat="27.818059" lon="-15.765883">
        <ele>3.808</ele>
        <time>2019-05-14T14:07:19Z</time>
      </trkpt>
      <trkpt lat="27.818233" lon="-15.765571">
        <ele>2.826</ele>
        <time>2019-05-14T14:08:12Z</time>
      </trkpt>
      <trkpt lat="27.818285" lon="-15.764775">
        <ele>2.169</ele>
        <time>2019-05-14T14:13:27Z</time>
      </trkpt>
      <trkpt lat="27.818360" lon="-15.764658">
        <ele>2.217</ele>
        <time>2019-05-14T14:13:50Z</time>
      </trkpt>
      <trkpt lat="27.818539" lon="-15.764756">
        <ele>2.337</ele>
        <time>2019-05-14T14:14:14Z</time>
      </trkpt>
      <trkpt lat="27.818623" lon="-15.764887">
        <ele>3.574</ele>
        <time>2019-05-14T14:14:34Z</time>
      </trkpt>
      <trkpt lat="27.818612" lon="-15.765001">
        <ele>4.089</ele>
        <time>2019-05-14T14:15:05Z</time>
      </trkpt>
      <trkpt lat="27.818734" lon="-15.765139">
        <ele>7.073</ele>
        <time>2019-05-14T14:15:40Z</time>
      </trkpt>
      <trkpt lat="27.818547" lon="-15.765421">
        <ele>8.174</ele>
        <time>2019-05-14T14:17:16Z</time>
      </trkpt>
      <trkpt lat="27.818630" lon="-15.765742">
        <ele>11.919</ele>
        <time>2019-05-14T14:17:53Z</time>
      </trkpt>
      <trkpt lat="27.818416" lon="-15.765773">
        <ele>4.009</ele>
        <time>2019-05-14T14:19:19Z</time>
      </trkpt>
      <trkpt lat="27.818275" lon="-15.765714">
        <ele>3.519</ele>
        <time>2019-05-14T14:19:45Z</time>
      </trkpt>
      <trkpt lat="27.818250" lon="-15.764781">
        <ele>2.808</ele>
        <time>2019-05-14T14:21:27Z</time>
      </trkpt>
      <trkpt lat="27.818014" lon="-15.764838">
        <ele>2.844</ele>
        <time>2019-05-14T14:21:54Z</time>
      </trkpt>
      <trkpt lat="27.817935" lon="-15.764966">
        <ele>2.847</ele>
        <time>2019-05-14T14:22:18Z</time>
      </trkpt>
      <trkpt lat="27.817349" lon="-15.765021">
        <ele>1.995</ele>
        <time>2019-05-14T14:23:42Z</time>
      </trkpt>
      <trkpt lat="27.817888" lon="-15.764996">
        <ele>2.815</ele>
        <time>2019-05-14T14:24:59Z</time>
      </trkpt>
      <trkpt lat="27.817912" lon="-15.764898">
        <ele>3.452</ele>
        <time>2019-05-14T14:32:44Z</time>
      </trkpt>
      <trkpt lat="27.817846" lon="-15.764937">
        <ele>2.637</ele>
        <time>2019-05-14T14:42:19Z</time>
      </trkpt>
      <trkpt lat="27.817925" lon="-15.764907">
        <ele>2.551</ele>
        <time>2019-05-14T14:48:02Z</time>
      </trkpt>
      <trkpt lat="27.817893" lon="-15.764867">
        <ele>2.812</ele>
        <time>2019-05-14T14:48:29Z</time>
      </trkpt>
      <trkpt lat="27.817830" lon="-15.764914">
        <ele>2.695</ele>
        <time>2019-05-14T14:55:58Z</time>
      </trkpt>
      <trkpt lat="27.817958" lon="-15.764933">
        <ele>2.549</ele>
        <time>2019-05-14T14:58:29Z</time>
      </trkpt>
      <trkpt lat="27.817920" lon="-15.764960">
        <ele>2.423</ele>
        <time>2019-05-14T15:01:34Z</time>
      </trkpt>
      <trkpt lat="27.817949" lon="-15.764871">
        <ele>3.008</ele>
        <time>2019-05-14T15:13:34Z</time>
      </trkpt>
      <trkpt lat="27.817902" lon="-15.764958">
        <ele>4.742</ele>
        <time>2019-05-14T15:22:32Z</time>
      </trkpt>
      <trkpt lat="27.817802" lon="-15.764961">
        <ele>4.735</ele>
        <time>2019-05-14T15:22:46Z</time>
      </trkpt>
      <trkpt lat="27.818242" lon="-15.764951">
        <ele>4.473</ele>
        <time>2019-05-14T15:23:29Z</time>
      </trkpt>
      <trkpt lat="27.818252" lon="-15.765231">
        <ele>5.283</ele>
        <time>2019-05-14T15:24:19Z</time>
      </trkpt>
      <trkpt lat="27.818309" lon="-15.765264">
        <ele>5.790</ele>
        <time>2019-05-14T15:25:50Z</time>
      </trkpt>
      <trkpt lat="27.818190" lon="-15.765261">
        <ele>5.685</ele>
        <time>2019-05-14T15:26:30Z</time>
      </trkpt>
      <trkpt lat="27.818252" lon="-15.765293">
        <ele>5.789</ele>
        <time>2019-05-14T15:26:41Z</time>
      </trkpt>
      <trkpt lat="27.818488" lon="-15.765183">
        <ele>5.730</ele>
        <time>2019-05-14T15:26:58Z</time>
      </trkpt>
      <trkpt lat="27.818305" lon="-15.765043">
        <ele>5.846</ele>
        <time>2019-05-14T15:27:09Z</time>
      </trkpt>
      <trkpt lat="27.818259" lon="-15.765090">
        <ele>5.888</ele>
        <time>2019-05-14T15:27:32Z</time>
      </trkpt>
      <trkpt lat="27.818390" lon="-15.764390">
        <ele>5.016</ele>
        <time>2019-05-14T15:28:38Z</time>
      </trkpt>
      <trkpt lat="27.818547" lon="-15.764155">
        <ele>5.408</ele>
        <time>2019-05-14T15:28:58Z</time>
      </trkpt>
      <trkpt lat="27.819160" lon="-15.763747">
        <ele>5.977</ele>
        <time>2019-05-14T15:30:02Z</time>
      </trkpt>
      <trkpt lat="27.819542" lon="-15.763670">
        <ele>6.820</ele>
        <time>2019-05-14T15:30:40Z</time>
      </trkpt>
      <trkpt lat="27.819903" lon="-15.763465">
        <ele>8.198</ele>
        <time>2019-05-14T15:31:09Z</time>
      </trkpt>
      <trkpt lat="27.820417" lon="-15.762839">
        <ele>8.478</ele>
        <time>2019-05-14T15:32:10Z</time>
      </trkpt>
      <trkpt lat="27.820910" lon="-15.762590">
        <ele>9.465</ele>
        <time>2019-05-14T15:33:01Z</time>
      </trkpt>
    </trkseg>
  </trk></gpx>