<?xml version="1.0" encoding="UTF-8"?>
<gpx creator="Wikiloc - https://www.wikiloc.com" version="1.1" xmlns="http://www.topografix.com/GPX/1/1" xmlns:xsi="http://www.w3.org/2001/XMLSchema-instance" xsi:schemaLocation="http://www.topografix.com/GPX/1/1 http://www.topografix.com/GPX/1/1/gpx.xsd">
  <metadata>
    <name>Wikiloc - ARCO DE PUERTO RICO por El Palmeral del Noruego y Presa de C...</name>
    <link href="https://www.wikiloc.com/hiking-trails/balitos-palmeral-noruego-arco-de-puerto-rico-presa-de-canada-de-la-presa-247636778">
      <text>ARCO DE PUERTO RICO por El Palmeral del Noruego y Presa de C... on Wikiloc</text>
    </link>
    <time>2026-01-19T13:00:52.541Z</time>
  </metadata>
  <trk>
    <name>ARCO DE PUERTO RICO por El Palmeral del Noruego y Presa de C... - Wikiloc</name>
    <cmt></cmt>
    <desc></desc>
    <trkseg>
      <trkpt lat="27.777147" lon="-15.700635">
        <ele>19.533</ele>
        <time>2026-01-19T09:10:58Z</time>
      </trkpt>
      <trkpt lat="27.777042" lon="-15.700863">
        <ele>18.123</ele>
        <time>2026-01-19T09:11:28.545Z</time>
      </trkpt>
      <trkpt lat="27.777155" lon="-15.701240">
        <ele>24.315</ele>
        <time>2026-01-19T09:12:04.545Z</time>
      </trkpt>
      <trkpt lat="27.778116" lon="-15.701662">
        <ele>21.409</ele>
        <time>2026-01-19T09:13:45.545Z</time>
      </trkpt>
      <trkpt lat="27.778555" lon="-15.701645">
        <ele>29.595</ele>
        <time>2026-01-19T09:14:25.545Z</time>
      </trkpt>
      <trkpt lat="27.778696" lon="-15.701715">
        <ele>34.877</ele>
        <time>2026-01-19T09:14:40.545Z</time>
      </trkpt>
      <trkpt lat="27.779179" lon="-15.701538">
        <ele>33.410</ele>
        <time>2026-01-19T09:15:33.544Z</time>
      </trkpt>
      <trkpt lat="27.779624" lon="-15.701501">
        <ele>41.849</ele>
        <time>2026-01-19T09:16:42.544Z</time>
      </trkpt>
      <trkpt lat="27.780629" lon="-15.701818">
        <ele>54.196</ele>
        <time>2026-01-19T09:19:22.544Z</time>
      </trkpt>
      <trkpt lat="27.781094" lon="-15.701868">
        <ele>51.049</ele>
        <time>2026-01-19T09:20:17.544Z</time>
      </trkpt>
      <trkpt lat="27.781380" lon="-15.701819">
        <ele>46.510</ele>
        <time>2026-01-19T09:20:58.544Z</time>
      </trkpt>
      <trkpt lat="27.781753" lon="-15.702092">
        <ele>57.830</ele>
        <time>2026-01-19T09:21:54.544Z</time>
      </trkpt>
      <trkpt lat="27.781951" lon="-15.702067">
        <ele>60.611</ele>
        <time>2026-01-19T09:22:23.544Z</time>
      </trkpt>
      <trkpt lat="27.782052" lon="-15.701589">
        <ele>45.568</ele>
        <time>2026-01-19T09:24:24.544Z</time>
      </trkpt>
      <trkpt lat="27.782262" lon="-15.701372">
        <ele>42.442</ele>
        <time>2026-01-19T09:25:21.543Z</time>
      </trkpt>
      <trkpt lat="27.782228" lon="-15.701270">
        <ele>42.926</ele>
        <time>2026-01-19T09:25:36.543Z</time>
      </trkpt>
      <trkpt lat="27.782654" lon="-15.701142">
        <ele>44.409</ele>
        <time>2026-01-19T09:26:23.543Z</time>
      </trkpt>
      <trkpt lat="27.782925" lon="-15.700682">
        <ele>47.948</ele>
        <time>2026-01-19T09:27:11.543Z</time>
      </trkpt>
      <trkpt lat="27.783129" lon="-15.700122">
        <ele>49.420</ele>
        <time>2026-01-19T09:28:13.543Z</time>
      </trkpt>
      <trkpt lat="27.783323" lon="-15.699951">
        <ele>55.643</ele>
        <time>2026-01-19T09:28:59.543Z</time>
      </trkpt>
      <trkpt lat="27.783329" lon="-15.699792">
        <ele>55.272</ele>
        <time>2026-01-19T09:29:28.543Z</time>
      </trkpt>
      <trkpt lat="27.783700" lon="-15.699323">
        <ele>61.829</ele>
        <time>2026-01-19T09:30:28.543Z</time>
      </trkpt>
      <trkpt lat="27.783778" lon="-15.698787">
        <ele>67.442</ele>
        <time>2026-01-19T09:31:17.542Z</time>
      </trkpt>
      <trkpt lat="27.783939" lon="-15.698547">
        <ele>70.463</ele>
        <time>2026-01-19T09:31:45.542Z</time>
      </trkpt>
      <trkpt lat="27.784462" lon="-15.698322">
        <ele>86.353</ele>
        <time>2026-01-19T09:33:00.542Z</time>
      </trkpt>
      <trkpt lat="27.785309" lon="-15.697559">
        <ele>84.974</ele>
        <time>2026-01-19T09:34:51.542Z</time>
      </trkpt>
      <trkpt lat="27.785376" lon="-15.697672">
        <ele>83.588</ele>
        <time>2026-01-19T09:34:56.542Z</time>
      </trkpt>
      <trkpt lat="27.785446" lon="-15.697582">
        <ele>86.024</ele>
        <time>2026-01-19T09:35:03.541Z</time>
      </trkpt>
      <trkpt lat="27.785522" lon="-15.697657">
        <ele>86.326</ele>
        <time>2026-01-19T09:35:12.541Z</time>
      </trkpt>
      <trkpt lat="27.785597" lon="-15.697607">
        <ele>88.009</ele>
        <time>2026-01-19T09:35:23.541Z</time>
      </trkpt>
      <trkpt lat="27.785605" lon="-15.697487">
        <ele>88.740</ele>
        <time>2026-01-19T09:35:32.541Z</time>
      </trkpt>
      <trkpt lat="27.785468" lon="-15.697428">
        <ele>89.292</ele>
        <time>2026-01-19T09:35:47.541Z</time>
      </trkpt>
      <trkpt lat="27.785392" lon="-15.697290">
        <ele>93.395</ele>
        <time>2026-01-19T09:36:03.541Z</time>
      </trkpt>
      <trkpt lat="27.785206" lon="-15.697277">
        <ele>96.534</ele>
        <time>2026-01-19T09:39:01.545Z</time>
      </trkpt>
      <trkpt lat="27.784877" lon="-15.697456">
        <ele>95.441</ele>
        <time>2026-01-19T09:39:36.544Z</time>
      </trkpt>
      <trkpt lat="27.784545" lon="-15.697440">
        <ele>100.124</ele>
        <time>2026-01-19T09:40:23.544Z</time>
      </trkpt>
      <trkpt lat="27.784083" lon="-15.697580">
        <ele>100.275</ele>
        <time>2026-01-19T09:41:17.544Z</time>
      </trkpt>
      <trkpt lat="27.783741" lon="-15.697245">
        <ele>107.795</ele>
        <time>2026-01-19T09:42:18.544Z</time>
      </trkpt>
      <trkpt lat="27.783682" lon="-15.697093">
        <ele>107.926</ele>
        <time>2026-01-19T09:42:34.544Z</time>
      </trkpt>
      <trkpt lat="27.784019" lon="-15.696815">
        <ele>115.788</ele>
        <time>2026-01-19T09:43:47.544Z</time>
      </trkpt>
      <trkpt lat="27.784117" lon="-15.696630">
        <ele>118.824</ele>
        <time>2026-01-19T09:44:18.544Z</time>
      </trkpt>
      <trkpt lat="27.785749" lon="-15.695834">
        <ele>144.126</ele>
        <time>2026-01-19T09:49:13.543Z</time>
      </trkpt>
      <trkpt lat="27.786193" lon="-15.695326">
        <ele>157.009</ele>
        <time>2026-01-19T09:50:50.542Z</time>
      </trkpt>
      <trkpt lat="27.786396" lon="-15.695300">
        <ele>160.060</ele>
        <time>2026-01-19T09:51:37.542Z</time>
      </trkpt>
      <trkpt lat="27.786538" lon="-15.695168">
        <ele>161.512</ele>
        <time>2026-01-19T09:52:10.542Z</time>
      </trkpt>
      <trkpt lat="27.787507" lon="-15.694730">
        <ele>173.915</ele>
        <time>2026-01-19T09:54:57.535Z</time>
      </trkpt>
      <trkpt lat="27.787888" lon="-15.694361">
        <ele>171.324</ele>
        <time>2026-01-19T09:55:55.535Z</time>
      </trkpt>
      <trkpt lat="27.788364" lon="-15.694319">
        <ele>166.171</ele>
        <time>2026-01-19T09:57:05.535Z</time>
      </trkpt>
      <trkpt lat="27.788570" lon="-15.694194">
        <ele>164.364</ele>
        <time>2026-01-19T09:57:33.535Z</time>
      </trkpt>
      <trkpt lat="27.788805" lon="-15.694173">
        <ele>162.675</ele>
        <time>2026-01-19T09:58:06.535Z</time>
      </trkpt>
      <trkpt lat="27.789093" lon="-15.693927">
        <ele>158.955</ele>
        <time>2026-01-19T09:58:40.535Z</time>
      </trkpt>
      <trkpt lat="27.789305" lon="-15.693858">
        <ele>159.186</ele>
        <time>2026-01-19T09:59:17.535Z</time>
      </trkpt>
      <trkpt lat="27.789945" lon="-15.692867">
        <ele>182.881</ele>
        <time>2026-01-19T10:01:59.534Z</time>
      </trkpt>
      <trkpt lat="27.790231" lon="-15.692625">
        <ele>187.861</ele>
        <time>2026-01-19T10:03:26.546Z</time>
      </trkpt>
      <trkpt lat="27.790620" lon="-15.692455">
        <ele>193.117</ele>
        <time>2026-01-19T10:04:17.546Z</time>
      </trkpt>
      <trkpt lat="27.790802" lon="-15.692239">
        <ele>192.909</ele>
        <time>2026-01-19T10:04:45.545Z</time>
      </trkpt>
      <trkpt lat="27.791455" lon="-15.692259">
        <ele>191.660</ele>
        <time>2026-01-19T10:05:41.545Z</time>
      </trkpt>
      <trkpt lat="27.792528" lon="-15.691925">
        <ele>214.152</ele>
        <time>2026-01-19T10:07:59.545Z</time>
      </trkpt>
      <trkpt lat="27.792843" lon="-15.691599">
        <ele>220.265</ele>
        <time>2026-01-19T10:09:06.544Z</time>
      </trkpt>
      <trkpt lat="27.792913" lon="-15.691721">
        <ele>219.734</ele>
        <time>2026-01-19T10:09:11.544Z</time>
      </trkpt>
      <trkpt lat="27.792863" lon="-15.691664">
        <ele>220.631</ele>
        <time>2026-01-19T10:09:25.544Z</time>
      </trkpt>
      <trkpt lat="27.793780" lon="-15.691066">
        <ele>231.294</ele>
        <time>2026-01-19T10:11:10.544Z</time>
      </trkpt>
      <trkpt lat="27.793882" lon="-15.691078">
        <ele>232.275</ele>
        <time>2026-01-19T10:11:19.544Z</time>
      </trkpt>
      <trkpt lat="27.794309" lon="-15.690711">
        <ele>240.635</ele>
        <time>2026-01-19T10:12:15.544Z</time>
      </trkpt>
      <trkpt lat="27.795166" lon="-15.690281">
        <ele>257.076</ele>
        <time>2026-01-19T10:14:28.543Z</time>
      </trkpt>
      <trkpt lat="27.795696" lon="-15.689725">
        <ele>259.618</ele>
        <time>2026-01-19T10:15:59.543Z</time>
      </trkpt>
      <trkpt lat="27.796037" lon="-15.689510">
        <ele>262.098</ele>
        <time>2026-01-19T10:16:40.543Z</time>
      </trkpt>
      <trkpt lat="27.796316" lon="-15.689408">
        <ele>265.417</ele>
        <time>2026-01-19T10:17:13.543Z</time>
      </trkpt>
      <trkpt lat="27.796708" lon="-15.689400">
        <ele>273.209</ele>
        <time>2026-01-19T10:18:04.543Z</time>
      </trkpt>
      <trkpt lat="27.797305" lon="-15.688971">
        <ele>273.833</ele>
        <time>2026-01-19T10:19:15.542Z</time>
      </trkpt>
      <trkpt lat="27.797492" lon="-15.688957">
        <ele>275.215</ele>
        <time>2026-01-19T10:19:36.542Z</time>
      </trkpt>
      <trkpt lat="27.798400" lon="-15.688158">
        <ele>278.798</ele>
        <time>2026-01-19T10:21:58.542Z</time>
      </trkpt>
      <trkpt lat="27.798779" lon="-15.687491">
        <ele>281.187</ele>
        <time>2026-01-19T10:23:04.542Z</time>
      </trkpt>
      <trkpt lat="27.799300" lon="-15.686810">
        <ele>282.214</ele>
        <time>2026-01-19T10:24:22.541Z</time>
      </trkpt>
      <trkpt lat="27.799618" lon="-15.686539">
        <ele>282.287</ele>
        <time>2026-01-19T10:25:02.541Z</time>
      </trkpt>
      <trkpt lat="27.800127" lon="-15.686354">
        <ele>285.028</ele>
        <time>2026-01-19T10:25:58.541Z</time>
      </trkpt>
      <trkpt lat="27.801102" lon="-15.685651">
        <ele>301.468</ele>
        <time>2026-01-19T10:27:55.541Z</time>
      </trkpt>
      <trkpt lat="27.802170" lon="-15.685052">
        <ele>306.789</ele>
        <time>2026-01-19T10:29:49.540Z</time>
      </trkpt>
      <trkpt lat="27.802561" lon="-15.684717">
        <ele>309.049</ele>
        <time>2026-01-19T10:30:37.540Z</time>
      </trkpt>
      <trkpt lat="27.802713" lon="-15.684305">
        <ele>309.002</ele>
        <time>2026-01-19T10:32:00.212Z</time>
      </trkpt>
      <trkpt lat="27.802871" lon="-15.684644">
        <ele>310.322</ele>
        <time>2026-01-19T10:33:33.544Z</time>
      </trkpt>
      <trkpt lat="27.803152" lon="-15.684572">
        <ele>313.809</ele>
        <time>2026-01-19T10:34:04.544Z</time>
      </trkpt>
      <trkpt lat="27.803391" lon="-15.684749">
        <ele>320.316</ele>
        <time>2026-01-19T10:34:42.543Z</time>
      </trkpt>
      <trkpt lat="27.803268" lon="-15.685207">
        <ele>318.618</ele>
        <time>2026-01-19T10:35:24.543Z</time>
      </trkpt>
      <trkpt lat="27.803480" lon="-15.685516">
        <ele>317.931</ele>
        <time>2026-01-19T10:36:44.543Z</time>
      </trkpt>
      <trkpt lat="27.803261" lon="-15.685968">
        <ele>309.380</ele>
        <time>2026-01-19T10:37:35.543Z</time>
      </trkpt>
      <trkpt lat="27.803119" lon="-15.686677">
        <ele>302.527</ele>
        <time>2026-01-19T10:38:33.543Z</time>
      </trkpt>
      <trkpt lat="27.803114" lon="-15.686901">
        <ele>301.790</ele>
        <time>2026-01-19T10:38:51.543Z</time>
      </trkpt>
      <trkpt lat="27.803213" lon="-15.687019">
        <ele>300.021</ele>
        <time>2026-01-19T10:39:08.543Z</time>
      </trkpt>
      <trkpt lat="27.803030" lon="-15.687456">
        <ele>295.841</ele>
        <time>2026-01-19T10:40:20.543Z</time>
      </trkpt>
      <trkpt lat="27.803207" lon="-15.687417">
        <ele>293.112</ele>
        <time>2026-01-19T10:41:18.543Z</time>
      </trkpt>
      <trkpt lat="27.803258" lon="-15.687325">
        <ele>294.179</ele>
        <time>2026-01-19T10:41:31.543Z</time>
      </trkpt>
      <trkpt lat="27.803351" lon="-15.686597">
        <ele>301.005</ele>
        <time>2026-01-19T10:43:55.536Z</time>
      </trkpt>
      <trkpt lat="27.803355" lon="-15.686847">
        <ele>299.725</ele>
        <time>2026-01-19T10:45:46.536Z</time>
      </trkpt>
      <trkpt lat="27.803288" lon="-15.686905">
        <ele>300.509</ele>
        <time>2026-01-19T10:46:52.537Z</time>
      </trkpt>
      <trkpt lat="27.804253" lon="-15.687570">
        <ele>262.879</ele>
        <time>2026-01-19T10:54:50.536Z</time>
      </trkpt>
      <trkpt lat="27.804289" lon="-15.687824">
        <ele>256.021</ele>
        <time>2026-01-19T10:55:51.536Z</time>
      </trkpt>
      <trkpt lat="27.804477" lon="-15.688122">
        <ele>246.254</ele>
        <time>2026-01-19T10:57:10.535Z</time>
      </trkpt>
      <trkpt lat="27.804397" lon="-15.688165">
        <ele>247.533</ele>
        <time>2026-01-19T10:57:53.535Z</time>
      </trkpt>
      <trkpt lat="27.804167" lon="-15.688047">
        <ele>254.240</ele>
        <time>2026-01-19T10:58:27.535Z</time>
      </trkpt>
      <trkpt lat="27.804025" lon="-15.688434">
        <ele>253.543</ele>
        <time>2026-01-19T10:59:14.535Z</time>
      </trkpt>
      <trkpt lat="27.803920" lon="-15.688551">
        <ele>254.924</ele>
        <time>2026-01-19T10:59:42.535Z</time>
      </trkpt>
      <trkpt lat="27.803732" lon="-15.688493">
        <ele>259.074</ele>
        <time>2026-01-19T11:00:24.535Z</time>
      </trkpt>
      <trkpt lat="27.803621" lon="-15.688565">
        <ele>259.735</ele>
        <time>2026-01-19T11:00:42.535Z</time>
      </trkpt>
      <trkpt lat="27.803301" lon="-15.689093">
        <ele>242.734</ele>
        <time>2026-01-19T11:02:41.045Z</time>
      </trkpt>
      <trkpt lat="27.802739" lon="-15.688820">
        <ele>254.155</ele>
        <time>2026-01-19T11:04:45.536Z</time>
      </trkpt>
      <trkpt lat="27.802576" lon="-15.688943">
        <ele>252.110</ele>
        <time>2026-01-19T11:05:15.536Z</time>
      </trkpt>
      <trkpt lat="27.802592" lon="-15.689265">
        <ele>246.109</ele>
        <time>2026-01-19T11:06:27.036Z</time>
      </trkpt>
      <trkpt lat="27.802532" lon="-15.689295">
        <ele>247.995</ele>
        <time>2026-01-19T11:07:29.199Z</time>
      </trkpt>
      <trkpt lat="27.802174" lon="-15.688886">
        <ele>262.337</ele>
        <time>2026-01-19T11:10:49.544Z</time>
      </trkpt>
      <trkpt lat="27.802017" lon="-15.689087">
        <ele>266.170</ele>
        <time>2026-01-19T11:11:24.544Z</time>
      </trkpt>
      <trkpt lat="27.801895" lon="-15.689652">
        <ele>267.349</ele>
        <time>2026-01-19T11:12:47.544Z</time>
      </trkpt>
      <trkpt lat="27.801867" lon="-15.689715">
        <ele>267.436</ele>
        <time>2026-01-19T11:13:51.217Z</time>
      </trkpt>
      <trkpt lat="27.801815" lon="-15.689627">
        <ele>268.519</ele>
        <time>2026-01-19T11:15:13.537Z</time>
      </trkpt>
      <trkpt lat="27.801717" lon="-15.689810">
        <ele>269.420</ele>
        <time>2026-01-19T11:15:47.536Z</time>
      </trkpt>
      <trkpt lat="27.801562" lon="-15.690348">
        <ele>264.660</ele>
        <time>2026-01-19T11:16:32.536Z</time>
      </trkpt>
      <trkpt lat="27.801282" lon="-15.690723">
        <ele>258.131</ele>
        <time>2026-01-19T11:18:01.536Z</time>
      </trkpt>
      <trkpt lat="27.801252" lon="-15.690670">
        <ele>257.675</ele>
        <time>2026-01-19T11:18:04.536Z</time>
      </trkpt>
      <trkpt lat="27.801139" lon="-15.690733">
        <ele>255.028</ele>
        <time>2026-01-19T11:18:33.536Z</time>
      </trkpt>
      <trkpt lat="27.801075" lon="-15.690588">
        <ele>254.320</ele>
        <time>2026-01-19T11:19:00.536Z</time>
      </trkpt>
      <trkpt lat="27.800691" lon="-15.690590">
        <ele>243.609</ele>
        <time>2026-01-19T11:20:11.536Z</time>
      </trkpt>
      <trkpt lat="27.800644" lon="-15.690492">
        <ele>241.479</ele>
        <time>2026-01-19T11:20:33.535Z</time>
      </trkpt>
      <trkpt lat="27.800412" lon="-15.690540">
        <ele>231.321</ele>
        <time>2026-01-19T11:21:05.535Z</time>
      </trkpt>
      <trkpt lat="27.800392" lon="-15.690478">
        <ele>230.284</ele>
        <time>2026-01-19T11:21:11.535Z</time>
      </trkpt>
      <trkpt lat="27.800485" lon="-15.690483">
        <ele>234.143</ele>
        <time>2026-01-19T11:22:01.535Z</time>
      </trkpt>
      <trkpt lat="27.800618" lon="-15.690330">
        <ele>240.070</ele>
        <time>2026-01-19T11:22:20.535Z</time>
      </trkpt>
      <trkpt lat="27.800533" lon="-15.690044">
        <ele>234.463</ele>
        <time>2026-01-19T11:23:09.535Z</time>
      </trkpt>
      <trkpt lat="27.800436" lon="-15.690171">
        <ele>231.084</ele>
        <time>2026-01-19T11:24:44.535Z</time>
      </trkpt>
      <trkpt lat="27.800339" lon="-15.690138">
        <ele>226.674</ele>
        <time>2026-01-19T11:24:52.535Z</time>
      </trkpt>
      <trkpt lat="27.800002" lon="-15.690316">
        <ele>212.425</ele>
        <time>2026-01-19T11:25:48.534Z</time>
      </trkpt>
      <trkpt lat="27.799920" lon="-15.690570">
        <ele>205.275</ele>
        <time>2026-01-19T11:27:01.534Z</time>
      </trkpt>
      <trkpt lat="27.799607" lon="-15.690898">
        <ele>185.728</ele>
        <time>2026-01-19T11:29:00.534Z</time>
      </trkpt>
      <trkpt lat="27.799756" lon="-15.690980">
        <ele>194.520</ele>
        <time>2026-01-19T11:30:27.534Z</time>
      </trkpt>
      <trkpt lat="27.799687" lon="-15.691052">
        <ele>188.909</ele>
        <time>2026-01-19T11:30:49.533Z</time>
      </trkpt>
      <trkpt lat="27.799681" lon="-15.691374">
        <ele>179.519</ele>
        <time>2026-01-19T11:31:50.533Z</time>
      </trkpt>
      <trkpt lat="27.799586" lon="-15.691492">
        <ele>170.161</ele>
        <time>2026-01-19T11:32:09.533Z</time>
      </trkpt>
      <trkpt lat="27.799557" lon="-15.691770">
        <ele>162.814</ele>
        <time>2026-01-19T11:33:55.533Z</time>
      </trkpt>
      <trkpt lat="27.799437" lon="-15.691832">
        <ele>156.813</ele>
        <time>2026-01-19T11:34:56.533Z</time>
      </trkpt>
      <trkpt lat="27.799433" lon="-15.691658">
        <ele>159.610</ele>
        <time>2026-01-19T11:35:14.533Z</time>
      </trkpt>
      <trkpt lat="27.799324" lon="-15.691560">
        <ele>155.483</ele>
        <time>2026-01-19T11:35:30.533Z</time>
      </trkpt>
      <trkpt lat="27.799029" lon="-15.691776">
        <ele>143.384</ele>
        <time>2026-01-19T11:37:17.532Z</time>
      </trkpt>
      <trkpt lat="27.798939" lon="-15.691764">
        <ele>140.354</ele>
        <time>2026-01-19T11:37:33.532Z</time>
      </trkpt>
      <trkpt lat="27.798806" lon="-15.692026">
        <ele>136.515</ele>
        <time>2026-01-19T11:38:30.532Z</time>
      </trkpt>
      <trkpt lat="27.798851" lon="-15.692118">
        <ele>134.221</ele>
        <time>2026-01-19T11:38:58.532Z</time>
      </trkpt>
      <trkpt lat="27.798729" lon="-15.692573">
        <ele>119.041</ele>
        <time>2026-01-19T11:40:00.532Z</time>
      </trkpt>
      <trkpt lat="27.798795" lon="-15.692722">
        <ele>115.105</ele>
        <time>2026-01-19T11:40:38.532Z</time>
      </trkpt>
      <trkpt lat="27.798785" lon="-15.693318">
        <ele>99.909</ele>
        <time>2026-01-19T11:42:14.531Z</time>
      </trkpt>
      <trkpt lat="27.798656" lon="-15.693678">
        <ele>95.564</ele>
        <time>2026-01-19T11:42:55.531Z</time>
      </trkpt>
      <trkpt lat="27.798687" lon="-15.693932">
        <ele>93.616</ele>
        <time>2026-01-19T11:43:23.531Z</time>
      </trkpt>
      <trkpt lat="27.798878" lon="-15.694248">
        <ele>88.219</ele>
        <time>2026-01-19T11:44:04.531Z</time>
      </trkpt>
      <trkpt lat="27.798978" lon="-15.694769">
        <ele>81.728</ele>
        <time>2026-01-19T11:45:51.531Z</time>
      </trkpt>
      <trkpt lat="27.798606" lon="-15.694711">
        <ele>89.165</ele>
        <time>2026-01-19T11:47:12.531Z</time>
      </trkpt>
      <trkpt lat="27.798443" lon="-15.694597">
        <ele>92.868</ele>
        <time>2026-01-19T11:47:37.531Z</time>
      </trkpt>
      <trkpt lat="27.798048" lon="-15.694871">
        <ele>104.369</ele>
        <time>2026-01-19T11:48:54.530Z</time>
      </trkpt>
      <trkpt lat="27.797581" lon="-15.694771">
        <ele>123.099</ele>
        <time>2026-01-19T11:51:39.530Z</time>
      </trkpt>
      <trkpt lat="27.797539" lon="-15.694678">
        <ele>123.920</ele>
        <time>2026-01-19T11:51:50.530Z</time>
      </trkpt>
      <trkpt lat="27.797392" lon="-15.694852">
        <ele>127.846</ele>
        <time>2026-01-19T11:53:12.529Z</time>
      </trkpt>
      <trkpt lat="27.797362" lon="-15.694749">
        <ele>128.188</ele>
        <time>2026-01-19T11:53:31.529Z</time>
      </trkpt>
      <trkpt lat="27.797272" lon="-15.694784">
        <ele>130.116</ele>
        <time>2026-01-19T11:53:46.529Z</time>
      </trkpt>
      <trkpt lat="27.797012" lon="-15.694643">
        <ele>145.109</ele>
        <time>2026-01-19T11:55:01.529Z</time>
      </trkpt>
      <trkpt lat="27.796743" lon="-15.694345">
        <ele>169.466</ele>
        <time>2026-01-19T11:57:30.046Z</time>
      </trkpt>
      <trkpt lat="27.796710" lon="-15.694435">
        <ele>170.578</ele>
        <time>2026-01-19T11:57:56.545Z</time>
      </trkpt>
      <trkpt lat="27.796630" lon="-15.694395">
        <ele>176.211</ele>
        <time>2026-01-19T11:58:23.545Z</time>
      </trkpt>
      <trkpt lat="27.796372" lon="-15.694572">
        <ele>190.540</ele>
        <time>2026-01-19T12:01:05.536Z</time>
      </trkpt>
      <trkpt lat="27.796087" lon="-15.694482">
        <ele>203.977</ele>
        <time>2026-01-19T12:02:17.536Z</time>
      </trkpt>
      <trkpt lat="27.796183" lon="-15.694259">
        <ele>204.330</ele>
        <time>2026-01-19T12:05:50.546Z</time>
      </trkpt>
      <trkpt lat="27.795908" lon="-15.694223">
        <ele>213.841</ele>
        <time>2026-01-19T12:06:56.546Z</time>
      </trkpt>
      <trkpt lat="27.796026" lon="-15.694008">
        <ele>216.761</ele>
        <time>2026-01-19T12:07:44.546Z</time>
      </trkpt>
      <trkpt lat="27.796002" lon="-15.693851">
        <ele>221.492</ele>
        <time>2026-01-19T12:08:14.546Z</time>
      </trkpt>
      <trkpt lat="27.795912" lon="-15.693871">
        <ele>223.531</ele>
        <time>2026-01-19T12:08:41.546Z</time>
      </trkpt>
      <trkpt lat="27.795861" lon="-15.693776">
        <ele>227.761</ele>
        <time>2026-01-19T12:09:04.546Z</time>
      </trkpt>
      <trkpt lat="27.795853" lon="-15.693618">
        <ele>232.807</ele>
        <time>2026-01-19T12:09:28.546Z</time>
      </trkpt>
      <trkpt lat="27.795790" lon="-15.693698">
        <ele>232.909</ele>
        <time>2026-01-19T12:09:46.545Z</time>
      </trkpt>
      <trkpt lat="27.795740" lon="-15.693614">
        <ele>237.625</ele>
        <time>2026-01-19T12:10:05.545Z</time>
      </trkpt>
      <trkpt lat="27.795672" lon="-15.693686">
        <ele>237.877</ele>
        <time>2026-01-19T12:10:27.545Z</time>
      </trkpt>
      <trkpt lat="27.795535" lon="-15.693624">
        <ele>245.480</ele>
        <time>2026-01-19T12:11:09.545Z</time>
      </trkpt>
      <trkpt lat="27.795166" lon="-15.693861">
        <ele>253.089</ele>
        <time>2026-01-19T12:12:33.545Z</time>
      </trkpt>
      <trkpt lat="27.794875" lon="-15.693942">
        <ele>256.156</ele>
        <time>2026-01-19T12:14:16.545Z</time>
      </trkpt>
      <trkpt lat="27.793854" lon="-15.695101">
        <ele>254.639</ele>
        <time>2026-01-19T12:17:06.544Z</time>
      </trkpt>
      <trkpt lat="27.793439" lon="-15.695412">
        <ele>244.520</ele>
        <time>2026-01-19T12:18:02.544Z</time>
      </trkpt>
      <trkpt lat="27.792721" lon="-15.695791">
        <ele>243.080</ele>
        <time>2026-01-19T12:19:37.544Z</time>
      </trkpt>
      <trkpt lat="27.791417" lon="-15.697084">
        <ele>232.461</ele>
        <time>2026-01-19T12:23:26.544Z</time>
      </trkpt>
      <trkpt lat="27.791234" lon="-15.697071">
        <ele>227.718</ele>
        <time>2026-01-19T12:24:11.543Z</time>
      </trkpt>
      <trkpt lat="27.790767" lon="-15.697621">
        <ele>224.998</ele>
        <time>2026-01-19T12:26:37.544Z</time>
      </trkpt>
      <trkpt lat="27.790376" lon="-15.697863">
        <ele>216.717</ele>
        <time>2026-01-19T12:27:23.544Z</time>
      </trkpt>
      <trkpt lat="27.789751" lon="-15.698821">
        <ele>214.209</ele>
        <time>2026-01-19T12:29:09.544Z</time>
      </trkpt>
      <trkpt lat="27.789006" lon="-15.699033">
        <ele>203.843</ele>
        <time>2026-01-19T12:30:47.544Z</time>
      </trkpt>
      <trkpt lat="27.788429" lon="-15.699104">
        <ele>191.285</ele>
        <time>2026-01-19T12:31:51.543Z</time>
      </trkpt>
      <trkpt lat="27.788364" lon="-15.699192">
        <ele>189.338</ele>
        <time>2026-01-19T12:32:03.543Z</time>
      </trkpt>
      <trkpt lat="27.787720" lon="-15.699397">
        <ele>180.217</ele>
        <time>2026-01-19T12:33:13.543Z</time>
      </trkpt>
      <trkpt lat="27.787531" lon="-15.699355">
        <ele>179.584</ele>
        <time>2026-01-19T12:33:35.543Z</time>
      </trkpt>
      <trkpt lat="27.786366" lon="-15.699830">
        <ele>162.937</ele>
        <time>2026-01-19T12:38:12.544Z</time>
      </trkpt>
      <trkpt lat="27.785489" lon="-15.700501">
        <ele>148.598</ele>
        <time>2026-01-19T12:40:43.543Z</time>
      </trkpt>
      <trkpt lat="27.785385" lon="-15.700910">
        <ele>131.768</ele>
        <time>2026-01-19T12:42:02.543Z</time>
      </trkpt>
      <trkpt lat="27.785388" lon="-15.701362">
        <ele>115.139</ele>
        <time>2026-01-19T12:43:27.543Z</time>
      </trkpt>
      <trkpt lat="27.785103" lon="-15.701351">
        <ele>110.175</ele>
        <time>2026-01-19T12:44:28.543Z</time>
      </trkpt>
      <trkpt lat="27.785155" lon="-15.701543">
        <ele>106.328</ele>
        <time>2026-01-19T12:45:10.543Z</time>
      </trkpt>
      <trkpt lat="27.785092" lon="-15.701626">
        <ele>103.620</ele>
        <time>2026-01-19T12:45:34.543Z</time>
      </trkpt>
      <trkpt lat="27.784787" lon="-15.701675">
        <ele>95.909</ele>
        <time>2026-01-19T12:46:44.543Z</time>
      </trkpt>
      <trkpt lat="27.784336" lon="-15.701553">
        <ele>88.399</ele>
        <time>2026-01-19T12:47:39.542Z</time>
      </trkpt>
      <trkpt lat="27.784167" lon="-15.701668">
        <ele>88.021</ele>
        <time>2026-01-19T12:47:55.542Z</time>
      </trkpt>
      <trkpt lat="27.782754" lon="-15.702062">
        <ele>73.234</ele>
        <time>2026-01-19T12:50:17.542Z</time>
      </trkpt>
      <trkpt lat="27.782043" lon="-15.702120">
        <ele>63.733</ele>
        <time>2026-01-19T12:51:21.542Z</time>
      </trkpt>
      <trkpt lat="27.781754" lon="-15.702080">
        <ele>57.580</ele>
        <time>2026-01-19T12:51:49.542Z</time>
      </trkpt>
      <trkpt lat="27.781403" lon="-15.701860">
        <ele>47.613</ele>
        <time>2026-01-19T12:52:25.542Z</time>
      </trkpt>
      <trkpt lat="27.781223" lon="-15.701916">
        <ele>51.084</ele>
        <time>2026-01-19T12:52:42.542Z</time>
      </trkpt>
      <trkpt lat="27.780977" lon="-15.701825">
        <ele>51.344</ele>
        <time>2026-01-19T12:53:05.542Z</time>
      </trkpt>
      <trkpt lat="27.780883" lon="-15.701872">
        <ele>54.035</ele>
        <time>2026-01-19T12:53:14.542Z</time>
      </trkpt>
      <trkpt lat="27.779675" lon="-15.701539">
        <ele>44.791</ele>
        <time>2026-01-19T12:55:12.541Z</time>
      </trkpt>
      <trkpt lat="27.779101" lon="-15.701621">
        <ele>34.781</ele>
        <time>2026-01-19T12:56:11.541Z</time>
      </trkpt>
      <trkpt lat="27.778769" lon="-15.701761">
        <ele>37.219</ele>
        <time>2026-01-19T12:56:43.541Z</time>
      </trkpt>
      <trkpt lat="27.778167" lon="-15.701695">
        <ele>22.109</ele>
        <time>2026-01-19T12:57:40.541Z</time>
      </trkpt>
      <trkpt lat="27.777666" lon="-15.701530">
        <ele>23.321</ele>
        <time>2026-01-19T12:58:26.541Z</time>
      </trkpt>
      <trkpt lat="27.777197" lon="-15.701243">
        <ele>24.013</ele>
        <time>2026-01-19T12:59:16.541Z</time>
      </trkpt>
      <trkpt lat="27.777119" lon="-15.700751">
        <ele>18.676</ele>
        <time>2026-01-19T13:00:07.541Z</time>
      </trkpt>
      <trkpt lat="27.777194" lon="-15.700665">
        <ele>19.975</ele>
        <time>2026-01-19T13:00:16.541Z</time>
      </trkpt>
      <trkpt lat="27.777492" lon="-15.700832">
        <ele>21.012</ele>
        <time>2026-01-19T13:00:52.541Z</time>
      </trkpt>
    </trkseg>
  </trk></gpx>