<?xml version="1.0" encoding="UTF-8"?>
<gpx version="1.1" creator="Aventuras en Cada Paso" xmlns="http://www.topografix.com/GPX/1/1">
  <metadata>
    <name>Playa Puntalarga – Fuencaliente</name>
    <desc>Paseo hasta la Playa de Puntalarga, pequeña bahía de arena negra volcánica en Fuencaliente. Aguas tranquilas perfectas para baño. Junto al Volcán de San Antonio.</desc>
    <author><name>Aventuras en Cada Paso</name></author>
    <time>2026-07-08T08:12:58.194Z</time>
    <keywords>La Palma, Senderismo, Fácil, senderismo Canarias</keywords>
  </metadata>
  <wpt lat="28.4483" lon="-17.8417">
    <name>Playa Puntalarga – Fuencaliente</name>
    <desc>Paseo hasta la Playa de Puntalarga, pequeña bahía de arena negra volcánica en Fuencaliente. Aguas tranquilas perfectas para baño. Junto al Volcán de San Antonio. | Isla: La Palma | Tipo: Senderismo | Dificultad: Fácil | Distancia: 3km | Duración: Menos de 2h</desc>
    <type>Senderismo</type>
    <extensions>
      <isla>La Palma</isla>
      <dificultad>Fácil</dificultad>
      <distancia>3</distancia>
      <duracion>Menos de 2h</duracion>
    </extensions>
  </wpt>
</gpx>