<?xml version="1.0" encoding="UTF-8"?>
<gpx version="1.1" creator="Aventuras en Cada Paso" xmlns="http://www.topografix.com/GPX/1/1">
  <metadata>
    <name>Punta de La Lava – Delta Tajogaite</name>
    <desc>Sendero por el delta volcánico creado en 2021, donde la lava llegó al mar y creó 50 hectáreas de tierra nueva. El paisaje más reciente y único de Europa.</desc>
    <author><name>Aventuras en Cada Paso</name></author>
    <time>2026-07-08T08:12:58.195Z</time>
    <keywords>La Palma, Senderismo, Fácil, senderismo Canarias</keywords>
  </metadata>
  <wpt lat="28.44" lon="-17.86">
    <name>Punta de La Lava – Delta Tajogaite</name>
    <desc>Sendero por el delta volcánico creado en 2021, donde la lava llegó al mar y creó 50 hectáreas de tierra nueva. El paisaje más reciente y único de Europa. | Isla: La Palma | Tipo: Senderismo | Dificultad: Fácil | Distancia: 5km | Duración: 2-4 horas</desc>
    <type>Senderismo</type>
    <extensions>
      <isla>La Palma</isla>
      <dificultad>Fácil</dificultad>
      <distancia>5</distancia>
      <duracion>2-4 horas</duracion>
    </extensions>
  </wpt>
</gpx>