<?xml version="1.0" encoding="UTF-8"?>
<gpx version="1.1" creator="Aventuras en Cada Paso" xmlns="http://www.topografix.com/GPX/1/1">
  <metadata>
    <name>Punta Naos – Costa Sureste</name>
    <desc>Ruta costera por la Reserva Marina de La Restinga hasta Punta Naos. Piscinas naturales, acantilados volcánicos y la mayor concentración de estrellas de Europa.</desc>
    <author><name>Aventuras en Cada Paso</name></author>
    <time>2026-07-08T08:12:58.204Z</time>
    <keywords>El Hierro, Senderismo, Fácil, senderismo Canarias</keywords>
  </metadata>
  <wpt lat="27.65" lon="-17.975">
    <name>Punta Naos – Costa Sureste</name>
    <desc>Ruta costera por la Reserva Marina de La Restinga hasta Punta Naos. Piscinas naturales, acantilados volcánicos y la mayor concentración de estrellas de Europa. | Isla: El Hierro | Tipo: Senderismo | Dificultad: Fácil | Distancia: 6km | Duración: 2-4 horas</desc>
    <type>Senderismo</type>
    <extensions>
      <isla>El Hierro</isla>
      <dificultad>Fácil</dificultad>
      <distancia>6</distancia>
      <duracion>2-4 horas</duracion>
    </extensions>
  </wpt>
</gpx>