<?xml version="1.0" encoding="UTF-8"?>
<gpx creator="Wikiloc - https://www.wikiloc.com" version="1.1" xmlns="http://www.topografix.com/GPX/1/1" xmlns:xsi="http://www.w3.org/2001/XMLSchema-instance" xsi:schemaLocation="http://www.topografix.com/GPX/1/1 http://www.topografix.com/GPX/1/1/gpx.xsd">
  <metadata>
    <name>Wikiloc - Meridiano 0 - punta de la Orchilla , el Hierro</name>
    <link href="https://www.wikiloc.com/hiking-trails/meridiano-0-punta-de-la-orchilla-el-hierro-57783971">
      <text>Meridiano 0 - punta de la Orchilla , el Hierro - Wikiloc on Wikiloc</text>
    </link>
    <time>2020-09-29T16:46:14Z</time>
  </metadata>
  <trk>
    <name>Meridiano 0 - punta de la Orchilla , el Hierro - Wikiloc</name>
    <cmt></cmt>
    <desc></desc>
    <trkseg>
      <trkpt lat="27.712313" lon="-18.142026">
        <ele>141.679</ele>
        <time>2020-09-29T16:02:13Z</time>
      </trkpt>
      <trkpt lat="27.712303" lon="-18.142080">
        <ele>141.305</ele>
        <time>2020-09-29T16:02:16Z</time>
      </trkpt>
      <trkpt lat="27.712278" lon="-18.142138">
        <ele>141.125</ele>
        <time>2020-09-29T16:02:20Z</time>
      </trkpt>
      <trkpt lat="27.712251" lon="-18.142189">
        <ele>140.608</ele>
        <time>2020-09-29T16:02:25Z</time>
      </trkpt>
      <trkpt lat="27.712232" lon="-18.142246">
        <ele>139.922</ele>
        <time>2020-09-29T16:02:30Z</time>
      </trkpt>
      <trkpt lat="27.712234" lon="-18.142299">
        <ele>139.134</ele>
        <time>2020-09-29T16:02:35Z</time>
      </trkpt>
      <trkpt lat="27.712240" lon="-18.142352">
        <ele>137.874</ele>
        <time>2020-09-29T16:02:38Z</time>
      </trkpt>
      <trkpt lat="27.712268" lon="-18.142409">
        <ele>136.275</ele>
        <time>2020-09-29T16:02:45Z</time>
      </trkpt>
      <trkpt lat="27.712296" lon="-18.142450">
        <ele>136.120</ele>
        <time>2020-09-29T16:02:48Z</time>
      </trkpt>
      <trkpt lat="27.712339" lon="-18.142491">
        <ele>135.686</ele>
        <time>2020-09-29T16:02:53Z</time>
      </trkpt>
      <trkpt lat="27.712385" lon="-18.142524">
        <ele>134.914</ele>
        <time>2020-09-29T16:02:59Z</time>
      </trkpt>
      <trkpt lat="27.712423" lon="-18.142557">
        <ele>134.998</ele>
        <time>2020-09-29T16:03:03Z</time>
      </trkpt>
      <trkpt lat="27.712459" lon="-18.142592">
        <ele>136.164</ele>
        <time>2020-09-29T16:03:08Z</time>
      </trkpt>
      <trkpt lat="27.712499" lon="-18.142619">
        <ele>137.606</ele>
        <time>2020-09-29T16:03:13Z</time>
      </trkpt>
      <trkpt lat="27.712539" lon="-18.142657">
        <ele>138.916</ele>
        <time>2020-09-29T16:03:18Z</time>
      </trkpt>
      <trkpt lat="27.712575" lon="-18.142694">
        <ele>138.508</ele>
        <time>2020-09-29T16:03:22Z</time>
      </trkpt>
      <trkpt lat="27.712609" lon="-18.142730">
        <ele>139.181</ele>
        <time>2020-09-29T16:03:26Z</time>
      </trkpt>
      <trkpt lat="27.712644" lon="-18.142763">
        <ele>139.013</ele>
        <time>2020-09-29T16:03:30Z</time>
      </trkpt>
      <trkpt lat="27.712686" lon="-18.142786">
        <ele>139.853</ele>
        <time>2020-09-29T16:03:35Z</time>
      </trkpt>
      <trkpt lat="27.712736" lon="-18.142814">
        <ele>140.354</ele>
        <time>2020-09-29T16:03:38Z</time>
      </trkpt>
      <trkpt lat="27.712787" lon="-18.142819">
        <ele>141.089</ele>
        <time>2020-09-29T16:03:42Z</time>
      </trkpt>
      <trkpt lat="27.712852" lon="-18.142815">
        <ele>141.475</ele>
        <time>2020-09-29T16:03:48Z</time>
      </trkpt>
      <trkpt lat="27.712903" lon="-18.142817">
        <ele>140.873</ele>
        <time>2020-09-29T16:03:53Z</time>
      </trkpt>
      <trkpt lat="27.712949" lon="-18.142825">
        <ele>140.577</ele>
        <time>2020-09-29T16:03:57Z</time>
      </trkpt>
      <trkpt lat="27.712993" lon="-18.142836">
        <ele>141.522</ele>
        <time>2020-09-29T16:04:01Z</time>
      </trkpt>
      <trkpt lat="27.713034" lon="-18.142865">
        <ele>141.762</ele>
        <time>2020-09-29T16:04:07Z</time>
      </trkpt>
      <trkpt lat="27.713044" lon="-18.142918">
        <ele>140.608</ele>
        <time>2020-09-29T16:04:15Z</time>
      </trkpt>
      <trkpt lat="27.713077" lon="-18.143020">
        <ele>138.208</ele>
        <time>2020-09-29T16:04:51Z</time>
      </trkpt>
      <trkpt lat="27.713085" lon="-18.143082">
        <ele>136.557</ele>
        <time>2020-09-29T16:04:57Z</time>
      </trkpt>
      <trkpt lat="27.713093" lon="-18.143145">
        <ele>134.779</ele>
        <time>2020-09-29T16:05:03Z</time>
      </trkpt>
      <trkpt lat="27.713116" lon="-18.143202">
        <ele>133.659</ele>
        <time>2020-09-29T16:05:06Z</time>
      </trkpt>
      <trkpt lat="27.713138" lon="-18.143258">
        <ele>132.530</ele>
        <time>2020-09-29T16:05:12Z</time>
      </trkpt>
      <trkpt lat="27.713157" lon="-18.143319">
        <ele>131.595</ele>
        <time>2020-09-29T16:05:17Z</time>
      </trkpt>
      <trkpt lat="27.713159" lon="-18.143445">
        <ele>130.911</ele>
        <time>2020-09-29T16:05:32Z</time>
      </trkpt>
      <trkpt lat="27.713159" lon="-18.143508">
        <ele>127.779</ele>
        <time>2020-09-29T16:05:38Z</time>
      </trkpt>
      <trkpt lat="27.713170" lon="-18.143565">
        <ele>126.293</ele>
        <time>2020-09-29T16:05:41Z</time>
      </trkpt>
      <trkpt lat="27.713190" lon="-18.143619">
        <ele>126.574</ele>
        <time>2020-09-29T16:05:47Z</time>
      </trkpt>
      <trkpt lat="27.713214" lon="-18.143669">
        <ele>125.556</ele>
        <time>2020-09-29T16:05:52Z</time>
      </trkpt>
      <trkpt lat="27.713241" lon="-18.143714">
        <ele>124.921</ele>
        <time>2020-09-29T16:05:56Z</time>
      </trkpt>
      <trkpt lat="27.713274" lon="-18.143755">
        <ele>124.508</ele>
        <time>2020-09-29T16:05:59Z</time>
      </trkpt>
      <trkpt lat="27.713307" lon="-18.143790">
        <ele>124.312</ele>
        <time>2020-09-29T16:06:02Z</time>
      </trkpt>
      <trkpt lat="27.713346" lon="-18.143816">
        <ele>124.274</ele>
        <time>2020-09-29T16:06:07Z</time>
      </trkpt>
      <trkpt lat="27.713383" lon="-18.143850">
        <ele>124.144</ele>
        <time>2020-09-29T16:06:12Z</time>
      </trkpt>
      <trkpt lat="27.713427" lon="-18.143862">
        <ele>124.555</ele>
        <time>2020-09-29T16:06:18Z</time>
      </trkpt>
      <trkpt lat="27.713422" lon="-18.143804">
        <ele>126.720</ele>
        <time>2020-09-29T16:06:54Z</time>
      </trkpt>
      <trkpt lat="27.713460" lon="-18.143839">
        <ele>126.446</ele>
        <time>2020-09-29T16:06:58Z</time>
      </trkpt>
      <trkpt lat="27.713506" lon="-18.143866">
        <ele>127.054</ele>
        <time>2020-09-29T16:07:04Z</time>
      </trkpt>
      <trkpt lat="27.713556" lon="-18.143890">
        <ele>127.448</ele>
        <time>2020-09-29T16:07:08Z</time>
      </trkpt>
      <trkpt lat="27.713605" lon="-18.143902">
        <ele>126.043</ele>
        <time>2020-09-29T16:07:14Z</time>
      </trkpt>
      <trkpt lat="27.713645" lon="-18.143932">
        <ele>125.264</ele>
        <time>2020-09-29T16:07:17Z</time>
      </trkpt>
      <trkpt lat="27.713682" lon="-18.143969">
        <ele>125.110</ele>
        <time>2020-09-29T16:07:20Z</time>
      </trkpt>
      <trkpt lat="27.713711" lon="-18.144018">
        <ele>125.408</ele>
        <time>2020-09-29T16:07:25Z</time>
      </trkpt>
      <trkpt lat="27.713751" lon="-18.144070">
        <ele>126.059</ele>
        <time>2020-09-29T16:07:29Z</time>
      </trkpt>
      <trkpt lat="27.713782" lon="-18.144115">
        <ele>126.091</ele>
        <time>2020-09-29T16:07:33Z</time>
      </trkpt>
      <trkpt lat="27.713821" lon="-18.144152">
        <ele>125.221</ele>
        <time>2020-09-29T16:07:37Z</time>
      </trkpt>
      <trkpt lat="27.713866" lon="-18.144186">
        <ele>125.132</ele>
        <time>2020-09-29T16:07:40Z</time>
      </trkpt>
      <trkpt lat="27.713918" lon="-18.144196">
        <ele>124.287</ele>
        <time>2020-09-29T16:07:46Z</time>
      </trkpt>
      <trkpt lat="27.713963" lon="-18.144216">
        <ele>122.973</ele>
        <time>2020-09-29T16:07:49Z</time>
      </trkpt>
      <trkpt lat="27.714008" lon="-18.144215">
        <ele>121.711</ele>
        <time>2020-09-29T16:07:52Z</time>
      </trkpt>
      <trkpt lat="27.714055" lon="-18.144203">
        <ele>121.425</ele>
        <time>2020-09-29T16:07:57Z</time>
      </trkpt>
      <trkpt lat="27.714102" lon="-18.144252">
        <ele>120.293</ele>
        <time>2020-09-29T16:08:08Z</time>
      </trkpt>
      <trkpt lat="27.714119" lon="-18.144306">
        <ele>119.765</ele>
        <time>2020-09-29T16:08:13Z</time>
      </trkpt>
      <trkpt lat="27.714136" lon="-18.144358">
        <ele>120.221</ele>
        <time>2020-09-29T16:08:18Z</time>
      </trkpt>
      <trkpt lat="27.714145" lon="-18.144416">
        <ele>121.308</ele>
        <time>2020-09-29T16:08:22Z</time>
      </trkpt>
      <trkpt lat="27.714158" lon="-18.144480">
        <ele>120.844</ele>
        <time>2020-09-29T16:08:27Z</time>
      </trkpt>
      <trkpt lat="27.714172" lon="-18.144531">
        <ele>119.736</ele>
        <time>2020-09-29T16:08:31Z</time>
      </trkpt>
      <trkpt lat="27.714200" lon="-18.144588">
        <ele>118.636</ele>
        <time>2020-09-29T16:08:36Z</time>
      </trkpt>
      <trkpt lat="27.714227" lon="-18.144629">
        <ele>118.037</ele>
        <time>2020-09-29T16:08:39Z</time>
      </trkpt>
      <trkpt lat="27.714250" lon="-18.144675">
        <ele>118.062</ele>
        <time>2020-09-29T16:08:43Z</time>
      </trkpt>
      <trkpt lat="27.714268" lon="-18.144731">
        <ele>117.698</ele>
        <time>2020-09-29T16:08:47Z</time>
      </trkpt>
      <trkpt lat="27.714289" lon="-18.144777">
        <ele>117.846</ele>
        <time>2020-09-29T16:08:51Z</time>
      </trkpt>
      <trkpt lat="27.714310" lon="-18.144828">
        <ele>117.590</ele>
        <time>2020-09-29T16:08:55Z</time>
      </trkpt>
      <trkpt lat="27.714328" lon="-18.144881">
        <ele>117.359</ele>
        <time>2020-09-29T16:08:59Z</time>
      </trkpt>
      <trkpt lat="27.714341" lon="-18.144937">
        <ele>116.803</ele>
        <time>2020-09-29T16:09:03Z</time>
      </trkpt>
      <trkpt lat="27.714353" lon="-18.144993">
        <ele>117.323</ele>
        <time>2020-09-29T16:09:07Z</time>
      </trkpt>
      <trkpt lat="27.714370" lon="-18.145046">
        <ele>118.008</ele>
        <time>2020-09-29T16:09:12Z</time>
      </trkpt>
      <trkpt lat="27.714390" lon="-18.145096">
        <ele>118.010</ele>
        <time>2020-09-29T16:09:16Z</time>
      </trkpt>
      <trkpt lat="27.714409" lon="-18.145145">
        <ele>117.692</ele>
        <time>2020-09-29T16:09:20Z</time>
      </trkpt>
      <trkpt lat="27.714428" lon="-18.145197">
        <ele>119.022</ele>
        <time>2020-09-29T16:09:24Z</time>
      </trkpt>
      <trkpt lat="27.714449" lon="-18.145250">
        <ele>119.833</ele>
        <time>2020-09-29T16:09:28Z</time>
      </trkpt>
      <trkpt lat="27.714502" lon="-18.145366">
        <ele>122.268</ele>
        <time>2020-09-29T16:09:51Z</time>
      </trkpt>
      <trkpt lat="27.714520" lon="-18.145419">
        <ele>122.534</ele>
        <time>2020-09-29T16:09:55Z</time>
      </trkpt>
      <trkpt lat="27.714541" lon="-18.145477">
        <ele>121.522</ele>
        <time>2020-09-29T16:09:59Z</time>
      </trkpt>
      <trkpt lat="27.714553" lon="-18.145526">
        <ele>120.556</ele>
        <time>2020-09-29T16:10:02Z</time>
      </trkpt>
      <trkpt lat="27.714559" lon="-18.145587">
        <ele>119.535</ele>
        <time>2020-09-29T16:10:07Z</time>
      </trkpt>
      <trkpt lat="27.714573" lon="-18.145641">
        <ele>118.586</ele>
        <time>2020-09-29T16:10:10Z</time>
      </trkpt>
      <trkpt lat="27.714584" lon="-18.145699">
        <ele>117.114</ele>
        <time>2020-09-29T16:10:14Z</time>
      </trkpt>
      <trkpt lat="27.714584" lon="-18.145762">
        <ele>115.108</ele>
        <time>2020-09-29T16:10:20Z</time>
      </trkpt>
      <trkpt lat="27.714584" lon="-18.145819">
        <ele>114.388</ele>
        <time>2020-09-29T16:10:24Z</time>
      </trkpt>
      <trkpt lat="27.714575" lon="-18.145880">
        <ele>113.470</ele>
        <time>2020-09-29T16:10:29Z</time>
      </trkpt>
      <trkpt lat="27.714572" lon="-18.145936">
        <ele>112.940</ele>
        <time>2020-09-29T16:10:33Z</time>
      </trkpt>
      <trkpt lat="27.714567" lon="-18.145992">
        <ele>113.051</ele>
        <time>2020-09-29T16:10:36Z</time>
      </trkpt>
      <trkpt lat="27.714561" lon="-18.146051">
        <ele>111.836</ele>
        <time>2020-09-29T16:10:40Z</time>
      </trkpt>
      <trkpt lat="27.714551" lon="-18.146114">
        <ele>111.572</ele>
        <time>2020-09-29T16:10:45Z</time>
      </trkpt>
      <trkpt lat="27.714551" lon="-18.146178">
        <ele>111.330</ele>
        <time>2020-09-29T16:10:49Z</time>
      </trkpt>
      <trkpt lat="27.714553" lon="-18.146237">
        <ele>111.294</ele>
        <time>2020-09-29T16:10:54Z</time>
      </trkpt>
      <trkpt lat="27.714551" lon="-18.146310">
        <ele>110.781</ele>
        <time>2020-09-29T16:10:59Z</time>
      </trkpt>
      <trkpt lat="27.714552" lon="-18.146363">
        <ele>110.461</ele>
        <time>2020-09-29T16:11:03Z</time>
      </trkpt>
      <trkpt lat="27.714553" lon="-18.146414">
        <ele>110.217</ele>
        <time>2020-09-29T16:11:07Z</time>
      </trkpt>
      <trkpt lat="27.714553" lon="-18.146476">
        <ele>110.108</ele>
        <time>2020-09-29T16:11:11Z</time>
      </trkpt>
      <trkpt lat="27.714556" lon="-18.146534">
        <ele>108.433</ele>
        <time>2020-09-29T16:11:16Z</time>
      </trkpt>
      <trkpt lat="27.714558" lon="-18.146587">
        <ele>107.055</ele>
        <time>2020-09-29T16:11:20Z</time>
      </trkpt>
      <trkpt lat="27.714556" lon="-18.146657">
        <ele>105.835</ele>
        <time>2020-09-29T16:11:23Z</time>
      </trkpt>
      <trkpt lat="27.714552" lon="-18.146712">
        <ele>106.356</ele>
        <time>2020-09-29T16:11:27Z</time>
      </trkpt>
      <trkpt lat="27.714548" lon="-18.146775">
        <ele>107.061</ele>
        <time>2020-09-29T16:11:31Z</time>
      </trkpt>
      <trkpt lat="27.714542" lon="-18.146829">
        <ele>106.287</ele>
        <time>2020-09-29T16:11:35Z</time>
      </trkpt>
      <trkpt lat="27.714526" lon="-18.146887">
        <ele>104.925</ele>
        <time>2020-09-29T16:11:40Z</time>
      </trkpt>
      <trkpt lat="27.714509" lon="-18.146955">
        <ele>104.579</ele>
        <time>2020-09-29T16:11:44Z</time>
      </trkpt>
      <trkpt lat="27.714485" lon="-18.147043">
        <ele>102.176</ele>
        <time>2020-09-29T16:11:51Z</time>
      </trkpt>
      <trkpt lat="27.714471" lon="-18.147093">
        <ele>102.490</ele>
        <time>2020-09-29T16:11:54Z</time>
      </trkpt>
      <trkpt lat="27.714456" lon="-18.147153">
        <ele>101.819</ele>
        <time>2020-09-29T16:11:59Z</time>
      </trkpt>
      <trkpt lat="27.714446" lon="-18.147205">
        <ele>101.008</ele>
        <time>2020-09-29T16:12:03Z</time>
      </trkpt>
      <trkpt lat="27.714444" lon="-18.147259">
        <ele>100.112</ele>
        <time>2020-09-29T16:12:07Z</time>
      </trkpt>
      <trkpt lat="27.714446" lon="-18.147310">
        <ele>98.864</ele>
        <time>2020-09-29T16:12:11Z</time>
      </trkpt>
      <trkpt lat="27.714455" lon="-18.147366">
        <ele>97.634</ele>
        <time>2020-09-29T16:12:15Z</time>
      </trkpt>
      <trkpt lat="27.714466" lon="-18.147418">
        <ele>96.935</ele>
        <time>2020-09-29T16:12:19Z</time>
      </trkpt>
      <trkpt lat="27.714477" lon="-18.147471">
        <ele>96.190</ele>
        <time>2020-09-29T16:12:23Z</time>
      </trkpt>
      <trkpt lat="27.714483" lon="-18.147525">
        <ele>95.696</ele>
        <time>2020-09-29T16:12:27Z</time>
      </trkpt>
      <trkpt lat="27.714484" lon="-18.147576">
        <ele>94.934</ele>
        <time>2020-09-29T16:12:30Z</time>
      </trkpt>
      <trkpt lat="27.714476" lon="-18.147634">
        <ele>94.598</ele>
        <time>2020-09-29T16:12:34Z</time>
      </trkpt>
      <trkpt lat="27.714473" lon="-18.147692">
        <ele>94.295</ele>
        <time>2020-09-29T16:12:37Z</time>
      </trkpt>
      <trkpt lat="27.714469" lon="-18.147746">
        <ele>93.649</ele>
        <time>2020-09-29T16:12:43Z</time>
      </trkpt>
      <trkpt lat="27.714464" lon="-18.147797">
        <ele>94.123</ele>
        <time>2020-09-29T16:12:48Z</time>
      </trkpt>
      <trkpt lat="27.714456" lon="-18.147869">
        <ele>92.808</ele>
        <time>2020-09-29T16:12:51Z</time>
      </trkpt>
      <trkpt lat="27.714432" lon="-18.147915">
        <ele>91.654</ele>
        <time>2020-09-29T16:12:56Z</time>
      </trkpt>
      <trkpt lat="27.714413" lon="-18.147968">
        <ele>91.736</ele>
        <time>2020-09-29T16:13:00Z</time>
      </trkpt>
      <trkpt lat="27.714396" lon="-18.148029">
        <ele>92.246</ele>
        <time>2020-09-29T16:13:04Z</time>
      </trkpt>
      <trkpt lat="27.714376" lon="-18.148086">
        <ele>91.717</ele>
        <time>2020-09-29T16:13:11Z</time>
      </trkpt>
      <trkpt lat="27.714363" lon="-18.148149">
        <ele>90.612</ele>
        <time>2020-09-29T16:13:19Z</time>
      </trkpt>
      <trkpt lat="27.714339" lon="-18.148198">
        <ele>89.518</ele>
        <time>2020-09-29T16:13:24Z</time>
      </trkpt>
      <trkpt lat="27.714310" lon="-18.148248">
        <ele>90.116</ele>
        <time>2020-09-29T16:13:28Z</time>
      </trkpt>
      <trkpt lat="27.714285" lon="-18.148300">
        <ele>90.040</ele>
        <time>2020-09-29T16:13:31Z</time>
      </trkpt>
      <trkpt lat="27.714241" lon="-18.148326">
        <ele>90.429</ele>
        <time>2020-09-29T16:13:37Z</time>
      </trkpt>
      <trkpt lat="27.714202" lon="-18.148370">
        <ele>90.600</ele>
        <time>2020-09-29T16:13:40Z</time>
      </trkpt>
      <trkpt lat="27.714165" lon="-18.148401">
        <ele>91.520</ele>
        <time>2020-09-29T16:13:45Z</time>
      </trkpt>
      <trkpt lat="27.714131" lon="-18.148463">
        <ele>91.308</ele>
        <time>2020-09-29T16:13:50Z</time>
      </trkpt>
      <trkpt lat="27.714118" lon="-18.148518">
        <ele>90.827</ele>
        <time>2020-09-29T16:13:55Z</time>
      </trkpt>
      <trkpt lat="27.714099" lon="-18.148595">
        <ele>91.789</ele>
        <time>2020-09-29T16:14:08Z</time>
      </trkpt>
      <trkpt lat="27.714090" lon="-18.148658">
        <ele>91.499</ele>
        <time>2020-09-29T16:14:14Z</time>
      </trkpt>
      <trkpt lat="27.714080" lon="-18.148716">
        <ele>91.270</ele>
        <time>2020-09-29T16:14:18Z</time>
      </trkpt>
      <trkpt lat="27.714072" lon="-18.148775">
        <ele>90.715</ele>
        <time>2020-09-29T16:14:22Z</time>
      </trkpt>
      <trkpt lat="27.714064" lon="-18.148827">
        <ele>90.421</ele>
        <time>2020-09-29T16:14:25Z</time>
      </trkpt>
      <trkpt lat="27.714061" lon="-18.148884">
        <ele>90.619</ele>
        <time>2020-09-29T16:14:28Z</time>
      </trkpt>
      <trkpt lat="27.714063" lon="-18.148943">
        <ele>90.723</ele>
        <time>2020-09-29T16:14:32Z</time>
      </trkpt>
      <trkpt lat="27.714072" lon="-18.148994">
        <ele>90.086</ele>
        <time>2020-09-29T16:14:36Z</time>
      </trkpt>
      <trkpt lat="27.714086" lon="-18.149053">
        <ele>88.860</ele>
        <time>2020-09-29T16:14:41Z</time>
      </trkpt>
      <trkpt lat="27.714098" lon="-18.149105">
        <ele>87.726</ele>
        <time>2020-09-29T16:14:45Z</time>
      </trkpt>
      <trkpt lat="27.714116" lon="-18.149155">
        <ele>86.208</ele>
        <time>2020-09-29T16:14:49Z</time>
      </trkpt>
      <trkpt lat="27.714132" lon="-18.149206">
        <ele>86.193</ele>
        <time>2020-09-29T16:14:53Z</time>
      </trkpt>
      <trkpt lat="27.714141" lon="-18.149257">
        <ele>85.665</ele>
        <time>2020-09-29T16:14:57Z</time>
      </trkpt>
      <trkpt lat="27.714144" lon="-18.149314">
        <ele>85.325</ele>
        <time>2020-09-29T16:15:02Z</time>
      </trkpt>
      <trkpt lat="27.714140" lon="-18.149372">
        <ele>83.536</ele>
        <time>2020-09-29T16:15:06Z</time>
      </trkpt>
      <trkpt lat="27.714150" lon="-18.149434">
        <ele>81.611</ele>
        <time>2020-09-29T16:15:10Z</time>
      </trkpt>
      <trkpt lat="27.714155" lon="-18.149486">
        <ele>80.597</ele>
        <time>2020-09-29T16:15:14Z</time>
      </trkpt>
      <trkpt lat="27.714156" lon="-18.149543">
        <ele>78.635</ele>
        <time>2020-09-29T16:15:17Z</time>
      </trkpt>
      <trkpt lat="27.714153" lon="-18.149598">
        <ele>78.789</ele>
        <time>2020-09-29T16:15:21Z</time>
      </trkpt>
      <trkpt lat="27.714153" lon="-18.149650">
        <ele>77.555</ele>
        <time>2020-09-29T16:15:24Z</time>
      </trkpt>
      <trkpt lat="27.714155" lon="-18.149711">
        <ele>76.007</ele>
        <time>2020-09-29T16:15:29Z</time>
      </trkpt>
      <trkpt lat="27.714156" lon="-18.149771">
        <ele>74.317</ele>
        <time>2020-09-29T16:15:34Z</time>
      </trkpt>
      <trkpt lat="27.714143" lon="-18.149824">
        <ele>74.108</ele>
        <time>2020-09-29T16:15:38Z</time>
      </trkpt>
      <trkpt lat="27.714126" lon="-18.149877">
        <ele>74.420</ele>
        <time>2020-09-29T16:15:43Z</time>
      </trkpt>
      <trkpt lat="27.714108" lon="-18.149930">
        <ele>75.422</ele>
        <time>2020-09-29T16:15:48Z</time>
      </trkpt>
      <trkpt lat="27.714076" lon="-18.149985">
        <ele>77.282</ele>
        <time>2020-09-29T16:15:52Z</time>
      </trkpt>
      <trkpt lat="27.714042" lon="-18.150034">
        <ele>78.783</ele>
        <time>2020-09-29T16:15:56Z</time>
      </trkpt>
      <trkpt lat="27.714012" lon="-18.150079">
        <ele>79.688</ele>
        <time>2020-09-29T16:16:01Z</time>
      </trkpt>
      <trkpt lat="27.713995" lon="-18.150134">
        <ele>80.564</ele>
        <time>2020-09-29T16:16:05Z</time>
      </trkpt>
      <trkpt lat="27.713983" lon="-18.150187">
        <ele>80.362</ele>
        <time>2020-09-29T16:16:09Z</time>
      </trkpt>
      <trkpt lat="27.713976" lon="-18.150242">
        <ele>79.896</ele>
        <time>2020-09-29T16:16:14Z</time>
      </trkpt>
      <trkpt lat="27.713965" lon="-18.150293">
        <ele>79.519</ele>
        <time>2020-09-29T16:16:18Z</time>
      </trkpt>
      <trkpt lat="27.713948" lon="-18.150342">
        <ele>79.709</ele>
        <time>2020-09-29T16:16:22Z</time>
      </trkpt>
      <trkpt lat="27.713914" lon="-18.150382">
        <ele>79.019</ele>
        <time>2020-09-29T16:16:34Z</time>
      </trkpt>
      <trkpt lat="27.713881" lon="-18.150431">
        <ele>78.608</ele>
        <time>2020-09-29T16:16:39Z</time>
      </trkpt>
      <trkpt lat="27.713851" lon="-18.150474">
        <ele>78.026</ele>
        <time>2020-09-29T16:16:43Z</time>
      </trkpt>
      <trkpt lat="27.713825" lon="-18.150521">
        <ele>77.688</ele>
        <time>2020-09-29T16:16:47Z</time>
      </trkpt>
      <trkpt lat="27.713800" lon="-18.150567">
        <ele>77.838</ele>
        <time>2020-09-29T16:16:51Z</time>
      </trkpt>
      <trkpt lat="27.713775" lon="-18.150612">
        <ele>78.359</ele>
        <time>2020-09-29T16:16:55Z</time>
      </trkpt>
      <trkpt lat="27.713751" lon="-18.150663">
        <ele>77.094</ele>
        <time>2020-09-29T16:17:00Z</time>
      </trkpt>
      <trkpt lat="27.713729" lon="-18.150725">
        <ele>75.810</ele>
        <time>2020-09-29T16:17:05Z</time>
      </trkpt>
      <trkpt lat="27.713710" lon="-18.150780">
        <ele>75.168</ele>
        <time>2020-09-29T16:17:09Z</time>
      </trkpt>
      <trkpt lat="27.713685" lon="-18.150822">
        <ele>74.772</ele>
        <time>2020-09-29T16:17:14Z</time>
      </trkpt>
      <trkpt lat="27.713615" lon="-18.150932">
        <ele>71.449</ele>
        <time>2020-09-29T16:17:25Z</time>
      </trkpt>
      <trkpt lat="27.713574" lon="-18.150968">
        <ele>71.702</ele>
        <time>2020-09-29T16:17:29Z</time>
      </trkpt>
      <trkpt lat="27.713524" lon="-18.150993">
        <ele>71.522</ele>
        <time>2020-09-29T16:17:34Z</time>
      </trkpt>
      <trkpt lat="27.713485" lon="-18.151022">
        <ele>71.408</ele>
        <time>2020-09-29T16:17:38Z</time>
      </trkpt>
      <trkpt lat="27.713440" lon="-18.151056">
        <ele>70.119</ele>
        <time>2020-09-29T16:17:42Z</time>
      </trkpt>
      <trkpt lat="27.713391" lon="-18.151083">
        <ele>68.951</ele>
        <time>2020-09-29T16:17:46Z</time>
      </trkpt>
      <trkpt lat="27.713352" lon="-18.151113">
        <ele>67.881</ele>
        <time>2020-09-29T16:17:49Z</time>
      </trkpt>
      <trkpt lat="27.713306" lon="-18.151144">
        <ele>67.982</ele>
        <time>2020-09-29T16:17:54Z</time>
      </trkpt>
      <trkpt lat="27.713264" lon="-18.151180">
        <ele>69.297</ele>
        <time>2020-09-29T16:17:57Z</time>
      </trkpt>
      <trkpt lat="27.713207" lon="-18.151247">
        <ele>69.123</ele>
        <time>2020-09-29T16:18:04Z</time>
      </trkpt>
      <trkpt lat="27.713186" lon="-18.151298">
        <ele>68.751</ele>
        <time>2020-09-29T16:18:07Z</time>
      </trkpt>
      <trkpt lat="27.713167" lon="-18.151354">
        <ele>68.975</ele>
        <time>2020-09-29T16:18:12Z</time>
      </trkpt>
      <trkpt lat="27.713148" lon="-18.151409">
        <ele>67.871</ele>
        <time>2020-09-29T16:18:15Z</time>
      </trkpt>
      <trkpt lat="27.713148" lon="-18.151468">
        <ele>66.741</ele>
        <time>2020-09-29T16:18:20Z</time>
      </trkpt>
      <trkpt lat="27.713133" lon="-18.151518">
        <ele>66.515</ele>
        <time>2020-09-29T16:18:24Z</time>
      </trkpt>
      <trkpt lat="27.713103" lon="-18.151566">
        <ele>65.608</ele>
        <time>2020-09-29T16:18:29Z</time>
      </trkpt>
      <trkpt lat="27.713070" lon="-18.151607">
        <ele>64.252</ele>
        <time>2020-09-29T16:18:32Z</time>
      </trkpt>
      <trkpt lat="27.713031" lon="-18.151642">
        <ele>62.234</ele>
        <time>2020-09-29T16:18:38Z</time>
      </trkpt>
      <trkpt lat="27.713004" lon="-18.151684">
        <ele>62.274</ele>
        <time>2020-09-29T16:18:41Z</time>
      </trkpt>
      <trkpt lat="27.712976" lon="-18.151740">
        <ele>61.895</ele>
        <time>2020-09-29T16:18:45Z</time>
      </trkpt>
      <trkpt lat="27.712953" lon="-18.151793">
        <ele>60.070</ele>
        <time>2020-09-29T16:18:50Z</time>
      </trkpt>
      <trkpt lat="27.712916" lon="-18.151838">
        <ele>58.996</ele>
        <time>2020-09-29T16:18:55Z</time>
      </trkpt>
      <trkpt lat="27.712870" lon="-18.151856">
        <ele>58.264</ele>
        <time>2020-09-29T16:18:59Z</time>
      </trkpt>
      <trkpt lat="27.712824" lon="-18.151880">
        <ele>57.478</ele>
        <time>2020-09-29T16:19:03Z</time>
      </trkpt>
      <trkpt lat="27.712777" lon="-18.151899">
        <ele>56.181</ele>
        <time>2020-09-29T16:19:07Z</time>
      </trkpt>
      <trkpt lat="27.712727" lon="-18.151905">
        <ele>54.961</ele>
        <time>2020-09-29T16:19:11Z</time>
      </trkpt>
      <trkpt lat="27.712684" lon="-18.151920">
        <ele>54.617</ele>
        <time>2020-09-29T16:19:15Z</time>
      </trkpt>
      <trkpt lat="27.712638" lon="-18.151935">
        <ele>54.008</ele>
        <time>2020-09-29T16:19:18Z</time>
      </trkpt>
      <trkpt lat="27.712587" lon="-18.151960">
        <ele>54.193</ele>
        <time>2020-09-29T16:19:22Z</time>
      </trkpt>
      <trkpt lat="27.712533" lon="-18.151992">
        <ele>54.515</ele>
        <time>2020-09-29T16:19:26Z</time>
      </trkpt>
      <trkpt lat="27.712491" lon="-18.152014">
        <ele>54.895</ele>
        <time>2020-09-29T16:19:30Z</time>
      </trkpt>
      <trkpt lat="27.712447" lon="-18.152045">
        <ele>54.296</ele>
        <time>2020-09-29T16:19:34Z</time>
      </trkpt>
      <trkpt lat="27.712407" lon="-18.152081">
        <ele>53.891</ele>
        <time>2020-09-29T16:19:37Z</time>
      </trkpt>
      <trkpt lat="27.712379" lon="-18.152126">
        <ele>54.037</ele>
        <time>2020-09-29T16:19:41Z</time>
      </trkpt>
      <trkpt lat="27.712357" lon="-18.152181">
        <ele>54.595</ele>
        <time>2020-09-29T16:19:45Z</time>
      </trkpt>
      <trkpt lat="27.712347" lon="-18.152232">
        <ele>53.669</ele>
        <time>2020-09-29T16:19:49Z</time>
      </trkpt>
      <trkpt lat="27.712340" lon="-18.152285">
        <ele>51.111</ele>
        <time>2020-09-29T16:19:53Z</time>
      </trkpt>
      <trkpt lat="27.712322" lon="-18.152334">
        <ele>49.621</ele>
        <time>2020-09-29T16:19:57Z</time>
      </trkpt>
      <trkpt lat="27.712298" lon="-18.152381">
        <ele>49.903</ele>
        <time>2020-09-29T16:20:03Z</time>
      </trkpt>
      <trkpt lat="27.712263" lon="-18.152439">
        <ele>49.708</ele>
        <time>2020-09-29T16:20:07Z</time>
      </trkpt>
      <trkpt lat="27.712230" lon="-18.152486">
        <ele>49.276</ele>
        <time>2020-09-29T16:20:11Z</time>
      </trkpt>
      <trkpt lat="27.712198" lon="-18.152535">
        <ele>49.338</ele>
        <time>2020-09-29T16:20:15Z</time>
      </trkpt>
      <trkpt lat="27.712173" lon="-18.152585">
        <ele>50.148</ele>
        <time>2020-09-29T16:20:19Z</time>
      </trkpt>
      <trkpt lat="27.712168" lon="-18.152640">
        <ele>51.479</ele>
        <time>2020-09-29T16:20:26Z</time>
      </trkpt>
      <trkpt lat="27.712161" lon="-18.152692">
        <ele>50.624</ele>
        <time>2020-09-29T16:20:29Z</time>
      </trkpt>
      <trkpt lat="27.712157" lon="-18.152748">
        <ele>49.710</ele>
        <time>2020-09-29T16:20:33Z</time>
      </trkpt>
      <trkpt lat="27.712143" lon="-18.152811">
        <ele>48.878</ele>
        <time>2020-09-29T16:20:37Z</time>
      </trkpt>
      <trkpt lat="27.712133" lon="-18.152868">
        <ele>48.632</ele>
        <time>2020-09-29T16:20:41Z</time>
      </trkpt>
      <trkpt lat="27.712128" lon="-18.152923">
        <ele>48.597</ele>
        <time>2020-09-29T16:20:45Z</time>
      </trkpt>
      <trkpt lat="27.712137" lon="-18.152983">
        <ele>48.823</ele>
        <time>2020-09-29T16:20:50Z</time>
      </trkpt>
      <trkpt lat="27.712159" lon="-18.153028">
        <ele>48.625</ele>
        <time>2020-09-29T16:20:53Z</time>
      </trkpt>
      <trkpt lat="27.712187" lon="-18.153075">
        <ele>49.308</ele>
        <time>2020-09-29T16:20:57Z</time>
      </trkpt>
      <trkpt lat="27.712214" lon="-18.153121">
        <ele>50.164</ele>
        <time>2020-09-29T16:21:00Z</time>
      </trkpt>
      <trkpt lat="27.712242" lon="-18.153163">
        <ele>49.446</ele>
        <time>2020-09-29T16:21:05Z</time>
      </trkpt>
      <trkpt lat="27.712262" lon="-18.153224">
        <ele>49.496</ele>
        <time>2020-09-29T16:21:08Z</time>
      </trkpt>
      <trkpt lat="27.712269" lon="-18.153275">
        <ele>48.657</ele>
        <time>2020-09-29T16:21:14Z</time>
      </trkpt>
      <trkpt lat="27.712271" lon="-18.153326">
        <ele>48.512</ele>
        <time>2020-09-29T16:21:17Z</time>
      </trkpt>
      <trkpt lat="27.712262" lon="-18.153382">
        <ele>47.698</ele>
        <time>2020-09-29T16:21:22Z</time>
      </trkpt>
      <trkpt lat="27.712262" lon="-18.153434">
        <ele>47.596</ele>
        <time>2020-09-29T16:21:26Z</time>
      </trkpt>
      <trkpt lat="27.712228" lon="-18.153400">
        <ele>47.490</ele>
        <time>2020-09-29T16:23:24Z</time>
      </trkpt>
      <trkpt lat="27.712566" lon="-18.153011">
        <ele>47.645</ele>
        <time>2020-09-29T16:24:04Z</time>
      </trkpt>
      <trkpt lat="27.712588" lon="-18.152962">
        <ele>47.147</ele>
        <time>2020-09-29T16:24:08Z</time>
      </trkpt>
      <trkpt lat="27.712575" lon="-18.152905">
        <ele>45.611</ele>
        <time>2020-09-29T16:24:15Z</time>
      </trkpt>
      <trkpt lat="27.712540" lon="-18.152865">
        <ele>45.108</ele>
        <time>2020-09-29T16:24:19Z</time>
      </trkpt>
      <trkpt lat="27.712486" lon="-18.152841">
        <ele>45.259</ele>
        <time>2020-09-29T16:24:22Z</time>
      </trkpt>
      <trkpt lat="27.712444" lon="-18.152817">
        <ele>45.741</ele>
        <time>2020-09-29T16:24:26Z</time>
      </trkpt>
      <trkpt lat="27.712426" lon="-18.152770">
        <ele>46.851</ele>
        <time>2020-09-29T16:24:31Z</time>
      </trkpt>
      <trkpt lat="27.712422" lon="-18.152714">
        <ele>48.632</ele>
        <time>2020-09-29T16:24:36Z</time>
      </trkpt>
      <trkpt lat="27.712419" lon="-18.152657">
        <ele>50.117</ele>
        <time>2020-09-29T16:24:42Z</time>
      </trkpt>
      <trkpt lat="27.712425" lon="-18.152603">
        <ele>51.893</ele>
        <time>2020-09-29T16:24:47Z</time>
      </trkpt>
      <trkpt lat="27.712443" lon="-18.152550">
        <ele>52.041</ele>
        <time>2020-09-29T16:24:52Z</time>
      </trkpt>
      <trkpt lat="27.712475" lon="-18.152500">
        <ele>52.565</ele>
        <time>2020-09-29T16:24:59Z</time>
      </trkpt>
      <trkpt lat="27.712491" lon="-18.152445">
        <ele>52.834</ele>
        <time>2020-09-29T16:25:04Z</time>
      </trkpt>
      <trkpt lat="27.712441" lon="-18.152466">
        <ele>54.255</ele>
        <time>2020-09-29T16:25:11Z</time>
      </trkpt>
      <trkpt lat="27.712400" lon="-18.152494">
        <ele>55.010</ele>
        <time>2020-09-29T16:25:15Z</time>
      </trkpt>
      <trkpt lat="27.712344" lon="-18.152491">
        <ele>55.508</ele>
        <time>2020-09-29T16:25:19Z</time>
      </trkpt>
      <trkpt lat="27.712295" lon="-18.152472">
        <ele>57.448</ele>
        <time>2020-09-29T16:25:23Z</time>
      </trkpt>
      <trkpt lat="27.712249" lon="-18.152501">
        <ele>58.940</ele>
        <time>2020-09-29T16:25:28Z</time>
      </trkpt>
      <trkpt lat="27.712201" lon="-18.152471">
        <ele>60.270</ele>
        <time>2020-09-29T16:25:33Z</time>
      </trkpt>
      <trkpt lat="27.712159" lon="-18.152410">
        <ele>61.041</ele>
        <time>2020-09-29T16:25:36Z</time>
      </trkpt>
      <trkpt lat="27.712130" lon="-18.152357">
        <ele>61.126</ele>
        <time>2020-09-29T16:25:39Z</time>
      </trkpt>
      <trkpt lat="27.712165" lon="-18.152320">
        <ele>60.742</ele>
        <time>2020-09-29T16:25:45Z</time>
      </trkpt>
      <trkpt lat="27.712213" lon="-18.152323">
        <ele>58.970</ele>
        <time>2020-09-29T16:25:49Z</time>
      </trkpt>
      <trkpt lat="27.712265" lon="-18.152298">
        <ele>59.044</ele>
        <time>2020-09-29T16:25:57Z</time>
      </trkpt>
      <trkpt lat="27.712318" lon="-18.152270">
        <ele>57.542</ele>
        <time>2020-09-29T16:26:01Z</time>
      </trkpt>
      <trkpt lat="27.712366" lon="-18.152268">
        <ele>57.022</ele>
        <time>2020-09-29T16:26:08Z</time>
      </trkpt>
      <trkpt lat="27.712396" lon="-18.152218">
        <ele>55.514</ele>
        <time>2020-09-29T16:26:30Z</time>
      </trkpt>
      <trkpt lat="27.712389" lon="-18.152166">
        <ele>53.808</ele>
        <time>2020-09-29T16:26:34Z</time>
      </trkpt>
      <trkpt lat="27.712406" lon="-18.152118">
        <ele>51.669</ele>
        <time>2020-09-29T16:26:55Z</time>
      </trkpt>
      <trkpt lat="27.712428" lon="-18.152071">
        <ele>52.711</ele>
        <time>2020-09-29T16:27:09Z</time>
      </trkpt>
      <trkpt lat="27.712459" lon="-18.152022">
        <ele>52.931</ele>
        <time>2020-09-29T16:27:16Z</time>
      </trkpt>
      <trkpt lat="27.712497" lon="-18.151980">
        <ele>52.232</ele>
        <time>2020-09-29T16:27:21Z</time>
      </trkpt>
      <trkpt lat="27.712549" lon="-18.151980">
        <ele>54.217</ele>
        <time>2020-09-29T16:27:28Z</time>
      </trkpt>
      <trkpt lat="27.712592" lon="-18.151960">
        <ele>54.253</ele>
        <time>2020-09-29T16:27:33Z</time>
      </trkpt>
      <trkpt lat="27.712643" lon="-18.151936">
        <ele>54.621</ele>
        <time>2020-09-29T16:27:38Z</time>
      </trkpt>
      <trkpt lat="27.712691" lon="-18.151918">
        <ele>54.465</ele>
        <time>2020-09-29T16:27:42Z</time>
      </trkpt>
      <trkpt lat="27.712727" lon="-18.151882">
        <ele>54.721</ele>
        <time>2020-09-29T16:27:48Z</time>
      </trkpt>
      <trkpt lat="27.712772" lon="-18.151855">
        <ele>55.741</ele>
        <time>2020-09-29T16:27:53Z</time>
      </trkpt>
      <trkpt lat="27.712821" lon="-18.151844">
        <ele>56.305</ele>
        <time>2020-09-29T16:27:58Z</time>
      </trkpt>
      <trkpt lat="27.712869" lon="-18.151824">
        <ele>53.908</ele>
        <time>2020-09-29T16:28:04Z</time>
      </trkpt>
      <trkpt lat="27.712917" lon="-18.151787">
        <ele>53.637</ele>
        <time>2020-09-29T16:28:08Z</time>
      </trkpt>
      <trkpt lat="27.712965" lon="-18.151765">
        <ele>52.629</ele>
        <time>2020-09-29T16:28:11Z</time>
      </trkpt>
      <trkpt lat="27.713011" lon="-18.151738">
        <ele>52.899</ele>
        <time>2020-09-29T16:28:15Z</time>
      </trkpt>
      <trkpt lat="27.713030" lon="-18.151677">
        <ele>52.530</ele>
        <time>2020-09-29T16:28:21Z</time>
      </trkpt>
      <trkpt lat="27.713034" lon="-18.151623">
        <ele>55.135</ele>
        <time>2020-09-29T16:28:30Z</time>
      </trkpt>
      <trkpt lat="27.713047" lon="-18.151570">
        <ele>56.311</ele>
        <time>2020-09-29T16:28:37Z</time>
      </trkpt>
      <trkpt lat="27.713092" lon="-18.151544">
        <ele>59.439</ele>
        <time>2020-09-29T16:28:43Z</time>
      </trkpt>
      <trkpt lat="27.713129" lon="-18.151512">
        <ele>61.363</ele>
        <time>2020-09-29T16:28:48Z</time>
      </trkpt>
      <trkpt lat="27.713157" lon="-18.151460">
        <ele>62.035</ele>
        <time>2020-09-29T16:28:54Z</time>
      </trkpt>
      <trkpt lat="27.713175" lon="-18.151400">
        <ele>62.886</ele>
        <time>2020-09-29T16:28:59Z</time>
      </trkpt>
      <trkpt lat="27.713177" lon="-18.151343">
        <ele>63.714</ele>
        <time>2020-09-29T16:29:03Z</time>
      </trkpt>
      <trkpt lat="27.713184" lon="-18.151289">
        <ele>63.808</ele>
        <time>2020-09-29T16:29:07Z</time>
      </trkpt>
      <trkpt lat="27.713206" lon="-18.151237">
        <ele>62.798</ele>
        <time>2020-09-29T16:29:13Z</time>
      </trkpt>
      <trkpt lat="27.713241" lon="-18.151196">
        <ele>63.220</ele>
        <time>2020-09-29T16:29:18Z</time>
      </trkpt>
      <trkpt lat="27.713269" lon="-18.151156">
        <ele>63.560</ele>
        <time>2020-09-29T16:29:22Z</time>
      </trkpt>
      <trkpt lat="27.713314" lon="-18.151126">
        <ele>64.111</ele>
        <time>2020-09-29T16:29:27Z</time>
      </trkpt>
      <trkpt lat="27.713351" lon="-18.151096">
        <ele>64.126</ele>
        <time>2020-09-29T16:29:31Z</time>
      </trkpt>
      <trkpt lat="27.713393" lon="-18.151065">
        <ele>64.982</ele>
        <time>2020-09-29T16:29:35Z</time>
      </trkpt>
      <trkpt lat="27.713433" lon="-18.151028">
        <ele>64.670</ele>
        <time>2020-09-29T16:29:40Z</time>
      </trkpt>
      <trkpt lat="27.713488" lon="-18.150994">
        <ele>64.494</ele>
        <time>2020-09-29T16:29:45Z</time>
      </trkpt>
      <trkpt lat="27.713537" lon="-18.150991">
        <ele>63.948</ele>
        <time>2020-09-29T16:29:52Z</time>
      </trkpt>
      <trkpt lat="27.713578" lon="-18.150957">
        <ele>63.661</ele>
        <time>2020-09-29T16:29:56Z</time>
      </trkpt>
      <trkpt lat="27.713613" lon="-18.150920">
        <ele>64.217</ele>
        <time>2020-09-29T16:30:03Z</time>
      </trkpt>
      <trkpt lat="27.713633" lon="-18.150874">
        <ele>65.408</ele>
        <time>2020-09-29T16:30:08Z</time>
      </trkpt>
      <trkpt lat="27.713661" lon="-18.150825">
        <ele>66.929</ele>
        <time>2020-09-29T16:30:13Z</time>
      </trkpt>
      <trkpt lat="27.713679" lon="-18.150774">
        <ele>69.471</ele>
        <time>2020-09-29T16:30:21Z</time>
      </trkpt>
      <trkpt lat="27.713716" lon="-18.150729">
        <ele>70.921</ele>
        <time>2020-09-29T16:30:26Z</time>
      </trkpt>
      <trkpt lat="27.713745" lon="-18.150688">
        <ele>71.042</ele>
        <time>2020-09-29T16:30:29Z</time>
      </trkpt>
      <trkpt lat="27.713782" lon="-18.150655">
        <ele>70.747</ele>
        <time>2020-09-29T16:30:34Z</time>
      </trkpt>
      <trkpt lat="27.713805" lon="-18.150609">
        <ele>68.943</ele>
        <time>2020-09-29T16:30:39Z</time>
      </trkpt>
      <trkpt lat="27.713836" lon="-18.150554">
        <ele>69.061</ele>
        <time>2020-09-29T16:30:44Z</time>
      </trkpt>
      <trkpt lat="27.713856" lon="-18.150494">
        <ele>69.125</ele>
        <time>2020-09-29T16:30:50Z</time>
      </trkpt>
      <trkpt lat="27.713882" lon="-18.150451">
        <ele>69.968</ele>
        <time>2020-09-29T16:30:54Z</time>
      </trkpt>
      <trkpt lat="27.713915" lon="-18.150402">
        <ele>70.842</ele>
        <time>2020-09-29T16:30:58Z</time>
      </trkpt>
      <trkpt lat="27.713940" lon="-18.150351">
        <ele>71.726</ele>
        <time>2020-09-29T16:31:03Z</time>
      </trkpt>
      <trkpt lat="27.713961" lon="-18.150302">
        <ele>72.308</ele>
        <time>2020-09-29T16:31:08Z</time>
      </trkpt>
      <trkpt lat="27.713984" lon="-18.150252">
        <ele>73.441</ele>
        <time>2020-09-29T16:31:13Z</time>
      </trkpt>
      <trkpt lat="27.714001" lon="-18.150201">
        <ele>73.793</ele>
        <time>2020-09-29T16:31:17Z</time>
      </trkpt>
      <trkpt lat="27.714018" lon="-18.150150">
        <ele>73.153</ele>
        <time>2020-09-29T16:31:21Z</time>
      </trkpt>
      <trkpt lat="27.714040" lon="-18.150101">
        <ele>72.724</ele>
        <time>2020-09-29T16:31:27Z</time>
      </trkpt>
      <trkpt lat="27.714054" lon="-18.150044">
        <ele>71.759</ele>
        <time>2020-09-29T16:31:32Z</time>
      </trkpt>
      <trkpt lat="27.714063" lon="-18.149989">
        <ele>72.325</ele>
        <time>2020-09-29T16:31:36Z</time>
      </trkpt>
      <trkpt lat="27.714063" lon="-18.149938">
        <ele>74.383</ele>
        <time>2020-09-29T16:31:40Z</time>
      </trkpt>
      <trkpt lat="27.714074" lon="-18.149886">
        <ele>75.157</ele>
        <time>2020-09-29T16:31:45Z</time>
      </trkpt>
      <trkpt lat="27.714096" lon="-18.149822">
        <ele>75.269</ele>
        <time>2020-09-29T16:31:51Z</time>
      </trkpt>
      <trkpt lat="27.714112" lon="-18.149771">
        <ele>74.004</ele>
        <time>2020-09-29T16:31:58Z</time>
      </trkpt>
      <trkpt lat="27.714118" lon="-18.149718">
        <ele>73.724</ele>
        <time>2020-09-29T16:32:03Z</time>
      </trkpt>
      <trkpt lat="27.714125" lon="-18.149668">
        <ele>73.908</ele>
        <time>2020-09-29T16:32:08Z</time>
      </trkpt>
      <trkpt lat="27.714124" lon="-18.149610">
        <ele>74.411</ele>
        <time>2020-09-29T16:32:13Z</time>
      </trkpt>
      <trkpt lat="27.714132" lon="-18.149553">
        <ele>75.163</ele>
        <time>2020-09-29T16:32:18Z</time>
      </trkpt>
      <trkpt lat="27.714127" lon="-18.149497">
        <ele>76.713</ele>
        <time>2020-09-29T16:32:23Z</time>
      </trkpt>
      <trkpt lat="27.714125" lon="-18.149445">
        <ele>77.364</ele>
        <time>2020-09-29T16:32:28Z</time>
      </trkpt>
      <trkpt lat="27.714121" lon="-18.149384">
        <ele>77.699</ele>
        <time>2020-09-29T16:32:33Z</time>
      </trkpt>
      <trkpt lat="27.714120" lon="-18.149332">
        <ele>78.215</ele>
        <time>2020-09-29T16:32:38Z</time>
      </trkpt>
      <trkpt lat="27.714121" lon="-18.149271">
        <ele>78.213</ele>
        <time>2020-09-29T16:32:43Z</time>
      </trkpt>
      <trkpt lat="27.714124" lon="-18.149216">
        <ele>78.627</ele>
        <time>2020-09-29T16:32:48Z</time>
      </trkpt>
      <trkpt lat="27.714128" lon="-18.149162">
        <ele>78.037</ele>
        <time>2020-09-29T16:32:53Z</time>
      </trkpt>
      <trkpt lat="27.714126" lon="-18.149110">
        <ele>78.549</ele>
        <time>2020-09-29T16:32:56Z</time>
      </trkpt>
      <trkpt lat="27.714121" lon="-18.149050">
        <ele>79.213</ele>
        <time>2020-09-29T16:33:01Z</time>
      </trkpt>
      <trkpt lat="27.714104" lon="-18.148998">
        <ele>79.608</ele>
        <time>2020-09-29T16:33:06Z</time>
      </trkpt>
      <trkpt lat="27.714088" lon="-18.148943">
        <ele>79.428</ele>
        <time>2020-09-29T16:33:11Z</time>
      </trkpt>
      <trkpt lat="27.714085" lon="-18.148876">
        <ele>79.370</ele>
        <time>2020-09-29T16:33:17Z</time>
      </trkpt>
      <trkpt lat="27.714094" lon="-18.148820">
        <ele>79.660</ele>
        <time>2020-09-29T16:33:22Z</time>
      </trkpt>
      <trkpt lat="27.714098" lon="-18.148762">
        <ele>80.631</ele>
        <time>2020-09-29T16:33:27Z</time>
      </trkpt>
      <trkpt lat="27.714107" lon="-18.148711">
        <ele>81.276</ele>
        <time>2020-09-29T16:33:31Z</time>
      </trkpt>
      <trkpt lat="27.714114" lon="-18.148654">
        <ele>82.062</ele>
        <time>2020-09-29T16:33:35Z</time>
      </trkpt>
      <trkpt lat="27.714136" lon="-18.148603">
        <ele>83.370</ele>
        <time>2020-09-29T16:33:40Z</time>
      </trkpt>
      <trkpt lat="27.714158" lon="-18.148552">
        <ele>84.534</ele>
        <time>2020-09-29T16:33:45Z</time>
      </trkpt>
      <trkpt lat="27.714172" lon="-18.148502">
        <ele>85.673</ele>
        <time>2020-09-29T16:33:49Z</time>
      </trkpt>
      <trkpt lat="27.714187" lon="-18.148442">
        <ele>85.185</ele>
        <time>2020-09-29T16:33:54Z</time>
      </trkpt>
      <trkpt lat="27.714207" lon="-18.148389">
        <ele>85.213</ele>
        <time>2020-09-29T16:33:59Z</time>
      </trkpt>
      <trkpt lat="27.714230" lon="-18.148342">
        <ele>84.808</ele>
        <time>2020-09-29T16:34:05Z</time>
      </trkpt>
      <trkpt lat="27.714261" lon="-18.148303">
        <ele>84.272</ele>
        <time>2020-09-29T16:34:31Z</time>
      </trkpt>
      <trkpt lat="27.714279" lon="-18.148255">
        <ele>83.874</ele>
        <time>2020-09-29T16:34:35Z</time>
      </trkpt>
      <trkpt lat="27.714305" lon="-18.148210">
        <ele>83.224</ele>
        <time>2020-09-29T16:34:39Z</time>
      </trkpt>
      <trkpt lat="27.714327" lon="-18.148163">
        <ele>82.815</ele>
        <time>2020-09-29T16:34:45Z</time>
      </trkpt>
      <trkpt lat="27.714355" lon="-18.148117">
        <ele>81.810</ele>
        <time>2020-09-29T16:34:50Z</time>
      </trkpt>
      <trkpt lat="27.714382" lon="-18.148073">
        <ele>82.896</ele>
        <time>2020-09-29T16:34:55Z</time>
      </trkpt>
      <trkpt lat="27.714414" lon="-18.148029">
        <ele>82.624</ele>
        <time>2020-09-29T16:35:00Z</time>
      </trkpt>
      <trkpt lat="27.714438" lon="-18.147978">
        <ele>82.998</ele>
        <time>2020-09-29T16:35:05Z</time>
      </trkpt>
      <trkpt lat="27.714452" lon="-18.147928">
        <ele>83.157</ele>
        <time>2020-09-29T16:35:09Z</time>
      </trkpt>
      <trkpt lat="27.714452" lon="-18.147868">
        <ele>83.600</ele>
        <time>2020-09-29T16:35:13Z</time>
      </trkpt>
      <trkpt lat="27.714460" lon="-18.147818">
        <ele>85.120</ele>
        <time>2020-09-29T16:35:17Z</time>
      </trkpt>
      <trkpt lat="27.714481" lon="-18.147764">
        <ele>86.008</ele>
        <time>2020-09-29T16:35:22Z</time>
      </trkpt>
      <trkpt lat="27.714482" lon="-18.147708">
        <ele>87.310</ele>
        <time>2020-09-29T16:35:28Z</time>
      </trkpt>
      <trkpt lat="27.714490" lon="-18.147648">
        <ele>89.352</ele>
        <time>2020-09-29T16:35:33Z</time>
      </trkpt>
      <trkpt lat="27.714502" lon="-18.147597">
        <ele>90.922</ele>
        <time>2020-09-29T16:35:37Z</time>
      </trkpt>
      <trkpt lat="27.714497" lon="-18.147533">
        <ele>92.393</ele>
        <time>2020-09-29T16:35:41Z</time>
      </trkpt>
      <trkpt lat="27.714498" lon="-18.147471">
        <ele>91.998</ele>
        <time>2020-09-29T16:35:46Z</time>
      </trkpt>
      <trkpt lat="27.714480" lon="-18.147417">
        <ele>91.794</ele>
        <time>2020-09-29T16:35:56Z</time>
      </trkpt>
      <trkpt lat="27.714477" lon="-18.147366">
        <ele>92.062</ele>
        <time>2020-09-29T16:36:03Z</time>
      </trkpt>
      <trkpt lat="27.714475" lon="-18.147315">
        <ele>93.016</ele>
        <time>2020-09-29T16:36:09Z</time>
      </trkpt>
      <trkpt lat="27.714470" lon="-18.147261">
        <ele>93.224</ele>
        <time>2020-09-29T16:36:14Z</time>
      </trkpt>
      <trkpt lat="27.714468" lon="-18.147199">
        <ele>92.504</ele>
        <time>2020-09-29T16:36:18Z</time>
      </trkpt>
      <trkpt lat="27.714481" lon="-18.147143">
        <ele>90.914</ele>
        <time>2020-09-29T16:36:23Z</time>
      </trkpt>
      <trkpt lat="27.714493" lon="-18.147084">
        <ele>88.708</ele>
        <time>2020-09-29T16:36:29Z</time>
      </trkpt>
      <trkpt lat="27.714506" lon="-18.147032">
        <ele>87.827</ele>
        <time>2020-09-29T16:36:34Z</time>
      </trkpt>
      <trkpt lat="27.714508" lon="-18.146973">
        <ele>88.199</ele>
        <time>2020-09-29T16:36:39Z</time>
      </trkpt>
      <trkpt lat="27.714514" lon="-18.146915">
        <ele>87.139</ele>
        <time>2020-09-29T16:36:45Z</time>
      </trkpt>
      <trkpt lat="27.714528" lon="-18.146850">
        <ele>85.790</ele>
        <time>2020-09-29T16:36:50Z</time>
      </trkpt>
      <trkpt lat="27.714536" lon="-18.146789">
        <ele>85.265</ele>
        <time>2020-09-29T16:36:56Z</time>
      </trkpt>
      <trkpt lat="27.714546" lon="-18.146736">
        <ele>85.311</ele>
        <time>2020-09-29T16:37:02Z</time>
      </trkpt>
      <trkpt lat="27.714564" lon="-18.146596">
        <ele>87.119</ele>
        <time>2020-09-29T16:37:22Z</time>
      </trkpt>
      <trkpt lat="27.714566" lon="-18.146542">
        <ele>86.953</ele>
        <time>2020-09-29T16:37:26Z</time>
      </trkpt>
      <trkpt lat="27.714566" lon="-18.146489">
        <ele>87.659</ele>
        <time>2020-09-29T16:37:29Z</time>
      </trkpt>
      <trkpt lat="27.714570" lon="-18.146424">
        <ele>87.203</ele>
        <time>2020-09-29T16:37:34Z</time>
      </trkpt>
      <trkpt lat="27.714566" lon="-18.146364">
        <ele>88.623</ele>
        <time>2020-09-29T16:37:39Z</time>
      </trkpt>
      <trkpt lat="27.714562" lon="-18.146305">
        <ele>89.408</ele>
        <time>2020-09-29T16:37:44Z</time>
      </trkpt>
      <trkpt lat="27.714559" lon="-18.146234">
        <ele>89.940</ele>
        <time>2020-09-29T16:37:49Z</time>
      </trkpt>
      <trkpt lat="27.714561" lon="-18.146172">
        <ele>91.012</ele>
        <time>2020-09-29T16:37:54Z</time>
      </trkpt>
      <trkpt lat="27.714562" lon="-18.146119">
        <ele>92.572</ele>
        <time>2020-09-29T16:37:57Z</time>
      </trkpt>
      <trkpt lat="27.714570" lon="-18.146065">
        <ele>94.273</ele>
        <time>2020-09-29T16:38:01Z</time>
      </trkpt>
      <trkpt lat="27.714576" lon="-18.146004">
        <ele>94.048</ele>
        <time>2020-09-29T16:38:06Z</time>
      </trkpt>
      <trkpt lat="27.714579" lon="-18.145952">
        <ele>93.554</ele>
        <time>2020-09-29T16:38:10Z</time>
      </trkpt>
      <trkpt lat="27.714590" lon="-18.145896">
        <ele>93.212</ele>
        <time>2020-09-29T16:38:14Z</time>
      </trkpt>
      <trkpt lat="27.714605" lon="-18.145846">
        <ele>94.266</ele>
        <time>2020-09-29T16:38:19Z</time>
      </trkpt>
      <trkpt lat="27.714609" lon="-18.145791">
        <ele>95.685</ele>
        <time>2020-09-29T16:38:24Z</time>
      </trkpt>
      <trkpt lat="27.714609" lon="-18.145738">
        <ele>96.489</ele>
        <time>2020-09-29T16:38:28Z</time>
      </trkpt>
      <trkpt lat="27.714601" lon="-18.145682">
        <ele>97.717</ele>
        <time>2020-09-29T16:38:31Z</time>
      </trkpt>
      <trkpt lat="27.714588" lon="-18.145629">
        <ele>97.308</ele>
        <time>2020-09-29T16:38:36Z</time>
      </trkpt>
      <trkpt lat="27.714567" lon="-18.145566">
        <ele>97.563</ele>
        <time>2020-09-29T16:38:41Z</time>
      </trkpt>
      <trkpt lat="27.714549" lon="-18.145519">
        <ele>98.835</ele>
        <time>2020-09-29T16:38:46Z</time>
      </trkpt>
      <trkpt lat="27.714545" lon="-18.145465">
        <ele>100.425</ele>
        <time>2020-09-29T16:38:52Z</time>
      </trkpt>
      <trkpt lat="27.714535" lon="-18.145414">
        <ele>100.196</ele>
        <time>2020-09-29T16:38:57Z</time>
      </trkpt>
      <trkpt lat="27.714515" lon="-18.145362">
        <ele>99.951</ele>
        <time>2020-09-29T16:39:02Z</time>
      </trkpt>
      <trkpt lat="27.714485" lon="-18.145313">
        <ele>99.097</ele>
        <time>2020-09-29T16:39:07Z</time>
      </trkpt>
      <trkpt lat="27.714467" lon="-18.145262">
        <ele>98.995</ele>
        <time>2020-09-29T16:39:12Z</time>
      </trkpt>
      <trkpt lat="27.714457" lon="-18.145209">
        <ele>98.889</ele>
        <time>2020-09-29T16:39:17Z</time>
      </trkpt>
      <trkpt lat="27.714430" lon="-18.145133">
        <ele>100.073</ele>
        <time>2020-09-29T16:39:22Z</time>
      </trkpt>
      <trkpt lat="27.714417" lon="-18.145084">
        <ele>99.985</ele>
        <time>2020-09-29T16:39:27Z</time>
      </trkpt>
      <trkpt lat="27.714402" lon="-18.145028">
        <ele>99.813</ele>
        <time>2020-09-29T16:39:30Z</time>
      </trkpt>
      <trkpt lat="27.714388" lon="-18.144969">
        <ele>100.208</ele>
        <time>2020-09-29T16:39:37Z</time>
      </trkpt>
      <trkpt lat="27.714387" lon="-18.144915">
        <ele>100.842</ele>
        <time>2020-09-29T16:39:41Z</time>
      </trkpt>
      <trkpt lat="27.714360" lon="-18.144867">
        <ele>101.694</ele>
        <time>2020-09-29T16:39:46Z</time>
      </trkpt>
      <trkpt lat="27.714340" lon="-18.144817">
        <ele>102.194</ele>
        <time>2020-09-29T16:39:50Z</time>
      </trkpt>
      <trkpt lat="27.714312" lon="-18.144764">
        <ele>102.495</ele>
        <time>2020-09-29T16:39:55Z</time>
      </trkpt>
      <trkpt lat="27.714292" lon="-18.144717">
        <ele>103.430</ele>
        <time>2020-09-29T16:40:00Z</time>
      </trkpt>
      <trkpt lat="27.714271" lon="-18.144668">
        <ele>105.636</ele>
        <time>2020-09-29T16:40:05Z</time>
      </trkpt>
      <trkpt lat="27.714252" lon="-18.144622">
        <ele>106.534</ele>
        <time>2020-09-29T16:40:08Z</time>
      </trkpt>
      <trkpt lat="27.714230" lon="-18.144567">
        <ele>106.678</ele>
        <time>2020-09-29T16:40:13Z</time>
      </trkpt>
      <trkpt lat="27.714203" lon="-18.144518">
        <ele>105.523</ele>
        <time>2020-09-29T16:40:17Z</time>
      </trkpt>
      <trkpt lat="27.714176" lon="-18.144471">
        <ele>105.683</ele>
        <time>2020-09-29T16:40:21Z</time>
      </trkpt>
      <trkpt lat="27.714152" lon="-18.144424">
        <ele>106.911</ele>
        <time>2020-09-29T16:40:26Z</time>
      </trkpt>
      <trkpt lat="27.714132" lon="-18.144377">
        <ele>108.108</ele>
        <time>2020-09-29T16:40:31Z</time>
      </trkpt>
      <trkpt lat="27.714111" lon="-18.144317">
        <ele>108.887</ele>
        <time>2020-09-29T16:40:36Z</time>
      </trkpt>
      <trkpt lat="27.714098" lon="-18.144267">
        <ele>109.699</ele>
        <time>2020-09-29T16:40:40Z</time>
      </trkpt>
      <trkpt lat="27.714079" lon="-18.144206">
        <ele>110.179</ele>
        <time>2020-09-29T16:40:45Z</time>
      </trkpt>
      <trkpt lat="27.714055" lon="-18.144145">
        <ele>109.690</ele>
        <time>2020-09-29T16:40:51Z</time>
      </trkpt>
      <trkpt lat="27.714006" lon="-18.144110">
        <ele>109.755</ele>
        <time>2020-09-29T16:40:56Z</time>
      </trkpt>
      <trkpt lat="27.713957" lon="-18.144102">
        <ele>111.421</ele>
        <time>2020-09-29T16:41:01Z</time>
      </trkpt>
      <trkpt lat="27.713906" lon="-18.144105">
        <ele>112.059</ele>
        <time>2020-09-29T16:41:05Z</time>
      </trkpt>
      <trkpt lat="27.713859" lon="-18.144098">
        <ele>112.853</ele>
        <time>2020-09-29T16:41:09Z</time>
      </trkpt>
      <trkpt lat="27.713804" lon="-18.144093">
        <ele>113.759</ele>
        <time>2020-09-29T16:41:15Z</time>
      </trkpt>
      <trkpt lat="27.713754" lon="-18.144078">
        <ele>114.603</ele>
        <time>2020-09-29T16:41:23Z</time>
      </trkpt>
      <trkpt lat="27.713720" lon="-18.144038">
        <ele>115.923</ele>
        <time>2020-09-29T16:41:28Z</time>
      </trkpt>
      <trkpt lat="27.713692" lon="-18.143989">
        <ele>117.908</ele>
        <time>2020-09-29T16:41:33Z</time>
      </trkpt>
      <trkpt lat="27.713667" lon="-18.143941">
        <ele>119.570</ele>
        <time>2020-09-29T16:41:38Z</time>
      </trkpt>
      <trkpt lat="27.713636" lon="-18.143897">
        <ele>120.582</ele>
        <time>2020-09-29T16:41:43Z</time>
      </trkpt>
      <trkpt lat="27.713594" lon="-18.143857">
        <ele>121.552</ele>
        <time>2020-09-29T16:41:48Z</time>
      </trkpt>
      <trkpt lat="27.713554" lon="-18.143829">
        <ele>122.573</ele>
        <time>2020-09-29T16:41:52Z</time>
      </trkpt>
      <trkpt lat="27.713507" lon="-18.143827">
        <ele>122.728</ele>
        <time>2020-09-29T16:41:56Z</time>
      </trkpt>
      <trkpt lat="27.713457" lon="-18.143824">
        <ele>123.234</ele>
        <time>2020-09-29T16:42:00Z</time>
      </trkpt>
      <trkpt lat="27.713409" lon="-18.143808">
        <ele>124.382</ele>
        <time>2020-09-29T16:42:05Z</time>
      </trkpt>
      <trkpt lat="27.713365" lon="-18.143783">
        <ele>124.686</ele>
        <time>2020-09-29T16:42:10Z</time>
      </trkpt>
      <trkpt lat="27.713318" lon="-18.143760">
        <ele>126.443</ele>
        <time>2020-09-29T16:42:15Z</time>
      </trkpt>
      <trkpt lat="27.713277" lon="-18.143730">
        <ele>127.164</ele>
        <time>2020-09-29T16:42:19Z</time>
      </trkpt>
      <trkpt lat="27.713246" lon="-18.143689">
        <ele>126.710</ele>
        <time>2020-09-29T16:42:23Z</time>
      </trkpt>
      <trkpt lat="27.713225" lon="-18.143639">
        <ele>126.908</ele>
        <time>2020-09-29T16:42:33Z</time>
      </trkpt>
      <trkpt lat="27.713205" lon="-18.143591">
        <ele>127.499</ele>
        <time>2020-09-29T16:42:37Z</time>
      </trkpt>
      <trkpt lat="27.713185" lon="-18.143537">
        <ele>127.311</ele>
        <time>2020-09-29T16:42:41Z</time>
      </trkpt>
      <trkpt lat="27.713167" lon="-18.143478">
        <ele>126.881</ele>
        <time>2020-09-29T16:42:45Z</time>
      </trkpt>
      <trkpt lat="27.713158" lon="-18.143426">
        <ele>127.362</ele>
        <time>2020-09-29T16:42:49Z</time>
      </trkpt>
      <trkpt lat="27.713146" lon="-18.143368">
        <ele>128.487</ele>
        <time>2020-09-29T16:42:54Z</time>
      </trkpt>
      <trkpt lat="27.713134" lon="-18.143311">
        <ele>129.113</ele>
        <time>2020-09-29T16:42:59Z</time>
      </trkpt>
      <trkpt lat="27.713115" lon="-18.143262">
        <ele>129.521</ele>
        <time>2020-09-29T16:43:03Z</time>
      </trkpt>
      <trkpt lat="27.713084" lon="-18.143210">
        <ele>130.155</ele>
        <time>2020-09-29T16:43:08Z</time>
      </trkpt>
      <trkpt lat="27.713072" lon="-18.143158">
        <ele>131.344</ele>
        <time>2020-09-29T16:43:13Z</time>
      </trkpt>
      <trkpt lat="27.713057" lon="-18.143106">
        <ele>131.605</ele>
        <time>2020-09-29T16:43:18Z</time>
      </trkpt>
      <trkpt lat="27.713045" lon="-18.143048">
        <ele>131.015</ele>
        <time>2020-09-29T16:43:23Z</time>
      </trkpt>
      <trkpt lat="27.713042" lon="-18.142986">
        <ele>130.608</ele>
        <time>2020-09-29T16:43:28Z</time>
      </trkpt>
      <trkpt lat="27.713031" lon="-18.142928">
        <ele>130.439</ele>
        <time>2020-09-29T16:43:33Z</time>
      </trkpt>
      <trkpt lat="27.713014" lon="-18.142875">
        <ele>131.521</ele>
        <time>2020-09-29T16:43:37Z</time>
      </trkpt>
      <trkpt lat="27.712983" lon="-18.142835">
        <ele>131.771</ele>
        <time>2020-09-29T16:43:41Z</time>
      </trkpt>
      <trkpt lat="27.712941" lon="-18.142814">
        <ele>132.632</ele>
        <time>2020-09-29T16:43:45Z</time>
      </trkpt>
      <trkpt lat="27.712892" lon="-18.142787">
        <ele>132.857</ele>
        <time>2020-09-29T16:43:50Z</time>
      </trkpt>
      <trkpt lat="27.712847" lon="-18.142777">
        <ele>132.183</ele>
        <time>2020-09-29T16:43:55Z</time>
      </trkpt>
      <trkpt lat="27.712797" lon="-18.142783">
        <ele>132.141</ele>
        <time>2020-09-29T16:44:00Z</time>
      </trkpt>
      <trkpt lat="27.712745" lon="-18.142787">
        <ele>132.585</ele>
        <time>2020-09-29T16:44:06Z</time>
      </trkpt>
      <trkpt lat="27.712694" lon="-18.142770">
        <ele>133.179</ele>
        <time>2020-09-29T16:44:11Z</time>
      </trkpt>
      <trkpt lat="27.712653" lon="-18.142745">
        <ele>133.505</ele>
        <time>2020-09-29T16:44:15Z</time>
      </trkpt>
      <trkpt lat="27.712616" lon="-18.142705">
        <ele>134.125</ele>
        <time>2020-09-29T16:44:19Z</time>
      </trkpt>
      <trkpt lat="27.712581" lon="-18.142663">
        <ele>132.908</ele>
        <time>2020-09-29T16:44:24Z</time>
      </trkpt>
      <trkpt lat="27.712541" lon="-18.142619">
        <ele>132.272</ele>
        <time>2020-09-29T16:44:29Z</time>
      </trkpt>
      <trkpt lat="27.712506" lon="-18.142581">
        <ele>131.894</ele>
        <time>2020-09-29T16:44:33Z</time>
      </trkpt>
      <trkpt lat="27.712474" lon="-18.142536">
        <ele>131.964</ele>
        <time>2020-09-29T16:44:37Z</time>
      </trkpt>
      <trkpt lat="27.712439" lon="-18.142500">
        <ele>132.825</ele>
        <time>2020-09-29T16:44:41Z</time>
      </trkpt>
      <trkpt lat="27.712398" lon="-18.142463">
        <ele>133.730</ele>
        <time>2020-09-29T16:44:46Z</time>
      </trkpt>
      <trkpt lat="27.712361" lon="-18.142431">
        <ele>133.996</ele>
        <time>2020-09-29T16:44:49Z</time>
      </trkpt>
      <trkpt lat="27.712324" lon="-18.142396">
        <ele>134.024</ele>
        <time>2020-09-29T16:44:53Z</time>
      </trkpt>
      <trkpt lat="27.712293" lon="-18.142355">
        <ele>134.518</ele>
        <time>2020-09-29T16:44:58Z</time>
      </trkpt>
      <trkpt lat="27.712262" lon="-18.142309">
        <ele>135.268</ele>
        <time>2020-09-29T16:45:02Z</time>
      </trkpt>
      <trkpt lat="27.712238" lon="-18.142264">
        <ele>135.642</ele>
        <time>2020-09-29T16:45:07Z</time>
      </trkpt>
      <trkpt lat="27.712229" lon="-18.142208">
        <ele>135.826</ele>
        <time>2020-09-29T16:45:11Z</time>
      </trkpt>
      <trkpt lat="27.712238" lon="-18.142147">
        <ele>135.908</ele>
        <time>2020-09-29T16:45:16Z</time>
      </trkpt>
      <trkpt lat="27.712270" lon="-18.142091">
        <ele>136.011</ele>
        <time>2020-09-29T16:45:21Z</time>
      </trkpt>
      <trkpt lat="27.712295" lon="-18.142048">
        <ele>135.783</ele>
        <time>2020-09-29T16:45:24Z</time>
      </trkpt>
      <trkpt lat="27.712323" lon="-18.142004">
        <ele>135.553</ele>
        <time>2020-09-29T16:45:29Z</time>
      </trkpt>
      <trkpt lat="27.712342" lon="-18.141953">
        <ele>135.444</ele>
        <time>2020-09-29T16:45:34Z</time>
      </trkpt>
      <trkpt lat="27.712338" lon="-18.141900">
        <ele>135.799</ele>
        <time>2020-09-29T16:45:40Z</time>
      </trkpt>
      <trkpt lat="27.712308" lon="-18.141855">
        <ele>135.575</ele>
        <time>2020-09-29T16:45:43Z</time>
      </trkpt>
      <trkpt lat="27.712274" lon="-18.141819">
        <ele>135.823</ele>
        <time>2020-09-29T16:45:48Z</time>
      </trkpt>
      <trkpt lat="27.712217" lon="-18.141804">
        <ele>136.017</ele>
        <time>2020-09-29T16:45:54Z</time>
      </trkpt>
      <trkpt lat="27.712172" lon="-18.141780">
        <ele>136.517</ele>
        <time>2020-09-29T16:45:58Z</time>
      </trkpt>
      <trkpt lat="27.712120" lon="-18.141754">
        <ele>136.087</ele>
        <time>2020-09-29T16:46:02Z</time>
      </trkpt>
      <trkpt lat="27.712067" lon="-18.141741">
        <ele>136.515</ele>
        <time>2020-09-29T16:46:06Z</time>
      </trkpt>
      <trkpt lat="27.712017" lon="-18.141721">
        <ele>137.208</ele>
        <time>2020-09-29T16:46:10Z</time>
      </trkpt>
      <trkpt lat="27.711968" lon="-18.141696">
        <ele>138.046</ele>
        <time>2020-09-29T16:46:14Z</time>
      </trkpt>
    </trkseg>
  </trk></gpx>