<?xml version="1.0" encoding="UTF-8"?>
<gpx version="1.1" creator="Aventuras en Cada Paso" xmlns="http://www.topografix.com/GPX/1/1">
  <metadata>
    <name>Ruta Este – Punta del Pobre</name>
    <desc>Travesía hasta la Punta del Pobre por la costa este. Vistas a Montaña Clara, Roque del Oeste y Alegranza. Bordea el lado oeste de Lanzarote con Famara al fondo.</desc>
    <author><name>Aventuras en Cada Paso</name></author>
    <time>2026-07-08T08:12:58.208Z</time>
    <keywords>La Graciosa, Senderismo, Media, senderismo Canarias</keywords>
  </metadata>
  <wpt lat="29.24" lon="-13.475">
    <name>Ruta Este – Punta del Pobre</name>
    <desc>Travesía hasta la Punta del Pobre por la costa este. Vistas a Montaña Clara, Roque del Oeste y Alegranza. Bordea el lado oeste de Lanzarote con Famara al fondo. | Isla: La Graciosa | Tipo: Senderismo | Dificultad: Media | Distancia: 13km | Duración: 4-8 horas</desc>
    <type>Senderismo</type>
    <extensions>
      <isla>La Graciosa</isla>
      <dificultad>Media</dificultad>
      <distancia>13</distancia>
      <duracion>4-8 horas</duracion>
    </extensions>
  </wpt>
</gpx>