<?xml version="1.0" encoding="UTF-8"?>
<gpx version="1.1" creator="Aventuras en Cada Paso" xmlns="http://www.topografix.com/GPX/1/1">
  <metadata>
    <name>Raso de la Bruma – Circular Garajonay</name>
    <desc>Paseo fácil por fayal-brezal y laurisilva desde el área recreativa del Raso de la Bruma. Ideal para familias. Árboles cubiertos de musgo y helechos gigantes.</desc>
    <author><name>Aventuras en Cada Paso</name></author>
    <time>2026-07-08T08:12:58.201Z</time>
    <keywords>La Gomera, Senderismo, Fácil, senderismo Canarias</keywords>
  </metadata>
  <wpt lat="28.11" lon="-17.24">
    <name>Raso de la Bruma – Circular Garajonay</name>
    <desc>Paseo fácil por fayal-brezal y laurisilva desde el área recreativa del Raso de la Bruma. Ideal para familias. Árboles cubiertos de musgo y helechos gigantes. | Isla: La Gomera | Tipo: Senderismo | Dificultad: Fácil | Distancia: 3km | Duración: Menos de 2h</desc>
    <type>Senderismo</type>
    <extensions>
      <isla>La Gomera</isla>
      <dificultad>Fácil</dificultad>
      <distancia>3</distancia>
      <duracion>Menos de 2h</duracion>
    </extensions>
  </wpt>
</gpx>