<?xml version="1.0" encoding="UTF-8"?>
<gpx creator="Wikiloc - https://www.wikiloc.com" version="1.1" xmlns="http://www.topografix.com/GPX/1/1" xmlns:xsi="http://www.w3.org/2001/XMLSchema-instance" xsi:schemaLocation="http://www.topografix.com/GPX/1/1 http://www.topografix.com/GPX/1/1/gpx.xsd">
  <metadata>
    <name>Wikiloc - La Palma GR-131 2: Roque de los Muchachos - Pico de la Nieve...</name>
    <link href="https://www.wikiloc.com/hiking-trails/la-palma-gr-131-2-roque-de-los-muchachos-pico-de-la-nieve-punta-de-los-roques-refugio-del-pilar-cre-37507420">
      <text>La Palma GR-131 2: Roque de los Muchachos - Pico de la Nieve... on Wikiloc</text>
    </link>
    <time>2019-06-11T21:07:17Z</time>
  </metadata>
  <trk>
    <name>La Palma GR-131 2: Roque de los Muchachos - Pico de la Nieve... - Wikiloc</name>
    <cmt></cmt>
    <desc></desc>
    <trkseg>
      <trkpt lat="28.754445" lon="-17.885056">
        <ele>2416.638</ele>
        <time>2019-06-11T12:09:46Z</time>
      </trkpt>
      <trkpt lat="28.754499" lon="-17.884896">
        <ele>2415.070</ele>
        <time>2019-06-11T12:09:59Z</time>
      </trkpt>
      <trkpt lat="28.754741" lon="-17.884796">
        <ele>2407.717</ele>
        <time>2019-06-11T12:10:44Z</time>
      </trkpt>
      <trkpt lat="28.754629" lon="-17.884709">
        <ele>2411.308</ele>
        <time>2019-06-11T12:11:03Z</time>
      </trkpt>
      <trkpt lat="28.755367" lon="-17.884910">
        <ele>2389.436</ele>
        <time>2019-06-11T12:12:37Z</time>
      </trkpt>
      <trkpt lat="28.755241" lon="-17.884478">
        <ele>2380.630</ele>
        <time>2019-06-11T12:13:35Z</time>
      </trkpt>
      <trkpt lat="28.755688" lon="-17.884569">
        <ele>2382.948</ele>
        <time>2019-06-11T12:14:49Z</time>
      </trkpt>
      <trkpt lat="28.755675" lon="-17.884373">
        <ele>2376.053</ele>
        <time>2019-06-11T12:15:12Z</time>
      </trkpt>
      <trkpt lat="28.755870" lon="-17.884275">
        <ele>2370.690</ele>
        <time>2019-06-11T12:15:46Z</time>
      </trkpt>
      <trkpt lat="28.755907" lon="-17.883883">
        <ele>2355.727</ele>
        <time>2019-06-11T12:16:35Z</time>
      </trkpt>
      <trkpt lat="28.756194" lon="-17.883722">
        <ele>2352.355</ele>
        <time>2019-06-11T12:18:23Z</time>
      </trkpt>
      <trkpt lat="28.756770" lon="-17.883715">
        <ele>2337.563</ele>
        <time>2019-06-11T12:19:55Z</time>
      </trkpt>
      <trkpt lat="28.758880" lon="-17.882255">
        <ele>2329.784</ele>
        <time>2019-06-11T12:31:00Z</time>
      </trkpt>
      <trkpt lat="28.758864" lon="-17.881868">
        <ele>2334.807</ele>
        <time>2019-06-11T12:31:33Z</time>
      </trkpt>
      <trkpt lat="28.759069" lon="-17.881737">
        <ele>2341.617</ele>
        <time>2019-06-11T12:32:11Z</time>
      </trkpt>
      <trkpt lat="28.759144" lon="-17.881477">
        <ele>2349.908</ele>
        <time>2019-06-11T12:32:53Z</time>
      </trkpt>
      <trkpt lat="28.759101" lon="-17.881161">
        <ele>2355.891</ele>
        <time>2019-06-11T12:33:38Z</time>
      </trkpt>
      <trkpt lat="28.758728" lon="-17.880716">
        <ele>2355.385</ele>
        <time>2019-06-11T12:35:02Z</time>
      </trkpt>
      <trkpt lat="28.759283" lon="-17.880340">
        <ele>2359.783</ele>
        <time>2019-06-11T12:36:28Z</time>
      </trkpt>
      <trkpt lat="28.759488" lon="-17.880335">
        <ele>2361.198</ele>
        <time>2019-06-11T12:36:47Z</time>
      </trkpt>
      <trkpt lat="28.759628" lon="-17.880132">
        <ele>2359.165</ele>
        <time>2019-06-11T12:37:11Z</time>
      </trkpt>
      <trkpt lat="28.759793" lon="-17.879775">
        <ele>2353.212</ele>
        <time>2019-06-11T12:38:12Z</time>
      </trkpt>
      <trkpt lat="28.759794" lon="-17.878957">
        <ele>2344.460</ele>
        <time>2019-06-11T12:40:43Z</time>
      </trkpt>
      <trkpt lat="28.759946" lon="-17.878713">
        <ele>2347.298</ele>
        <time>2019-06-11T12:41:18Z</time>
      </trkpt>
      <trkpt lat="28.760343" lon="-17.878674">
        <ele>2353.029</ele>
        <time>2019-06-11T12:42:02Z</time>
      </trkpt>
      <trkpt lat="28.760789" lon="-17.878315">
        <ele>2360.700</ele>
        <time>2019-06-11T12:42:51Z</time>
      </trkpt>
      <trkpt lat="28.760931" lon="-17.877805">
        <ele>2354.520</ele>
        <time>2019-06-11T12:44:16Z</time>
      </trkpt>
      <trkpt lat="28.761601" lon="-17.877602">
        <ele>2346.608</ele>
        <time>2019-06-11T12:46:16Z</time>
      </trkpt>
      <trkpt lat="28.762185" lon="-17.876629">
        <ele>2330.375</ele>
        <time>2019-06-11T12:48:38Z</time>
      </trkpt>
      <trkpt lat="28.762272" lon="-17.876244">
        <ele>2318.739</ele>
        <time>2019-06-11T12:49:54Z</time>
      </trkpt>
      <trkpt lat="28.762107" lon="-17.876162">
        <ele>2314.267</ele>
        <time>2019-06-11T12:50:25Z</time>
      </trkpt>
      <trkpt lat="28.762264" lon="-17.875887">
        <ele>2309.592</ele>
        <time>2019-06-11T12:51:12Z</time>
      </trkpt>
      <trkpt lat="28.761749" lon="-17.875144">
        <ele>2285.339</ele>
        <time>2019-06-11T12:53:56Z</time>
      </trkpt>
      <trkpt lat="28.761653" lon="-17.874390">
        <ele>2289.196</ele>
        <time>2019-06-11T12:56:17Z</time>
      </trkpt>
      <trkpt lat="28.761250" lon="-17.873720">
        <ele>2283.134</ele>
        <time>2019-06-11T12:57:56Z</time>
      </trkpt>
      <trkpt lat="28.761146" lon="-17.873419">
        <ele>2297.292</ele>
        <time>2019-06-11T12:58:46Z</time>
      </trkpt>
      <trkpt lat="28.761240" lon="-17.873342">
        <ele>2299.416</ele>
        <time>2019-06-11T12:59:34Z</time>
      </trkpt>
      <trkpt lat="28.760909" lon="-17.873037">
        <ele>2316.376</ele>
        <time>2019-06-11T13:01:04Z</time>
      </trkpt>
      <trkpt lat="28.760797" lon="-17.872719">
        <ele>2321.313</ele>
        <time>2019-06-11T13:02:18Z</time>
      </trkpt>
      <trkpt lat="28.760145" lon="-17.872422">
        <ele>2321.808</ele>
        <time>2019-06-11T13:04:13Z</time>
      </trkpt>
      <trkpt lat="28.760027" lon="-17.871716">
        <ele>2328.554</ele>
        <time>2019-06-11T13:07:22Z</time>
      </trkpt>
      <trkpt lat="28.760279" lon="-17.871467">
        <ele>2336.388</ele>
        <time>2019-06-11T13:08:17Z</time>
      </trkpt>
      <trkpt lat="28.760109" lon="-17.870791">
        <ele>2341.276</ele>
        <time>2019-06-11T13:10:10Z</time>
      </trkpt>
      <trkpt lat="28.759429" lon="-17.870365">
        <ele>2308.911</ele>
        <time>2019-06-11T13:12:42Z</time>
      </trkpt>
      <trkpt lat="28.760526" lon="-17.869049">
        <ele>2293.968</ele>
        <time>2019-06-11T13:17:52Z</time>
      </trkpt>
      <trkpt lat="28.760836" lon="-17.867937">
        <ele>2278.345</ele>
        <time>2019-06-11T13:19:45Z</time>
      </trkpt>
      <trkpt lat="28.761028" lon="-17.867816">
        <ele>2273.533</ele>
        <time>2019-06-11T13:20:12Z</time>
      </trkpt>
      <trkpt lat="28.761241" lon="-17.866684">
        <ele>2264.471</ele>
        <time>2019-06-11T13:26:21Z</time>
      </trkpt>
      <trkpt lat="28.761407" lon="-17.866471">
        <ele>2270.823</ele>
        <time>2019-06-11T13:27:21Z</time>
      </trkpt>
      <trkpt lat="28.761390" lon="-17.865876">
        <ele>2284.483</ele>
        <time>2019-06-11T13:28:43Z</time>
      </trkpt>
      <trkpt lat="28.761183" lon="-17.865620">
        <ele>2284.011</ele>
        <time>2019-06-11T13:29:57Z</time>
      </trkpt>
      <trkpt lat="28.761220" lon="-17.864562">
        <ele>2302.108</ele>
        <time>2019-06-11T13:32:20Z</time>
      </trkpt>
      <trkpt lat="28.760864" lon="-17.864209">
        <ele>2304.225</ele>
        <time>2019-06-11T13:33:15Z</time>
      </trkpt>
      <trkpt lat="28.760494" lon="-17.863418">
        <ele>2293.029</ele>
        <time>2019-06-11T13:34:51Z</time>
      </trkpt>
      <trkpt lat="28.760109" lon="-17.863204">
        <ele>2286.257</ele>
        <time>2019-06-11T13:35:41Z</time>
      </trkpt>
      <trkpt lat="28.759885" lon="-17.862830">
        <ele>2282.152</ele>
        <time>2019-06-11T13:36:32Z</time>
      </trkpt>
      <trkpt lat="28.760045" lon="-17.861800">
        <ele>2275.729</ele>
        <time>2019-06-11T13:38:07Z</time>
      </trkpt>
      <trkpt lat="28.759880" lon="-17.860838">
        <ele>2275.146</ele>
        <time>2019-06-11T13:41:01Z</time>
      </trkpt>
      <trkpt lat="28.759519" lon="-17.860284">
        <ele>2271.254</ele>
        <time>2019-06-11T13:42:11Z</time>
      </trkpt>
      <trkpt lat="28.759503" lon="-17.859612">
        <ele>2282.082</ele>
        <time>2019-06-11T13:43:14Z</time>
      </trkpt>
      <trkpt lat="28.759145" lon="-17.859692">
        <ele>2288.747</ele>
        <time>2019-06-11T13:44:06Z</time>
      </trkpt>
      <trkpt lat="28.758563" lon="-17.858817">
        <ele>2298.929</ele>
        <time>2019-06-11T13:46:12Z</time>
      </trkpt>
      <trkpt lat="28.758346" lon="-17.858164">
        <ele>2293.521</ele>
        <time>2019-06-11T13:47:08Z</time>
      </trkpt>
      <trkpt lat="28.757816" lon="-17.857735">
        <ele>2294.408</ele>
        <time>2019-06-11T13:48:02Z</time>
      </trkpt>
      <trkpt lat="28.757567" lon="-17.857082">
        <ele>2283.237</ele>
        <time>2019-06-11T13:49:09Z</time>
      </trkpt>
      <trkpt lat="28.756994" lon="-17.856448">
        <ele>2288.581</ele>
        <time>2019-06-11T13:50:29Z</time>
      </trkpt>
      <trkpt lat="28.756985" lon="-17.856112">
        <ele>2293.449</ele>
        <time>2019-06-11T13:51:00Z</time>
      </trkpt>
      <trkpt lat="28.756504" lon="-17.855797">
        <ele>2290.634</ele>
        <time>2019-06-11T13:52:48Z</time>
      </trkpt>
      <trkpt lat="28.756141" lon="-17.854874">
        <ele>2303.461</ele>
        <time>2019-06-11T13:54:29Z</time>
      </trkpt>
      <trkpt lat="28.754932" lon="-17.853881">
        <ele>2339.298</ele>
        <time>2019-06-11T13:57:04Z</time>
      </trkpt>
      <trkpt lat="28.754778" lon="-17.853425">
        <ele>2337.356</ele>
        <time>2019-06-11T13:57:52Z</time>
      </trkpt>
      <trkpt lat="28.754464" lon="-17.853643">
        <ele>2342.374</ele>
        <time>2019-06-11T13:58:54Z</time>
      </trkpt>
      <trkpt lat="28.754162" lon="-17.853492">
        <ele>2343.983</ele>
        <time>2019-06-11T14:00:39Z</time>
      </trkpt>
      <trkpt lat="28.754298" lon="-17.853025">
        <ele>2336.525</ele>
        <time>2019-06-11T14:06:30Z</time>
      </trkpt>
      <trkpt lat="28.754186" lon="-17.853041">
        <ele>2337.517</ele>
        <time>2019-06-11T14:06:56Z</time>
      </trkpt>
      <trkpt lat="28.754149" lon="-17.852852">
        <ele>2331.208</ele>
        <time>2019-06-11T14:07:24Z</time>
      </trkpt>
      <trkpt lat="28.754016" lon="-17.852893">
        <ele>2330.611</ele>
        <time>2019-06-11T14:07:38Z</time>
      </trkpt>
      <trkpt lat="28.754073" lon="-17.852631">
        <ele>2323.885</ele>
        <time>2019-06-11T14:08:05Z</time>
      </trkpt>
      <trkpt lat="28.753838" lon="-17.852631">
        <ele>2320.183</ele>
        <time>2019-06-11T14:08:26Z</time>
      </trkpt>
      <trkpt lat="28.753828" lon="-17.852356">
        <ele>2315.458</ele>
        <time>2019-06-11T14:08:53Z</time>
      </trkpt>
      <trkpt lat="28.753614" lon="-17.852028">
        <ele>2312.275</ele>
        <time>2019-06-11T14:09:19Z</time>
      </trkpt>
      <trkpt lat="28.753264" lon="-17.851854">
        <ele>2304.762</ele>
        <time>2019-06-11T14:10:01Z</time>
      </trkpt>
      <trkpt lat="28.752293" lon="-17.850927">
        <ele>2296.540</ele>
        <time>2019-06-11T14:12:55Z</time>
      </trkpt>
      <trkpt lat="28.751522" lon="-17.849872">
        <ele>2307.848</ele>
        <time>2019-06-11T14:14:53Z</time>
      </trkpt>
      <trkpt lat="28.750705" lon="-17.849900">
        <ele>2308.425</ele>
        <time>2019-06-11T14:16:23Z</time>
      </trkpt>
      <trkpt lat="28.750179" lon="-17.849487">
        <ele>2303.326</ele>
        <time>2019-06-11T14:17:16Z</time>
      </trkpt>
      <trkpt lat="28.749687" lon="-17.846912">
        <ele>2290.908</ele>
        <time>2019-06-11T14:20:46Z</time>
      </trkpt>
      <trkpt lat="28.749610" lon="-17.845306">
        <ele>2295.108</ele>
        <time>2019-06-11T14:24:57Z</time>
      </trkpt>
      <trkpt lat="28.748985" lon="-17.844019">
        <ele>2282.175</ele>
        <time>2019-06-11T14:27:32Z</time>
      </trkpt>
      <trkpt lat="28.748874" lon="-17.843490">
        <ele>2276.259</ele>
        <time>2019-06-11T14:28:37Z</time>
      </trkpt>
      <trkpt lat="28.748502" lon="-17.843113">
        <ele>2267.767</ele>
        <time>2019-06-11T14:29:24Z</time>
      </trkpt>
      <trkpt lat="28.748416" lon="-17.841823">
        <ele>2262.122</ele>
        <time>2019-06-11T14:31:07Z</time>
      </trkpt>
      <trkpt lat="28.748198" lon="-17.841363">
        <ele>2260.059</ele>
        <time>2019-06-11T14:31:50Z</time>
      </trkpt>
      <trkpt lat="28.748004" lon="-17.841142">
        <ele>2257.076</ele>
        <time>2019-06-11T14:32:25Z</time>
      </trkpt>
      <trkpt lat="28.747203" lon="-17.840811">
        <ele>2247.674</ele>
        <time>2019-06-11T14:33:49Z</time>
      </trkpt>
      <trkpt lat="28.747023" lon="-17.840505">
        <ele>2246.732</ele>
        <time>2019-06-11T14:34:30Z</time>
      </trkpt>
      <trkpt lat="28.746970" lon="-17.839339">
        <ele>2269.642</ele>
        <time>2019-06-11T14:36:20Z</time>
      </trkpt>
      <trkpt lat="28.746829" lon="-17.838910">
        <ele>2273.822</ele>
        <time>2019-06-11T14:37:02Z</time>
      </trkpt>
      <trkpt lat="28.746475" lon="-17.838578">
        <ele>2274.214</ele>
        <time>2019-06-11T14:38:07Z</time>
      </trkpt>
      <trkpt lat="28.745773" lon="-17.838486">
        <ele>2267.708</ele>
        <time>2019-06-11T14:39:10Z</time>
      </trkpt>
      <trkpt lat="28.744541" lon="-17.838012">
        <ele>2297.447</ele>
        <time>2019-06-11T14:41:40Z</time>
      </trkpt>
      <trkpt lat="28.744187" lon="-17.837791">
        <ele>2302.621</ele>
        <time>2019-06-11T14:42:15Z</time>
      </trkpt>
      <trkpt lat="28.743424" lon="-17.836926">
        <ele>2299.029</ele>
        <time>2019-06-11T14:43:59Z</time>
      </trkpt>
      <trkpt lat="28.742726" lon="-17.836696">
        <ele>2282.164</ele>
        <time>2019-06-11T14:47:25Z</time>
      </trkpt>
      <trkpt lat="28.742769" lon="-17.836522">
        <ele>2278.731</ele>
        <time>2019-06-11T14:48:01Z</time>
      </trkpt>
      <trkpt lat="28.742566" lon="-17.836633">
        <ele>2277.288</ele>
        <time>2019-06-11T14:48:42Z</time>
      </trkpt>
      <trkpt lat="28.742630" lon="-17.836426">
        <ele>2275.126</ele>
        <time>2019-06-11T14:49:18Z</time>
      </trkpt>
      <trkpt lat="28.742483" lon="-17.836422">
        <ele>2273.364</ele>
        <time>2019-06-11T14:49:41Z</time>
      </trkpt>
      <trkpt lat="28.742463" lon="-17.836259">
        <ele>2268.988</ele>
        <time>2019-06-11T14:50:05Z</time>
      </trkpt>
      <trkpt lat="28.742648" lon="-17.836200">
        <ele>2268.724</ele>
        <time>2019-06-11T14:50:37Z</time>
      </trkpt>
      <trkpt lat="28.742191" lon="-17.835896">
        <ele>2261.226</ele>
        <time>2019-06-11T14:51:38Z</time>
      </trkpt>
      <trkpt lat="28.741932" lon="-17.835219">
        <ele>2250.208</ele>
        <time>2019-06-11T14:52:54Z</time>
      </trkpt>
      <trkpt lat="28.741723" lon="-17.835170">
        <ele>2247.461</ele>
        <time>2019-06-11T14:53:08Z</time>
      </trkpt>
      <trkpt lat="28.741958" lon="-17.834982">
        <ele>2243.165</ele>
        <time>2019-06-11T14:53:35Z</time>
      </trkpt>
      <trkpt lat="28.741894" lon="-17.834791">
        <ele>2238.073</ele>
        <time>2019-06-11T14:54:08Z</time>
      </trkpt>
      <trkpt lat="28.741316" lon="-17.834999">
        <ele>2230.818</ele>
        <time>2019-06-11T14:55:03Z</time>
      </trkpt>
      <trkpt lat="28.741097" lon="-17.835225">
        <ele>2222.695</ele>
        <time>2019-06-11T14:55:25Z</time>
      </trkpt>
      <trkpt lat="28.740932" lon="-17.835132">
        <ele>2215.922</ele>
        <time>2019-06-11T14:56:11Z</time>
      </trkpt>
      <trkpt lat="28.740196" lon="-17.835582">
        <ele>2210.170</ele>
        <time>2019-06-11T14:58:08Z</time>
      </trkpt>
      <trkpt lat="28.739212" lon="-17.835399">
        <ele>2214.778</ele>
        <time>2019-06-11T15:00:26Z</time>
      </trkpt>
      <trkpt lat="28.738056" lon="-17.834379">
        <ele>2221.658</ele>
        <time>2019-06-11T15:03:26Z</time>
      </trkpt>
      <trkpt lat="28.737633" lon="-17.834830">
        <ele>2228.652</ele>
        <time>2019-06-11T15:04:37Z</time>
      </trkpt>
      <trkpt lat="28.736316" lon="-17.835079">
        <ele>2209.617</ele>
        <time>2019-06-11T15:11:01Z</time>
      </trkpt>
      <trkpt lat="28.736053" lon="-17.835364">
        <ele>2200.308</ele>
        <time>2019-06-11T15:12:45Z</time>
      </trkpt>
      <trkpt lat="28.735950" lon="-17.835152">
        <ele>2195.888</ele>
        <time>2019-06-11T15:13:15Z</time>
      </trkpt>
      <trkpt lat="28.735632" lon="-17.835432">
        <ele>2187.592</ele>
        <time>2019-06-11T15:13:50Z</time>
      </trkpt>
      <trkpt lat="28.734565" lon="-17.835627">
        <ele>2188.650</ele>
        <time>2019-06-11T15:16:12Z</time>
      </trkpt>
      <trkpt lat="28.733612" lon="-17.835282">
        <ele>2208.975</ele>
        <time>2019-06-11T15:18:03Z</time>
      </trkpt>
      <trkpt lat="28.732949" lon="-17.834717">
        <ele>2212.542</ele>
        <time>2019-06-11T15:19:25Z</time>
      </trkpt>
      <trkpt lat="28.732533" lon="-17.834556">
        <ele>2213.149</ele>
        <time>2019-06-11T15:20:08Z</time>
      </trkpt>
      <trkpt lat="28.730832" lon="-17.835640">
        <ele>2212.617</ele>
        <time>2019-06-11T15:22:56Z</time>
      </trkpt>
      <trkpt lat="28.730372" lon="-17.835215">
        <ele>2212.665</ele>
        <time>2019-06-11T15:23:51Z</time>
      </trkpt>
      <trkpt lat="28.729693" lon="-17.834866">
        <ele>2218.377</ele>
        <time>2019-06-11T15:25:16Z</time>
      </trkpt>
      <trkpt lat="28.729678" lon="-17.835465">
        <ele>2223.761</ele>
        <time>2019-06-11T15:26:56Z</time>
      </trkpt>
      <trkpt lat="28.729669" lon="-17.834843">
        <ele>2217.727</ele>
        <time>2019-06-11T15:30:03Z</time>
      </trkpt>
      <trkpt lat="28.729355" lon="-17.834540">
        <ele>2207.808</ele>
        <time>2019-06-11T15:30:45Z</time>
      </trkpt>
      <trkpt lat="28.729094" lon="-17.834773">
        <ele>2208.930</ele>
        <time>2019-06-11T15:31:35Z</time>
      </trkpt>
      <trkpt lat="28.728826" lon="-17.835576">
        <ele>2200.434</ele>
        <time>2019-06-11T15:32:51Z</time>
      </trkpt>
      <trkpt lat="28.728690" lon="-17.835538">
        <ele>2193.732</ele>
        <time>2019-06-11T15:33:51Z</time>
      </trkpt>
      <trkpt lat="28.728628" lon="-17.835687">
        <ele>2185.117</ele>
        <time>2019-06-11T15:34:09Z</time>
      </trkpt>
      <trkpt lat="28.728499" lon="-17.835313">
        <ele>2183.254</ele>
        <time>2019-06-11T15:35:35Z</time>
      </trkpt>
      <trkpt lat="28.728415" lon="-17.835438">
        <ele>2177.761</ele>
        <time>2019-06-11T15:36:01Z</time>
      </trkpt>
      <trkpt lat="28.727894" lon="-17.835557">
        <ele>2158.559</ele>
        <time>2019-06-11T16:03:04Z</time>
      </trkpt>
      <trkpt lat="28.726895" lon="-17.835210">
        <ele>2142.267</ele>
        <time>2019-06-11T16:07:04Z</time>
      </trkpt>
      <trkpt lat="28.726726" lon="-17.835347">
        <ele>2141.188</ele>
        <time>2019-06-11T16:07:29Z</time>
      </trkpt>
      <trkpt lat="28.726657" lon="-17.834906">
        <ele>2128.324</ele>
        <time>2019-06-11T16:08:49Z</time>
      </trkpt>
      <trkpt lat="28.726486" lon="-17.835275">
        <ele>2131.126</ele>
        <time>2019-06-11T16:10:43Z</time>
      </trkpt>
      <trkpt lat="28.725895" lon="-17.835744">
        <ele>2108.108</ele>
        <time>2019-06-11T16:11:49Z</time>
      </trkpt>
      <trkpt lat="28.725809" lon="-17.836386">
        <ele>2110.131</ele>
        <time>2019-06-11T16:12:43Z</time>
      </trkpt>
      <trkpt lat="28.724901" lon="-17.837601">
        <ele>2085.575</ele>
        <time>2019-06-11T16:15:43Z</time>
      </trkpt>
      <trkpt lat="28.724223" lon="-17.837919">
        <ele>2110.243</ele>
        <time>2019-06-11T16:17:04Z</time>
      </trkpt>
      <trkpt lat="28.723298" lon="-17.837939">
        <ele>2101.988</ele>
        <time>2019-06-11T16:18:36Z</time>
      </trkpt>
      <trkpt lat="28.723204" lon="-17.838106">
        <ele>2101.265</ele>
        <time>2019-06-11T16:19:08Z</time>
      </trkpt>
      <trkpt lat="28.722967" lon="-17.838170">
        <ele>2101.222</ele>
        <time>2019-06-11T16:19:35Z</time>
      </trkpt>
      <trkpt lat="28.720887" lon="-17.837567">
        <ele>2109.010</ele>
        <time>2019-06-11T16:25:55Z</time>
      </trkpt>
      <trkpt lat="28.720225" lon="-17.837617">
        <ele>2101.998</ele>
        <time>2019-06-11T16:26:55Z</time>
      </trkpt>
      <trkpt lat="28.719425" lon="-17.837256">
        <ele>2106.266</ele>
        <time>2019-06-11T16:28:08Z</time>
      </trkpt>
      <trkpt lat="28.719213" lon="-17.837130">
        <ele>2110.329</ele>
        <time>2019-06-11T16:28:29Z</time>
      </trkpt>
      <trkpt lat="28.718657" lon="-17.836188">
        <ele>2098.221</ele>
        <time>2019-06-11T16:30:02Z</time>
      </trkpt>
      <trkpt lat="28.718260" lon="-17.835977">
        <ele>2081.108</ele>
        <time>2019-06-11T16:30:52Z</time>
      </trkpt>
      <trkpt lat="28.717788" lon="-17.836294">
        <ele>2072.149</ele>
        <time>2019-06-11T16:31:44Z</time>
      </trkpt>
      <trkpt lat="28.717733" lon="-17.837080">
        <ele>2079.183</ele>
        <time>2019-06-11T16:32:49Z</time>
      </trkpt>
      <trkpt lat="28.717404" lon="-17.837650">
        <ele>2056.761</ele>
        <time>2019-06-11T16:33:44Z</time>
      </trkpt>
      <trkpt lat="28.717040" lon="-17.837680">
        <ele>2047.996</ele>
        <time>2019-06-11T16:34:50Z</time>
      </trkpt>
      <trkpt lat="28.716551" lon="-17.838172">
        <ele>2043.793</ele>
        <time>2019-06-11T16:37:07Z</time>
      </trkpt>
      <trkpt lat="28.716190" lon="-17.838342">
        <ele>2044.460</ele>
        <time>2019-06-11T16:37:41Z</time>
      </trkpt>
      <trkpt lat="28.715771" lon="-17.838260">
        <ele>2034.298</ele>
        <time>2019-06-11T16:38:21Z</time>
      </trkpt>
      <trkpt lat="28.716239" lon="-17.838951">
        <ele>2030.166</ele>
        <time>2019-06-11T16:39:58Z</time>
      </trkpt>
      <trkpt lat="28.715971" lon="-17.838763">
        <ele>2025.967</ele>
        <time>2019-06-11T16:40:57Z</time>
      </trkpt>
      <trkpt lat="28.715993" lon="-17.838937">
        <ele>2018.681</ele>
        <time>2019-06-11T16:41:19Z</time>
      </trkpt>
      <trkpt lat="28.715804" lon="-17.838834">
        <ele>2013.519</ele>
        <time>2019-06-11T16:41:48Z</time>
      </trkpt>
      <trkpt lat="28.715937" lon="-17.839136">
        <ele>2004.408</ele>
        <time>2019-06-11T16:42:27Z</time>
      </trkpt>
      <trkpt lat="28.715953" lon="-17.840152">
        <ele>1982.389</ele>
        <time>2019-06-11T16:44:14Z</time>
      </trkpt>
      <trkpt lat="28.715872" lon="-17.840072">
        <ele>1981.843</ele>
        <time>2019-06-11T16:44:31Z</time>
      </trkpt>
      <trkpt lat="28.715700" lon="-17.840609">
        <ele>1961.581</ele>
        <time>2019-06-11T16:45:38Z</time>
      </trkpt>
      <trkpt lat="28.715135" lon="-17.841137">
        <ele>1937.656</ele>
        <time>2019-06-11T16:48:25Z</time>
      </trkpt>
      <trkpt lat="28.715073" lon="-17.841339">
        <ele>1931.313</ele>
        <time>2019-06-11T16:48:46Z</time>
      </trkpt>
      <trkpt lat="28.715018" lon="-17.841141">
        <ele>1933.380</ele>
        <time>2019-06-11T16:49:14Z</time>
      </trkpt>
      <trkpt lat="28.714721" lon="-17.841474">
        <ele>1924.738</ele>
        <time>2019-06-11T16:50:08Z</time>
      </trkpt>
      <trkpt lat="28.714184" lon="-17.842509">
        <ele>1921.016</ele>
        <time>2019-06-11T16:52:19Z</time>
      </trkpt>
      <trkpt lat="28.713842" lon="-17.842746">
        <ele>1921.552</ele>
        <time>2019-06-11T16:53:05Z</time>
      </trkpt>
      <trkpt lat="28.713314" lon="-17.842819">
        <ele>1914.253</ele>
        <time>2019-06-11T17:00:25Z</time>
      </trkpt>
      <trkpt lat="28.712913" lon="-17.843280">
        <ele>1919.308</ele>
        <time>2019-06-11T17:01:00Z</time>
      </trkpt>
      <trkpt lat="28.711906" lon="-17.842895">
        <ele>1902.408</ele>
        <time>2019-06-11T17:02:28Z</time>
      </trkpt>
      <trkpt lat="28.711771" lon="-17.842950">
        <ele>1905.848</ele>
        <time>2019-06-11T17:02:42Z</time>
      </trkpt>
      <trkpt lat="28.711253" lon="-17.843247">
        <ele>1915.862</ele>
        <time>2019-06-11T17:03:36Z</time>
      </trkpt>
      <trkpt lat="28.710656" lon="-17.844099">
        <ele>1905.680</ele>
        <time>2019-06-11T17:05:26Z</time>
      </trkpt>
      <trkpt lat="28.710260" lon="-17.844267">
        <ele>1913.795</ele>
        <time>2019-06-11T17:06:43Z</time>
      </trkpt>
      <trkpt lat="28.709613" lon="-17.844107">
        <ele>1945.752</ele>
        <time>2019-06-11T17:08:05Z</time>
      </trkpt>
      <trkpt lat="28.709417" lon="-17.843590">
        <ele>1943.859</ele>
        <time>2019-06-11T17:09:05Z</time>
      </trkpt>
      <trkpt lat="28.709179" lon="-17.843868">
        <ele>1966.247</ele>
        <time>2019-06-11T17:09:56Z</time>
      </trkpt>
      <trkpt lat="28.709385" lon="-17.843746">
        <ele>1949.275</ele>
        <time>2019-06-11T17:10:30Z</time>
      </trkpt>
      <trkpt lat="28.709366" lon="-17.843954">
        <ele>1955.612</ele>
        <time>2019-06-11T17:10:58Z</time>
      </trkpt>
      <trkpt lat="28.709034" lon="-17.843986">
        <ele>1971.832</ele>
        <time>2019-06-11T17:11:42Z</time>
      </trkpt>
      <trkpt lat="28.709237" lon="-17.844092">
        <ele>1964.105</ele>
        <time>2019-06-11T17:12:17Z</time>
      </trkpt>
      <trkpt lat="28.708954" lon="-17.844165">
        <ele>1974.708</ele>
        <time>2019-06-11T17:13:10Z</time>
      </trkpt>
      <trkpt lat="28.708657" lon="-17.843979">
        <ele>1987.194</ele>
        <time>2019-06-11T17:13:50Z</time>
      </trkpt>
      <trkpt lat="28.708687" lon="-17.843724">
        <ele>1977.058</ele>
        <time>2019-06-11T17:14:21Z</time>
      </trkpt>
      <trkpt lat="28.708292" lon="-17.843490">
        <ele>1969.576</ele>
        <time>2019-06-11T17:15:10Z</time>
      </trkpt>
      <trkpt lat="28.707840" lon="-17.844116">
        <ele>2001.211</ele>
        <time>2019-06-11T17:16:54Z</time>
      </trkpt>
      <trkpt lat="28.707361" lon="-17.844457">
        <ele>2012.528</ele>
        <time>2019-06-11T17:18:06Z</time>
      </trkpt>
      <trkpt lat="28.706920" lon="-17.844474">
        <ele>2023.695</ele>
        <time>2019-06-11T17:19:09Z</time>
      </trkpt>
      <trkpt lat="28.706383" lon="-17.844762">
        <ele>2035.163</ele>
        <time>2019-06-11T17:20:11Z</time>
      </trkpt>
      <trkpt lat="28.706086" lon="-17.844591">
        <ele>2035.061</ele>
        <time>2019-06-11T17:20:45Z</time>
      </trkpt>
      <trkpt lat="28.705689" lon="-17.844773">
        <ele>2049.392</ele>
        <time>2019-06-11T17:21:51Z</time>
      </trkpt>
      <trkpt lat="28.705390" lon="-17.844692">
        <ele>2045.773</ele>
        <time>2019-06-11T17:22:39Z</time>
      </trkpt>
      <trkpt lat="28.704728" lon="-17.845340">
        <ele>2047.220</ele>
        <time>2019-06-11T17:27:53Z</time>
      </trkpt>
      <trkpt lat="28.704262" lon="-17.845457">
        <ele>2051.908</ele>
        <time>2019-06-11T17:29:01Z</time>
      </trkpt>
      <trkpt lat="28.704023" lon="-17.846234">
        <ele>2037.182</ele>
        <time>2019-06-11T17:30:54Z</time>
      </trkpt>
      <trkpt lat="28.703750" lon="-17.846262">
        <ele>2027.686</ele>
        <time>2019-06-11T17:32:57Z</time>
      </trkpt>
      <trkpt lat="28.703605" lon="-17.845900">
        <ele>2033.864</ele>
        <time>2019-06-11T17:33:45Z</time>
      </trkpt>
      <trkpt lat="28.703462" lon="-17.846024">
        <ele>2020.479</ele>
        <time>2019-06-11T17:34:49Z</time>
      </trkpt>
      <trkpt lat="28.703444" lon="-17.845793">
        <ele>2020.846</ele>
        <time>2019-06-11T17:35:12Z</time>
      </trkpt>
      <trkpt lat="28.703343" lon="-17.845925">
        <ele>2011.833</ele>
        <time>2019-06-11T17:35:42Z</time>
      </trkpt>
      <trkpt lat="28.703328" lon="-17.844561">
        <ele>2005.131</ele>
        <time>2019-06-11T17:39:01Z</time>
      </trkpt>
      <trkpt lat="28.702834" lon="-17.843413">
        <ele>1988.889</ele>
        <time>2019-06-11T17:41:12Z</time>
      </trkpt>
      <trkpt lat="28.702661" lon="-17.843222">
        <ele>1989.986</ele>
        <time>2019-06-11T17:41:58Z</time>
      </trkpt>
      <trkpt lat="28.702189" lon="-17.843064">
        <ele>2001.960</ele>
        <time>2019-06-11T17:42:43Z</time>
      </trkpt>
      <trkpt lat="28.702040" lon="-17.843028">
        <ele>2004.026</ele>
        <time>2019-06-11T17:42:55Z</time>
      </trkpt>
      <trkpt lat="28.701956" lon="-17.843157">
        <ele>1994.908</ele>
        <time>2019-06-11T17:43:08Z</time>
      </trkpt>
      <trkpt lat="28.701475" lon="-17.843079">
        <ele>1993.721</ele>
        <time>2019-06-11T17:44:06Z</time>
      </trkpt>
      <trkpt lat="28.700232" lon="-17.841616">
        <ele>2005.095</ele>
        <time>2019-06-11T17:47:25Z</time>
      </trkpt>
      <trkpt lat="28.700056" lon="-17.841658">
        <ele>2000.073</ele>
        <time>2019-06-11T17:47:49Z</time>
      </trkpt>
      <trkpt lat="28.699250" lon="-17.841219">
        <ele>2011.428</ele>
        <time>2019-06-11T17:49:29Z</time>
      </trkpt>
      <trkpt lat="28.699115" lon="-17.840930">
        <ele>2019.245</ele>
        <time>2019-06-11T17:50:08Z</time>
      </trkpt>
      <trkpt lat="28.698944" lon="-17.840867">
        <ele>2019.692</ele>
        <time>2019-06-11T17:50:30Z</time>
      </trkpt>
      <trkpt lat="28.699074" lon="-17.840729">
        <ele>2020.280</ele>
        <time>2019-06-11T17:51:06Z</time>
      </trkpt>
      <trkpt lat="28.698604" lon="-17.840355">
        <ele>2026.988</ele>
        <time>2019-06-11T17:52:06Z</time>
      </trkpt>
      <trkpt lat="28.698132" lon="-17.840243">
        <ele>2025.636</ele>
        <time>2019-06-11T17:53:08Z</time>
      </trkpt>
      <trkpt lat="28.697809" lon="-17.839387">
        <ele>2030.217</ele>
        <time>2019-06-11T17:58:11Z</time>
      </trkpt>
      <trkpt lat="28.697452" lon="-17.839178">
        <ele>2022.418</ele>
        <time>2019-06-11T17:59:17Z</time>
      </trkpt>
      <trkpt lat="28.697083" lon="-17.838600">
        <ele>2008.908</ele>
        <time>2019-06-11T18:00:25Z</time>
      </trkpt>
      <trkpt lat="28.697310" lon="-17.838290">
        <ele>2005.526</ele>
        <time>2019-06-11T18:01:15Z</time>
      </trkpt>
      <trkpt lat="28.696742" lon="-17.838261">
        <ele>1996.970</ele>
        <time>2019-06-11T18:02:01Z</time>
      </trkpt>
      <trkpt lat="28.696273" lon="-17.837760">
        <ele>1985.018</ele>
        <time>2019-06-11T18:02:58Z</time>
      </trkpt>
      <trkpt lat="28.696149" lon="-17.836931">
        <ele>1982.063</ele>
        <time>2019-06-11T18:03:59Z</time>
      </trkpt>
      <trkpt lat="28.696271" lon="-17.836956">
        <ele>1979.720</ele>
        <time>2019-06-11T18:04:07Z</time>
      </trkpt>
      <trkpt lat="28.695984" lon="-17.836793">
        <ele>1981.577</ele>
        <time>2019-06-11T18:04:37Z</time>
      </trkpt>
      <trkpt lat="28.695838" lon="-17.836369">
        <ele>1973.445</ele>
        <time>2019-06-11T18:04:57Z</time>
      </trkpt>
      <trkpt lat="28.695687" lon="-17.836272">
        <ele>1969.813</ele>
        <time>2019-06-11T18:05:06Z</time>
      </trkpt>
      <trkpt lat="28.695336" lon="-17.836570">
        <ele>1969.568</ele>
        <time>2019-06-11T18:06:00Z</time>
      </trkpt>
      <trkpt lat="28.694926" lon="-17.836352">
        <ele>1957.242</ele>
        <time>2019-06-11T18:06:40Z</time>
      </trkpt>
      <trkpt lat="28.694629" lon="-17.836372">
        <ele>1950.626</ele>
        <time>2019-06-11T18:06:53Z</time>
      </trkpt>
      <trkpt lat="28.694480" lon="-17.836222">
        <ele>1947.608</ele>
        <time>2019-06-11T18:07:08Z</time>
      </trkpt>
      <trkpt lat="28.694547" lon="-17.836417">
        <ele>1946.999</ele>
        <time>2019-06-11T18:07:34Z</time>
      </trkpt>
      <trkpt lat="28.693802" lon="-17.835856">
        <ele>1949.933</ele>
        <time>2019-06-11T18:09:39Z</time>
      </trkpt>
      <trkpt lat="28.692010" lon="-17.835814">
        <ele>1932.961</ele>
        <time>2019-06-11T18:12:27Z</time>
      </trkpt>
      <trkpt lat="28.692232" lon="-17.835615">
        <ele>1934.666</ele>
        <time>2019-06-11T18:12:59Z</time>
      </trkpt>
      <trkpt lat="28.691780" lon="-17.835272">
        <ele>1921.173</ele>
        <time>2019-06-11T18:13:53Z</time>
      </trkpt>
      <trkpt lat="28.691540" lon="-17.834670">
        <ele>1908.580</ele>
        <time>2019-06-11T18:14:46Z</time>
      </trkpt>
      <trkpt lat="28.691395" lon="-17.834504">
        <ele>1902.548</ele>
        <time>2019-06-11T18:15:42Z</time>
      </trkpt>
      <trkpt lat="28.691133" lon="-17.834587">
        <ele>1894.926</ele>
        <time>2019-06-11T18:16:59Z</time>
      </trkpt>
      <trkpt lat="28.690353" lon="-17.833767">
        <ele>1887.039</ele>
        <time>2019-06-11T18:18:36Z</time>
      </trkpt>
      <trkpt lat="28.689389" lon="-17.833684">
        <ele>1882.801</ele>
        <time>2019-06-11T18:20:17Z</time>
      </trkpt>
      <trkpt lat="28.688736" lon="-17.833384">
        <ele>1866.921</ele>
        <time>2019-06-11T18:21:27Z</time>
      </trkpt>
      <trkpt lat="28.687924" lon="-17.833601">
        <ele>1858.308</ele>
        <time>2019-06-11T18:22:55Z</time>
      </trkpt>
      <trkpt lat="28.686267" lon="-17.832881">
        <ele>1855.186</ele>
        <time>2019-06-11T18:25:42Z</time>
      </trkpt>
      <trkpt lat="28.685928" lon="-17.832577">
        <ele>1851.090</ele>
        <time>2019-06-11T18:26:19Z</time>
      </trkpt>
      <trkpt lat="28.685314" lon="-17.832380">
        <ele>1843.958</ele>
        <time>2019-06-11T18:27:12Z</time>
      </trkpt>
      <trkpt lat="28.684155" lon="-17.831618">
        <ele>1820.043</ele>
        <time>2019-06-11T18:30:31Z</time>
      </trkpt>
      <trkpt lat="28.683892" lon="-17.830769">
        <ele>1805.420</ele>
        <time>2019-06-11T18:33:07Z</time>
      </trkpt>
      <trkpt lat="28.683008" lon="-17.829977">
        <ele>1781.187</ele>
        <time>2019-06-11T18:35:01Z</time>
      </trkpt>
      <trkpt lat="28.681921" lon="-17.829641">
        <ele>1761.695</ele>
        <time>2019-06-11T18:36:49Z</time>
      </trkpt>
      <trkpt lat="28.681875" lon="-17.829444">
        <ele>1759.243</ele>
        <time>2019-06-11T18:37:22Z</time>
      </trkpt>
      <trkpt lat="28.681643" lon="-17.829334">
        <ele>1752.446</ele>
        <time>2019-06-11T18:37:48Z</time>
      </trkpt>
      <trkpt lat="28.681235" lon="-17.829752">
        <ele>1737.088</ele>
        <time>2019-06-11T18:38:50Z</time>
      </trkpt>
      <trkpt lat="28.679693" lon="-17.829678">
        <ele>1724.516</ele>
        <time>2019-06-11T18:47:18Z</time>
      </trkpt>
      <trkpt lat="28.679478" lon="-17.829571">
        <ele>1708.008</ele>
        <time>2019-06-11T18:47:32Z</time>
      </trkpt>
      <trkpt lat="28.679552" lon="-17.829665">
        <ele>1718.247</ele>
        <time>2019-06-11T18:47:46Z</time>
      </trkpt>
      <trkpt lat="28.679446" lon="-17.829787">
        <ele>1720.091</ele>
        <time>2019-06-11T18:48:08Z</time>
      </trkpt>
      <trkpt lat="28.678951" lon="-17.829876">
        <ele>1703.399</ele>
        <time>2019-06-11T18:48:37Z</time>
      </trkpt>
      <trkpt lat="28.678746" lon="-17.829775">
        <ele>1694.214</ele>
        <time>2019-06-11T18:49:31Z</time>
      </trkpt>
      <trkpt lat="28.678204" lon="-17.830333">
        <ele>1684.631</ele>
        <time>2019-06-11T18:50:39Z</time>
      </trkpt>
      <trkpt lat="28.677977" lon="-17.830041">
        <ele>1679.748</ele>
        <time>2019-06-11T18:51:31Z</time>
      </trkpt>
      <trkpt lat="28.678140" lon="-17.829936">
        <ele>1683.716</ele>
        <time>2019-06-11T18:51:32Z</time>
      </trkpt>
      <trkpt lat="28.678076" lon="-17.830126">
        <ele>1682.564</ele>
        <time>2019-06-11T18:51:40Z</time>
      </trkpt>
      <trkpt lat="28.677489" lon="-17.829860">
        <ele>1665.311</ele>
        <time>2019-06-11T18:53:03Z</time>
      </trkpt>
      <trkpt lat="28.677165" lon="-17.830074">
        <ele>1646.521</ele>
        <time>2019-06-11T18:54:02Z</time>
      </trkpt>
      <trkpt lat="28.676898" lon="-17.829905">
        <ele>1632.903</ele>
        <time>2019-06-11T18:54:37Z</time>
      </trkpt>
      <trkpt lat="28.676195" lon="-17.829707">
        <ele>1615.608</ele>
        <time>2019-06-11T18:59:10Z</time>
      </trkpt>
      <trkpt lat="28.675725" lon="-17.829734">
        <ele>1598.794</ele>
        <time>2019-06-11T19:00:12Z</time>
      </trkpt>
      <trkpt lat="28.674827" lon="-17.829414">
        <ele>1588.028</ele>
        <time>2019-06-11T19:02:26Z</time>
      </trkpt>
      <trkpt lat="28.674166" lon="-17.828613">
        <ele>1579.016</ele>
        <time>2019-06-11T19:04:43Z</time>
      </trkpt>
      <trkpt lat="28.673669" lon="-17.828291">
        <ele>1558.791</ele>
        <time>2019-06-11T19:06:26Z</time>
      </trkpt>
      <trkpt lat="28.673759" lon="-17.828094">
        <ele>1554.458</ele>
        <time>2019-06-11T19:06:48Z</time>
      </trkpt>
      <trkpt lat="28.673672" lon="-17.828091">
        <ele>1553.425</ele>
        <time>2019-06-11T19:07:06Z</time>
      </trkpt>
      <trkpt lat="28.673901" lon="-17.827949">
        <ele>1549.383</ele>
        <time>2019-06-11T19:07:49Z</time>
      </trkpt>
      <trkpt lat="28.671788" lon="-17.827939">
        <ele>1521.891</ele>
        <time>2019-06-11T19:12:21Z</time>
      </trkpt>
      <trkpt lat="28.671859" lon="-17.827517">
        <ele>1514.586</ele>
        <time>2019-06-11T19:13:37Z</time>
      </trkpt>
      <trkpt lat="28.671997" lon="-17.827482">
        <ele>1513.860</ele>
        <time>2019-06-11T19:14:01Z</time>
      </trkpt>
      <trkpt lat="28.671599" lon="-17.827561">
        <ele>1515.126</ele>
        <time>2019-06-11T19:15:05Z</time>
      </trkpt>
      <trkpt lat="28.671719" lon="-17.827206">
        <ele>1498.008</ele>
        <time>2019-06-11T19:16:06Z</time>
      </trkpt>
      <trkpt lat="28.671272" lon="-17.826895">
        <ele>1473.071</ele>
        <time>2019-06-11T19:17:27Z</time>
      </trkpt>
      <trkpt lat="28.669849" lon="-17.827329">
        <ele>1446.375</ele>
        <time>2019-06-11T19:19:04Z</time>
      </trkpt>
      <trkpt lat="28.670026" lon="-17.827679">
        <ele>1461.113</ele>
        <time>2019-06-11T19:19:19Z</time>
      </trkpt>
      <trkpt lat="28.669847" lon="-17.827863">
        <ele>1457.538</ele>
        <time>2019-06-11T19:19:42Z</time>
      </trkpt>
      <trkpt lat="28.669741" lon="-17.827736">
        <ele>1456.175</ele>
        <time>2019-06-11T19:20:26Z</time>
      </trkpt>
      <trkpt lat="28.669780" lon="-17.828194">
        <ele>1447.262</ele>
        <time>2019-06-11T19:21:53Z</time>
      </trkpt>
      <trkpt lat="28.669640" lon="-17.828331">
        <ele>1437.190</ele>
        <time>2019-06-11T19:22:19Z</time>
      </trkpt>
      <trkpt lat="28.669357" lon="-17.827677">
        <ele>1444.388</ele>
        <time>2019-06-11T19:23:59Z</time>
      </trkpt>
      <trkpt lat="28.668663" lon="-17.827177">
        <ele>1417.243</ele>
        <time>2019-06-11T19:25:14Z</time>
      </trkpt>
      <trkpt lat="28.668060" lon="-17.827310">
        <ele>1419.664</ele>
        <time>2019-06-11T19:30:51Z</time>
      </trkpt>
      <trkpt lat="28.667469" lon="-17.826761">
        <ele>1413.410</ele>
        <time>2019-06-11T19:32:05Z</time>
      </trkpt>
      <trkpt lat="28.666175" lon="-17.826249">
        <ele>1419.808</ele>
        <time>2019-06-11T19:35:41Z</time>
      </trkpt>
      <trkpt lat="28.665530" lon="-17.826420">
        <ele>1420.697</ele>
        <time>2019-06-11T19:36:38Z</time>
      </trkpt>
      <trkpt lat="28.664716" lon="-17.826286">
        <ele>1424.721</ele>
        <time>2019-06-11T19:37:50Z</time>
      </trkpt>
      <trkpt lat="28.664285" lon="-17.826349">
        <ele>1424.029</ele>
        <time>2019-06-11T19:38:31Z</time>
      </trkpt>
      <trkpt lat="28.663512" lon="-17.826851">
        <ele>1419.334</ele>
        <time>2019-06-11T19:39:44Z</time>
      </trkpt>
      <trkpt lat="28.663140" lon="-17.826548">
        <ele>1414.431</ele>
        <time>2019-06-11T19:40:22Z</time>
      </trkpt>
      <trkpt lat="28.662065" lon="-17.826306">
        <ele>1403.048</ele>
        <time>2019-06-11T19:42:28Z</time>
      </trkpt>
      <trkpt lat="28.660923" lon="-17.826408">
        <ele>1422.096</ele>
        <time>2019-06-11T19:44:08Z</time>
      </trkpt>
      <trkpt lat="28.660219" lon="-17.825703">
        <ele>1401.314</ele>
        <time>2019-06-11T19:45:39Z</time>
      </trkpt>
      <trkpt lat="28.659622" lon="-17.825513">
        <ele>1399.498</ele>
        <time>2019-06-11T19:46:36Z</time>
      </trkpt>
      <trkpt lat="28.658571" lon="-17.825699">
        <ele>1400.515</ele>
        <time>2019-06-11T19:48:09Z</time>
      </trkpt>
      <trkpt lat="28.658158" lon="-17.825573">
        <ele>1402.526</ele>
        <time>2019-06-11T19:48:49Z</time>
      </trkpt>
      <trkpt lat="28.657596" lon="-17.825803">
        <ele>1396.808</ele>
        <time>2019-06-11T19:49:41Z</time>
      </trkpt>
      <trkpt lat="28.657082" lon="-17.825615">
        <ele>1389.292</ele>
        <time>2019-06-11T19:50:43Z</time>
      </trkpt>
      <trkpt lat="28.656388" lon="-17.825690">
        <ele>1381.056</ele>
        <time>2019-06-11T19:51:48Z</time>
      </trkpt>
      <trkpt lat="28.655867" lon="-17.825391">
        <ele>1371.744</ele>
        <time>2019-06-11T19:52:45Z</time>
      </trkpt>
      <trkpt lat="28.655404" lon="-17.825301">
        <ele>1372.349</ele>
        <time>2019-06-11T19:54:00Z</time>
      </trkpt>
      <trkpt lat="28.655084" lon="-17.825035">
        <ele>1369.456</ele>
        <time>2019-06-11T19:54:41Z</time>
      </trkpt>
      <trkpt lat="28.654199" lon="-17.825130">
        <ele>1363.673</ele>
        <time>2019-06-11T19:56:42Z</time>
      </trkpt>
      <trkpt lat="28.653756" lon="-17.824937">
        <ele>1372.921</ele>
        <time>2019-06-11T19:57:24Z</time>
      </trkpt>
      <trkpt lat="28.653151" lon="-17.825126">
        <ele>1364.479</ele>
        <time>2019-06-11T19:58:23Z</time>
      </trkpt>
      <trkpt lat="28.653030" lon="-17.825034">
        <ele>1365.686</ele>
        <time>2019-06-11T19:58:49Z</time>
      </trkpt>
      <trkpt lat="28.652532" lon="-17.825137">
        <ele>1363.960</ele>
        <time>2019-06-11T19:59:38Z</time>
      </trkpt>
      <trkpt lat="28.652038" lon="-17.825066">
        <ele>1377.826</ele>
        <time>2019-06-11T20:00:35Z</time>
      </trkpt>
      <trkpt lat="28.651875" lon="-17.825215">
        <ele>1385.008</ele>
        <time>2019-06-11T20:00:54Z</time>
      </trkpt>
      <trkpt lat="28.651122" lon="-17.825300">
        <ele>1388.961</ele>
        <time>2019-06-11T20:02:09Z</time>
      </trkpt>
      <trkpt lat="28.650021" lon="-17.825137">
        <ele>1394.915</ele>
        <time>2019-06-11T20:03:53Z</time>
      </trkpt>
      <trkpt lat="28.649634" lon="-17.825266">
        <ele>1397.583</ele>
        <time>2019-06-11T20:04:26Z</time>
      </trkpt>
      <trkpt lat="28.648734" lon="-17.825241">
        <ele>1413.848</ele>
        <time>2019-06-11T20:06:02Z</time>
      </trkpt>
      <trkpt lat="28.647788" lon="-17.825561">
        <ele>1423.085</ele>
        <time>2019-06-11T20:07:38Z</time>
      </trkpt>
      <trkpt lat="28.647101" lon="-17.825053">
        <ele>1411.292</ele>
        <time>2019-06-11T20:09:22Z</time>
      </trkpt>
      <trkpt lat="28.646017" lon="-17.825326">
        <ele>1403.840</ele>
        <time>2019-06-11T20:11:05Z</time>
      </trkpt>
      <trkpt lat="28.645639" lon="-17.825165">
        <ele>1400.928</ele>
        <time>2019-06-11T20:11:42Z</time>
      </trkpt>
      <trkpt lat="28.645595" lon="-17.825033">
        <ele>1405.284</ele>
        <time>2019-06-11T20:11:57Z</time>
      </trkpt>
      <trkpt lat="28.645112" lon="-17.824896">
        <ele>1401.807</ele>
        <time>2019-06-11T20:12:42Z</time>
      </trkpt>
      <trkpt lat="28.644672" lon="-17.824984">
        <ele>1398.717</ele>
        <time>2019-06-11T20:13:19Z</time>
      </trkpt>
      <trkpt lat="28.644151" lon="-17.824854">
        <ele>1399.408</ele>
        <time>2019-06-11T20:13:59Z</time>
      </trkpt>
      <trkpt lat="28.642781" lon="-17.825277">
        <ele>1400.981</ele>
        <time>2019-06-11T20:15:58Z</time>
      </trkpt>
      <trkpt lat="28.641961" lon="-17.824589">
        <ele>1390.375</ele>
        <time>2019-06-11T20:17:30Z</time>
      </trkpt>
      <trkpt lat="28.641474" lon="-17.824576">
        <ele>1377.883</ele>
        <time>2019-06-11T20:18:11Z</time>
      </trkpt>
      <trkpt lat="28.641223" lon="-17.824435">
        <ele>1374.938</ele>
        <time>2019-06-11T20:18:36Z</time>
      </trkpt>
      <trkpt lat="28.639887" lon="-17.824741">
        <ele>1362.485</ele>
        <time>2019-06-11T20:20:44Z</time>
      </trkpt>
      <trkpt lat="28.639380" lon="-17.824672">
        <ele>1366.152</ele>
        <time>2019-06-11T20:21:30Z</time>
      </trkpt>
      <trkpt lat="28.638450" lon="-17.824970">
        <ele>1369.450</ele>
        <time>2019-06-11T20:25:21Z</time>
      </trkpt>
      <trkpt lat="28.637384" lon="-17.825650">
        <ele>1372.298</ele>
        <time>2019-06-11T20:27:00Z</time>
      </trkpt>
      <trkpt lat="28.636066" lon="-17.825647">
        <ele>1369.959</ele>
        <time>2019-06-11T20:28:54Z</time>
      </trkpt>
      <trkpt lat="28.634337" lon="-17.826226">
        <ele>1385.803</ele>
        <time>2019-06-11T20:31:32Z</time>
      </trkpt>
      <trkpt lat="28.633923" lon="-17.826186">
        <ele>1389.223</ele>
        <time>2019-06-11T20:32:08Z</time>
      </trkpt>
      <trkpt lat="28.633212" lon="-17.826532">
        <ele>1387.308</ele>
        <time>2019-06-11T20:33:09Z</time>
      </trkpt>
      <trkpt lat="28.631775" lon="-17.826590">
        <ele>1387.838</ele>
        <time>2019-06-11T20:35:04Z</time>
      </trkpt>
      <trkpt lat="28.631375" lon="-17.826425">
        <ele>1389.542</ele>
        <time>2019-06-11T20:35:41Z</time>
      </trkpt>
      <trkpt lat="28.630861" lon="-17.826655">
        <ele>1401.160</ele>
        <time>2019-06-11T20:36:24Z</time>
      </trkpt>
      <trkpt lat="28.630556" lon="-17.826533">
        <ele>1401.615</ele>
        <time>2019-06-11T20:36:51Z</time>
      </trkpt>
      <trkpt lat="28.630191" lon="-17.826728">
        <ele>1406.582</ele>
        <time>2019-06-11T20:37:21Z</time>
      </trkpt>
      <trkpt lat="28.629770" lon="-17.827382">
        <ele>1410.139</ele>
        <time>2019-06-11T20:38:13Z</time>
      </trkpt>
      <trkpt lat="28.628542" lon="-17.828610">
        <ele>1421.857</ele>
        <time>2019-06-11T20:40:36Z</time>
      </trkpt>
      <trkpt lat="28.628302" lon="-17.828734">
        <ele>1415.495</ele>
        <time>2019-06-11T20:40:58Z</time>
      </trkpt>
      <trkpt lat="28.628022" lon="-17.828640">
        <ele>1421.335</ele>
        <time>2019-06-11T20:41:22Z</time>
      </trkpt>
      <trkpt lat="28.627120" lon="-17.829015">
        <ele>1416.686</ele>
        <time>2019-06-11T20:42:40Z</time>
      </trkpt>
      <trkpt lat="28.626063" lon="-17.829712">
        <ele>1422.514</ele>
        <time>2019-06-11T20:44:26Z</time>
      </trkpt>
      <trkpt lat="28.625235" lon="-17.829807">
        <ele>1433.608</ele>
        <time>2019-06-11T20:46:21Z</time>
      </trkpt>
      <trkpt lat="28.624144" lon="-17.830583">
        <ele>1451.566</ele>
        <time>2019-06-11T20:48:33Z</time>
      </trkpt>
      <trkpt lat="28.624036" lon="-17.831053">
        <ele>1463.130</ele>
        <time>2019-06-11T20:49:05Z</time>
      </trkpt>
      <trkpt lat="28.623813" lon="-17.831104">
        <ele>1460.258</ele>
        <time>2019-06-11T20:49:27Z</time>
      </trkpt>
      <trkpt lat="28.623245" lon="-17.831697">
        <ele>1467.863</ele>
        <time>2019-06-11T20:50:35Z</time>
      </trkpt>
      <trkpt lat="28.622713" lon="-17.831788">
        <ele>1474.410</ele>
        <time>2019-06-11T20:51:30Z</time>
      </trkpt>
      <trkpt lat="28.622085" lon="-17.832183">
        <ele>1480.917</ele>
        <time>2019-06-11T20:52:33Z</time>
      </trkpt>
      <trkpt lat="28.620784" lon="-17.832118">
        <ele>1473.725</ele>
        <time>2019-06-11T20:54:22Z</time>
      </trkpt>
      <trkpt lat="28.620029" lon="-17.832238">
        <ele>1464.453</ele>
        <time>2019-06-11T20:55:30Z</time>
      </trkpt>
      <trkpt lat="28.619561" lon="-17.832480">
        <ele>1465.942</ele>
        <time>2019-06-11T20:56:09Z</time>
      </trkpt>
      <trkpt lat="28.619251" lon="-17.832494">
        <ele>1467.622</ele>
        <time>2019-06-11T20:56:39Z</time>
      </trkpt>
      <trkpt lat="28.618633" lon="-17.832956">
        <ele>1465.114</ele>
        <time>2019-06-11T20:58:27Z</time>
      </trkpt>
      <trkpt lat="28.616996" lon="-17.833033">
        <ele>1469.808</ele>
        <time>2019-06-11T21:00:50Z</time>
      </trkpt>
      <trkpt lat="28.616436" lon="-17.833299">
        <ele>1463.897</ele>
        <time>2019-06-11T21:01:38Z</time>
      </trkpt>
      <trkpt lat="28.615917" lon="-17.833893">
        <ele>1472.311</ele>
        <time>2019-06-11T21:02:33Z</time>
      </trkpt>
      <trkpt lat="28.615374" lon="-17.833823">
        <ele>1467.119</ele>
        <time>2019-06-11T21:03:19Z</time>
      </trkpt>
      <trkpt lat="28.614631" lon="-17.834197">
        <ele>1464.814</ele>
        <time>2019-06-11T21:04:26Z</time>
      </trkpt>
      <trkpt lat="28.614478" lon="-17.834689">
        <ele>1472.381</ele>
        <time>2019-06-11T21:05:02Z</time>
      </trkpt>
      <trkpt lat="28.614153" lon="-17.835079">
        <ele>1474.338</ele>
        <time>2019-06-11T21:05:32Z</time>
      </trkpt>
      <trkpt lat="28.614277" lon="-17.836175">
        <ele>1461.656</ele>
        <time>2019-06-11T21:06:49Z</time>
      </trkpt>
      <trkpt lat="28.614083" lon="-17.836510">
        <ele>1459.014</ele>
        <time>2019-06-11T21:07:17Z</time>
      </trkpt>
    </trkseg>
  </trk></gpx>