<?xml version="1.0" encoding="UTF-8"?>
<gpx version="1.1" creator="Aventuras en Cada Paso" xmlns="http://www.topografix.com/GPX/1/1">
  <metadata>
    <name>Riscos de Herques – Costa Sur</name>
    <desc>Ruta costera por los impresionantes Riscos de Herques en el sur de El Hierro. Acantilados de más de 200 m sobre el océano y flora endémica de El Hierro.</desc>
    <author><name>Aventuras en Cada Paso</name></author>
    <time>2026-07-08T08:12:58.206Z</time>
    <keywords>El Hierro, Senderismo, Media, senderismo Canarias</keywords>
  </metadata>
  <wpt lat="27.66" lon="-17.98">
    <name>Riscos de Herques – Costa Sur</name>
    <desc>Ruta costera por los impresionantes Riscos de Herques en el sur de El Hierro. Acantilados de más de 200 m sobre el océano y flora endémica de El Hierro. | Isla: El Hierro | Tipo: Senderismo | Dificultad: Media | Distancia: 11km | Duración: 4-8 horas</desc>
    <type>Senderismo</type>
    <extensions>
      <isla>El Hierro</isla>
      <dificultad>Media</dificultad>
      <distancia>11</distancia>
      <duracion>4-8 horas</duracion>
    </extensions>
  </wpt>
</gpx>