<?xml version="1.0" encoding="UTF-8"?>
<gpx version="1.1" creator="Aventuras en Cada Paso" xmlns="http://www.topografix.com/GPX/1/1">
  <metadata>
    <name>Risco del Paso – Parque Natural Jandía</name>
    <desc>Circular técnica no apta para vértigo por Atalayeja Grande, Morro del Rinconcillo y la Playa Barlovento. Ruinas guanchas y vistas al Atlántico sur.</desc>
    <author><name>Aventuras en Cada Paso</name></author>
    <time>2026-07-08T08:12:58.180Z</time>
    <keywords>Fuerteventura, Senderismo, Difícil, senderismo Canarias</keywords>
  </metadata>
  <wpt lat="28.1833" lon="-14.2667">
    <name>Risco del Paso – Parque Natural Jandía</name>
    <desc>Circular técnica no apta para vértigo por Atalayeja Grande, Morro del Rinconcillo y la Playa Barlovento. Ruinas guanchas y vistas al Atlántico sur. | Isla: Fuerteventura | Tipo: Senderismo | Dificultad: Difícil | Distancia: 13km | Duración: 4-8 horas</desc>
    <type>Senderismo</type>
    <extensions>
      <isla>Fuerteventura</isla>
      <dificultad>Difícil</dificultad>
      <distancia>13</distancia>
      <duracion>4-8 horas</duracion>
    </extensions>
  </wpt>
</gpx>