<?xml version="1.0" encoding="UTF-8"?>
<gpx version="1.1" creator="Aventuras en Cada Paso" xmlns="http://www.topografix.com/GPX/1/1">
  <metadata>
    <name>Roque Bentayga – Yacimiento Aborigen</name>
    <desc>Sendero hasta el lugar sagrado de los aborígenes canarios. Almogarenes, grabados rupestres y vistas al Roque Nublo y a la cuenca de Tejeda.</desc>
    <author><name>Aventuras en Cada Paso</name></author>
    <time>2026-07-08T08:12:58.163Z</time>
    <keywords>Gran Canaria, Senderismo, Fácil, senderismo Canarias</keywords>
  </metadata>
  <wpt lat="27.9872" lon="-15.6153">
    <name>Roque Bentayga – Yacimiento Aborigen</name>
    <desc>Sendero hasta el lugar sagrado de los aborígenes canarios. Almogarenes, grabados rupestres y vistas al Roque Nublo y a la cuenca de Tejeda. | Isla: Gran Canaria | Tipo: Senderismo | Dificultad: Fácil | Distancia: 4km | Duración: 2-4 horas</desc>
    <type>Senderismo</type>
    <extensions>
      <isla>Gran Canaria</isla>
      <dificultad>Fácil</dificultad>
      <distancia>4</distancia>
      <duracion>2-4 horas</duracion>
    </extensions>
  </wpt>
</gpx>