<?xml version="1.0" encoding="UTF-8"?>
<gpx version="1.1" creator="Aventuras en Cada Paso" xmlns="http://www.topografix.com/GPX/1/1">
  <metadata>
    <name>Roque Cano – Vallehermoso</name>
    <desc>Ascenso hasta la formación basáltica que domina Vallehermoso. Vistas al norte de La Gomera y al océano Atlántico desde el roque.</desc>
    <author><name>Aventuras en Cada Paso</name></author>
    <time>2026-07-08T08:12:58.196Z</time>
    <keywords>La Gomera, Senderismo, Media, senderismo Canarias</keywords>
  </metadata>
  <wpt lat="28.1878" lon="-17.2633">
    <name>Roque Cano – Vallehermoso</name>
    <desc>Ascenso hasta la formación basáltica que domina Vallehermoso. Vistas al norte de La Gomera y al océano Atlántico desde el roque. | Isla: La Gomera | Tipo: Senderismo | Dificultad: Media | Distancia: 7km | Duración: 2-4 horas</desc>
    <type>Senderismo</type>
    <extensions>
      <isla>La Gomera</isla>
      <dificultad>Media</dificultad>
      <distancia>7</distancia>
      <duracion>2-4 horas</duracion>
    </extensions>
  </wpt>
</gpx>