<?xml version="1.0" encoding="UTF-8"?>
<gpx version="1.1" creator="Aventuras en Cada Paso" xmlns="http://www.topografix.com/GPX/1/1">
  <metadata>
    <name>Roque Nublo – Tejeda (Circular)</name>
    <desc>La ruta más emblemática de Gran Canaria. Desde Tejeda al monolito volcánico de 1.813 m. Desde 2025 requiere reserva previa en la web oficial.</desc>
    <author><name>Aventuras en Cada Paso</name></author>
    <time>2026-07-08T08:12:58.161Z</time>
    <keywords>Gran Canaria, Senderismo, Media, senderismo Canarias</keywords>
  </metadata>
  <wpt lat="27.9694" lon="-15.5772">
    <name>Roque Nublo – Tejeda (Circular)</name>
    <desc>La ruta más emblemática de Gran Canaria. Desde Tejeda al monolito volcánico de 1.813 m. Desde 2025 requiere reserva previa en la web oficial. | Isla: Gran Canaria | Tipo: Senderismo | Dificultad: Media | Distancia: 10km | Duración: 2-4 horas</desc>
    <type>Senderismo</type>
    <extensions>
      <isla>Gran Canaria</isla>
      <dificultad>Media</dificultad>
      <distancia>10</distancia>
      <duracion>2-4 horas</duracion>
    </extensions>
  </wpt>
</gpx>