<?xml version="1.0" encoding="UTF-8"?>
<gpx creator="Wikiloc - https://www.wikiloc.com" version="1.1" xmlns="http://www.topografix.com/GPX/1/1" xmlns:xsi="http://www.w3.org/2001/XMLSchema-instance" xsi:schemaLocation="http://www.topografix.com/GPX/1/1 http://www.topografix.com/GPX/1/1/gpx.xsd">
  <metadata>
    <name>Wikiloc - Mirador Las Playas. Camino de Isora. Parador. Roque de la Bo...</name>
    <link href="https://www.wikiloc.com/hiking-trails/mirador-las-playas-camino-de-isora-parador-roque-de-la-bonanza-mirador-de-isora-153910551">
      <text>Mirador Las Playas. Camino de Isora. Parador. Roque de la Bo... on Wikiloc</text>
    </link>
    <time>2022-05-06T14:40:54Z</time>
  </metadata>
  <trk>
    <name>Mirador Las Playas. Camino de Isora. Parador. Roque de la Bo... - Wikiloc</name>
    <cmt></cmt>
    <desc></desc>
    <trkseg>
      <trkpt lat="27.730992" lon="-17.973225">
        <ele>1034.662</ele>
        <time>2022-05-06T13:14:25Z</time>
      </trkpt>
      <trkpt lat="27.731587" lon="-17.972049">
        <ele>1028.183</ele>
        <time>2022-05-06T13:12:41Z</time>
      </trkpt>
      <trkpt lat="27.731863" lon="-17.971868">
        <ele>1027.311</ele>
        <time>2022-05-06T13:11:55Z</time>
      </trkpt>
      <trkpt lat="27.731803" lon="-17.971844">
        <ele>1027.509</ele>
        <time>2022-05-06T13:11:22Z</time>
      </trkpt>
      <trkpt lat="27.731879" lon="-17.971699">
        <ele>1027.917</ele>
        <time>2022-05-06T13:10:43Z</time>
      </trkpt>
      <trkpt lat="27.731735" lon="-17.971726">
        <ele>1027.891</ele>
        <time>2022-05-06T13:09:58Z</time>
      </trkpt>
      <trkpt lat="27.731701" lon="-17.971654">
        <ele>1027.579</ele>
        <time>2022-05-06T13:09:25Z</time>
      </trkpt>
      <trkpt lat="27.731949" lon="-17.971685">
        <ele>1026.285</ele>
        <time>2022-05-06T12:55:38Z</time>
      </trkpt>
      <trkpt lat="27.731874" lon="-17.971651">
        <ele>1026.517</ele>
        <time>2022-05-06T12:54:25Z</time>
      </trkpt>
      <trkpt lat="27.731875" lon="-17.971720">
        <ele>1026.536</ele>
        <time>2022-05-06T12:54:03Z</time>
      </trkpt>
      <trkpt lat="27.731653" lon="-17.971777">
        <ele>1024.021</ele>
        <time>2022-05-06T12:53:30Z</time>
      </trkpt>
      <trkpt lat="27.731696" lon="-17.971574">
        <ele>1020.141</ele>
        <time>2022-05-06T12:53:07Z</time>
      </trkpt>
      <trkpt lat="27.731921" lon="-17.971465">
        <ele>1020.467</ele>
        <time>2022-05-06T12:51:58Z</time>
      </trkpt>
      <trkpt lat="27.731779" lon="-17.971508">
        <ele>1023.346</ele>
        <time>2022-05-06T12:51:14Z</time>
      </trkpt>
      <trkpt lat="27.731633" lon="-17.971718">
        <ele>1026.488</ele>
        <time>2022-05-06T12:50:22Z</time>
      </trkpt>
      <trkpt lat="27.731654" lon="-17.971773">
        <ele>1026.516</ele>
        <time>2022-05-06T12:50:12Z</time>
      </trkpt>
      <trkpt lat="27.731864" lon="-17.971672">
        <ele>1026.509</ele>
        <time>2022-05-06T12:49:46Z</time>
      </trkpt>
      <trkpt lat="27.731939" lon="-17.971829">
        <ele>1026.555</ele>
        <time>2022-05-06T12:49:27Z</time>
      </trkpt>
      <trkpt lat="27.731875" lon="-17.971681">
        <ele>1026.519</ele>
        <time>2022-05-06T12:48:42Z</time>
      </trkpt>
      <trkpt lat="27.731710" lon="-17.971589">
        <ele>1026.477</ele>
        <time>2022-05-06T12:47:50Z</time>
      </trkpt>
      <trkpt lat="27.731731" lon="-17.971855">
        <ele>1028.073</ele>
        <time>2022-05-06T12:46:43Z</time>
      </trkpt>
      <trkpt lat="27.730986" lon="-17.973244">
        <ele>1033.585</ele>
        <time>2022-05-06T12:44:40Z</time>
      </trkpt>
      <trkpt lat="27.731007" lon="-17.973136">
        <ele>1032.944</ele>
        <time>2022-05-06T12:44:19Z</time>
      </trkpt>
      <trkpt lat="27.730934" lon="-17.973219">
        <ele>1031.659</ele>
        <time>2022-05-06T12:44:12Z</time>
      </trkpt>
      <trkpt lat="27.730416" lon="-17.973138">
        <ele>1026.059</ele>
        <time>2022-05-06T12:42:30Z</time>
      </trkpt>
      <trkpt lat="27.729857" lon="-17.973466">
        <ele>1024.295</ele>
        <time>2022-05-06T12:41:27Z</time>
      </trkpt>
      <trkpt lat="27.729363" lon="-17.973619">
        <ele>1024.612</ele>
        <time>2022-05-06T12:40:47Z</time>
      </trkpt>
      <trkpt lat="27.729037" lon="-17.974123">
        <ele>1023.532</ele>
        <time>2022-05-06T12:39:55Z</time>
      </trkpt>
      <trkpt lat="27.727989" lon="-17.974462">
        <ele>1013.805</ele>
        <time>2022-05-06T12:37:16Z</time>
      </trkpt>
      <trkpt lat="27.727924" lon="-17.975001">
        <ele>1013.309</ele>
        <time>2022-05-06T12:35:56Z</time>
      </trkpt>
      <trkpt lat="27.726949" lon="-17.974837">
        <ele>999.382</ele>
        <time>2022-05-06T12:34:12Z</time>
      </trkpt>
      <trkpt lat="27.725746" lon="-17.974879">
        <ele>985.726</ele>
        <time>2022-05-06T12:32:00Z</time>
      </trkpt>
      <trkpt lat="27.724611" lon="-17.974483">
        <ele>973.564</ele>
        <time>2022-05-06T12:30:04Z</time>
      </trkpt>
      <trkpt lat="27.724217" lon="-17.974695">
        <ele>967.540</ele>
        <time>2022-05-06T12:29:18Z</time>
      </trkpt>
      <trkpt lat="27.721640" lon="-17.974939">
        <ele>942.632</ele>
        <time>2022-05-06T12:25:01Z</time>
      </trkpt>
      <trkpt lat="27.720543" lon="-17.975271">
        <ele>927.751</ele>
        <time>2022-05-06T12:22:57Z</time>
      </trkpt>
      <trkpt lat="27.719825" lon="-17.975218">
        <ele>923.876</ele>
        <time>2022-05-06T12:21:49Z</time>
      </trkpt>
      <trkpt lat="27.719108" lon="-17.975328">
        <ele>911.016</ele>
        <time>2022-05-06T12:20:19Z</time>
      </trkpt>
      <trkpt lat="27.718603" lon="-17.975083">
        <ele>906.442</ele>
        <time>2022-05-06T12:19:26Z</time>
      </trkpt>
      <trkpt lat="27.718402" lon="-17.975112">
        <ele>903.955</ele>
        <time>2022-05-06T12:19:08Z</time>
      </trkpt>
      <trkpt lat="27.718119" lon="-17.974919">
        <ele>900.107</ele>
        <time>2022-05-06T12:18:27Z</time>
      </trkpt>
      <trkpt lat="27.717870" lon="-17.974904">
        <ele>896.617</ele>
        <time>2022-05-06T12:18:04Z</time>
      </trkpt>
      <trkpt lat="27.717290" lon="-17.975149">
        <ele>886.509</ele>
        <time>2022-05-06T12:16:20Z</time>
      </trkpt>
      <trkpt lat="27.717233" lon="-17.975464">
        <ele>883.926</ele>
        <time>2022-05-06T12:15:39Z</time>
      </trkpt>
      <trkpt lat="27.717008" lon="-17.975680">
        <ele>880.890</ele>
        <time>2022-05-06T12:15:13Z</time>
      </trkpt>
      <trkpt lat="27.716532" lon="-17.975587">
        <ele>872.768</ele>
        <time>2022-05-06T12:14:03Z</time>
      </trkpt>
      <trkpt lat="27.715784" lon="-17.975716">
        <ele>859.064</ele>
        <time>2022-05-06T12:12:28Z</time>
      </trkpt>
      <trkpt lat="27.715407" lon="-17.975598">
        <ele>851.386</ele>
        <time>2022-05-06T12:11:37Z</time>
      </trkpt>
      <trkpt lat="27.715163" lon="-17.975595">
        <ele>846.075</ele>
        <time>2022-05-06T12:10:54Z</time>
      </trkpt>
      <trkpt lat="27.714856" lon="-17.975734">
        <ele>838.890</ele>
        <time>2022-05-06T12:10:03Z</time>
      </trkpt>
      <trkpt lat="27.714587" lon="-17.975662">
        <ele>834.920</ele>
        <time>2022-05-06T12:09:22Z</time>
      </trkpt>
      <trkpt lat="27.714443" lon="-17.975725">
        <ele>831.446</ele>
        <time>2022-05-06T12:08:52Z</time>
      </trkpt>
      <trkpt lat="27.714145" lon="-17.976109">
        <ele>830.122</ele>
        <time>2022-05-06T12:07:09Z</time>
      </trkpt>
      <trkpt lat="27.714015" lon="-17.975812">
        <ele>827.562</ele>
        <time>2022-05-06T12:06:33Z</time>
      </trkpt>
      <trkpt lat="27.713465" lon="-17.975096">
        <ele>818.108</ele>
        <time>2022-05-06T12:05:00Z</time>
      </trkpt>
      <trkpt lat="27.713518" lon="-17.974832">
        <ele>816.909</ele>
        <time>2022-05-06T12:04:35Z</time>
      </trkpt>
      <trkpt lat="27.713691" lon="-17.974651">
        <ele>813.323</ele>
        <time>2022-05-06T12:03:50Z</time>
      </trkpt>
      <trkpt lat="27.713522" lon="-17.974148">
        <ele>802.397</ele>
        <time>2022-05-06T12:02:10Z</time>
      </trkpt>
      <trkpt lat="27.713370" lon="-17.973947">
        <ele>798.085</ele>
        <time>2022-05-06T12:01:38Z</time>
      </trkpt>
      <trkpt lat="27.713037" lon="-17.973748">
        <ele>788.551</ele>
        <time>2022-05-06T11:59:48Z</time>
      </trkpt>
      <trkpt lat="27.712720" lon="-17.973282">
        <ele>784.283</ele>
        <time>2022-05-06T11:58:29Z</time>
      </trkpt>
      <trkpt lat="27.712724" lon="-17.973175">
        <ele>783.772</ele>
        <time>2022-05-06T11:58:04Z</time>
      </trkpt>
      <trkpt lat="27.712324" lon="-17.972916">
        <ele>782.957</ele>
        <time>2022-05-06T11:56:02Z</time>
      </trkpt>
      <trkpt lat="27.712367" lon="-17.972707">
        <ele>783.377</ele>
        <time>2022-05-06T11:55:41Z</time>
      </trkpt>
      <trkpt lat="27.712561" lon="-17.972524">
        <ele>779.033</ele>
        <time>2022-05-06T11:54:58Z</time>
      </trkpt>
      <trkpt lat="27.712583" lon="-17.972235">
        <ele>777.576</ele>
        <time>2022-05-06T11:54:11Z</time>
      </trkpt>
      <trkpt lat="27.713105" lon="-17.971150">
        <ele>763.090</ele>
        <time>2022-05-06T11:51:31Z</time>
      </trkpt>
      <trkpt lat="27.713026" lon="-17.970949">
        <ele>756.719</ele>
        <time>2022-05-06T11:50:59Z</time>
      </trkpt>
      <trkpt lat="27.712849" lon="-17.970939">
        <ele>752.509</ele>
        <time>2022-05-06T11:49:59Z</time>
      </trkpt>
      <trkpt lat="27.712916" lon="-17.970862">
        <ele>752.298</ele>
        <time>2022-05-06T11:49:35Z</time>
      </trkpt>
      <trkpt lat="27.713385" lon="-17.970799">
        <ele>743.782</ele>
        <time>2022-05-06T11:47:47Z</time>
      </trkpt>
      <trkpt lat="27.713595" lon="-17.970573">
        <ele>727.790</ele>
        <time>2022-05-06T11:46:14Z</time>
      </trkpt>
      <trkpt lat="27.713639" lon="-17.970048">
        <ele>699.816</ele>
        <time>2022-05-06T11:41:35Z</time>
      </trkpt>
      <trkpt lat="27.713542" lon="-17.970002">
        <ele>694.898</ele>
        <time>2022-05-06T11:40:58Z</time>
      </trkpt>
      <trkpt lat="27.713537" lon="-17.969800">
        <ele>686.167</ele>
        <time>2022-05-06T11:39:16Z</time>
      </trkpt>
      <trkpt lat="27.713928" lon="-17.969302">
        <ele>664.012</ele>
        <time>2022-05-06T11:36:36Z</time>
      </trkpt>
      <trkpt lat="27.713913" lon="-17.969053">
        <ele>653.192</ele>
        <time>2022-05-06T11:35:28Z</time>
      </trkpt>
      <trkpt lat="27.714000" lon="-17.968941">
        <ele>646.168</ele>
        <time>2022-05-06T11:34:30Z</time>
      </trkpt>
      <trkpt lat="27.713900" lon="-17.968828">
        <ele>640.269</ele>
        <time>2022-05-06T11:33:40Z</time>
      </trkpt>
      <trkpt lat="27.713992" lon="-17.968759">
        <ele>637.004</ele>
        <time>2022-05-06T11:33:10Z</time>
      </trkpt>
      <trkpt lat="27.713886" lon="-17.968541">
        <ele>627.924</ele>
        <time>2022-05-06T11:31:57Z</time>
      </trkpt>
      <trkpt lat="27.713753" lon="-17.968604">
        <ele>623.409</ele>
        <time>2022-05-06T11:31:26Z</time>
      </trkpt>
      <trkpt lat="27.713819" lon="-17.968572">
        <ele>621.437</ele>
        <time>2022-05-06T11:29:49Z</time>
      </trkpt>
      <trkpt lat="27.713802" lon="-17.968422">
        <ele>613.181</ele>
        <time>2022-05-06T11:27:16Z</time>
      </trkpt>
      <trkpt lat="27.713438" lon="-17.968538">
        <ele>599.499</ele>
        <time>2022-05-06T11:25:07Z</time>
      </trkpt>
      <trkpt lat="27.713397" lon="-17.968447">
        <ele>595.055</ele>
        <time>2022-05-06T11:24:43Z</time>
      </trkpt>
      <trkpt lat="27.713112" lon="-17.968470">
        <ele>581.657</ele>
        <time>2022-05-06T11:22:48Z</time>
      </trkpt>
      <trkpt lat="27.712822" lon="-17.967968">
        <ele>552.836</ele>
        <time>2022-05-06T11:17:24Z</time>
      </trkpt>
      <trkpt lat="27.712734" lon="-17.967984">
        <ele>548.721</ele>
        <time>2022-05-06T11:16:39Z</time>
      </trkpt>
      <trkpt lat="27.712708" lon="-17.967615">
        <ele>530.831</ele>
        <time>2022-05-06T11:13:55Z</time>
      </trkpt>
      <trkpt lat="27.712416" lon="-17.967219">
        <ele>501.627</ele>
        <time>2022-05-06T11:10:27Z</time>
      </trkpt>
      <trkpt lat="27.712196" lon="-17.966630">
        <ele>469.024</ele>
        <time>2022-05-06T11:04:34Z</time>
      </trkpt>
      <trkpt lat="27.712077" lon="-17.966555">
        <ele>462.604</ele>
        <time>2022-05-06T11:03:40Z</time>
      </trkpt>
      <trkpt lat="27.712125" lon="-17.966345">
        <ele>456.714</ele>
        <time>2022-05-06T11:01:24Z</time>
      </trkpt>
      <trkpt lat="27.711928" lon="-17.966387">
        <ele>454.309</ele>
        <time>2022-05-06T11:00:44Z</time>
      </trkpt>
      <trkpt lat="27.711776" lon="-17.966660">
        <ele>445.493</ele>
        <time>2022-05-06T10:59:47Z</time>
      </trkpt>
      <trkpt lat="27.711678" lon="-17.966160">
        <ele>432.097</ele>
        <time>2022-05-06T10:57:14Z</time>
      </trkpt>
      <trkpt lat="27.711799" lon="-17.966123">
        <ele>427.555</ele>
        <time>2022-05-06T10:56:32Z</time>
      </trkpt>
      <trkpt lat="27.711795" lon="-17.966033">
        <ele>424.181</ele>
        <time>2022-05-06T10:56:08Z</time>
      </trkpt>
      <trkpt lat="27.711607" lon="-17.966039">
        <ele>415.253</ele>
        <time>2022-05-06T10:55:01Z</time>
      </trkpt>
      <trkpt lat="27.711624" lon="-17.965909">
        <ele>409.472</ele>
        <time>2022-05-06T10:54:31Z</time>
      </trkpt>
      <trkpt lat="27.711442" lon="-17.965851">
        <ele>402.047</ele>
        <time>2022-05-06T10:52:44Z</time>
      </trkpt>
      <trkpt lat="27.711499" lon="-17.965778">
        <ele>397.677</ele>
        <time>2022-05-06T10:52:24Z</time>
      </trkpt>
      <trkpt lat="27.711339" lon="-17.965884">
        <ele>390.933</ele>
        <time>2022-05-06T10:51:19Z</time>
      </trkpt>
      <trkpt lat="27.711330" lon="-17.965530">
        <ele>372.896</ele>
        <time>2022-05-06T10:48:04Z</time>
      </trkpt>
      <trkpt lat="27.711224" lon="-17.965515">
        <ele>368.531</ele>
        <time>2022-05-06T10:47:31Z</time>
      </trkpt>
      <trkpt lat="27.711218" lon="-17.965038">
        <ele>340.024</ele>
        <time>2022-05-06T10:44:24Z</time>
      </trkpt>
      <trkpt lat="27.711122" lon="-17.964929">
        <ele>331.509</ele>
        <time>2022-05-06T10:43:25Z</time>
      </trkpt>
      <trkpt lat="27.711137" lon="-17.964678">
        <ele>317.550</ele>
        <time>2022-05-06T10:41:40Z</time>
      </trkpt>
      <trkpt lat="27.711067" lon="-17.964547">
        <ele>310.984</ele>
        <time>2022-05-06T10:40:30Z</time>
      </trkpt>
      <trkpt lat="27.710983" lon="-17.964568">
        <ele>307.412</ele>
        <time>2022-05-06T10:39:47Z</time>
      </trkpt>
      <trkpt lat="27.710965" lon="-17.964271">
        <ele>295.248</ele>
        <time>2022-05-06T10:37:19Z</time>
      </trkpt>
      <trkpt lat="27.710877" lon="-17.964317">
        <ele>291.180</ele>
        <time>2022-05-06T10:37:00Z</time>
      </trkpt>
      <trkpt lat="27.710906" lon="-17.963818">
        <ele>271.529</ele>
        <time>2022-05-06T10:34:48Z</time>
      </trkpt>
      <trkpt lat="27.710792" lon="-17.963776">
        <ele>263.714</ele>
        <time>2022-05-06T10:33:35Z</time>
      </trkpt>
      <trkpt lat="27.710720" lon="-17.963600">
        <ele>255.644</ele>
        <time>2022-05-06T10:32:48Z</time>
      </trkpt>
      <trkpt lat="27.710759" lon="-17.963483">
        <ele>248.460</ele>
        <time>2022-05-06T10:31:26Z</time>
      </trkpt>
      <trkpt lat="27.710640" lon="-17.963339">
        <ele>242.136</ele>
        <time>2022-05-06T10:30:02Z</time>
      </trkpt>
      <trkpt lat="27.710701" lon="-17.963160">
        <ele>236.017</ele>
        <time>2022-05-06T10:28:29Z</time>
      </trkpt>
      <trkpt lat="27.710562" lon="-17.963137">
        <ele>231.918</ele>
        <time>2022-05-06T10:27:39Z</time>
      </trkpt>
      <trkpt lat="27.710761" lon="-17.962992">
        <ele>222.509</ele>
        <time>2022-05-06T10:26:02Z</time>
      </trkpt>
      <trkpt lat="27.710671" lon="-17.962873">
        <ele>214.154</ele>
        <time>2022-05-06T10:23:05Z</time>
      </trkpt>
      <trkpt lat="27.710756" lon="-17.962814">
        <ele>210.318</ele>
        <time>2022-05-06T10:22:31Z</time>
      </trkpt>
      <trkpt lat="27.710691" lon="-17.962684">
        <ele>203.866</ele>
        <time>2022-05-06T10:21:49Z</time>
      </trkpt>
      <trkpt lat="27.710388" lon="-17.962522">
        <ele>189.182</ele>
        <time>2022-05-06T10:19:18Z</time>
      </trkpt>
      <trkpt lat="27.710336" lon="-17.962383">
        <ele>182.314</ele>
        <time>2022-05-06T10:18:26Z</time>
      </trkpt>
      <trkpt lat="27.710476" lon="-17.962120">
        <ele>167.693</ele>
        <time>2022-05-06T10:16:33Z</time>
      </trkpt>
      <trkpt lat="27.710325" lon="-17.961997">
        <ele>158.498</ele>
        <time>2022-05-06T10:15:23Z</time>
      </trkpt>
      <trkpt lat="27.710470" lon="-17.961869">
        <ele>151.088</ele>
        <time>2022-05-06T10:14:33Z</time>
      </trkpt>
      <trkpt lat="27.710306" lon="-17.961734">
        <ele>142.894</ele>
        <time>2022-05-06T10:13:39Z</time>
      </trkpt>
      <trkpt lat="27.710087" lon="-17.961318">
        <ele>127.048</ele>
        <time>2022-05-06T10:11:53Z</time>
      </trkpt>
      <trkpt lat="27.710203" lon="-17.961054">
        <ele>115.061</ele>
        <time>2022-05-06T10:10:45Z</time>
      </trkpt>
      <trkpt lat="27.710032" lon="-17.960863">
        <ele>107.017</ele>
        <time>2022-05-06T10:09:46Z</time>
      </trkpt>
      <trkpt lat="27.710198" lon="-17.960380">
        <ele>90.209</ele>
        <time>2022-05-06T10:07:54Z</time>
      </trkpt>
      <trkpt lat="27.710353" lon="-17.960145">
        <ele>82.535</ele>
        <time>2022-05-06T10:06:58Z</time>
      </trkpt>
      <trkpt lat="27.710702" lon="-17.960198">
        <ele>76.569</ele>
        <time>2022-05-06T10:05:54Z</time>
      </trkpt>
      <trkpt lat="27.710764" lon="-17.960121">
        <ele>74.497</ele>
        <time>2022-05-06T10:05:44Z</time>
      </trkpt>
      <trkpt lat="27.710661" lon="-17.959781">
        <ele>69.163</ele>
        <time>2022-05-06T10:05:01Z</time>
      </trkpt>
      <trkpt lat="27.710056" lon="-17.959400">
        <ele>54.735</ele>
        <time>2022-05-06T10:03:39Z</time>
      </trkpt>
      <trkpt lat="27.710100" lon="-17.959271">
        <ele>51.914</ele>
        <time>2022-05-06T10:03:22Z</time>
      </trkpt>
      <trkpt lat="27.710415" lon="-17.959300">
        <ele>46.639</ele>
        <time>2022-05-06T10:02:41Z</time>
      </trkpt>
      <trkpt lat="27.710477" lon="-17.959217">
        <ele>44.599</ele>
        <time>2022-05-06T10:02:27Z</time>
      </trkpt>
      <trkpt lat="27.710130" lon="-17.958833">
        <ele>33.775</ele>
        <time>2022-05-06T10:01:31Z</time>
      </trkpt>
      <trkpt lat="27.710174" lon="-17.958270">
        <ele>24.861</ele>
        <time>2022-05-06T10:00:45Z</time>
      </trkpt>
      <trkpt lat="27.710258" lon="-17.958114">
        <ele>23.421</ele>
        <time>2022-05-06T10:00:17Z</time>
      </trkpt>
      <trkpt lat="27.710353" lon="-17.958124">
        <ele>22.713</ele>
        <time>2022-05-06T10:00:09Z</time>
      </trkpt>
      <trkpt lat="27.711316" lon="-17.958821">
        <ele>15.409</ele>
        <time>2022-05-06T09:58:24Z</time>
      </trkpt>
      <trkpt lat="27.712142" lon="-17.959003">
        <ele>17.567</ele>
        <time>2022-05-06T09:57:09Z</time>
      </trkpt>
      <trkpt lat="27.712813" lon="-17.958934">
        <ele>22.431</ele>
        <time>2022-05-06T09:56:21Z</time>
      </trkpt>
      <trkpt lat="27.713937" lon="-17.959030">
        <ele>25.129</ele>
        <time>2022-05-06T09:55:01Z</time>
      </trkpt>
      <trkpt lat="27.714525" lon="-17.958952">
        <ele>26.955</ele>
        <time>2022-05-06T09:54:10Z</time>
      </trkpt>
      <trkpt lat="27.714942" lon="-17.959008">
        <ele>24.397</ele>
        <time>2022-05-06T09:53:41Z</time>
      </trkpt>
      <trkpt lat="27.715719" lon="-17.958881">
        <ele>18.396</ele>
        <time>2022-05-06T09:52:19Z</time>
      </trkpt>
      <trkpt lat="27.716383" lon="-17.958598">
        <ele>12.441</ele>
        <time>2022-05-06T09:51:20Z</time>
      </trkpt>
      <trkpt lat="27.716634" lon="-17.958662">
        <ele>12.871</ele>
        <time>2022-05-06T09:51:03Z</time>
      </trkpt>
      <trkpt lat="27.716803" lon="-17.958810">
        <ele>12.847</ele>
        <time>2022-05-06T09:50:28Z</time>
      </trkpt>
      <trkpt lat="27.717004" lon="-17.958816">
        <ele>11.577</ele>
        <time>2022-05-06T09:50:01Z</time>
      </trkpt>
      <trkpt lat="27.717257" lon="-17.958656">
        <ele>11.661</ele>
        <time>2022-05-06T09:49:35Z</time>
      </trkpt>
      <trkpt lat="27.717267" lon="-17.958560">
        <ele>15.527</ele>
        <time>2022-05-06T09:49:13Z</time>
      </trkpt>
      <trkpt lat="27.717476" lon="-17.958905">
        <ele>17.009</ele>
        <time>2022-05-06T16:37:32Z</time>
      </trkpt>
      <trkpt lat="27.717804" lon="-17.958985">
        <ele>18.768</ele>
        <time>2022-05-06T16:36:57Z</time>
      </trkpt>
      <trkpt lat="27.718284" lon="-17.958668">
        <ele>21.572</ele>
        <time>2022-05-06T16:36:15Z</time>
      </trkpt>
      <trkpt lat="27.719695" lon="-17.958080">
        <ele>21.950</ele>
        <time>2022-05-06T16:34:20Z</time>
      </trkpt>
      <trkpt lat="27.720688" lon="-17.957514">
        <ele>20.456</ele>
        <time>2022-05-06T16:32:54Z</time>
      </trkpt>
      <trkpt lat="27.721031" lon="-17.957149">
        <ele>19.368</ele>
        <time>2022-05-06T16:32:20Z</time>
      </trkpt>
      <trkpt lat="27.721629" lon="-17.956130">
        <ele>18.587</ele>
        <time>2022-05-06T16:30:56Z</time>
      </trkpt>
      <trkpt lat="27.724952" lon="-17.953210">
        <ele>18.312</ele>
        <time>2022-05-06T16:25:37Z</time>
      </trkpt>
      <trkpt lat="27.725667" lon="-17.952831">
        <ele>17.542</ele>
        <time>2022-05-06T16:24:35Z</time>
      </trkpt>
      <trkpt lat="27.726414" lon="-17.952126">
        <ele>21.928</ele>
        <time>2022-05-06T16:17:12Z</time>
      </trkpt>
      <trkpt lat="27.726381" lon="-17.952219">
        <ele>22.091</ele>
        <time>2022-05-06T16:16:07Z</time>
      </trkpt>
      <trkpt lat="27.726417" lon="-17.952086">
        <ele>22.781</ele>
        <time>2022-05-06T16:14:49Z</time>
      </trkpt>
      <trkpt lat="27.726389" lon="-17.952165">
        <ele>22.919</ele>
        <time>2022-05-06T16:14:24Z</time>
      </trkpt>
      <trkpt lat="27.726246" lon="-17.951552">
        <ele>22.909</ele>
        <time>2022-05-06T16:14:18Z</time>
      </trkpt>
      <trkpt lat="27.726227" lon="-17.952069">
        <ele>22.690</ele>
        <time>2022-05-06T16:13:11Z</time>
      </trkpt>
      <trkpt lat="27.726424" lon="-17.952192">
        <ele>22.574</ele>
        <time>2022-05-06T16:12:33Z</time>
      </trkpt>
      <trkpt lat="27.726225" lon="-17.952068">
        <ele>22.482</ele>
        <time>2022-05-06T16:11:43Z</time>
      </trkpt>
      <trkpt lat="27.726372" lon="-17.952099">
        <ele>23.498</ele>
        <time>2022-05-06T16:11:30Z</time>
      </trkpt>
      <trkpt lat="27.726726" lon="-17.951603">
        <ele>27.130</ele>
        <time>2022-05-06T16:10:45Z</time>
      </trkpt>
      <trkpt lat="27.726763" lon="-17.951423">
        <ele>29.269</ele>
        <time>2022-05-06T16:10:32Z</time>
      </trkpt>
      <trkpt lat="27.727107" lon="-17.951639">
        <ele>38.664</ele>
        <time>2022-05-06T16:09:31Z</time>
      </trkpt>
      <trkpt lat="27.727658" lon="-17.952430">
        <ele>60.284</ele>
        <time>2022-05-06T16:07:43Z</time>
      </trkpt>
      <trkpt lat="27.728415" lon="-17.952828">
        <ele>80.730</ele>
        <time>2022-05-06T16:06:09Z</time>
      </trkpt>
      <trkpt lat="27.728789" lon="-17.953230">
        <ele>101.226</ele>
        <time>2022-05-06T16:04:07Z</time>
      </trkpt>
      <trkpt lat="27.728992" lon="-17.953565">
        <ele>111.947</ele>
        <time>2022-05-06T16:03:12Z</time>
      </trkpt>
      <trkpt lat="27.728975" lon="-17.953810">
        <ele>117.711</ele>
        <time>2022-05-06T16:02:31Z</time>
      </trkpt>
      <trkpt lat="27.728730" lon="-17.954219">
        <ele>126.909</ele>
        <time>2022-05-06T16:01:41Z</time>
      </trkpt>
      <trkpt lat="27.728803" lon="-17.954511">
        <ele>135.083</ele>
        <time>2022-05-06T16:01:10Z</time>
      </trkpt>
      <trkpt lat="27.729018" lon="-17.954366">
        <ele>140.687</ele>
        <time>2022-05-06T16:00:39Z</time>
      </trkpt>
      <trkpt lat="27.728992" lon="-17.954536">
        <ele>144.625</ele>
        <time>2022-05-06T16:00:20Z</time>
      </trkpt>
      <trkpt lat="27.729453" lon="-17.954315">
        <ele>166.711</ele>
        <time>2022-05-06T15:58:35Z</time>
      </trkpt>
      <trkpt lat="27.729648" lon="-17.954715">
        <ele>175.163</ele>
        <time>2022-05-06T15:57:31Z</time>
      </trkpt>
      <trkpt lat="27.729607" lon="-17.954471">
        <ele>174.192</ele>
        <time>2022-05-06T15:57:27Z</time>
      </trkpt>
      <trkpt lat="27.729706" lon="-17.954583">
        <ele>174.317</ele>
        <time>2022-05-06T15:57:20Z</time>
      </trkpt>
      <trkpt lat="27.729598" lon="-17.954319">
        <ele>183.817</ele>
        <time>2022-05-06T15:57:08Z</time>
      </trkpt>
      <trkpt lat="27.729762" lon="-17.954251">
        <ele>190.833</ele>
        <time>2022-05-06T15:56:08Z</time>
      </trkpt>
      <trkpt lat="27.729748" lon="-17.954330">
        <ele>192.197</ele>
        <time>2022-05-06T15:56:01Z</time>
      </trkpt>
      <trkpt lat="27.729831" lon="-17.954279">
        <ele>195.623</ele>
        <time>2022-05-06T15:55:41Z</time>
      </trkpt>
      <trkpt lat="27.729809" lon="-17.954375">
        <ele>199.225</ele>
        <time>2022-05-06T15:55:23Z</time>
      </trkpt>
      <trkpt lat="27.729990" lon="-17.954282">
        <ele>206.709</ele>
        <time>2022-05-06T15:54:53Z</time>
      </trkpt>
      <trkpt lat="27.729989" lon="-17.954390">
        <ele>211.130</ele>
        <time>2022-05-06T15:54:14Z</time>
      </trkpt>
      <trkpt lat="27.730113" lon="-17.954303">
        <ele>220.674</ele>
        <time>2022-05-06T15:53:37Z</time>
      </trkpt>
      <trkpt lat="27.730301" lon="-17.954393">
        <ele>229.532</ele>
        <time>2022-05-06T15:52:21Z</time>
      </trkpt>
      <trkpt lat="27.730353" lon="-17.954299">
        <ele>233.838</ele>
        <time>2022-05-06T15:52:09Z</time>
      </trkpt>
      <trkpt lat="27.730488" lon="-17.954302">
        <ele>242.280</ele>
        <time>2022-05-06T15:51:23Z</time>
      </trkpt>
      <trkpt lat="27.730580" lon="-17.954050">
        <ele>251.179</ele>
        <time>2022-05-06T15:50:38Z</time>
      </trkpt>
      <trkpt lat="27.730731" lon="-17.954119">
        <ele>255.144</ele>
        <time>2022-05-06T15:50:06Z</time>
      </trkpt>
      <trkpt lat="27.730702" lon="-17.954238">
        <ele>255.954</ele>
        <time>2022-05-06T15:50:03Z</time>
      </trkpt>
      <trkpt lat="27.730833" lon="-17.954083">
        <ele>271.150</ele>
        <time>2022-05-06T15:48:56Z</time>
      </trkpt>
      <trkpt lat="27.731003" lon="-17.954197">
        <ele>279.028</ele>
        <time>2022-05-06T15:48:05Z</time>
      </trkpt>
      <trkpt lat="27.731036" lon="-17.954074">
        <ele>283.689</ele>
        <time>2022-05-06T15:47:49Z</time>
      </trkpt>
      <trkpt lat="27.731004" lon="-17.954151">
        <ele>285.917</ele>
        <time>2022-05-06T15:47:45Z</time>
      </trkpt>
      <trkpt lat="27.731097" lon="-17.954147">
        <ele>289.109</ele>
        <time>2022-05-06T15:46:51Z</time>
      </trkpt>
      <trkpt lat="27.731035" lon="-17.954341">
        <ele>297.493</ele>
        <time>2022-05-06T15:45:45Z</time>
      </trkpt>
      <trkpt lat="27.731263" lon="-17.954389">
        <ele>307.827</ele>
        <time>2022-05-06T15:44:38Z</time>
      </trkpt>
      <trkpt lat="27.731269" lon="-17.954326">
        <ele>310.075</ele>
        <time>2022-05-06T15:44:24Z</time>
      </trkpt>
      <trkpt lat="27.731415" lon="-17.954463">
        <ele>318.091</ele>
        <time>2022-05-06T15:43:41Z</time>
      </trkpt>
      <trkpt lat="27.731430" lon="-17.954280">
        <ele>325.423</ele>
        <time>2022-05-06T15:43:11Z</time>
      </trkpt>
      <trkpt lat="27.731575" lon="-17.954220">
        <ele>331.562</ele>
        <time>2022-05-06T15:42:27Z</time>
      </trkpt>
      <trkpt lat="27.731625" lon="-17.954339">
        <ele>337.867</ele>
        <time>2022-05-06T15:41:50Z</time>
      </trkpt>
      <trkpt lat="27.731682" lon="-17.954191">
        <ele>342.627</ele>
        <time>2022-05-06T15:41:30Z</time>
      </trkpt>
      <trkpt lat="27.731699" lon="-17.954362">
        <ele>350.943</ele>
        <time>2022-05-06T15:41:02Z</time>
      </trkpt>
      <trkpt lat="27.731959" lon="-17.954223">
        <ele>365.456</ele>
        <time>2022-05-06T15:39:38Z</time>
      </trkpt>
      <trkpt lat="27.732010" lon="-17.954362">
        <ele>371.159</ele>
        <time>2022-05-06T15:38:58Z</time>
      </trkpt>
      <trkpt lat="27.732078" lon="-17.954291">
        <ele>375.614</ele>
        <time>2022-05-06T15:38:39Z</time>
      </trkpt>
      <trkpt lat="27.732170" lon="-17.954417">
        <ele>380.809</ele>
        <time>2022-05-06T15:38:09Z</time>
      </trkpt>
      <trkpt lat="27.732280" lon="-17.954295">
        <ele>389.866</ele>
        <time>2022-05-06T15:37:19Z</time>
      </trkpt>
      <trkpt lat="27.732446" lon="-17.954399">
        <ele>401.350</ele>
        <time>2022-05-06T15:36:20Z</time>
      </trkpt>
      <trkpt lat="27.732625" lon="-17.954218">
        <ele>414.768</ele>
        <time>2022-05-06T15:35:01Z</time>
      </trkpt>
      <trkpt lat="27.732796" lon="-17.954442">
        <ele>427.944</ele>
        <time>2022-05-06T15:33:31Z</time>
      </trkpt>
      <trkpt lat="27.732888" lon="-17.954443">
        <ele>431.236</ele>
        <time>2022-05-06T15:33:18Z</time>
      </trkpt>
      <trkpt lat="27.732884" lon="-17.954337">
        <ele>436.175</ele>
        <time>2022-05-06T15:33:02Z</time>
      </trkpt>
      <trkpt lat="27.733080" lon="-17.954261">
        <ele>445.730</ele>
        <time>2022-05-06T15:32:06Z</time>
      </trkpt>
      <trkpt lat="27.733100" lon="-17.954149">
        <ele>450.990</ele>
        <time>2022-05-06T15:31:06Z</time>
      </trkpt>
      <trkpt lat="27.733271" lon="-17.954293">
        <ele>464.766</ele>
        <time>2022-05-06T15:29:53Z</time>
      </trkpt>
      <trkpt lat="27.733381" lon="-17.954188">
        <ele>470.118</ele>
        <time>2022-05-06T15:29:20Z</time>
      </trkpt>
      <trkpt lat="27.733389" lon="-17.954295">
        <ele>473.998</ele>
        <time>2022-05-06T15:28:56Z</time>
      </trkpt>
      <trkpt lat="27.733602" lon="-17.954188">
        <ele>477.717</ele>
        <time>2022-05-06T15:28:14Z</time>
      </trkpt>
      <trkpt lat="27.733532" lon="-17.954305">
        <ele>477.909</ele>
        <time>2022-05-06T15:28:09Z</time>
      </trkpt>
      <trkpt lat="27.733731" lon="-17.954537">
        <ele>477.922</ele>
        <time>2022-05-06T15:28:03Z</time>
      </trkpt>
      <trkpt lat="27.733608" lon="-17.954441">
        <ele>477.536</ele>
        <time>2022-05-06T15:27:55Z</time>
      </trkpt>
      <trkpt lat="27.733589" lon="-17.954290">
        <ele>477.114</ele>
        <time>2022-05-06T15:27:48Z</time>
      </trkpt>
      <trkpt lat="27.733468" lon="-17.954244">
        <ele>479.130</ele>
        <time>2022-05-06T15:27:09Z</time>
      </trkpt>
      <trkpt lat="27.733789" lon="-17.953691">
        <ele>500.162</ele>
        <time>2022-05-06T15:24:44Z</time>
      </trkpt>
      <trkpt lat="27.733855" lon="-17.953827">
        <ele>505.931</ele>
        <time>2022-05-06T15:24:17Z</time>
      </trkpt>
      <trkpt lat="27.733975" lon="-17.953694">
        <ele>513.086</ele>
        <time>2022-05-06T15:23:22Z</time>
      </trkpt>
      <trkpt lat="27.734036" lon="-17.953320">
        <ele>524.666</ele>
        <time>2022-05-06T15:22:32Z</time>
      </trkpt>
      <trkpt lat="27.734209" lon="-17.953261">
        <ele>535.742</ele>
        <time>2022-05-06T15:21:21Z</time>
      </trkpt>
      <trkpt lat="27.734186" lon="-17.953103">
        <ele>540.749</ele>
        <time>2022-05-06T15:20:41Z</time>
      </trkpt>
      <trkpt lat="27.734261" lon="-17.953047">
        <ele>544.702</ele>
        <time>2022-05-06T15:20:24Z</time>
      </trkpt>
      <trkpt lat="27.734190" lon="-17.952896">
        <ele>550.422</ele>
        <time>2022-05-06T15:19:50Z</time>
      </trkpt>
      <trkpt lat="27.734310" lon="-17.952867">
        <ele>556.809</ele>
        <time>2022-05-06T15:19:07Z</time>
      </trkpt>
      <trkpt lat="27.734292" lon="-17.952762">
        <ele>560.345</ele>
        <time>2022-05-06T15:18:47Z</time>
      </trkpt>
      <trkpt lat="27.734537" lon="-17.952962">
        <ele>572.529</ele>
        <time>2022-05-06T15:17:48Z</time>
      </trkpt>
      <trkpt lat="27.734629" lon="-17.952946">
        <ele>576.027</ele>
        <time>2022-05-06T15:17:23Z</time>
      </trkpt>
      <trkpt lat="27.734664" lon="-17.952791">
        <ele>585.973</ele>
        <time>2022-05-06T15:16:29Z</time>
      </trkpt>
      <trkpt lat="27.734831" lon="-17.952839">
        <ele>592.375</ele>
        <time>2022-05-06T15:15:54Z</time>
      </trkpt>
      <trkpt lat="27.734808" lon="-17.952681">
        <ele>596.864</ele>
        <time>2022-05-06T15:15:24Z</time>
      </trkpt>
      <trkpt lat="27.734926" lon="-17.952778">
        <ele>604.499</ele>
        <time>2022-05-06T15:15:02Z</time>
      </trkpt>
      <trkpt lat="27.734984" lon="-17.952683">
        <ele>609.029</ele>
        <time>2022-05-06T15:14:36Z</time>
      </trkpt>
      <trkpt lat="27.735124" lon="-17.952692">
        <ele>615.195</ele>
        <time>2022-05-06T15:14:02Z</time>
      </trkpt>
      <trkpt lat="27.735190" lon="-17.952594">
        <ele>618.073</ele>
        <time>2022-05-06T15:13:38Z</time>
      </trkpt>
      <trkpt lat="27.735108" lon="-17.952555">
        <ele>622.485</ele>
        <time>2022-05-06T15:13:26Z</time>
      </trkpt>
      <trkpt lat="27.735213" lon="-17.952545">
        <ele>627.513</ele>
        <time>2022-05-06T15:13:04Z</time>
      </trkpt>
      <trkpt lat="27.735196" lon="-17.952458">
        <ele>631.209</ele>
        <time>2022-05-06T15:12:37Z</time>
      </trkpt>
      <trkpt lat="27.735378" lon="-17.952525">
        <ele>644.778</ele>
        <time>2022-05-06T15:11:32Z</time>
      </trkpt>
      <trkpt lat="27.735724" lon="-17.952299">
        <ele>668.322</ele>
        <time>2022-05-06T15:09:16Z</time>
      </trkpt>
      <trkpt lat="27.735774" lon="-17.952401">
        <ele>672.510</ele>
        <time>2022-05-06T15:08:44Z</time>
      </trkpt>
      <trkpt lat="27.735838" lon="-17.952151">
        <ele>682.356</ele>
        <time>2022-05-06T15:07:31Z</time>
      </trkpt>
      <trkpt lat="27.735972" lon="-17.952202">
        <ele>689.178</ele>
        <time>2022-05-06T15:06:53Z</time>
      </trkpt>
      <trkpt lat="27.735974" lon="-17.952040">
        <ele>695.237</ele>
        <time>2022-05-06T15:06:24Z</time>
      </trkpt>
      <trkpt lat="27.736201" lon="-17.952209">
        <ele>708.012</ele>
        <time>2022-05-06T15:04:45Z</time>
      </trkpt>
      <trkpt lat="27.736341" lon="-17.952098">
        <ele>715.412</ele>
        <time>2022-05-06T15:04:11Z</time>
      </trkpt>
      <trkpt lat="27.736504" lon="-17.952171">
        <ele>722.788</ele>
        <time>2022-05-06T15:03:33Z</time>
      </trkpt>
      <trkpt lat="27.736905" lon="-17.952580">
        <ele>754.924</ele>
        <time>2022-05-06T15:00:25Z</time>
      </trkpt>
      <trkpt lat="27.737007" lon="-17.952471">
        <ele>760.504</ele>
        <time>2022-05-06T14:59:55Z</time>
      </trkpt>
      <trkpt lat="27.737135" lon="-17.952692">
        <ele>770.414</ele>
        <time>2022-05-06T14:58:25Z</time>
      </trkpt>
      <trkpt lat="27.737104" lon="-17.952955">
        <ele>776.709</ele>
        <time>2022-05-06T14:57:18Z</time>
      </trkpt>
      <trkpt lat="27.737536" lon="-17.953020">
        <ele>790.593</ele>
        <time>2022-05-06T14:56:17Z</time>
      </trkpt>
      <trkpt lat="27.737643" lon="-17.953125">
        <ele>794.117</ele>
        <time>2022-05-06T14:55:35Z</time>
      </trkpt>
      <trkpt lat="27.737603" lon="-17.952965">
        <ele>794.065</ele>
        <time>2022-05-06T14:55:13Z</time>
      </trkpt>
      <trkpt lat="27.737401" lon="-17.952833">
        <ele>791.521</ele>
        <time>2022-05-06T14:54:49Z</time>
      </trkpt>
      <trkpt lat="27.737407" lon="-17.952520">
        <ele>796.673</ele>
        <time>2022-05-06T14:54:21Z</time>
      </trkpt>
      <trkpt lat="27.737583" lon="-17.952397">
        <ele>803.852</ele>
        <time>2022-05-06T14:53:17Z</time>
      </trkpt>
      <trkpt lat="27.737847" lon="-17.952457">
        <ele>814.997</ele>
        <time>2022-05-06T14:51:47Z</time>
      </trkpt>
      <trkpt lat="27.737972" lon="-17.952273">
        <ele>814.337</ele>
        <time>2022-05-06T14:51:17Z</time>
      </trkpt>
      <trkpt lat="27.737974" lon="-17.951928">
        <ele>804.563</ele>
        <time>2022-05-06T14:50:26Z</time>
      </trkpt>
      <trkpt lat="27.738175" lon="-17.951458">
        <ele>804.341</ele>
        <time>2022-05-06T14:48:35Z</time>
      </trkpt>
      <trkpt lat="27.737944" lon="-17.951422">
        <ele>806.081</ele>
        <time>2022-05-06T14:47:13Z</time>
      </trkpt>
      <trkpt lat="27.738196" lon="-17.951480">
        <ele>808.209</ele>
        <time>2022-05-06T14:46:38Z</time>
      </trkpt>
      <trkpt lat="27.738079" lon="-17.951406">
        <ele>807.809</ele>
        <time>2022-05-06T14:45:49Z</time>
      </trkpt>
      <trkpt lat="27.738285" lon="-17.951308">
        <ele>801.895</ele>
        <time>2022-05-06T14:45:14Z</time>
      </trkpt>
      <trkpt lat="27.738263" lon="-17.951153">
        <ele>801.299</ele>
        <time>2022-05-06T14:44:55Z</time>
      </trkpt>
      <trkpt lat="27.738515" lon="-17.950674">
        <ele>803.827</ele>
        <time>2022-05-06T14:43:41Z</time>
      </trkpt>
      <trkpt lat="27.738549" lon="-17.950386">
        <ele>802.673</ele>
        <time>2022-05-06T14:43:18Z</time>
      </trkpt>
      <trkpt lat="27.738777" lon="-17.950165">
        <ele>796.745</ele>
        <time>2022-05-06T14:42:19Z</time>
      </trkpt>
      <trkpt lat="27.738684" lon="-17.949794">
        <ele>791.024</ele>
        <time>2022-05-06T14:40:54Z</time>
      </trkpt>
    </trkseg>
  </trk></gpx>