<?xml version="1.0" encoding="UTF-8"?>
<gpx version="1.1" creator="Aventuras en Cada Paso" xmlns="http://www.topografix.com/GPX/1/1">
  <metadata>
    <name>Roque Agando – Mirador</name>
    <desc>Corto paseo hasta el mirador del Roque Agando, el monolito basáltico más famoso de La Gomera. Vistas al sur de la isla y al barranco de Santiago.</desc>
    <author><name>Aventuras en Cada Paso</name></author>
    <time>2026-07-08T08:12:58.199Z</time>
    <keywords>La Gomera, Senderismo, Fácil, senderismo Canarias</keywords>
  </metadata>
  <wpt lat="28.0994" lon="-17.2156">
    <name>Roque Agando – Mirador</name>
    <desc>Corto paseo hasta el mirador del Roque Agando, el monolito basáltico más famoso de La Gomera. Vistas al sur de la isla y al barranco de Santiago. | Isla: La Gomera | Tipo: Senderismo | Dificultad: Fácil | Distancia: 2km | Duración: Menos de 2h</desc>
    <type>Senderismo</type>
    <extensions>
      <isla>La Gomera</isla>
      <dificultad>Fácil</dificultad>
      <distancia>2</distancia>
      <duracion>Menos de 2h</duracion>
    </extensions>
  </wpt>
</gpx>