<?xml version="1.0" encoding="UTF-8"?>
<gpx creator="Wikiloc - https://www.wikiloc.com" version="1.1" xmlns="http://www.topografix.com/GPX/1/1" xmlns:xsi="http://www.w3.org/2001/XMLSchema-instance" xsi:schemaLocation="http://www.topografix.com/GPX/1/1 http://www.topografix.com/GPX/1/1/gpx.xsd">
  <metadata>
    <name>Wikiloc - Senda Litoral de las Puntas. Frontera</name>
    <link href="https://www.wikiloc.com/hiking-trails/senda-litoral-de-las-puntas-frontera-77672864">
      <text>Senda Litoral de las Puntas. Frontera - Wikiloc on Wikiloc</text>
    </link>
    <time>2021-07-07T21:41:51Z</time>
  </metadata>
  <trk>
    <name>Senda Litoral de las Puntas. Frontera - Wikiloc</name>
    <cmt></cmt>
    <desc></desc>
    <trkseg>
      <trkpt lat="27.796987" lon="-17.991270">
        <ele>14.376</ele>
        <time>2021-07-07T19:18:21Z</time>
      </trkpt>
      <trkpt lat="27.796924" lon="-17.991295">
        <ele>14.390</ele>
        <time>2021-07-07T19:18:23Z</time>
      </trkpt>
      <trkpt lat="27.797009" lon="-17.991430">
        <ele>12.719</ele>
        <time>2021-07-07T19:18:44Z</time>
      </trkpt>
      <trkpt lat="27.797035" lon="-17.991595">
        <ele>11.508</ele>
        <time>2021-07-07T19:18:59Z</time>
      </trkpt>
      <trkpt lat="27.796996" lon="-17.991680">
        <ele>10.934</ele>
        <time>2021-07-07T19:19:09Z</time>
      </trkpt>
      <trkpt lat="27.797082" lon="-17.991881">
        <ele>9.824</ele>
        <time>2021-07-07T19:19:30Z</time>
      </trkpt>
      <trkpt lat="27.797377" lon="-17.992222">
        <ele>6.913</ele>
        <time>2021-07-07T19:20:13Z</time>
      </trkpt>
      <trkpt lat="27.797421" lon="-17.992360">
        <ele>6.454</ele>
        <time>2021-07-07T19:20:33Z</time>
      </trkpt>
      <trkpt lat="27.797388" lon="-17.992457">
        <ele>6.569</ele>
        <time>2021-07-07T19:20:45Z</time>
      </trkpt>
      <trkpt lat="27.797395" lon="-17.992406">
        <ele>6.575</ele>
        <time>2021-07-07T19:21:26Z</time>
      </trkpt>
      <trkpt lat="27.797534" lon="-17.992412">
        <ele>5.593</ele>
        <time>2021-07-07T19:22:19Z</time>
      </trkpt>
      <trkpt lat="27.797584" lon="-17.992550">
        <ele>4.351</ele>
        <time>2021-07-07T19:22:35Z</time>
      </trkpt>
      <trkpt lat="27.797173" lon="-17.992007">
        <ele>9.071</ele>
        <time>2021-07-07T19:24:16Z</time>
      </trkpt>
      <trkpt lat="27.797090" lon="-17.991989">
        <ele>9.341</ele>
        <time>2021-07-07T19:24:56Z</time>
      </trkpt>
      <trkpt lat="27.797082" lon="-17.992045">
        <ele>9.115</ele>
        <time>2021-07-07T19:25:15Z</time>
      </trkpt>
      <trkpt lat="27.797038" lon="-17.991692">
        <ele>10.908</ele>
        <time>2021-07-07T19:29:03Z</time>
      </trkpt>
      <trkpt lat="27.797076" lon="-17.991531">
        <ele>12.014</ele>
        <time>2021-07-07T19:29:18Z</time>
      </trkpt>
      <trkpt lat="27.796979" lon="-17.991289">
        <ele>14.154</ele>
        <time>2021-07-07T19:31:02Z</time>
      </trkpt>
      <trkpt lat="27.797140" lon="-17.991181">
        <ele>15.283</ele>
        <time>2021-07-07T19:31:43Z</time>
      </trkpt>
      <trkpt lat="27.797167" lon="-17.991021">
        <ele>17.384</ele>
        <time>2021-07-07T19:31:55Z</time>
      </trkpt>
      <trkpt lat="27.797331" lon="-17.990834">
        <ele>19.669</ele>
        <time>2021-07-07T19:32:25Z</time>
      </trkpt>
      <trkpt lat="27.797574" lon="-17.990855">
        <ele>17.265</ele>
        <time>2021-07-07T19:32:48Z</time>
      </trkpt>
      <trkpt lat="27.797826" lon="-17.990678">
        <ele>11.973</ele>
        <time>2021-07-07T19:33:14Z</time>
      </trkpt>
      <trkpt lat="27.797933" lon="-17.990499">
        <ele>10.141</ele>
        <time>2021-07-07T19:33:30Z</time>
      </trkpt>
      <trkpt lat="27.797872" lon="-17.990344">
        <ele>13.055</ele>
        <time>2021-07-07T19:33:42Z</time>
      </trkpt>
      <trkpt lat="27.797908" lon="-17.990194">
        <ele>15.307</ele>
        <time>2021-07-07T19:33:57Z</time>
      </trkpt>
      <trkpt lat="27.798461" lon="-17.989876">
        <ele>16.917</ele>
        <time>2021-07-07T19:35:09Z</time>
      </trkpt>
      <trkpt lat="27.798529" lon="-17.989805">
        <ele>18.108</ele>
        <time>2021-07-07T19:35:16Z</time>
      </trkpt>
      <trkpt lat="27.798569" lon="-17.989642">
        <ele>24.142</ele>
        <time>2021-07-07T19:35:31Z</time>
      </trkpt>
      <trkpt lat="27.798709" lon="-17.989642">
        <ele>20.692</ele>
        <time>2021-07-07T19:35:48Z</time>
      </trkpt>
      <trkpt lat="27.798961" lon="-17.989777">
        <ele>10.091</ele>
        <time>2021-07-07T19:36:19Z</time>
      </trkpt>
      <trkpt lat="27.799092" lon="-17.989734">
        <ele>8.272</ele>
        <time>2021-07-07T19:36:40Z</time>
      </trkpt>
      <trkpt lat="27.799126" lon="-17.989698">
        <ele>8.487</ele>
        <time>2021-07-07T19:36:45Z</time>
      </trkpt>
      <trkpt lat="27.799071" lon="-17.989392">
        <ele>19.323</ele>
        <time>2021-07-07T19:37:20Z</time>
      </trkpt>
      <trkpt lat="27.799108" lon="-17.989348">
        <ele>19.081</ele>
        <time>2021-07-07T19:37:25Z</time>
      </trkpt>
      <trkpt lat="27.799262" lon="-17.989349">
        <ele>13.849</ele>
        <time>2021-07-07T19:37:38Z</time>
      </trkpt>
      <trkpt lat="27.799306" lon="-17.989069">
        <ele>20.554</ele>
        <time>2021-07-07T19:38:02Z</time>
      </trkpt>
      <trkpt lat="27.799477" lon="-17.988867">
        <ele>21.756</ele>
        <time>2021-07-07T19:38:28Z</time>
      </trkpt>
      <trkpt lat="27.799853" lon="-17.988684">
        <ele>25.311</ele>
        <time>2021-07-07T19:39:13Z</time>
      </trkpt>
      <trkpt lat="27.800009" lon="-17.988683">
        <ele>21.308</ele>
        <time>2021-07-07T19:39:28Z</time>
      </trkpt>
      <trkpt lat="27.800132" lon="-17.988527">
        <ele>27.672</ele>
        <time>2021-07-07T19:39:48Z</time>
      </trkpt>
      <trkpt lat="27.800369" lon="-17.988551">
        <ele>23.892</ele>
        <time>2021-07-07T19:40:13Z</time>
      </trkpt>
      <trkpt lat="27.800618" lon="-17.988707">
        <ele>16.181</ele>
        <time>2021-07-07T19:40:50Z</time>
      </trkpt>
      <trkpt lat="27.800584" lon="-17.988803">
        <ele>13.692</ele>
        <time>2021-07-07T19:41:21Z</time>
      </trkpt>
      <trkpt lat="27.800655" lon="-17.988740">
        <ele>14.777</ele>
        <time>2021-07-07T19:43:41Z</time>
      </trkpt>
      <trkpt lat="27.800578" lon="-17.988790">
        <ele>14.033</ele>
        <time>2021-07-07T19:44:21Z</time>
      </trkpt>
      <trkpt lat="27.800539" lon="-17.988693">
        <ele>17.481</ele>
        <time>2021-07-07T19:44:44Z</time>
      </trkpt>
      <trkpt lat="27.800377" lon="-17.988566">
        <ele>23.039</ele>
        <time>2021-07-07T19:45:09Z</time>
      </trkpt>
      <trkpt lat="27.800399" lon="-17.988521">
        <ele>25.164</ele>
        <time>2021-07-07T19:45:19Z</time>
      </trkpt>
      <trkpt lat="27.800446" lon="-17.988514">
        <ele>25.206</ele>
        <time>2021-07-07T19:45:24Z</time>
      </trkpt>
      <trkpt lat="27.800633" lon="-17.988688">
        <ele>16.416</ele>
        <time>2021-07-07T19:45:51Z</time>
      </trkpt>
      <trkpt lat="27.800681" lon="-17.988686">
        <ele>15.808</ele>
        <time>2021-07-07T19:45:56Z</time>
      </trkpt>
      <trkpt lat="27.800963" lon="-17.988490">
        <ele>17.353</ele>
        <time>2021-07-07T19:46:48Z</time>
      </trkpt>
      <trkpt lat="27.800994" lon="-17.988528">
        <ele>15.543</ele>
        <time>2021-07-07T19:47:34Z</time>
      </trkpt>
      <trkpt lat="27.800943" lon="-17.988616">
        <ele>13.382</ele>
        <time>2021-07-07T19:48:32Z</time>
      </trkpt>
      <trkpt lat="27.800990" lon="-17.988703">
        <ele>11.333</ele>
        <time>2021-07-07T19:49:59Z</time>
      </trkpt>
      <trkpt lat="27.800922" lon="-17.988619">
        <ele>13.688</ele>
        <time>2021-07-07T20:32:02Z</time>
      </trkpt>
      <trkpt lat="27.800928" lon="-17.988534">
        <ele>16.354</ele>
        <time>2021-07-07T20:33:29Z</time>
      </trkpt>
      <trkpt lat="27.800997" lon="-17.988469">
        <ele>17.512</ele>
        <time>2021-07-07T20:34:13Z</time>
      </trkpt>
      <trkpt lat="27.801040" lon="-17.988318">
        <ele>22.050</ele>
        <time>2021-07-07T20:35:01Z</time>
      </trkpt>
      <trkpt lat="27.801089" lon="-17.988321">
        <ele>21.092</ele>
        <time>2021-07-07T20:35:05Z</time>
      </trkpt>
      <trkpt lat="27.800913" lon="-17.988282">
        <ele>26.173</ele>
        <time>2021-07-07T20:36:02Z</time>
      </trkpt>
      <trkpt lat="27.801029" lon="-17.988113">
        <ele>32.020</ele>
        <time>2021-07-07T20:36:51Z</time>
      </trkpt>
      <trkpt lat="27.800933" lon="-17.988094">
        <ele>35.008</ele>
        <time>2021-07-07T20:38:19Z</time>
      </trkpt>
      <trkpt lat="27.800713" lon="-17.988183">
        <ele>35.826</ele>
        <time>2021-07-07T20:38:46Z</time>
      </trkpt>
      <trkpt lat="27.800617" lon="-17.988299">
        <ele>32.956</ele>
        <time>2021-07-07T20:39:11Z</time>
      </trkpt>
      <trkpt lat="27.800210" lon="-17.988528">
        <ele>26.525</ele>
        <time>2021-07-07T20:41:09Z</time>
      </trkpt>
      <trkpt lat="27.800213" lon="-17.988583">
        <ele>23.576</ele>
        <time>2021-07-07T20:41:18Z</time>
      </trkpt>
      <trkpt lat="27.800068" lon="-17.988602">
        <ele>24.551</ele>
        <time>2021-07-07T20:41:37Z</time>
      </trkpt>
      <trkpt lat="27.799728" lon="-17.988782">
        <ele>23.047</ele>
        <time>2021-07-07T20:42:17Z</time>
      </trkpt>
      <trkpt lat="27.799494" lon="-17.988847">
        <ele>22.615</ele>
        <time>2021-07-07T20:42:42Z</time>
      </trkpt>
      <trkpt lat="27.799258" lon="-17.989097">
        <ele>21.383</ele>
        <time>2021-07-07T20:43:18Z</time>
      </trkpt>
      <trkpt lat="27.799243" lon="-17.989306">
        <ele>15.414</ele>
        <time>2021-07-07T20:43:36Z</time>
      </trkpt>
      <trkpt lat="27.799107" lon="-17.989358">
        <ele>18.754</ele>
        <time>2021-07-07T20:43:51Z</time>
      </trkpt>
      <trkpt lat="27.799038" lon="-17.989435">
        <ele>19.409</ele>
        <time>2021-07-07T20:44:01Z</time>
      </trkpt>
      <trkpt lat="27.799124" lon="-17.989689">
        <ele>8.608</ele>
        <time>2021-07-07T20:44:25Z</time>
      </trkpt>
      <trkpt lat="27.799103" lon="-17.989739">
        <ele>8.098</ele>
        <time>2021-07-07T20:44:31Z</time>
      </trkpt>
      <trkpt lat="27.798970" lon="-17.989796">
        <ele>9.688</ele>
        <time>2021-07-07T20:44:46Z</time>
      </trkpt>
      <trkpt lat="27.798570" lon="-17.989656">
        <ele>23.427</ele>
        <time>2021-07-07T20:45:43Z</time>
      </trkpt>
      <trkpt lat="27.798488" lon="-17.989709">
        <ele>22.868</ele>
        <time>2021-07-07T20:45:52Z</time>
      </trkpt>
      <trkpt lat="27.798379" lon="-17.989898">
        <ele>17.633</ele>
        <time>2021-07-07T20:46:12Z</time>
      </trkpt>
      <trkpt lat="27.797781" lon="-17.990167">
        <ele>19.569</ele>
        <time>2021-07-07T20:47:33Z</time>
      </trkpt>
      <trkpt lat="27.797764" lon="-17.990276">
        <ele>16.547</ele>
        <time>2021-07-07T20:47:43Z</time>
      </trkpt>
      <trkpt lat="27.797824" lon="-17.990475">
        <ele>12.865</ele>
        <time>2021-07-07T20:48:02Z</time>
      </trkpt>
      <trkpt lat="27.797782" lon="-17.990635">
        <ele>12.924</ele>
        <time>2021-07-07T20:48:19Z</time>
      </trkpt>
      <trkpt lat="27.797440" lon="-17.990863">
        <ele>18.904</ele>
        <time>2021-07-07T20:49:02Z</time>
      </trkpt>
      <trkpt lat="27.797208" lon="-17.990889">
        <ele>19.214</ele>
        <time>2021-07-07T20:49:27Z</time>
      </trkpt>
      <trkpt lat="27.797025" lon="-17.991205">
        <ele>15.008</ele>
        <time>2021-07-07T20:50:01Z</time>
      </trkpt>
      <trkpt lat="27.796902" lon="-17.991284">
        <ele>14.769</ele>
        <time>2021-07-07T20:50:35Z</time>
      </trkpt>
      <trkpt lat="27.796812" lon="-17.991477">
        <ele>14.119</ele>
        <time>2021-07-07T20:50:57Z</time>
      </trkpt>
      <trkpt lat="27.796721" lon="-17.991505">
        <ele>15.078</ele>
        <time>2021-07-07T20:51:13Z</time>
      </trkpt>
      <trkpt lat="27.796586" lon="-17.991460">
        <ele>16.399</ele>
        <time>2021-07-07T20:51:30Z</time>
      </trkpt>
      <trkpt lat="27.796310" lon="-17.991567">
        <ele>15.444</ele>
        <time>2021-07-07T20:51:55Z</time>
      </trkpt>
      <trkpt lat="27.796063" lon="-17.991803">
        <ele>12.320</ele>
        <time>2021-07-07T20:53:46Z</time>
      </trkpt>
      <trkpt lat="27.795962" lon="-17.991799">
        <ele>14.058</ele>
        <time>2021-07-07T20:54:01Z</time>
      </trkpt>
      <trkpt lat="27.795941" lon="-17.991989">
        <ele>12.886</ele>
        <time>2021-07-07T20:54:42Z</time>
      </trkpt>
      <trkpt lat="27.795761" lon="-17.991979">
        <ele>16.346</ele>
        <time>2021-07-07T20:55:04Z</time>
      </trkpt>
      <trkpt lat="27.795592" lon="-17.992091">
        <ele>18.788</ele>
        <time>2021-07-07T20:55:22Z</time>
      </trkpt>
      <trkpt lat="27.795714" lon="-17.992089">
        <ele>16.316</ele>
        <time>2021-07-07T20:56:04Z</time>
      </trkpt>
      <trkpt lat="27.795739" lon="-17.991993">
        <ele>16.608</ele>
        <time>2021-07-07T20:56:33Z</time>
      </trkpt>
      <trkpt lat="27.795919" lon="-17.991946">
        <ele>13.431</ele>
        <time>2021-07-07T20:56:54Z</time>
      </trkpt>
      <trkpt lat="27.795967" lon="-17.991763">
        <ele>14.271</ele>
        <time>2021-07-07T20:57:26Z</time>
      </trkpt>
      <trkpt lat="27.796144" lon="-17.991701">
        <ele>12.940</ele>
        <time>2021-07-07T20:58:13Z</time>
      </trkpt>
      <trkpt lat="27.796213" lon="-17.991850">
        <ele>11.891</ele>
        <time>2021-07-07T20:58:35Z</time>
      </trkpt>
      <trkpt lat="27.796217" lon="-17.992069">
        <ele>10.066</ele>
        <time>2021-07-07T20:59:13Z</time>
      </trkpt>
      <trkpt lat="27.796348" lon="-17.992129">
        <ele>9.912</ele>
        <time>2021-07-07T20:59:38Z</time>
      </trkpt>
      <trkpt lat="27.796181" lon="-17.992043">
        <ele>10.020</ele>
        <time>2021-07-07T21:02:46Z</time>
      </trkpt>
      <trkpt lat="27.795982" lon="-17.992271">
        <ele>10.678</ele>
        <time>2021-07-07T21:03:15Z</time>
      </trkpt>
      <trkpt lat="27.796171" lon="-17.992300">
        <ele>8.727</ele>
        <time>2021-07-07T21:06:18Z</time>
      </trkpt>
      <trkpt lat="27.796159" lon="-17.992500">
        <ele>7.868</ele>
        <time>2021-07-07T21:07:44Z</time>
      </trkpt>
      <trkpt lat="27.796203" lon="-17.992359">
        <ele>8.314</ele>
        <time>2021-07-07T21:09:21Z</time>
      </trkpt>
      <trkpt lat="27.796017" lon="-17.992190">
        <ele>10.508</ele>
        <time>2021-07-07T21:09:49Z</time>
      </trkpt>
      <trkpt lat="27.795958" lon="-17.992270">
        <ele>10.999</ele>
        <time>2021-07-07T21:10:51Z</time>
      </trkpt>
      <trkpt lat="27.795970" lon="-17.992098">
        <ele>11.799</ele>
        <time>2021-07-07T21:12:45Z</time>
      </trkpt>
      <trkpt lat="27.795989" lon="-17.992146">
        <ele>11.248</ele>
        <time>2021-07-07T21:13:11Z</time>
      </trkpt>
      <trkpt lat="27.796098" lon="-17.991957">
        <ele>10.249</ele>
        <time>2021-07-07T21:13:58Z</time>
      </trkpt>
      <trkpt lat="27.796227" lon="-17.992116">
        <ele>9.764</ele>
        <time>2021-07-07T21:14:16Z</time>
      </trkpt>
      <trkpt lat="27.796251" lon="-17.992353">
        <ele>8.330</ele>
        <time>2021-07-07T21:14:35Z</time>
      </trkpt>
      <trkpt lat="27.796116" lon="-17.992608">
        <ele>7.638</ele>
        <time>2021-07-07T21:14:42Z</time>
      </trkpt>
      <trkpt lat="27.796070" lon="-17.992594">
        <ele>8.116</ele>
        <time>2021-07-07T21:14:44Z</time>
      </trkpt>
      <trkpt lat="27.796203" lon="-17.992481">
        <ele>7.836</ele>
        <time>2021-07-07T21:14:48Z</time>
      </trkpt>
      <trkpt lat="27.796102" lon="-17.992586">
        <ele>7.817</ele>
        <time>2021-07-07T21:14:59Z</time>
      </trkpt>
      <trkpt lat="27.796032" lon="-17.992494">
        <ele>8.918</ele>
        <time>2021-07-07T21:15:12Z</time>
      </trkpt>
      <trkpt lat="27.796008" lon="-17.992541">
        <ele>8.908</ele>
        <time>2021-07-07T21:15:28Z</time>
      </trkpt>
      <trkpt lat="27.796063" lon="-17.992564">
        <ele>8.220</ele>
        <time>2021-07-07T21:15:38Z</time>
      </trkpt>
      <trkpt lat="27.796033" lon="-17.992480">
        <ele>8.990</ele>
        <time>2021-07-07T21:16:36Z</time>
      </trkpt>
      <trkpt lat="27.796109" lon="-17.992542">
        <ele>7.999</ele>
        <time>2021-07-07T21:17:21Z</time>
      </trkpt>
      <trkpt lat="27.796177" lon="-17.992496">
        <ele>7.880</ele>
        <time>2021-07-07T21:17:56Z</time>
      </trkpt>
      <trkpt lat="27.796135" lon="-17.992517">
        <ele>7.915</ele>
        <time>2021-07-07T21:18:04Z</time>
      </trkpt>
      <trkpt lat="27.796084" lon="-17.992399">
        <ele>8.741</ele>
        <time>2021-07-07T21:18:39Z</time>
      </trkpt>
      <trkpt lat="27.796045" lon="-17.992425">
        <ele>9.089</ele>
        <time>2021-07-07T21:19:00Z</time>
      </trkpt>
      <trkpt lat="27.796106" lon="-17.992228">
        <ele>9.147</ele>
        <time>2021-07-07T21:21:00Z</time>
      </trkpt>
      <trkpt lat="27.796060" lon="-17.992233">
        <ele>9.795</ele>
        <time>2021-07-07T21:21:33Z</time>
      </trkpt>
      <trkpt lat="27.795994" lon="-17.992412">
        <ele>9.749</ele>
        <time>2021-07-07T21:24:47Z</time>
      </trkpt>
      <trkpt lat="27.796007" lon="-17.992321">
        <ele>10.023</ele>
        <time>2021-07-07T21:25:26Z</time>
      </trkpt>
      <trkpt lat="27.796073" lon="-17.992441">
        <ele>8.708</ele>
        <time>2021-07-07T21:26:43Z</time>
      </trkpt>
      <trkpt lat="27.796169" lon="-17.992445">
        <ele>8.096</ele>
        <time>2021-07-07T21:27:18Z</time>
      </trkpt>
      <trkpt lat="27.796047" lon="-17.992448">
        <ele>8.916</ele>
        <time>2021-07-07T21:27:55Z</time>
      </trkpt>
      <trkpt lat="27.796015" lon="-17.992486">
        <ele>9.115</ele>
        <time>2021-07-07T21:27:58Z</time>
      </trkpt>
      <trkpt lat="27.795869" lon="-17.992454">
        <ele>10.966</ele>
        <time>2021-07-07T21:28:04Z</time>
      </trkpt>
      <trkpt lat="27.795984" lon="-17.992183">
        <ele>11.041</ele>
        <time>2021-07-07T21:28:21Z</time>
      </trkpt>
      <trkpt lat="27.795976" lon="-17.992234">
        <ele>10.927</ele>
        <time>2021-07-07T21:29:05Z</time>
      </trkpt>
      <trkpt lat="27.795563" lon="-17.992520">
        <ele>14.665</ele>
        <time>2021-07-07T21:31:03Z</time>
      </trkpt>
      <trkpt lat="27.795466" lon="-17.992534">
        <ele>15.863</ele>
        <time>2021-07-07T21:32:31Z</time>
      </trkpt>
      <trkpt lat="27.795217" lon="-17.992460">
        <ele>20.599</ele>
        <time>2021-07-07T21:34:42Z</time>
      </trkpt>
      <trkpt lat="27.795097" lon="-17.992236">
        <ele>25.407</ele>
        <time>2021-07-07T21:35:25Z</time>
      </trkpt>
      <trkpt lat="27.795122" lon="-17.991867">
        <ele>23.627</ele>
        <time>2021-07-07T21:36:01Z</time>
      </trkpt>
      <trkpt lat="27.795309" lon="-17.991707">
        <ele>22.808</ele>
        <time>2021-07-07T21:36:29Z</time>
      </trkpt>
      <trkpt lat="27.795452" lon="-17.991493">
        <ele>23.666</ele>
        <time>2021-07-07T21:36:54Z</time>
      </trkpt>
      <trkpt lat="27.795851" lon="-17.991327">
        <ele>20.076</ele>
        <time>2021-07-07T21:37:57Z</time>
      </trkpt>
      <trkpt lat="27.795807" lon="-17.991310">
        <ele>20.745</ele>
        <time>2021-07-07T21:38:19Z</time>
      </trkpt>
      <trkpt lat="27.796272" lon="-17.991229">
        <ele>18.296</ele>
        <time>2021-07-07T21:39:22Z</time>
      </trkpt>
      <trkpt lat="27.796530" lon="-17.991090">
        <ele>19.291</ele>
        <time>2021-07-07T21:39:50Z</time>
      </trkpt>
      <trkpt lat="27.797112" lon="-17.990951">
        <ele>18.377</ele>
        <time>2021-07-07T21:40:52Z</time>
      </trkpt>
      <trkpt lat="27.796725" lon="-17.991459">
        <ele>15.515</ele>
        <time>2021-07-07T21:41:51Z</time>
      </trkpt>
    </trkseg>
  </trk></gpx>