<?xml version="1.0" encoding="UTF-8"?>
<gpx version="1.1" creator="Aventuras en Cada Paso" xmlns="http://www.topografix.com/GPX/1/1">
  <metadata>
    <name>Roque del Conde – Arona</name>
    <desc>Ascenso al Roque del Conde (1.001 m) con vistas de la Caldera del Rey y en días despejados La Palma, La Gomera y El Hierro.</desc>
    <author><name>Aventuras en Cada Paso</name></author>
    <time>2026-07-08T08:12:58.159Z</time>
    <keywords>Tenerife, Senderismo, Media, senderismo Canarias</keywords>
  </metadata>
  <wpt lat="28.1342" lon="-16.6831">
    <name>Roque del Conde – Arona</name>
    <desc>Ascenso al Roque del Conde (1.001 m) con vistas de la Caldera del Rey y en días despejados La Palma, La Gomera y El Hierro. | Isla: Tenerife | Tipo: Senderismo | Dificultad: Media | Distancia: 5km | Duración: 2-4 horas</desc>
    <type>Senderismo</type>
    <extensions>
      <isla>Tenerife</isla>
      <dificultad>Media</dificultad>
      <distancia>5</distancia>
      <duracion>2-4 horas</duracion>
    </extensions>
  </wpt>
</gpx>