<?xml version="1.0" encoding="UTF-8"?>
<gpx creator="Wikiloc - https://www.wikiloc.com" version="1.1" xmlns="http://www.topografix.com/GPX/1/1" xmlns:xsi="http://www.w3.org/2001/XMLSchema-instance" xsi:schemaLocation="http://www.topografix.com/GPX/1/1 http://www.topografix.com/GPX/1/1/gpx.xsd">
  <metadata>
    <name>Wikiloc - Gran Canaria. Degollada Becerra-Roque Nublo-Degollada Becerr...</name>
    <link href="https://www.wikiloc.com/hiking-trails/gran-canaria-degollada-becerra-roque-nublo-degollada-becerra-7544783">
      <text>Gran Canaria. Degollada Becerra-Roque Nublo-Degollada Becerr... on Wikiloc</text>
    </link>
    <time>2014-08-15T17:11:58Z</time>
  </metadata>
  <trk>
    <name>Gran Canaria. Degollada Becerra-Roque Nublo-Degollada Becerr... - Wikiloc</name>
    <cmt></cmt>
    <desc></desc>
    <trkseg>
      <trkpt lat="27.988712" lon="-15.593313">
        <ele>1551.253</ele>
        <time>2014-08-15T08:39:14Z</time>
      </trkpt>
      <trkpt lat="27.988449" lon="-15.593225">
        <ele>1553.204</ele>
        <time>2014-08-15T08:39:59Z</time>
      </trkpt>
      <trkpt lat="27.987831" lon="-15.593310">
        <ele>1564.414</ele>
        <time>2014-08-15T08:41:36Z</time>
      </trkpt>
      <trkpt lat="27.987667" lon="-15.593117">
        <ele>1568.307</ele>
        <time>2014-08-15T08:42:28Z</time>
      </trkpt>
      <trkpt lat="27.986809" lon="-15.592568">
        <ele>1571.252</ele>
        <time>2014-08-15T08:44:00Z</time>
      </trkpt>
      <trkpt lat="27.985441" lon="-15.592510">
        <ele>1578.660</ele>
        <time>2014-08-15T08:46:11Z</time>
      </trkpt>
      <trkpt lat="27.985090" lon="-15.592345">
        <ele>1570.139</ele>
        <time>2014-08-15T08:47:07Z</time>
      </trkpt>
      <trkpt lat="27.985083" lon="-15.592078">
        <ele>1571.639</ele>
        <time>2014-08-15T08:47:39Z</time>
      </trkpt>
      <trkpt lat="27.984837" lon="-15.592343">
        <ele>1558.842</ele>
        <time>2014-08-15T08:49:50Z</time>
      </trkpt>
      <trkpt lat="27.984682" lon="-15.591923">
        <ele>1559.263</ele>
        <time>2014-08-15T08:50:56Z</time>
      </trkpt>
      <trkpt lat="27.984543" lon="-15.592338">
        <ele>1543.018</ele>
        <time>2014-08-15T08:51:45Z</time>
      </trkpt>
      <trkpt lat="27.984425" lon="-15.592422">
        <ele>1534.037</ele>
        <time>2014-08-15T08:52:03Z</time>
      </trkpt>
      <trkpt lat="27.984470" lon="-15.592152">
        <ele>1543.649</ele>
        <time>2014-08-15T08:52:38Z</time>
      </trkpt>
      <trkpt lat="27.984406" lon="-15.592185">
        <ele>1539.013</ele>
        <time>2014-08-15T08:52:52Z</time>
      </trkpt>
      <trkpt lat="27.984375" lon="-15.591917">
        <ele>1546.707</ele>
        <time>2014-08-15T08:53:32Z</time>
      </trkpt>
      <trkpt lat="27.984232" lon="-15.592138">
        <ele>1530.770</ele>
        <time>2014-08-15T08:54:09Z</time>
      </trkpt>
      <trkpt lat="27.984205" lon="-15.591833">
        <ele>1542.498</ele>
        <time>2014-08-15T08:54:53Z</time>
      </trkpt>
      <trkpt lat="27.983925" lon="-15.591655">
        <ele>1536.127</ele>
        <time>2014-08-15T08:55:31Z</time>
      </trkpt>
      <trkpt lat="27.983629" lon="-15.591633">
        <ele>1527.717</ele>
        <time>2014-08-15T08:56:13Z</time>
      </trkpt>
      <trkpt lat="27.983463" lon="-15.591775">
        <ele>1510.160</ele>
        <time>2014-08-15T08:56:48Z</time>
      </trkpt>
      <trkpt lat="27.983339" lon="-15.591658">
        <ele>1510.081</ele>
        <time>2014-08-15T08:57:07Z</time>
      </trkpt>
      <trkpt lat="27.983208" lon="-15.591625">
        <ele>1505.726</ele>
        <time>2014-08-15T08:57:23Z</time>
      </trkpt>
      <trkpt lat="27.983088" lon="-15.591705">
        <ele>1494.463</ele>
        <time>2014-08-15T08:57:41Z</time>
      </trkpt>
      <trkpt lat="27.982798" lon="-15.591540">
        <ele>1503.844</ele>
        <time>2014-08-15T08:58:31Z</time>
      </trkpt>
      <trkpt lat="27.982716" lon="-15.591607">
        <ele>1499.318</ele>
        <time>2014-08-15T08:58:57Z</time>
      </trkpt>
      <trkpt lat="27.982498" lon="-15.591573">
        <ele>1498.707</ele>
        <time>2014-08-15T08:59:32Z</time>
      </trkpt>
      <trkpt lat="27.982290" lon="-15.591708">
        <ele>1482.753</ele>
        <time>2014-08-15T09:00:44Z</time>
      </trkpt>
      <trkpt lat="27.982019" lon="-15.591462">
        <ele>1487.941</ele>
        <time>2014-08-15T09:01:19Z</time>
      </trkpt>
      <trkpt lat="27.981842" lon="-15.591002">
        <ele>1501.240</ele>
        <time>2014-08-15T09:02:04Z</time>
      </trkpt>
      <trkpt lat="27.981123" lon="-15.590778">
        <ele>1475.580</ele>
        <time>2014-08-15T09:03:31Z</time>
      </trkpt>
      <trkpt lat="27.980825" lon="-15.590405">
        <ele>1477.573</ele>
        <time>2014-08-15T09:04:20Z</time>
      </trkpt>
      <trkpt lat="27.980785" lon="-15.590065">
        <ele>1484.124</ele>
        <time>2014-08-15T09:04:54Z</time>
      </trkpt>
      <trkpt lat="27.980562" lon="-15.589883">
        <ele>1480.969</ele>
        <time>2014-08-15T09:05:31Z</time>
      </trkpt>
      <trkpt lat="27.980402" lon="-15.589592">
        <ele>1490.779</ele>
        <time>2014-08-15T09:06:19Z</time>
      </trkpt>
      <trkpt lat="27.979900" lon="-15.589928">
        <ele>1492.805</ele>
        <time>2014-08-15T09:07:21Z</time>
      </trkpt>
      <trkpt lat="27.979763" lon="-15.590945">
        <ele>1482.425</ele>
        <time>2014-08-15T09:10:15Z</time>
      </trkpt>
      <trkpt lat="27.979511" lon="-15.591205">
        <ele>1491.107</ele>
        <time>2014-08-15T09:10:50Z</time>
      </trkpt>
      <trkpt lat="27.979431" lon="-15.591477">
        <ele>1489.264</ele>
        <time>2014-08-15T09:11:10Z</time>
      </trkpt>
      <trkpt lat="27.979492" lon="-15.591678">
        <ele>1476.912</ele>
        <time>2014-08-15T09:11:26Z</time>
      </trkpt>
      <trkpt lat="27.979443" lon="-15.592035">
        <ele>1475.561</ele>
        <time>2014-08-15T09:11:54Z</time>
      </trkpt>
      <trkpt lat="27.979258" lon="-15.592148">
        <ele>1483.961</ele>
        <time>2014-08-15T09:12:20Z</time>
      </trkpt>
      <trkpt lat="27.979242" lon="-15.592667">
        <ele>1470.314</ele>
        <time>2014-08-15T09:13:01Z</time>
      </trkpt>
      <trkpt lat="27.979063" lon="-15.592797">
        <ele>1478.615</ele>
        <time>2014-08-15T09:13:23Z</time>
      </trkpt>
      <trkpt lat="27.979115" lon="-15.593240">
        <ele>1475.960</ele>
        <time>2014-08-15T09:13:53Z</time>
      </trkpt>
      <trkpt lat="27.979347" lon="-15.593512">
        <ele>1462.021</ele>
        <time>2014-08-15T09:14:23Z</time>
      </trkpt>
      <trkpt lat="27.979362" lon="-15.593800">
        <ele>1453.541</ele>
        <time>2014-08-15T09:14:47Z</time>
      </trkpt>
      <trkpt lat="27.979094" lon="-15.593875">
        <ele>1455.505</ele>
        <time>2014-08-15T09:15:16Z</time>
      </trkpt>
      <trkpt lat="27.978058" lon="-15.593620">
        <ele>1456.607</ele>
        <time>2014-08-15T09:17:43Z</time>
      </trkpt>
      <trkpt lat="27.977587" lon="-15.594132">
        <ele>1437.889</ele>
        <time>2014-08-15T09:19:18Z</time>
      </trkpt>
      <trkpt lat="27.977472" lon="-15.594720">
        <ele>1412.397</ele>
        <time>2014-08-15T09:22:36Z</time>
      </trkpt>
      <trkpt lat="27.977383" lon="-15.594630">
        <ele>1417.256</ele>
        <time>2014-08-15T09:23:48Z</time>
      </trkpt>
      <trkpt lat="27.977182" lon="-15.594727">
        <ele>1411.966</ele>
        <time>2014-08-15T09:25:01Z</time>
      </trkpt>
      <trkpt lat="27.976723" lon="-15.595185">
        <ele>1379.489</ele>
        <time>2014-08-15T09:28:49Z</time>
      </trkpt>
      <trkpt lat="27.976915" lon="-15.595210">
        <ele>1376.390</ele>
        <time>2014-08-15T09:29:28Z</time>
      </trkpt>
      <trkpt lat="27.976780" lon="-15.595472">
        <ele>1369.095</ele>
        <time>2014-08-15T09:30:03Z</time>
      </trkpt>
      <trkpt lat="27.976778" lon="-15.595807">
        <ele>1357.372</ele>
        <time>2014-08-15T09:30:44Z</time>
      </trkpt>
      <trkpt lat="27.977034" lon="-15.596757">
        <ele>1347.013</ele>
        <time>2014-08-15T09:31:51Z</time>
      </trkpt>
      <trkpt lat="27.976971" lon="-15.596918">
        <ele>1347.314</ele>
        <time>2014-08-15T09:32:01Z</time>
      </trkpt>
      <trkpt lat="27.976612" lon="-15.597305">
        <ele>1336.707</ele>
        <time>2014-08-15T09:32:40Z</time>
      </trkpt>
      <trkpt lat="27.976404" lon="-15.597280">
        <ele>1335.534</ele>
        <time>2014-08-15T09:32:59Z</time>
      </trkpt>
      <trkpt lat="27.975977" lon="-15.596717">
        <ele>1329.232</ele>
        <time>2014-08-15T09:33:57Z</time>
      </trkpt>
      <trkpt lat="27.975973" lon="-15.596493">
        <ele>1332.321</ele>
        <time>2014-08-15T09:34:18Z</time>
      </trkpt>
      <trkpt lat="27.975742" lon="-15.596042">
        <ele>1334.371</ele>
        <time>2014-08-15T09:34:53Z</time>
      </trkpt>
      <trkpt lat="27.975582" lon="-15.596305">
        <ele>1323.464</ele>
        <time>2014-08-15T09:35:25Z</time>
      </trkpt>
      <trkpt lat="27.975349" lon="-15.596478">
        <ele>1317.595</ele>
        <time>2014-08-15T09:36:04Z</time>
      </trkpt>
      <trkpt lat="27.975006" lon="-15.596638">
        <ele>1312.160</ele>
        <time>2014-08-15T09:36:58Z</time>
      </trkpt>
      <trkpt lat="27.974869" lon="-15.596558">
        <ele>1317.922</ele>
        <time>2014-08-15T09:37:13Z</time>
      </trkpt>
      <trkpt lat="27.974771" lon="-15.596610">
        <ele>1318.062</ele>
        <time>2014-08-15T09:37:23Z</time>
      </trkpt>
      <trkpt lat="27.974508" lon="-15.597133">
        <ele>1309.408</ele>
        <time>2014-08-15T09:38:03Z</time>
      </trkpt>
      <trkpt lat="27.974512" lon="-15.597393">
        <ele>1300.907</ele>
        <time>2014-08-15T09:38:24Z</time>
      </trkpt>
      <trkpt lat="27.974333" lon="-15.597780">
        <ele>1292.579</ele>
        <time>2014-08-15T09:38:56Z</time>
      </trkpt>
      <trkpt lat="27.973923" lon="-15.597817">
        <ele>1293.967</ele>
        <time>2014-08-15T09:39:43Z</time>
      </trkpt>
      <trkpt lat="27.973837" lon="-15.597915">
        <ele>1289.116</ele>
        <time>2014-08-15T09:39:51Z</time>
      </trkpt>
      <trkpt lat="27.974434" lon="-15.598572">
        <ele>1262.526</ele>
        <time>2014-08-15T09:41:07Z</time>
      </trkpt>
      <trkpt lat="27.973921" lon="-15.598368">
        <ele>1264.049</ele>
        <time>2014-08-15T09:41:58Z</time>
      </trkpt>
      <trkpt lat="27.973736" lon="-15.598547">
        <ele>1259.030</ele>
        <time>2014-08-15T09:42:19Z</time>
      </trkpt>
      <trkpt lat="27.973942" lon="-15.599312">
        <ele>1249.265</ele>
        <time>2014-08-15T09:44:52Z</time>
      </trkpt>
      <trkpt lat="27.973843" lon="-15.599707">
        <ele>1254.959</ele>
        <time>2014-08-15T09:45:36Z</time>
      </trkpt>
      <trkpt lat="27.973686" lon="-15.599845">
        <ele>1260.203</ele>
        <time>2014-08-15T09:45:50Z</time>
      </trkpt>
      <trkpt lat="27.973930" lon="-15.600327">
        <ele>1258.823</ele>
        <time>2014-08-15T09:46:43Z</time>
      </trkpt>
      <trkpt lat="27.973988" lon="-15.600642">
        <ele>1258.507</ele>
        <time>2014-08-15T09:47:14Z</time>
      </trkpt>
      <trkpt lat="27.973883" lon="-15.601117">
        <ele>1268.432</ele>
        <time>2014-08-15T09:47:59Z</time>
      </trkpt>
      <trkpt lat="27.973982" lon="-15.601233">
        <ele>1269.030</ele>
        <time>2014-08-15T09:48:10Z</time>
      </trkpt>
      <trkpt lat="27.974293" lon="-15.601285">
        <ele>1262.079</ele>
        <time>2014-08-15T09:49:23Z</time>
      </trkpt>
      <trkpt lat="27.974527" lon="-15.601565">
        <ele>1264.199</ele>
        <time>2014-08-15T09:50:14Z</time>
      </trkpt>
      <trkpt lat="27.974539" lon="-15.601820">
        <ele>1271.712</ele>
        <time>2014-08-15T09:50:33Z</time>
      </trkpt>
      <trkpt lat="27.974623" lon="-15.601907">
        <ele>1271.053</ele>
        <time>2014-08-15T09:50:41Z</time>
      </trkpt>
      <trkpt lat="27.975040" lon="-15.601937">
        <ele>1252.678</ele>
        <time>2014-08-15T09:51:17Z</time>
      </trkpt>
      <trkpt lat="27.975451" lon="-15.602127">
        <ele>1237.628</ele>
        <time>2014-08-15T09:51:57Z</time>
      </trkpt>
      <trkpt lat="27.975731" lon="-15.602370">
        <ele>1227.989</ele>
        <time>2014-08-15T09:52:33Z</time>
      </trkpt>
      <trkpt lat="27.975798" lon="-15.602463">
        <ele>1226.117</ele>
        <time>2014-08-15T09:52:42Z</time>
      </trkpt>
      <trkpt lat="27.975712" lon="-15.602697">
        <ele>1234.307</ele>
        <time>2014-08-15T09:53:00Z</time>
      </trkpt>
      <trkpt lat="27.975801" lon="-15.603083">
        <ele>1234.539</ele>
        <time>2014-08-15T09:53:34Z</time>
      </trkpt>
      <trkpt lat="27.975967" lon="-15.603243">
        <ele>1232.147</ele>
        <time>2014-08-15T09:53:50Z</time>
      </trkpt>
      <trkpt lat="27.976252" lon="-15.603280">
        <ele>1225.876</ele>
        <time>2014-08-15T09:54:13Z</time>
      </trkpt>
      <trkpt lat="27.976482" lon="-15.603022">
        <ele>1214.116</ele>
        <time>2014-08-15T09:54:37Z</time>
      </trkpt>
      <trkpt lat="27.976734" lon="-15.603030">
        <ele>1207.159</ele>
        <time>2014-08-15T09:55:13Z</time>
      </trkpt>
      <trkpt lat="27.976843" lon="-15.603382">
        <ele>1208.040</ele>
        <time>2014-08-15T09:55:45Z</time>
      </trkpt>
      <trkpt lat="27.976505" lon="-15.604570">
        <ele>1226.735</ele>
        <time>2014-08-15T09:58:34Z</time>
      </trkpt>
      <trkpt lat="27.976624" lon="-15.604647">
        <ele>1226.378</ele>
        <time>2014-08-15T09:58:53Z</time>
      </trkpt>
      <trkpt lat="27.976727" lon="-15.604528">
        <ele>1222.333</ele>
        <time>2014-08-15T09:59:28Z</time>
      </trkpt>
      <trkpt lat="27.976915" lon="-15.604597">
        <ele>1225.126</ele>
        <time>2014-08-15T09:59:53Z</time>
      </trkpt>
      <trkpt lat="27.976980" lon="-15.604768">
        <ele>1232.607</ele>
        <time>2014-08-15T10:01:06Z</time>
      </trkpt>
      <trkpt lat="27.977440" lon="-15.604700">
        <ele>1232.794</ele>
        <time>2014-08-15T10:02:35Z</time>
      </trkpt>
      <trkpt lat="27.977352" lon="-15.604578">
        <ele>1226.582</ele>
        <time>2014-08-15T10:03:20Z</time>
      </trkpt>
      <trkpt lat="27.977556" lon="-15.604805">
        <ele>1236.921</ele>
        <time>2014-08-15T10:03:54Z</time>
      </trkpt>
      <trkpt lat="27.977825" lon="-15.604818">
        <ele>1234.561</ele>
        <time>2014-08-15T10:04:23Z</time>
      </trkpt>
      <trkpt lat="27.978010" lon="-15.605440">
        <ele>1247.954</ele>
        <time>2014-08-15T10:05:25Z</time>
      </trkpt>
      <trkpt lat="27.978348" lon="-15.605758">
        <ele>1241.745</ele>
        <time>2014-08-15T10:06:00Z</time>
      </trkpt>
      <trkpt lat="27.978477" lon="-15.606022">
        <ele>1247.280</ele>
        <time>2014-08-15T10:06:32Z</time>
      </trkpt>
      <trkpt lat="27.978804" lon="-15.606132">
        <ele>1245.786</ele>
        <time>2014-08-15T10:07:08Z</time>
      </trkpt>
      <trkpt lat="27.979012" lon="-15.606362">
        <ele>1256.660</ele>
        <time>2014-08-15T10:07:45Z</time>
      </trkpt>
      <trkpt lat="27.979214" lon="-15.606377">
        <ele>1256.526</ele>
        <time>2014-08-15T10:08:10Z</time>
      </trkpt>
      <trkpt lat="27.979151" lon="-15.606470">
        <ele>1261.507</ele>
        <time>2014-08-15T10:08:32Z</time>
      </trkpt>
      <trkpt lat="27.979567" lon="-15.606572">
        <ele>1260.175</ele>
        <time>2014-08-15T10:09:39Z</time>
      </trkpt>
      <trkpt lat="27.979542" lon="-15.607288">
        <ele>1280.123</ele>
        <time>2014-08-15T10:11:37Z</time>
      </trkpt>
      <trkpt lat="27.979799" lon="-15.607522">
        <ele>1276.062</ele>
        <time>2014-08-15T10:12:06Z</time>
      </trkpt>
      <trkpt lat="27.980436" lon="-15.608487">
        <ele>1275.782</ele>
        <time>2014-08-15T10:14:12Z</time>
      </trkpt>
      <trkpt lat="27.980469" lon="-15.609232">
        <ele>1280.095</ele>
        <time>2014-08-15T10:15:29Z</time>
      </trkpt>
      <trkpt lat="27.980213" lon="-15.609883">
        <ele>1298.246</ele>
        <time>2014-08-15T10:16:54Z</time>
      </trkpt>
      <trkpt lat="27.980438" lon="-15.610258">
        <ele>1286.591</ele>
        <time>2014-08-15T10:17:33Z</time>
      </trkpt>
      <trkpt lat="27.980480" lon="-15.611212">
        <ele>1295.929</ele>
        <time>2014-08-15T10:19:12Z</time>
      </trkpt>
      <trkpt lat="27.980324" lon="-15.612003">
        <ele>1289.900</ele>
        <time>2014-08-15T10:20:32Z</time>
      </trkpt>
      <trkpt lat="27.980276" lon="-15.611908">
        <ele>1295.520</ele>
        <time>2014-08-15T10:22:17Z</time>
      </trkpt>
      <trkpt lat="27.980350" lon="-15.612040">
        <ele>1287.507</ele>
        <time>2014-08-15T10:24:12Z</time>
      </trkpt>
      <trkpt lat="27.980288" lon="-15.611948">
        <ele>1293.519</ele>
        <time>2014-08-15T10:25:37Z</time>
      </trkpt>
      <trkpt lat="27.980335" lon="-15.612040">
        <ele>1288.187</ele>
        <time>2014-08-15T10:27:39Z</time>
      </trkpt>
      <trkpt lat="27.980249" lon="-15.611978">
        <ele>1294.166</ele>
        <time>2014-08-15T10:29:00Z</time>
      </trkpt>
      <trkpt lat="27.979939" lon="-15.612187">
        <ele>1300.596</ele>
        <time>2014-08-15T10:29:32Z</time>
      </trkpt>
      <trkpt lat="27.979853" lon="-15.612392">
        <ele>1296.939</ele>
        <time>2014-08-15T10:29:48Z</time>
      </trkpt>
      <trkpt lat="27.979708" lon="-15.612407">
        <ele>1305.280</ele>
        <time>2014-08-15T10:30:03Z</time>
      </trkpt>
      <trkpt lat="27.979532" lon="-15.612927">
        <ele>1293.325</ele>
        <time>2014-08-15T10:31:13Z</time>
      </trkpt>
      <trkpt lat="27.979530" lon="-15.613363">
        <ele>1279.269</ele>
        <time>2014-08-15T10:31:57Z</time>
      </trkpt>
      <trkpt lat="27.979296" lon="-15.613980">
        <ele>1276.704</ele>
        <time>2014-08-15T10:33:09Z</time>
      </trkpt>
      <trkpt lat="27.979240" lon="-15.614548">
        <ele>1268.824</ele>
        <time>2014-08-15T10:34:27Z</time>
      </trkpt>
      <trkpt lat="27.979105" lon="-15.614845">
        <ele>1267.007</ele>
        <time>2014-08-15T10:35:22Z</time>
      </trkpt>
      <trkpt lat="27.979023" lon="-15.614742">
        <ele>1272.853</ele>
        <time>2014-08-15T10:35:31Z</time>
      </trkpt>
      <trkpt lat="27.978920" lon="-15.614928">
        <ele>1273.251</ele>
        <time>2014-08-15T10:35:54Z</time>
      </trkpt>
      <trkpt lat="27.978727" lon="-15.614897">
        <ele>1283.550</ele>
        <time>2014-08-15T10:36:09Z</time>
      </trkpt>
      <trkpt lat="27.978607" lon="-15.615048">
        <ele>1287.530</ele>
        <time>2014-08-15T10:36:26Z</time>
      </trkpt>
      <trkpt lat="27.978527" lon="-15.615360">
        <ele>1288.383</ele>
        <time>2014-08-15T10:36:48Z</time>
      </trkpt>
      <trkpt lat="27.978615" lon="-15.615633">
        <ele>1280.694</ele>
        <time>2014-08-15T10:37:11Z</time>
      </trkpt>
      <trkpt lat="27.978212" lon="-15.615822">
        <ele>1296.589</ele>
        <time>2014-08-15T10:37:52Z</time>
      </trkpt>
      <trkpt lat="27.978159" lon="-15.615988">
        <ele>1294.475</ele>
        <time>2014-08-15T10:38:03Z</time>
      </trkpt>
      <trkpt lat="27.978224" lon="-15.616255">
        <ele>1287.328</ele>
        <time>2014-08-15T10:38:23Z</time>
      </trkpt>
      <trkpt lat="27.978064" lon="-15.616705">
        <ele>1284.720</ele>
        <time>2014-08-15T10:45:32Z</time>
      </trkpt>
      <trkpt lat="27.977947" lon="-15.616770">
        <ele>1281.507</ele>
        <time>2014-08-15T10:45:47Z</time>
      </trkpt>
      <trkpt lat="27.977524" lon="-15.616552">
        <ele>1285.534</ele>
        <time>2014-08-15T10:46:31Z</time>
      </trkpt>
      <trkpt lat="27.977028" lon="-15.616698">
        <ele>1275.812</ele>
        <time>2014-08-15T10:47:09Z</time>
      </trkpt>
      <trkpt lat="27.976561" lon="-15.616655">
        <ele>1280.731</ele>
        <time>2014-08-15T10:47:45Z</time>
      </trkpt>
      <trkpt lat="27.975750" lon="-15.616843">
        <ele>1287.571</ele>
        <time>2014-08-15T10:48:49Z</time>
      </trkpt>
      <trkpt lat="27.975370" lon="-15.617092">
        <ele>1287.944</ele>
        <time>2014-08-15T10:49:24Z</time>
      </trkpt>
      <trkpt lat="27.975323" lon="-15.617637">
        <ele>1278.845</ele>
        <time>2014-08-15T10:50:02Z</time>
      </trkpt>
      <trkpt lat="27.975107" lon="-15.618092">
        <ele>1285.030</ele>
        <time>2014-08-15T10:50:36Z</time>
      </trkpt>
      <trkpt lat="27.974888" lon="-15.618927">
        <ele>1281.367</ele>
        <time>2014-08-15T10:51:35Z</time>
      </trkpt>
      <trkpt lat="27.974737" lon="-15.619082">
        <ele>1279.881</ele>
        <time>2014-08-15T10:51:51Z</time>
      </trkpt>
      <trkpt lat="27.974165" lon="-15.619180">
        <ele>1288.519</ele>
        <time>2014-08-15T10:52:35Z</time>
      </trkpt>
      <trkpt lat="27.973997" lon="-15.619272">
        <ele>1288.107</ele>
        <time>2014-08-15T10:52:49Z</time>
      </trkpt>
      <trkpt lat="27.974009" lon="-15.619397">
        <ele>1283.263</ele>
        <time>2014-08-15T10:53:11Z</time>
      </trkpt>
      <trkpt lat="27.973948" lon="-15.619300">
        <ele>1288.081</ele>
        <time>2014-08-15T10:53:53Z</time>
      </trkpt>
      <trkpt lat="27.973282" lon="-15.619477">
        <ele>1285.610</ele>
        <time>2014-08-15T10:55:20Z</time>
      </trkpt>
      <trkpt lat="27.972893" lon="-15.618988">
        <ele>1296.340</ele>
        <time>2014-08-15T10:56:08Z</time>
      </trkpt>
      <trkpt lat="27.972502" lon="-15.618820">
        <ele>1301.743</ele>
        <time>2014-08-15T10:56:43Z</time>
      </trkpt>
      <trkpt lat="27.972315" lon="-15.618827">
        <ele>1301.154</ele>
        <time>2014-08-15T10:56:59Z</time>
      </trkpt>
      <trkpt lat="27.971991" lon="-15.618958">
        <ele>1303.589</ele>
        <time>2014-08-15T10:57:22Z</time>
      </trkpt>
      <trkpt lat="27.971596" lon="-15.619605">
        <ele>1303.993</ele>
        <time>2014-08-15T10:58:13Z</time>
      </trkpt>
      <trkpt lat="27.970867" lon="-15.620142">
        <ele>1305.065</ele>
        <time>2014-08-15T10:59:18Z</time>
      </trkpt>
      <trkpt lat="27.970362" lon="-15.620342">
        <ele>1313.121</ele>
        <time>2014-08-15T10:59:54Z</time>
      </trkpt>
      <trkpt lat="27.970383" lon="-15.620447">
        <ele>1308.907</ele>
        <time>2014-08-15T11:00:01Z</time>
      </trkpt>
      <trkpt lat="27.969906" lon="-15.620417">
        <ele>1325.126</ele>
        <time>2014-08-15T11:00:16Z</time>
      </trkpt>
      <trkpt lat="27.970142" lon="-15.620517">
        <ele>1313.254</ele>
        <time>2014-08-15T11:00:23Z</time>
      </trkpt>
      <trkpt lat="27.969864" lon="-15.620747">
        <ele>1319.143</ele>
        <time>2014-08-15T11:00:46Z</time>
      </trkpt>
      <trkpt lat="27.969925" lon="-15.620787">
        <ele>1315.443</ele>
        <time>2014-08-15T11:00:51Z</time>
      </trkpt>
      <trkpt lat="27.969820" lon="-15.620878">
        <ele>1320.146</ele>
        <time>2014-08-15T11:01:01Z</time>
      </trkpt>
      <trkpt lat="27.969866" lon="-15.620948">
        <ele>1317.737</ele>
        <time>2014-08-15T11:01:02Z</time>
      </trkpt>
      <trkpt lat="27.969746" lon="-15.621032">
        <ele>1324.492</ele>
        <time>2014-08-15T11:01:09Z</time>
      </trkpt>
      <trkpt lat="27.969948" lon="-15.621422">
        <ele>1311.599</ele>
        <time>2014-08-15T11:01:34Z</time>
      </trkpt>
      <trkpt lat="27.969723" lon="-15.621610">
        <ele>1325.607</ele>
        <time>2014-08-15T11:01:48Z</time>
      </trkpt>
      <trkpt lat="27.969658" lon="-15.621943">
        <ele>1321.127</ele>
        <time>2014-08-15T11:02:13Z</time>
      </trkpt>
      <trkpt lat="27.968842" lon="-15.622632">
        <ele>1322.107</ele>
        <time>2014-08-15T11:03:26Z</time>
      </trkpt>
      <trkpt lat="27.968918" lon="-15.622718">
        <ele>1313.946</ele>
        <time>2014-08-15T11:03:35Z</time>
      </trkpt>
      <trkpt lat="27.968569" lon="-15.622967">
        <ele>1318.174</ele>
        <time>2014-08-15T11:04:00Z</time>
      </trkpt>
      <trkpt lat="27.968189" lon="-15.622985">
        <ele>1370.933</ele>
        <time>2014-08-15T11:04:08Z</time>
      </trkpt>
      <trkpt lat="27.968456" lon="-15.623130">
        <ele>1322.313</ele>
        <time>2014-08-15T11:04:15Z</time>
      </trkpt>
      <trkpt lat="27.968456" lon="-15.623255">
        <ele>1318.666</ele>
        <time>2014-08-15T11:04:23Z</time>
      </trkpt>
      <trkpt lat="27.968124" lon="-15.623488">
        <ele>1346.297</ele>
        <time>2014-08-15T11:04:45Z</time>
      </trkpt>
      <trkpt lat="27.968250" lon="-15.623808">
        <ele>1326.292</ele>
        <time>2014-08-15T11:05:06Z</time>
      </trkpt>
      <trkpt lat="27.968000" lon="-15.624180">
        <ele>1317.621</ele>
        <time>2014-08-15T11:05:35Z</time>
      </trkpt>
      <trkpt lat="27.967026" lon="-15.624733">
        <ele>1338.441</ele>
        <time>2014-08-15T11:07:00Z</time>
      </trkpt>
      <trkpt lat="27.966442" lon="-15.625395">
        <ele>1339.705</ele>
        <time>2014-08-15T11:08:01Z</time>
      </trkpt>
      <trkpt lat="27.965990" lon="-15.626208">
        <ele>1349.207</ele>
        <time>2014-08-15T11:09:09Z</time>
      </trkpt>
      <trkpt lat="27.964516" lon="-15.627325">
        <ele>1344.439</ele>
        <time>2014-08-15T11:11:25Z</time>
      </trkpt>
      <trkpt lat="27.964207" lon="-15.628063">
        <ele>1353.867</ele>
        <time>2014-08-15T11:12:21Z</time>
      </trkpt>
      <trkpt lat="27.964262" lon="-15.628262">
        <ele>1341.946</ele>
        <time>2014-08-15T11:12:34Z</time>
      </trkpt>
      <trkpt lat="27.963600" lon="-15.629013">
        <ele>1365.766</ele>
        <time>2014-08-15T11:13:43Z</time>
      </trkpt>
      <trkpt lat="27.963320" lon="-15.629497">
        <ele>1368.569</ele>
        <time>2014-08-15T11:14:18Z</time>
      </trkpt>
      <trkpt lat="27.963242" lon="-15.629910">
        <ele>1353.640</ele>
        <time>2014-08-15T11:14:49Z</time>
      </trkpt>
      <trkpt lat="27.963085" lon="-15.630012">
        <ele>1356.665</ele>
        <time>2014-08-15T11:15:02Z</time>
      </trkpt>
      <trkpt lat="27.962936" lon="-15.629990">
        <ele>1360.125</ele>
        <time>2014-08-15T11:15:14Z</time>
      </trkpt>
      <trkpt lat="27.962387" lon="-15.629518">
        <ele>1375.126</ele>
        <time>2014-08-15T11:16:09Z</time>
      </trkpt>
      <trkpt lat="27.961252" lon="-15.629313">
        <ele>1383.308</ele>
        <time>2014-08-15T11:17:41Z</time>
      </trkpt>
      <trkpt lat="27.960743" lon="-15.628562">
        <ele>1420.307</ele>
        <time>2014-08-15T11:18:57Z</time>
      </trkpt>
      <trkpt lat="27.960611" lon="-15.628575">
        <ele>1411.919</ele>
        <time>2014-08-15T11:19:03Z</time>
      </trkpt>
      <trkpt lat="27.960566" lon="-15.628248">
        <ele>1423.457</ele>
        <time>2014-08-15T11:19:26Z</time>
      </trkpt>
      <trkpt lat="27.960287" lon="-15.627973">
        <ele>1421.316</ele>
        <time>2014-08-15T11:19:57Z</time>
      </trkpt>
      <trkpt lat="27.960133" lon="-15.628015">
        <ele>1412.486</ele>
        <time>2014-08-15T11:20:02Z</time>
      </trkpt>
      <trkpt lat="27.959845" lon="-15.627878">
        <ele>1404.699</ele>
        <time>2014-08-15T11:20:23Z</time>
      </trkpt>
      <trkpt lat="27.959555" lon="-15.627227">
        <ele>1413.940</ele>
        <time>2014-08-15T11:21:25Z</time>
      </trkpt>
      <trkpt lat="27.959383" lon="-15.625978">
        <ele>1422.445</ele>
        <time>2014-08-15T11:23:11Z</time>
      </trkpt>
      <trkpt lat="27.959606" lon="-15.626095">
        <ele>1433.298</ele>
        <time>2014-08-15T11:24:48Z</time>
      </trkpt>
      <trkpt lat="27.959782" lon="-15.626355">
        <ele>1435.015</ele>
        <time>2014-08-15T11:25:17Z</time>
      </trkpt>
      <trkpt lat="27.960005" lon="-15.626345">
        <ele>1446.526</ele>
        <time>2014-08-15T11:25:56Z</time>
      </trkpt>
      <trkpt lat="27.959879" lon="-15.625153">
        <ele>1458.107</ele>
        <time>2014-08-15T11:30:05Z</time>
      </trkpt>
      <trkpt lat="27.959967" lon="-15.624965">
        <ele>1466.616</ele>
        <time>2014-08-15T11:30:34Z</time>
      </trkpt>
      <trkpt lat="27.959908" lon="-15.624685">
        <ele>1466.574</ele>
        <time>2014-08-15T11:31:28Z</time>
      </trkpt>
      <trkpt lat="27.959965" lon="-15.624455">
        <ele>1476.683</ele>
        <time>2014-08-15T11:32:00Z</time>
      </trkpt>
      <trkpt lat="27.960306" lon="-15.623925">
        <ele>1488.233</ele>
        <time>2014-08-15T11:33:06Z</time>
      </trkpt>
      <trkpt lat="27.960463" lon="-15.623208">
        <ele>1492.226</ele>
        <time>2014-08-15T11:40:24Z</time>
      </trkpt>
      <trkpt lat="27.960667" lon="-15.622983">
        <ele>1491.027</ele>
        <time>2014-08-15T11:41:04Z</time>
      </trkpt>
      <trkpt lat="27.961081" lon="-15.622823">
        <ele>1482.062</ele>
        <time>2014-08-15T11:41:57Z</time>
      </trkpt>
      <trkpt lat="27.961084" lon="-15.622670">
        <ele>1474.989</ele>
        <time>2014-08-15T11:42:26Z</time>
      </trkpt>
      <trkpt lat="27.961245" lon="-15.622738">
        <ele>1476.306</ele>
        <time>2014-08-15T11:42:59Z</time>
      </trkpt>
      <trkpt lat="27.961262" lon="-15.622610">
        <ele>1472.426</ele>
        <time>2014-08-15T11:43:20Z</time>
      </trkpt>
      <trkpt lat="27.961397" lon="-15.622605">
        <ele>1473.507</ele>
        <time>2014-08-15T11:43:53Z</time>
      </trkpt>
      <trkpt lat="27.961508" lon="-15.622372">
        <ele>1476.075</ele>
        <time>2014-08-15T11:45:07Z</time>
      </trkpt>
      <trkpt lat="27.961521" lon="-15.621878">
        <ele>1477.453</ele>
        <time>2014-08-15T11:46:01Z</time>
      </trkpt>
      <trkpt lat="27.961555" lon="-15.621800">
        <ele>1480.652</ele>
        <time>2014-08-15T11:46:17Z</time>
      </trkpt>
      <trkpt lat="27.961668" lon="-15.621808">
        <ele>1488.042</ele>
        <time>2014-08-15T11:46:26Z</time>
      </trkpt>
      <trkpt lat="27.961573" lon="-15.621473">
        <ele>1485.235</ele>
        <time>2014-08-15T11:47:34Z</time>
      </trkpt>
      <trkpt lat="27.961782" lon="-15.620830">
        <ele>1493.836</ele>
        <time>2014-08-15T11:49:10Z</time>
      </trkpt>
      <trkpt lat="27.961597" lon="-15.620300">
        <ele>1493.821</ele>
        <time>2014-08-15T11:50:01Z</time>
      </trkpt>
      <trkpt lat="27.961760" lon="-15.619848">
        <ele>1497.441</ele>
        <time>2014-08-15T11:51:22Z</time>
      </trkpt>
      <trkpt lat="27.961826" lon="-15.619290">
        <ele>1502.981</ele>
        <time>2014-08-15T11:52:05Z</time>
      </trkpt>
      <trkpt lat="27.962406" lon="-15.618352">
        <ele>1507.809</ele>
        <time>2014-08-15T11:54:18Z</time>
      </trkpt>
      <trkpt lat="27.962294" lon="-15.618287">
        <ele>1506.207</ele>
        <time>2014-08-15T11:57:19Z</time>
      </trkpt>
      <trkpt lat="27.962370" lon="-15.618275">
        <ele>1507.241</ele>
        <time>2014-08-15T11:58:42Z</time>
      </trkpt>
      <trkpt lat="27.962353" lon="-15.618355">
        <ele>1507.019</ele>
        <time>2014-08-15T12:00:05Z</time>
      </trkpt>
      <trkpt lat="27.962664" lon="-15.618197">
        <ele>1512.428</ele>
        <time>2014-08-15T12:00:59Z</time>
      </trkpt>
      <trkpt lat="27.962866" lon="-15.617890">
        <ele>1511.968</ele>
        <time>2014-08-15T12:01:34Z</time>
      </trkpt>
      <trkpt lat="27.962852" lon="-15.617780">
        <ele>1509.391</ele>
        <time>2014-08-15T12:01:42Z</time>
      </trkpt>
      <trkpt lat="27.962988" lon="-15.617732">
        <ele>1509.522</ele>
        <time>2014-08-15T12:01:53Z</time>
      </trkpt>
      <trkpt lat="27.963268" lon="-15.617210">
        <ele>1508.837</ele>
        <time>2014-08-15T12:02:55Z</time>
      </trkpt>
      <trkpt lat="27.963503" lon="-15.617103">
        <ele>1514.511</ele>
        <time>2014-08-15T12:03:24Z</time>
      </trkpt>
      <trkpt lat="27.963688" lon="-15.616847">
        <ele>1521.121</ele>
        <time>2014-08-15T12:04:06Z</time>
      </trkpt>
      <trkpt lat="27.963840" lon="-15.616863">
        <ele>1522.403</ele>
        <time>2014-08-15T12:04:29Z</time>
      </trkpt>
      <trkpt lat="27.964113" lon="-15.616495">
        <ele>1529.607</ele>
        <time>2014-08-15T12:05:27Z</time>
      </trkpt>
      <trkpt lat="27.964466" lon="-15.616335">
        <ele>1538.958</ele>
        <time>2014-08-15T12:06:26Z</time>
      </trkpt>
      <trkpt lat="27.964312" lon="-15.616003">
        <ele>1541.166</ele>
        <time>2014-08-15T12:07:20Z</time>
      </trkpt>
      <trkpt lat="27.964447" lon="-15.615750">
        <ele>1546.625</ele>
        <time>2014-08-15T12:08:12Z</time>
      </trkpt>
      <trkpt lat="27.964783" lon="-15.615913">
        <ele>1551.365</ele>
        <time>2014-08-15T12:09:19Z</time>
      </trkpt>
      <trkpt lat="27.965042" lon="-15.615832">
        <ele>1558.948</ele>
        <time>2014-08-15T12:10:01Z</time>
      </trkpt>
      <trkpt lat="27.965143" lon="-15.615760">
        <ele>1562.379</ele>
        <time>2014-08-15T12:10:17Z</time>
      </trkpt>
      <trkpt lat="27.965158" lon="-15.615582">
        <ele>1565.424</ele>
        <time>2014-08-15T12:10:39Z</time>
      </trkpt>
      <trkpt lat="27.965338" lon="-15.615548">
        <ele>1569.215</ele>
        <time>2014-08-15T12:11:14Z</time>
      </trkpt>
      <trkpt lat="27.965401" lon="-15.615363">
        <ele>1574.265</ele>
        <time>2014-08-15T12:11:54Z</time>
      </trkpt>
      <trkpt lat="27.965574" lon="-15.615532">
        <ele>1574.011</ele>
        <time>2014-08-15T12:12:35Z</time>
      </trkpt>
      <trkpt lat="27.965975" lon="-15.615643">
        <ele>1576.807</ele>
        <time>2014-08-15T12:13:49Z</time>
      </trkpt>
      <trkpt lat="27.966223" lon="-15.615547">
        <ele>1580.198</ele>
        <time>2014-08-15T12:14:42Z</time>
      </trkpt>
      <trkpt lat="27.966597" lon="-15.615558">
        <ele>1584.736</ele>
        <time>2014-08-15T12:15:24Z</time>
      </trkpt>
      <trkpt lat="27.966879" lon="-15.615817">
        <ele>1587.245</ele>
        <time>2014-08-15T12:15:55Z</time>
      </trkpt>
      <trkpt lat="27.967447" lon="-15.615863">
        <ele>1591.465</ele>
        <time>2014-08-15T12:16:57Z</time>
      </trkpt>
      <trkpt lat="27.967731" lon="-15.616143">
        <ele>1596.628</ele>
        <time>2014-08-15T12:17:48Z</time>
      </trkpt>
      <trkpt lat="27.968912" lon="-15.615310">
        <ele>1618.039</ele>
        <time>2014-08-15T12:21:10Z</time>
      </trkpt>
      <trkpt lat="27.969362" lon="-15.615245">
        <ele>1617.374</ele>
        <time>2014-08-15T12:22:50Z</time>
      </trkpt>
      <trkpt lat="27.969534" lon="-15.614992">
        <ele>1624.668</ele>
        <time>2014-08-15T12:23:19Z</time>
      </trkpt>
      <trkpt lat="27.969315" lon="-15.615020">
        <ele>1626.142</ele>
        <time>2014-08-15T12:24:02Z</time>
      </trkpt>
      <trkpt lat="27.969036" lon="-15.614705">
        <ele>1636.726</ele>
        <time>2014-08-15T12:24:50Z</time>
      </trkpt>
      <trkpt lat="27.968964" lon="-15.614528">
        <ele>1636.707</ele>
        <time>2014-08-15T12:25:07Z</time>
      </trkpt>
      <trkpt lat="27.968967" lon="-15.613655">
        <ele>1647.273</ele>
        <time>2014-08-15T12:26:18Z</time>
      </trkpt>
      <trkpt lat="27.968458" lon="-15.613000">
        <ele>1658.811</ele>
        <time>2014-08-15T12:27:38Z</time>
      </trkpt>
      <trkpt lat="27.968388" lon="-15.612730">
        <ele>1666.640</ele>
        <time>2014-08-15T12:29:07Z</time>
      </trkpt>
      <trkpt lat="27.968124" lon="-15.612692">
        <ele>1658.130</ele>
        <time>2014-08-15T12:29:26Z</time>
      </trkpt>
      <trkpt lat="27.968040" lon="-15.612497">
        <ele>1660.593</ele>
        <time>2014-08-15T12:29:45Z</time>
      </trkpt>
      <trkpt lat="27.968037" lon="-15.612258">
        <ele>1663.834</ele>
        <time>2014-08-15T12:30:09Z</time>
      </trkpt>
      <trkpt lat="27.968201" lon="-15.611962">
        <ele>1680.019</ele>
        <time>2014-08-15T12:30:56Z</time>
      </trkpt>
      <trkpt lat="27.968184" lon="-15.611702">
        <ele>1683.784</ele>
        <time>2014-08-15T12:31:36Z</time>
      </trkpt>
      <trkpt lat="27.968264" lon="-15.611667">
        <ele>1689.507</ele>
        <time>2014-08-15T12:31:54Z</time>
      </trkpt>
      <trkpt lat="27.968218" lon="-15.611763">
        <ele>1684.817</ele>
        <time>2014-08-15T12:32:37Z</time>
      </trkpt>
      <trkpt lat="27.968130" lon="-15.611643">
        <ele>1681.307</ele>
        <time>2014-08-15T12:34:48Z</time>
      </trkpt>
      <trkpt lat="27.968348" lon="-15.611705">
        <ele>1694.245</ele>
        <time>2014-08-15T12:35:36Z</time>
      </trkpt>
      <trkpt lat="27.968147" lon="-15.611640">
        <ele>1682.493</ele>
        <time>2014-08-15T12:36:04Z</time>
      </trkpt>
      <trkpt lat="27.968151" lon="-15.610915">
        <ele>1699.132</ele>
        <time>2014-08-15T12:38:11Z</time>
      </trkpt>
      <trkpt lat="27.968052" lon="-15.610625">
        <ele>1703.492</ele>
        <time>2014-08-15T12:38:46Z</time>
      </trkpt>
      <trkpt lat="27.967791" lon="-15.610468">
        <ele>1702.785</ele>
        <time>2014-08-15T12:39:39Z</time>
      </trkpt>
      <trkpt lat="27.968019" lon="-15.610195">
        <ele>1710.076</ele>
        <time>2014-08-15T12:40:35Z</time>
      </trkpt>
      <trkpt lat="27.968023" lon="-15.610295">
        <ele>1709.541</ele>
        <time>2014-08-15T12:41:25Z</time>
      </trkpt>
      <trkpt lat="27.968225" lon="-15.610392">
        <ele>1710.537</ele>
        <time>2014-08-15T12:42:05Z</time>
      </trkpt>
      <trkpt lat="27.968271" lon="-15.610522">
        <ele>1711.449</ele>
        <time>2014-08-15T12:42:20Z</time>
      </trkpt>
      <trkpt lat="27.968348" lon="-15.610320">
        <ele>1711.013</ele>
        <time>2014-08-15T12:42:57Z</time>
      </trkpt>
      <trkpt lat="27.968533" lon="-15.610418">
        <ele>1711.007</ele>
        <time>2014-08-15T12:48:06Z</time>
      </trkpt>
      <trkpt lat="27.968348" lon="-15.610323">
        <ele>1711.040</ele>
        <time>2014-08-15T12:51:15Z</time>
      </trkpt>
      <trkpt lat="27.968285" lon="-15.610522">
        <ele>1711.778</ele>
        <time>2014-08-15T12:51:47Z</time>
      </trkpt>
      <trkpt lat="27.968203" lon="-15.610368">
        <ele>1710.377</ele>
        <time>2014-08-15T12:52:09Z</time>
      </trkpt>
      <trkpt lat="27.968037" lon="-15.610292">
        <ele>1709.677</ele>
        <time>2014-08-15T12:52:25Z</time>
      </trkpt>
      <trkpt lat="27.967966" lon="-15.610103">
        <ele>1710.630</ele>
        <time>2014-08-15T12:53:05Z</time>
      </trkpt>
      <trkpt lat="27.967997" lon="-15.609987">
        <ele>1710.921</ele>
        <time>2014-08-15T12:53:21Z</time>
      </trkpt>
      <trkpt lat="27.968176" lon="-15.610045">
        <ele>1707.226</ele>
        <time>2014-08-15T12:54:25Z</time>
      </trkpt>
      <trkpt lat="27.968372" lon="-15.609898">
        <ele>1697.528</ele>
        <time>2014-08-15T12:57:05Z</time>
      </trkpt>
      <trkpt lat="27.968264" lon="-15.609810">
        <ele>1700.489</ele>
        <time>2014-08-15T12:57:31Z</time>
      </trkpt>
      <trkpt lat="27.968336" lon="-15.609327">
        <ele>1685.417</ele>
        <time>2014-08-15T12:58:21Z</time>
      </trkpt>
      <trkpt lat="27.968187" lon="-15.609025">
        <ele>1681.607</ele>
        <time>2014-08-15T12:58:54Z</time>
      </trkpt>
      <trkpt lat="27.968176" lon="-15.608757">
        <ele>1679.469</ele>
        <time>2014-08-15T12:59:17Z</time>
      </trkpt>
      <trkpt lat="27.968218" lon="-15.608532">
        <ele>1676.857</ele>
        <time>2014-08-15T12:59:33Z</time>
      </trkpt>
      <trkpt lat="27.968493" lon="-15.608083">
        <ele>1654.496</ele>
        <time>2014-08-15T13:00:31Z</time>
      </trkpt>
      <trkpt lat="27.968159" lon="-15.607257">
        <ele>1640.476</ele>
        <time>2014-08-15T13:02:23Z</time>
      </trkpt>
      <trkpt lat="27.968248" lon="-15.607302">
        <ele>1639.679</ele>
        <time>2014-08-15T13:02:49Z</time>
      </trkpt>
      <trkpt lat="27.968327" lon="-15.606798">
        <ele>1623.930</ele>
        <time>2014-08-15T13:04:43Z</time>
      </trkpt>
      <trkpt lat="27.968145" lon="-15.606515">
        <ele>1622.225</ele>
        <time>2014-08-15T13:05:22Z</time>
      </trkpt>
      <trkpt lat="27.967871" lon="-15.605668">
        <ele>1607.747</ele>
        <time>2014-08-15T13:06:44Z</time>
      </trkpt>
      <trkpt lat="27.967569" lon="-15.605237">
        <ele>1599.629</ele>
        <time>2014-08-15T13:07:38Z</time>
      </trkpt>
      <trkpt lat="27.967375" lon="-15.604592">
        <ele>1594.721</ele>
        <time>2014-08-15T13:08:32Z</time>
      </trkpt>
      <trkpt lat="27.966993" lon="-15.604003">
        <ele>1591.107</ele>
        <time>2014-08-15T13:09:23Z</time>
      </trkpt>
      <trkpt lat="27.966894" lon="-15.603415">
        <ele>1598.091</ele>
        <time>2014-08-15T13:10:08Z</time>
      </trkpt>
      <trkpt lat="27.966177" lon="-15.602645">
        <ele>1581.619</ele>
        <time>2014-08-15T13:11:43Z</time>
      </trkpt>
      <trkpt lat="27.965906" lon="-15.602072">
        <ele>1581.328</ele>
        <time>2014-08-15T13:12:20Z</time>
      </trkpt>
      <trkpt lat="27.965816" lon="-15.601668">
        <ele>1583.238</ele>
        <time>2014-08-15T13:12:59Z</time>
      </trkpt>
      <trkpt lat="27.965734" lon="-15.601702">
        <ele>1583.631</ele>
        <time>2014-08-15T13:15:47Z</time>
      </trkpt>
      <trkpt lat="27.965782" lon="-15.601612">
        <ele>1584.192</ele>
        <time>2014-08-15T13:15:57Z</time>
      </trkpt>
      <trkpt lat="27.965752" lon="-15.601707">
        <ele>1583.467</ele>
        <time>2014-08-15T13:16:12Z</time>
      </trkpt>
      <trkpt lat="27.965860" lon="-15.601673">
        <ele>1582.687</ele>
        <time>2014-08-15T14:02:03Z</time>
      </trkpt>
      <trkpt lat="27.965784" lon="-15.601668">
        <ele>1583.542</ele>
        <time>2014-08-15T14:16:29Z</time>
      </trkpt>
      <trkpt lat="27.965763" lon="-15.601840">
        <ele>1581.926</ele>
        <time>2014-08-15T14:18:23Z</time>
      </trkpt>
      <trkpt lat="27.965836" lon="-15.601820">
        <ele>1581.907</ele>
        <time>2014-08-15T14:18:44Z</time>
      </trkpt>
      <trkpt lat="27.965767" lon="-15.601677">
        <ele>1583.645</ele>
        <time>2014-08-15T14:19:59Z</time>
      </trkpt>
      <trkpt lat="27.965832" lon="-15.601673">
        <ele>1583.073</ele>
        <time>2014-08-15T14:20:27Z</time>
      </trkpt>
      <trkpt lat="27.965748" lon="-15.601688">
        <ele>1583.762</ele>
        <time>2014-08-15T14:21:56Z</time>
      </trkpt>
      <trkpt lat="27.965719" lon="-15.601577">
        <ele>1585.552</ele>
        <time>2014-08-15T14:22:10Z</time>
      </trkpt>
      <trkpt lat="27.965851" lon="-15.601208">
        <ele>1587.035</ele>
        <time>2014-08-15T14:25:14Z</time>
      </trkpt>
      <trkpt lat="27.965836" lon="-15.600862">
        <ele>1590.716</ele>
        <time>2014-08-15T14:25:46Z</time>
      </trkpt>
      <trkpt lat="27.965296" lon="-15.599777">
        <ele>1600.831</ele>
        <time>2014-08-15T14:27:21Z</time>
      </trkpt>
      <trkpt lat="27.966087" lon="-15.597750">
        <ele>1606.497</ele>
        <time>2014-08-15T14:30:04Z</time>
      </trkpt>
      <trkpt lat="27.965122" lon="-15.597218">
        <ele>1609.523</ele>
        <time>2014-08-15T14:31:39Z</time>
      </trkpt>
      <trkpt lat="27.964737" lon="-15.597860">
        <ele>1626.825</ele>
        <time>2014-08-15T14:32:34Z</time>
      </trkpt>
      <trkpt lat="27.964628" lon="-15.597855">
        <ele>1624.707</ele>
        <time>2014-08-15T14:32:43Z</time>
      </trkpt>
      <trkpt lat="27.964188" lon="-15.597670">
        <ele>1615.986</ele>
        <time>2014-08-15T14:33:25Z</time>
      </trkpt>
      <trkpt lat="27.964052" lon="-15.597493">
        <ele>1614.534</ele>
        <time>2014-08-15T14:33:39Z</time>
      </trkpt>
      <trkpt lat="27.963406" lon="-15.597158">
        <ele>1617.963</ele>
        <time>2014-08-15T14:34:32Z</time>
      </trkpt>
      <trkpt lat="27.963198" lon="-15.597247">
        <ele>1617.733</ele>
        <time>2014-08-15T14:34:55Z</time>
      </trkpt>
      <trkpt lat="27.962778" lon="-15.597697">
        <ele>1620.396</ele>
        <time>2014-08-15T14:35:36Z</time>
      </trkpt>
      <trkpt lat="27.962248" lon="-15.597658">
        <ele>1615.327</ele>
        <time>2014-08-15T14:36:23Z</time>
      </trkpt>
      <trkpt lat="27.961967" lon="-15.598062">
        <ele>1623.682</ele>
        <time>2014-08-15T14:36:58Z</time>
      </trkpt>
      <trkpt lat="27.961573" lon="-15.598108">
        <ele>1620.232</ele>
        <time>2014-08-15T14:37:29Z</time>
      </trkpt>
      <trkpt lat="27.961327" lon="-15.598025">
        <ele>1617.792</ele>
        <time>2014-08-15T14:37:51Z</time>
      </trkpt>
      <trkpt lat="27.961042" lon="-15.598218">
        <ele>1625.511</ele>
        <time>2014-08-15T14:38:21Z</time>
      </trkpt>
      <trkpt lat="27.960924" lon="-15.598070">
        <ele>1623.807</ele>
        <time>2014-08-15T14:38:38Z</time>
      </trkpt>
      <trkpt lat="27.960686" lon="-15.598135">
        <ele>1630.170</ele>
        <time>2014-08-15T14:38:47Z</time>
      </trkpt>
      <trkpt lat="27.960220" lon="-15.597840">
        <ele>1634.628</ele>
        <time>2014-08-15T14:39:28Z</time>
      </trkpt>
      <trkpt lat="27.960140" lon="-15.597698">
        <ele>1637.237</ele>
        <time>2014-08-15T14:39:38Z</time>
      </trkpt>
      <trkpt lat="27.960184" lon="-15.597567">
        <ele>1636.357</ele>
        <time>2014-08-15T14:39:48Z</time>
      </trkpt>
      <trkpt lat="27.960419" lon="-15.597298">
        <ele>1627.560</ele>
        <time>2014-08-15T14:40:07Z</time>
      </trkpt>
      <trkpt lat="27.960415" lon="-15.596475">
        <ele>1635.691</ele>
        <time>2014-08-15T14:41:07Z</time>
      </trkpt>
      <trkpt lat="27.960258" lon="-15.595883">
        <ele>1638.336</ele>
        <time>2014-08-15T14:41:50Z</time>
      </trkpt>
      <trkpt lat="27.959402" lon="-15.594820">
        <ele>1643.734</ele>
        <time>2014-08-15T14:43:25Z</time>
      </trkpt>
      <trkpt lat="27.959503" lon="-15.594208">
        <ele>1651.255</ele>
        <time>2014-08-15T14:44:24Z</time>
      </trkpt>
      <trkpt lat="27.959442" lon="-15.594058">
        <ele>1653.410</ele>
        <time>2014-08-15T14:44:34Z</time>
      </trkpt>
      <trkpt lat="27.958654" lon="-15.593337">
        <ele>1651.907</ele>
        <time>2014-08-15T14:45:42Z</time>
      </trkpt>
      <trkpt lat="27.958359" lon="-15.592840">
        <ele>1650.610</ele>
        <time>2014-08-15T14:46:48Z</time>
      </trkpt>
      <trkpt lat="27.958443" lon="-15.592862">
        <ele>1649.348</ele>
        <time>2014-08-15T14:47:23Z</time>
      </trkpt>
      <trkpt lat="27.958324" lon="-15.592880">
        <ele>1651.257</ele>
        <time>2014-08-15T14:49:18Z</time>
      </trkpt>
      <trkpt lat="27.958447" lon="-15.592795">
        <ele>1649.027</ele>
        <time>2014-08-15T14:56:02Z</time>
      </trkpt>
      <trkpt lat="27.958384" lon="-15.592480">
        <ele>1649.920</ele>
        <time>2014-08-15T14:56:24Z</time>
      </trkpt>
      <trkpt lat="27.958483" lon="-15.591915">
        <ele>1648.021</ele>
        <time>2014-08-15T14:57:01Z</time>
      </trkpt>
      <trkpt lat="27.958830" lon="-15.591207">
        <ele>1651.816</ele>
        <time>2014-08-15T14:57:54Z</time>
      </trkpt>
      <trkpt lat="27.958929" lon="-15.590762">
        <ele>1656.474</ele>
        <time>2014-08-15T14:58:25Z</time>
      </trkpt>
      <trkpt lat="27.959175" lon="-15.590452">
        <ele>1655.756</ele>
        <time>2014-08-15T14:59:26Z</time>
      </trkpt>
      <trkpt lat="27.959223" lon="-15.590523">
        <ele>1655.021</ele>
        <time>2014-08-15T14:59:52Z</time>
      </trkpt>
      <trkpt lat="27.959503" lon="-15.590470">
        <ele>1652.707</ele>
        <time>2014-08-15T15:00:19Z</time>
      </trkpt>
      <trkpt lat="27.959723" lon="-15.590245">
        <ele>1649.964</ele>
        <time>2014-08-15T15:00:42Z</time>
      </trkpt>
      <trkpt lat="27.959759" lon="-15.589888">
        <ele>1648.172</ele>
        <time>2014-08-15T15:01:11Z</time>
      </trkpt>
      <trkpt lat="27.959585" lon="-15.589772">
        <ele>1649.841</ele>
        <time>2014-08-15T15:02:42Z</time>
      </trkpt>
      <trkpt lat="27.959763" lon="-15.589808">
        <ele>1647.871</ele>
        <time>2014-08-15T15:04:00Z</time>
      </trkpt>
      <trkpt lat="27.959730" lon="-15.589667">
        <ele>1647.584</ele>
        <time>2014-08-15T15:04:16Z</time>
      </trkpt>
      <trkpt lat="27.959892" lon="-15.589438">
        <ele>1645.465</ele>
        <time>2014-08-15T15:04:38Z</time>
      </trkpt>
      <trkpt lat="27.960329" lon="-15.589358">
        <ele>1644.770</ele>
        <time>2014-08-15T15:05:14Z</time>
      </trkpt>
      <trkpt lat="27.960997" lon="-15.589477">
        <ele>1642.614</ele>
        <time>2014-08-15T15:06:27Z</time>
      </trkpt>
      <trkpt lat="27.961161" lon="-15.589578">
        <ele>1642.754</ele>
        <time>2014-08-15T15:06:57Z</time>
      </trkpt>
      <trkpt lat="27.963055" lon="-15.589482">
        <ele>1636.309</ele>
        <time>2014-08-15T15:09:24Z</time>
      </trkpt>
      <trkpt lat="27.963383" lon="-15.589367">
        <ele>1637.307</ele>
        <time>2014-08-15T15:09:55Z</time>
      </trkpt>
      <trkpt lat="27.964054" lon="-15.588887">
        <ele>1635.828</ele>
        <time>2014-08-15T15:10:59Z</time>
      </trkpt>
      <trkpt lat="27.964912" lon="-15.587888">
        <ele>1648.036</ele>
        <time>2014-08-15T15:12:39Z</time>
      </trkpt>
      <trkpt lat="27.964956" lon="-15.587387">
        <ele>1655.245</ele>
        <time>2014-08-15T15:13:16Z</time>
      </trkpt>
      <trkpt lat="27.965267" lon="-15.586363">
        <ele>1659.195</ele>
        <time>2014-08-15T15:14:36Z</time>
      </trkpt>
      <trkpt lat="27.965420" lon="-15.585487">
        <ele>1663.998</ele>
        <time>2014-08-15T15:15:39Z</time>
      </trkpt>
      <trkpt lat="27.965990" lon="-15.584817">
        <ele>1669.759</ele>
        <time>2014-08-15T15:16:55Z</time>
      </trkpt>
      <trkpt lat="27.965940" lon="-15.584538">
        <ele>1666.434</ele>
        <time>2014-08-15T15:17:20Z</time>
      </trkpt>
      <trkpt lat="27.966063" lon="-15.584257">
        <ele>1667.023</ele>
        <time>2014-08-15T15:17:53Z</time>
      </trkpt>
      <trkpt lat="27.966623" lon="-15.583847">
        <ele>1670.683</ele>
        <time>2014-08-15T15:18:56Z</time>
      </trkpt>
      <trkpt lat="27.966944" lon="-15.583452">
        <ele>1676.011</ele>
        <time>2014-08-15T15:20:13Z</time>
      </trkpt>
      <trkpt lat="27.966963" lon="-15.583367">
        <ele>1676.307</ele>
        <time>2014-08-15T15:20:20Z</time>
      </trkpt>
      <trkpt lat="27.966738" lon="-15.583467">
        <ele>1673.179</ele>
        <time>2014-08-15T15:22:53Z</time>
      </trkpt>
      <trkpt lat="27.966860" lon="-15.583445">
        <ele>1674.857</ele>
        <time>2014-08-15T15:23:02Z</time>
      </trkpt>
      <trkpt lat="27.966824" lon="-15.583323">
        <ele>1674.726</ele>
        <time>2014-08-15T15:23:23Z</time>
      </trkpt>
      <trkpt lat="27.966896" lon="-15.583317">
        <ele>1675.436</ele>
        <time>2014-08-15T15:23:26Z</time>
      </trkpt>
      <trkpt lat="27.966879" lon="-15.583480">
        <ele>1675.029</ele>
        <time>2014-08-15T15:24:22Z</time>
      </trkpt>
      <trkpt lat="27.966999" lon="-15.583333">
        <ele>1676.850</ele>
        <time>2014-08-15T15:32:57Z</time>
      </trkpt>
      <trkpt lat="27.966869" lon="-15.583453">
        <ele>1675.015</ele>
        <time>2014-08-15T15:48:15Z</time>
      </trkpt>
      <trkpt lat="27.966892" lon="-15.583342">
        <ele>1675.411</ele>
        <time>2014-08-15T15:49:24Z</time>
      </trkpt>
      <trkpt lat="27.966990" lon="-15.583322">
        <ele>1676.621</ele>
        <time>2014-08-15T15:49:37Z</time>
      </trkpt>
      <trkpt lat="27.967951" lon="-15.584068">
        <ele>1693.603</ele>
        <time>2014-08-15T15:52:52Z</time>
      </trkpt>
      <trkpt lat="27.969490" lon="-15.584523">
        <ele>1698.107</ele>
        <time>2014-08-15T15:55:37Z</time>
      </trkpt>
      <trkpt lat="27.971281" lon="-15.584112">
        <ele>1687.598</ele>
        <time>2014-08-15T15:58:15Z</time>
      </trkpt>
      <trkpt lat="27.972538" lon="-15.584103">
        <ele>1688.296</ele>
        <time>2014-08-15T15:59:54Z</time>
      </trkpt>
      <trkpt lat="27.974056" lon="-15.584215">
        <ele>1692.345</ele>
        <time>2014-08-15T16:02:07Z</time>
      </trkpt>
      <trkpt lat="27.973751" lon="-15.584843">
        <ele>1692.525</ele>
        <time>2014-08-15T16:03:16Z</time>
      </trkpt>
      <trkpt lat="27.973749" lon="-15.585047">
        <ele>1692.258</ele>
        <time>2014-08-15T16:03:29Z</time>
      </trkpt>
      <trkpt lat="27.973892" lon="-15.585788">
        <ele>1690.929</ele>
        <time>2014-08-15T16:04:25Z</time>
      </trkpt>
      <trkpt lat="27.974314" lon="-15.586897">
        <ele>1695.124</ele>
        <time>2014-08-15T16:06:20Z</time>
      </trkpt>
      <trkpt lat="27.975786" lon="-15.586297">
        <ele>1704.259</ele>
        <time>2014-08-15T16:09:12Z</time>
      </trkpt>
      <trkpt lat="27.975903" lon="-15.586127">
        <ele>1706.203</ele>
        <time>2014-08-15T16:09:33Z</time>
      </trkpt>
      <trkpt lat="27.976061" lon="-15.586105">
        <ele>1703.223</ele>
        <time>2014-08-15T16:11:17Z</time>
      </trkpt>
      <trkpt lat="27.976374" lon="-15.585818">
        <ele>1697.507</ele>
        <time>2014-08-15T16:12:59Z</time>
      </trkpt>
      <trkpt lat="27.976728" lon="-15.585760">
        <ele>1690.052</ele>
        <time>2014-08-15T16:13:39Z</time>
      </trkpt>
      <trkpt lat="27.977074" lon="-15.585400">
        <ele>1688.260</ele>
        <time>2014-08-15T16:14:51Z</time>
      </trkpt>
      <trkpt lat="27.977652" lon="-15.585397">
        <ele>1682.729</ele>
        <time>2014-08-15T16:19:44Z</time>
      </trkpt>
      <trkpt lat="27.977842" lon="-15.585313">
        <ele>1685.389</ele>
        <time>2014-08-15T16:20:06Z</time>
      </trkpt>
      <trkpt lat="27.978031" lon="-15.585473">
        <ele>1685.362</ele>
        <time>2014-08-15T16:20:31Z</time>
      </trkpt>
      <trkpt lat="27.978279" lon="-15.586063">
        <ele>1686.033</ele>
        <time>2014-08-15T16:22:02Z</time>
      </trkpt>
      <trkpt lat="27.978642" lon="-15.586502">
        <ele>1688.388</ele>
        <time>2014-08-15T16:26:46Z</time>
      </trkpt>
      <trkpt lat="27.978632" lon="-15.586443">
        <ele>1689.911</ele>
        <time>2014-08-15T16:27:00Z</time>
      </trkpt>
      <trkpt lat="27.978609" lon="-15.586520">
        <ele>1687.221</ele>
        <time>2014-08-15T16:27:32Z</time>
      </trkpt>
      <trkpt lat="27.978643" lon="-15.586435">
        <ele>1690.403</ele>
        <time>2014-08-15T16:31:27Z</time>
      </trkpt>
      <trkpt lat="27.978848" lon="-15.586442">
        <ele>1694.807</ele>
        <time>2014-08-15T16:32:23Z</time>
      </trkpt>
      <trkpt lat="27.979027" lon="-15.586662">
        <ele>1685.758</ele>
        <time>2014-08-15T16:36:47Z</time>
      </trkpt>
      <trkpt lat="27.979212" lon="-15.586537">
        <ele>1691.836</ele>
        <time>2014-08-15T16:38:50Z</time>
      </trkpt>
      <trkpt lat="27.979668" lon="-15.586472">
        <ele>1684.065</ele>
        <time>2014-08-15T16:39:43Z</time>
      </trkpt>
      <trkpt lat="27.980030" lon="-15.586175">
        <ele>1689.995</ele>
        <time>2014-08-15T16:40:34Z</time>
      </trkpt>
      <trkpt lat="27.980576" lon="-15.586465">
        <ele>1682.628</ele>
        <time>2014-08-15T16:43:33Z</time>
      </trkpt>
      <trkpt lat="27.980967" lon="-15.586560">
        <ele>1687.139</ele>
        <time>2014-08-15T16:44:09Z</time>
      </trkpt>
      <trkpt lat="27.981215" lon="-15.586808">
        <ele>1683.334</ele>
        <time>2014-08-15T16:44:45Z</time>
      </trkpt>
      <trkpt lat="27.981663" lon="-15.586898">
        <ele>1699.862</ele>
        <time>2014-08-15T16:45:42Z</time>
      </trkpt>
      <trkpt lat="27.981897" lon="-15.587453">
        <ele>1677.083</ele>
        <time>2014-08-15T16:47:04Z</time>
      </trkpt>
      <trkpt lat="27.982794" lon="-15.588460">
        <ele>1665.611</ele>
        <time>2014-08-15T16:50:31Z</time>
      </trkpt>
      <trkpt lat="27.982910" lon="-15.588942">
        <ele>1649.707</ele>
        <time>2014-08-15T16:52:17Z</time>
      </trkpt>
      <trkpt lat="27.983032" lon="-15.588838">
        <ele>1650.453</ele>
        <time>2014-08-15T16:52:50Z</time>
      </trkpt>
      <trkpt lat="27.983202" lon="-15.589523">
        <ele>1640.341</ele>
        <time>2014-08-15T16:53:58Z</time>
      </trkpt>
      <trkpt lat="27.983421" lon="-15.589847">
        <ele>1631.610</ele>
        <time>2014-08-15T16:54:42Z</time>
      </trkpt>
      <trkpt lat="27.983952" lon="-15.590293">
        <ele>1620.840</ele>
        <time>2014-08-15T16:55:45Z</time>
      </trkpt>
      <trkpt lat="27.985123" lon="-15.590928">
        <ele>1595.453</ele>
        <time>2014-08-15T16:58:04Z</time>
      </trkpt>
      <trkpt lat="27.985146" lon="-15.591082">
        <ele>1594.944</ele>
        <time>2014-08-15T16:58:43Z</time>
      </trkpt>
      <trkpt lat="27.985323" lon="-15.591030">
        <ele>1590.699</ele>
        <time>2014-08-15T16:59:12Z</time>
      </trkpt>
      <trkpt lat="27.985167" lon="-15.591355">
        <ele>1588.158</ele>
        <time>2014-08-15T17:00:01Z</time>
      </trkpt>
      <trkpt lat="27.985292" lon="-15.591442">
        <ele>1586.452</ele>
        <time>2014-08-15T17:00:29Z</time>
      </trkpt>
      <trkpt lat="27.985092" lon="-15.591583">
        <ele>1580.417</ele>
        <time>2014-08-15T17:00:59Z</time>
      </trkpt>
      <trkpt lat="27.985336" lon="-15.591755">
        <ele>1579.207</ele>
        <time>2014-08-15T17:01:37Z</time>
      </trkpt>
      <trkpt lat="27.985100" lon="-15.592207">
        <ele>1571.172</ele>
        <time>2014-08-15T17:02:38Z</time>
      </trkpt>
      <trkpt lat="27.985167" lon="-15.592428">
        <ele>1573.520</ele>
        <time>2014-08-15T17:02:59Z</time>
      </trkpt>
      <trkpt lat="27.985518" lon="-15.592582">
        <ele>1575.849</ele>
        <time>2014-08-15T17:03:37Z</time>
      </trkpt>
      <trkpt lat="27.985794" lon="-15.592532">
        <ele>1573.469</ele>
        <time>2014-08-15T17:04:16Z</time>
      </trkpt>
      <trkpt lat="27.986868" lon="-15.592612">
        <ele>1570.932</ele>
        <time>2014-08-15T17:05:56Z</time>
      </trkpt>
      <trkpt lat="27.987867" lon="-15.593282">
        <ele>1564.163</ele>
        <time>2014-08-15T17:08:03Z</time>
      </trkpt>
      <trkpt lat="27.988142" lon="-15.593338">
        <ele>1558.748</ele>
        <time>2014-08-15T17:10:09Z</time>
      </trkpt>
      <trkpt lat="27.988726" lon="-15.593262">
        <ele>1551.068</ele>
        <time>2014-08-15T17:11:58Z</time>
      </trkpt>
    </trkseg>
  </trk></gpx>