<?xml version="1.0" encoding="UTF-8"?>
<gpx version="1.1" creator="Aventuras en Cada Paso" xmlns="http://www.topografix.com/GPX/1/1">
  <metadata>
    <name>Roques de García – Sendero 3 Teide</name>
    <desc>Circular por las formaciones volcánicas más espectaculares del Teide: Roque Cinchado, El Torrotito y el Llano de Ucanca. Apta para familias.</desc>
    <author><name>Aventuras en Cada Paso</name></author>
    <time>2026-07-08T08:12:58.153Z</time>
    <keywords>Tenerife, Senderismo, Fácil, senderismo Canarias</keywords>
  </metadata>
  <wpt lat="28.2253" lon="-16.6139">
    <name>Roques de García – Sendero 3 Teide</name>
    <desc>Circular por las formaciones volcánicas más espectaculares del Teide: Roque Cinchado, El Torrotito y el Llano de Ucanca. Apta para familias. | Isla: Tenerife | Tipo: Senderismo | Dificultad: Fácil | Distancia: 4km | Duración: 2-4 horas</desc>
    <type>Senderismo</type>
    <extensions>
      <isla>Tenerife</isla>
      <dificultad>Fácil</dificultad>
      <distancia>4</distancia>
      <duracion>2-4 horas</duracion>
    </extensions>
  </wpt>
</gpx>