<?xml version="1.0" encoding="UTF-8"?>
<gpx version="1.1" creator="Aventuras en Cada Paso" xmlns="http://www.topografix.com/GPX/1/1">
  <metadata>
    <name>Roque de los Muchachos – Cumbre GR 131</name>
    <desc>Tramo del GR 131 por la cumbre (2.423 m) entre observatorios. Desde el Pico de la Cruz al Roque, con vistas a todas las islas del archipiélago.</desc>
    <author><name>Aventuras en Cada Paso</name></author>
    <time>2026-07-08T08:12:58.183Z</time>
    <keywords>La Palma, Senderismo, Media, senderismo Canarias</keywords>
  </metadata>
  <wpt lat="28.7544" lon="-17.8833">
    <name>Roque de los Muchachos – Cumbre GR 131</name>
    <desc>Tramo del GR 131 por la cumbre (2.423 m) entre observatorios. Desde el Pico de la Cruz al Roque, con vistas a todas las islas del archipiélago. | Isla: La Palma | Tipo: Senderismo | Dificultad: Media | Distancia: 10km | Duración: 2-4 horas</desc>
    <type>Senderismo</type>
    <extensions>
      <isla>La Palma</isla>
      <dificultad>Media</dificultad>
      <distancia>10</distancia>
      <duracion>2-4 horas</duracion>
    </extensions>
  </wpt>
</gpx>