<?xml version="1.0" encoding="UTF-8"?>
<gpx creator="Wikiloc - https://www.wikiloc.com" version="1.1" xmlns="http://www.topografix.com/GPX/1/1" xmlns:xsi="http://www.w3.org/2001/XMLSchema-instance" xsi:schemaLocation="http://www.topografix.com/GPX/1/1 http://www.topografix.com/GPX/1/1/gpx.xsd">
  <metadata>
    <name>Wikiloc - Lanzarote Isla La Graciosa: Caleta de Sebo - Parque Natural ...</name>
    <link href="https://www.wikiloc.com/hiking-trails/isla-la-graciosa-caleta-de-sebo-playa-de-las-conchas-113077267">
      <text>Lanzarote Isla La Graciosa: Caleta de Sebo - Parque Natural ... on Wikiloc</text>
    </link>
    <time>2022-09-08T16:44:47Z</time>
  </metadata>
  <trk>
    <name>Lanzarote Isla La Graciosa: Caleta de Sebo - Parque Natural ... - Wikiloc</name>
    <cmt></cmt>
    <desc></desc>
    <trkseg>
      <trkpt lat="29.231804" lon="-13.504961">
        <ele>11.466</ele>
        <time>2022-09-08T12:08:09Z</time>
      </trkpt>
      <trkpt lat="29.232545" lon="-13.505064">
        <ele>18.829</ele>
        <time>2022-09-08T12:09:10Z</time>
      </trkpt>
      <trkpt lat="29.233379" lon="-13.504973">
        <ele>18.021</ele>
        <time>2022-09-08T12:10:19Z</time>
      </trkpt>
      <trkpt lat="29.235326" lon="-13.505282">
        <ele>30.609</ele>
        <time>2022-09-08T12:13:13Z</time>
      </trkpt>
      <trkpt lat="29.237444" lon="-13.505873">
        <ele>45.027</ele>
        <time>2022-09-08T12:16:26Z</time>
      </trkpt>
      <trkpt lat="29.238858" lon="-13.506422">
        <ele>49.817</ele>
        <time>2022-09-08T12:18:25Z</time>
      </trkpt>
      <trkpt lat="29.243594" lon="-13.508738">
        <ele>47.269</ele>
        <time>2022-09-08T12:25:01Z</time>
      </trkpt>
      <trkpt lat="29.245344" lon="-13.509827">
        <ele>41.436</ele>
        <time>2022-09-08T12:27:43Z</time>
      </trkpt>
      <trkpt lat="29.245929" lon="-13.510356">
        <ele>43.453</ele>
        <time>2022-09-08T12:28:40Z</time>
      </trkpt>
      <trkpt lat="29.246155" lon="-13.510444">
        <ele>42.443</ele>
        <time>2022-09-08T12:29:05Z</time>
      </trkpt>
      <trkpt lat="29.246706" lon="-13.510318">
        <ele>46.098</ele>
        <time>2022-09-08T12:30:08Z</time>
      </trkpt>
      <trkpt lat="29.246970" lon="-13.510388">
        <ele>45.542</ele>
        <time>2022-09-08T12:30:24Z</time>
      </trkpt>
      <trkpt lat="29.247472" lon="-13.510892">
        <ele>44.023</ele>
        <time>2022-09-08T12:31:04Z</time>
      </trkpt>
      <trkpt lat="29.248209" lon="-13.511399">
        <ele>41.534</ele>
        <time>2022-09-08T12:33:05Z</time>
      </trkpt>
      <trkpt lat="29.249112" lon="-13.512344">
        <ele>42.555</ele>
        <time>2022-09-08T12:35:05Z</time>
      </trkpt>
      <trkpt lat="29.250298" lon="-13.513160">
        <ele>43.010</ele>
        <time>2022-09-08T12:37:03Z</time>
      </trkpt>
      <trkpt lat="29.252428" lon="-13.513183">
        <ele>45.509</ele>
        <time>2022-09-08T12:40:09Z</time>
      </trkpt>
      <trkpt lat="29.253492" lon="-13.513392">
        <ele>51.814</ele>
        <time>2022-09-08T12:41:37Z</time>
      </trkpt>
      <trkpt lat="29.254141" lon="-13.513617">
        <ele>51.334</ele>
        <time>2022-09-08T12:42:32Z</time>
      </trkpt>
      <trkpt lat="29.254700" lon="-13.513941">
        <ele>53.346</ele>
        <time>2022-09-08T12:43:30Z</time>
      </trkpt>
      <trkpt lat="29.255114" lon="-13.514322">
        <ele>60.423</ele>
        <time>2022-09-08T12:44:15Z</time>
      </trkpt>
      <trkpt lat="29.255688" lon="-13.515075">
        <ele>55.310</ele>
        <time>2022-09-08T12:45:34Z</time>
      </trkpt>
      <trkpt lat="29.256878" lon="-13.515858">
        <ele>52.070</ele>
        <time>2022-09-08T12:47:28Z</time>
      </trkpt>
      <trkpt lat="29.257205" lon="-13.515944">
        <ele>51.145</ele>
        <time>2022-09-08T12:47:51Z</time>
      </trkpt>
      <trkpt lat="29.258659" lon="-13.515787">
        <ele>46.139</ele>
        <time>2022-09-08T12:49:45Z</time>
      </trkpt>
      <trkpt lat="29.260090" lon="-13.516407">
        <ele>40.570</ele>
        <time>2022-09-08T12:52:18Z</time>
      </trkpt>
      <trkpt lat="29.260588" lon="-13.517326">
        <ele>34.451</ele>
        <time>2022-09-08T12:53:42Z</time>
      </trkpt>
      <trkpt lat="29.262027" lon="-13.519428">
        <ele>22.501</ele>
        <time>2022-09-08T12:56:51Z</time>
      </trkpt>
      <trkpt lat="29.262334" lon="-13.519637">
        <ele>20.311</ele>
        <time>2022-09-08T12:57:22Z</time>
      </trkpt>
      <trkpt lat="29.263574" lon="-13.519861">
        <ele>10.109</ele>
        <time>2022-09-08T12:59:15Z</time>
      </trkpt>
      <trkpt lat="29.263688" lon="-13.521166">
        <ele>8.126</ele>
        <time>2022-09-08T13:01:09Z</time>
      </trkpt>
      <trkpt lat="29.263837" lon="-13.521441">
        <ele>6.496</ele>
        <time>2022-09-08T13:01:52Z</time>
      </trkpt>
      <trkpt lat="29.264007" lon="-13.521507">
        <ele>6.268</ele>
        <time>2022-09-08T13:02:16Z</time>
      </trkpt>
      <trkpt lat="29.263799" lon="-13.521731">
        <ele>4.545</ele>
        <time>2022-09-08T13:13:19Z</time>
      </trkpt>
      <trkpt lat="29.263508" lon="-13.521774">
        <ele>3.712</ele>
        <time>2022-09-08T13:13:51Z</time>
      </trkpt>
      <trkpt lat="29.263655" lon="-13.521915">
        <ele>4.072</ele>
        <time>2022-09-08T13:15:37Z</time>
      </trkpt>
      <trkpt lat="29.264025" lon="-13.521566">
        <ele>5.797</ele>
        <time>2022-09-08T13:44:49Z</time>
      </trkpt>
      <trkpt lat="29.263837" lon="-13.521304">
        <ele>7.761</ele>
        <time>2022-09-08T13:45:19Z</time>
      </trkpt>
      <trkpt lat="29.263718" lon="-13.520918">
        <ele>9.272</ele>
        <time>2022-09-08T13:45:47Z</time>
      </trkpt>
      <trkpt lat="29.263610" lon="-13.519893">
        <ele>9.833</ele>
        <time>2022-09-08T13:47:15Z</time>
      </trkpt>
      <trkpt lat="29.265480" lon="-13.519765">
        <ele>8.623</ele>
        <time>2022-09-08T13:49:52Z</time>
      </trkpt>
      <trkpt lat="29.265780" lon="-13.519646">
        <ele>9.715</ele>
        <time>2022-09-08T13:50:14Z</time>
      </trkpt>
      <trkpt lat="29.266522" lon="-13.519129">
        <ele>9.909</ele>
        <time>2022-09-08T13:51:27Z</time>
      </trkpt>
      <trkpt lat="29.269219" lon="-13.516723">
        <ele>18.844</ele>
        <time>2022-09-08T13:56:31Z</time>
      </trkpt>
      <trkpt lat="29.270849" lon="-13.515587">
        <ele>20.744</ele>
        <time>2022-09-08T13:58:55Z</time>
      </trkpt>
      <trkpt lat="29.272362" lon="-13.514897">
        <ele>26.836</ele>
        <time>2022-09-08T14:01:44Z</time>
      </trkpt>
      <trkpt lat="29.272828" lon="-13.514768">
        <ele>22.943</ele>
        <time>2022-09-08T14:02:19Z</time>
      </trkpt>
      <trkpt lat="29.272978" lon="-13.514823">
        <ele>24.210</ele>
        <time>2022-09-08T14:14:20Z</time>
      </trkpt>
      <trkpt lat="29.272867" lon="-13.514462">
        <ele>20.810</ele>
        <time>2022-09-08T14:15:27Z</time>
      </trkpt>
      <trkpt lat="29.272880" lon="-13.513707">
        <ele>33.955</ele>
        <time>2022-09-08T14:16:17Z</time>
      </trkpt>
      <trkpt lat="29.273156" lon="-13.512560">
        <ele>49.639</ele>
        <time>2022-09-08T14:17:34Z</time>
      </trkpt>
      <trkpt lat="29.273318" lon="-13.512308">
        <ele>50.240</ele>
        <time>2022-09-08T14:18:08Z</time>
      </trkpt>
      <trkpt lat="29.274507" lon="-13.511855">
        <ele>72.917</ele>
        <time>2022-09-08T14:20:04Z</time>
      </trkpt>
      <trkpt lat="29.275678" lon="-13.511574">
        <ele>111.887</ele>
        <time>2022-09-08T14:22:16Z</time>
      </trkpt>
      <trkpt lat="29.276864" lon="-13.511046">
        <ele>141.615</ele>
        <time>2022-09-08T14:25:33Z</time>
      </trkpt>
      <trkpt lat="29.276897" lon="-13.510840">
        <ele>146.009</ele>
        <time>2022-09-08T14:31:33Z</time>
      </trkpt>
      <trkpt lat="29.276809" lon="-13.511050">
        <ele>142.242</ele>
        <time>2022-09-08T14:33:09Z</time>
      </trkpt>
      <trkpt lat="29.275722" lon="-13.511565">
        <ele>112.962</ele>
        <time>2022-09-08T14:36:14Z</time>
      </trkpt>
      <trkpt lat="29.273531" lon="-13.512194">
        <ele>52.494</ele>
        <time>2022-09-08T14:39:26Z</time>
      </trkpt>
      <trkpt lat="29.273231" lon="-13.512421">
        <ele>50.241</ele>
        <time>2022-09-08T14:39:51Z</time>
      </trkpt>
      <trkpt lat="29.273079" lon="-13.512708">
        <ele>46.138</ele>
        <time>2022-09-08T14:40:10Z</time>
      </trkpt>
      <trkpt lat="29.272832" lon="-13.513715">
        <ele>31.958</ele>
        <time>2022-09-08T14:41:29Z</time>
      </trkpt>
      <trkpt lat="29.272839" lon="-13.514467">
        <ele>20.383</ele>
        <time>2022-09-08T14:42:15Z</time>
      </trkpt>
      <trkpt lat="29.272947" lon="-13.514803">
        <ele>24.097</ele>
        <time>2022-09-08T14:42:45Z</time>
      </trkpt>
      <trkpt lat="29.273414" lon="-13.515385">
        <ele>22.388</ele>
        <time>2022-09-08T14:43:54Z</time>
      </trkpt>
      <trkpt lat="29.273666" lon="-13.515597">
        <ele>16.329</ele>
        <time>2022-09-08T14:44:18Z</time>
      </trkpt>
      <trkpt lat="29.273879" lon="-13.515597">
        <ele>13.800</ele>
        <time>2022-09-08T14:44:34Z</time>
      </trkpt>
      <trkpt lat="29.273966" lon="-13.516011">
        <ele>10.420</ele>
        <time>2022-09-08T14:45:33Z</time>
      </trkpt>
      <trkpt lat="29.274177" lon="-13.516329">
        <ele>10.609</ele>
        <time>2022-09-08T14:46:10Z</time>
      </trkpt>
      <trkpt lat="29.274136" lon="-13.516801">
        <ele>12.323</ele>
        <time>2022-09-08T15:38:56Z</time>
      </trkpt>
      <trkpt lat="29.273990" lon="-13.516674">
        <ele>10.213</ele>
        <time>2022-09-08T15:39:30Z</time>
      </trkpt>
      <trkpt lat="29.273898" lon="-13.516331">
        <ele>8.325</ele>
        <time>2022-09-08T15:39:58Z</time>
      </trkpt>
      <trkpt lat="29.273986" lon="-13.516068">
        <ele>10.172</ele>
        <time>2022-09-08T15:40:23Z</time>
      </trkpt>
      <trkpt lat="29.273945" lon="-13.515907">
        <ele>11.389</ele>
        <time>2022-09-08T15:40:39Z</time>
      </trkpt>
      <trkpt lat="29.272953" lon="-13.514744">
        <ele>23.979</ele>
        <time>2022-09-08T15:43:06Z</time>
      </trkpt>
      <trkpt lat="29.272821" lon="-13.514725">
        <ele>22.574</ele>
        <time>2022-09-08T15:43:23Z</time>
      </trkpt>
      <trkpt lat="29.270795" lon="-13.515576">
        <ele>21.248</ele>
        <time>2022-09-08T15:46:10Z</time>
      </trkpt>
      <trkpt lat="29.269479" lon="-13.516448">
        <ele>20.569</ele>
        <time>2022-09-08T15:48:12Z</time>
      </trkpt>
      <trkpt lat="29.266915" lon="-13.518797">
        <ele>12.972</ele>
        <time>2022-09-08T15:52:28Z</time>
      </trkpt>
      <trkpt lat="29.265819" lon="-13.519606">
        <ele>9.913</ele>
        <time>2022-09-08T15:54:10Z</time>
      </trkpt>
      <trkpt lat="29.265361" lon="-13.519729">
        <ele>9.414</ele>
        <time>2022-09-08T15:54:46Z</time>
      </trkpt>
      <trkpt lat="29.263837" lon="-13.519849">
        <ele>8.809</ele>
        <time>2022-09-08T15:56:42Z</time>
      </trkpt>
      <trkpt lat="29.262651" lon="-13.519746">
        <ele>14.848</ele>
        <time>2022-09-08T15:58:16Z</time>
      </trkpt>
      <trkpt lat="29.262295" lon="-13.519635">
        <ele>21.158</ele>
        <time>2022-09-08T16:00:03Z</time>
      </trkpt>
      <trkpt lat="29.262009" lon="-13.519382">
        <ele>22.330</ele>
        <time>2022-09-08T16:00:32Z</time>
      </trkpt>
      <trkpt lat="29.260085" lon="-13.516402">
        <ele>40.667</ele>
        <time>2022-09-08T16:04:51Z</time>
      </trkpt>
      <trkpt lat="29.259166" lon="-13.516053">
        <ele>46.014</ele>
        <time>2022-09-08T16:06:11Z</time>
      </trkpt>
      <trkpt lat="29.258769" lon="-13.515792">
        <ele>46.094</ele>
        <time>2022-09-08T16:06:49Z</time>
      </trkpt>
      <trkpt lat="29.257437" lon="-13.515959">
        <ele>50.229</ele>
        <time>2022-09-08T16:08:28Z</time>
      </trkpt>
      <trkpt lat="29.257028" lon="-13.515886">
        <ele>51.783</ele>
        <time>2022-09-08T16:08:59Z</time>
      </trkpt>
      <trkpt lat="29.255924" lon="-13.515205">
        <ele>55.924</ele>
        <time>2022-09-08T16:10:40Z</time>
      </trkpt>
      <trkpt lat="29.255070" lon="-13.514161">
        <ele>60.759</ele>
        <time>2022-09-08T16:12:22Z</time>
      </trkpt>
      <trkpt lat="29.254133" lon="-13.513581">
        <ele>51.503</ele>
        <time>2022-09-08T16:13:39Z</time>
      </trkpt>
      <trkpt lat="29.253085" lon="-13.513241">
        <ele>47.123</ele>
        <time>2022-09-08T16:15:01Z</time>
      </trkpt>
      <trkpt lat="29.250787" lon="-13.513107">
        <ele>42.109</ele>
        <time>2022-09-08T16:18:08Z</time>
      </trkpt>
      <trkpt lat="29.249945" lon="-13.512837">
        <ele>39.976</ele>
        <time>2022-09-08T16:19:16Z</time>
      </trkpt>
      <trkpt lat="29.247710" lon="-13.511074">
        <ele>38.486</ele>
        <time>2022-09-08T16:22:41Z</time>
      </trkpt>
      <trkpt lat="29.247043" lon="-13.510441">
        <ele>44.328</ele>
        <time>2022-09-08T16:23:44Z</time>
      </trkpt>
      <trkpt lat="29.246009" lon="-13.510406">
        <ele>42.965</ele>
        <time>2022-09-08T16:25:01Z</time>
      </trkpt>
      <trkpt lat="29.245506" lon="-13.509861">
        <ele>42.342</ele>
        <time>2022-09-08T16:25:58Z</time>
      </trkpt>
      <trkpt lat="29.245185" lon="-13.509651">
        <ele>40.682</ele>
        <time>2022-09-08T16:26:23Z</time>
      </trkpt>
      <trkpt lat="29.242684" lon="-13.508251">
        <ele>51.547</ele>
        <time>2022-09-08T16:29:49Z</time>
      </trkpt>
      <trkpt lat="29.239137" lon="-13.506479">
        <ele>49.191</ele>
        <time>2022-09-08T16:34:57Z</time>
      </trkpt>
      <trkpt lat="29.235761" lon="-13.505357">
        <ele>30.622</ele>
        <time>2022-09-08T16:39:59Z</time>
      </trkpt>
      <trkpt lat="29.233567" lon="-13.504928">
        <ele>17.662</ele>
        <time>2022-09-08T16:42:44Z</time>
      </trkpt>
      <trkpt lat="29.232486" lon="-13.504991">
        <ele>17.883</ele>
        <time>2022-09-08T16:44:07Z</time>
      </trkpt>
      <trkpt lat="29.232244" lon="-13.504861">
        <ele>15.211</ele>
        <time>2022-09-08T16:44:28Z</time>
      </trkpt>
      <trkpt lat="29.232137" lon="-13.504659">
        <ele>14.809</ele>
        <time>2022-09-08T16:44:47Z</time>
      </trkpt>
    </trkseg>
  </trk></gpx>