<?xml version="1.0" encoding="UTF-8"?>
<gpx version="1.1" creator="Aventuras en Cada Paso" xmlns="http://www.topografix.com/GPX/1/1">
  <metadata>
    <name>Ruta Sur – Caleta de Sebo – Montaña Amarilla</name>
    <desc>La ruta más popular de la isla. Bordea la costa sur desde Caleta de Sebo por Playa del Salado, Playa Francesa y Playa de la Cocina hasta Montaña Amarilla. Solo hay que seguir la costa.</desc>
    <author><name>Aventuras en Cada Paso</name></author>
    <time>2026-07-08T08:12:58.207Z</time>
    <keywords>La Graciosa, Senderismo, Fácil, senderismo Canarias</keywords>
  </metadata>
  <wpt lat="29.2167" lon="-13.5019">
    <name>Ruta Sur – Caleta de Sebo – Montaña Amarilla</name>
    <desc>La ruta más popular de la isla. Bordea la costa sur desde Caleta de Sebo por Playa del Salado, Playa Francesa y Playa de la Cocina hasta Montaña Amarilla. Solo hay que seguir la costa. | Isla: La Graciosa | Tipo: Senderismo | Dificultad: Fácil | Distancia: 6km | Duración: 2-4 horas</desc>
    <type>Senderismo</type>
    <extensions>
      <isla>La Graciosa</isla>
      <dificultad>Fácil</dificultad>
      <distancia>6</distancia>
      <duracion>2-4 horas</duracion>
    </extensions>
  </wpt>
</gpx>