<?xml version="1.0" encoding="UTF-8"?>
<gpx version="1.1" creator="Aventuras en Cada Paso" xmlns="http://www.topografix.com/GPX/1/1">
  <metadata>
    <name>Ruta de los Volcanes – GR 131</name>
    <desc>Ruta mítica desde el Refugio del Pilar por cráteres volcánicos hasta Fuencaliente. El Cráter del Hoyo Negro, vistas al Teide y la Gomera.</desc>
    <author><name>Aventuras en Cada Paso</name></author>
    <time>2026-07-08T08:12:58.182Z</time>
    <keywords>La Palma, Senderismo, Difícil, senderismo Canarias</keywords>
  </metadata>
  <wpt lat="28.5256" lon="-17.8589">
    <name>Ruta de los Volcanes – GR 131</name>
    <desc>Ruta mítica desde el Refugio del Pilar por cráteres volcánicos hasta Fuencaliente. El Cráter del Hoyo Negro, vistas al Teide y la Gomera. | Isla: La Palma | Tipo: Senderismo | Dificultad: Difícil | Distancia: 24km | Duración: Día completo</desc>
    <type>Senderismo</type>
    <extensions>
      <isla>La Palma</isla>
      <dificultad>Difícil</dificultad>
      <distancia>24</distancia>
      <duracion>Día completo</duracion>
    </extensions>
  </wpt>
</gpx>