<?xml version="1.0" encoding="UTF-8"?>
<gpx creator="Wikiloc - https://www.wikiloc.com" version="1.1" xmlns="http://www.topografix.com/GPX/1/1" xmlns:xsi="http://www.w3.org/2001/XMLSchema-instance" xsi:schemaLocation="http://www.topografix.com/GPX/1/1 http://www.topografix.com/GPX/1/1/gpx.xsd">
  <metadata>
    <name>Wikiloc - El Hierro-Ruta del agua-Arbol Garoé 25/10/21</name>
    <link href="https://www.wikiloc.com/hiking-trails/ruta-del-agua-arbol-garoe-25-10-21-87370047">
      <text>El Hierro-Ruta del agua-Arbol Garoé 25/10/21 - Wikiloc on Wikiloc</text>
    </link>
    <time>2021-10-25T15:14:12Z</time>
  </metadata>
  <trk>
    <name>El Hierro-Ruta del agua-Arbol Garoé 25/10/21 - Wikiloc</name>
    <cmt></cmt>
    <desc></desc>
    <trkseg>
      <trkpt lat="27.778195" lon="-17.955503">
        <ele>1031.291</ele>
        <time>2021-10-25T10:45:20Z</time>
      </trkpt>
      <trkpt lat="27.779443" lon="-17.953650">
        <ele>1028.381</ele>
        <time>2021-10-25T10:46:04Z</time>
      </trkpt>
      <trkpt lat="27.780991" lon="-17.952439">
        <ele>1037.119</ele>
        <time>2021-10-25T10:46:32Z</time>
      </trkpt>
      <trkpt lat="27.781635" lon="-17.951793">
        <ele>1043.108</ele>
        <time>2021-10-25T10:46:46Z</time>
      </trkpt>
      <trkpt lat="27.781787" lon="-17.951053">
        <ele>1044.857</ele>
        <time>2021-10-25T10:46:57Z</time>
      </trkpt>
      <trkpt lat="27.782663" lon="-17.949563">
        <ele>1040.246</ele>
        <time>2021-10-25T10:47:18Z</time>
      </trkpt>
      <trkpt lat="27.782859" lon="-17.948835">
        <ele>1040.032</ele>
        <time>2021-10-25T10:47:28Z</time>
      </trkpt>
      <trkpt lat="27.782910" lon="-17.947996">
        <ele>1040.916</ele>
        <time>2021-10-25T10:48:40Z</time>
      </trkpt>
      <trkpt lat="27.782813" lon="-17.948188">
        <ele>1041.779</ele>
        <time>2021-10-25T10:49:27Z</time>
      </trkpt>
      <trkpt lat="27.783249" lon="-17.947688">
        <ele>1046.299</ele>
        <time>2021-10-25T10:50:49Z</time>
      </trkpt>
      <trkpt lat="27.784289" lon="-17.947207">
        <ele>1066.573</ele>
        <time>2021-10-25T10:51:07Z</time>
      </trkpt>
      <trkpt lat="27.784937" lon="-17.946351">
        <ele>1081.886</ele>
        <time>2021-10-25T10:51:25Z</time>
      </trkpt>
      <trkpt lat="27.785824" lon="-17.945514">
        <ele>1087.477</ele>
        <time>2021-10-25T10:51:40Z</time>
      </trkpt>
      <trkpt lat="27.787060" lon="-17.945035">
        <ele>1095.261</ele>
        <time>2021-10-25T10:52:00Z</time>
      </trkpt>
      <trkpt lat="27.788231" lon="-17.944164">
        <ele>1105.727</ele>
        <time>2021-10-25T10:52:18Z</time>
      </trkpt>
      <trkpt lat="27.789139" lon="-17.943705">
        <ele>1115.008</ele>
        <time>2021-10-25T10:52:35Z</time>
      </trkpt>
      <trkpt lat="27.790123" lon="-17.942943">
        <ele>1106.325</ele>
        <time>2021-10-25T10:52:51Z</time>
      </trkpt>
      <trkpt lat="27.791458" lon="-17.942213">
        <ele>1102.184</ele>
        <time>2021-10-25T10:53:11Z</time>
      </trkpt>
      <trkpt lat="27.792253" lon="-17.941864">
        <ele>1100.090</ele>
        <time>2021-10-25T10:53:22Z</time>
      </trkpt>
      <trkpt lat="27.792613" lon="-17.941992">
        <ele>1098.394</ele>
        <time>2021-10-25T10:53:29Z</time>
      </trkpt>
      <trkpt lat="27.793201" lon="-17.941923">
        <ele>1088.267</ele>
        <time>2021-10-25T10:53:36Z</time>
      </trkpt>
      <trkpt lat="27.793947" lon="-17.942041">
        <ele>1073.177</ele>
        <time>2021-10-25T10:53:44Z</time>
      </trkpt>
      <trkpt lat="27.794422" lon="-17.942230">
        <ele>1063.421</ele>
        <time>2021-10-25T10:53:51Z</time>
      </trkpt>
      <trkpt lat="27.794909" lon="-17.942125">
        <ele>1054.514</ele>
        <time>2021-10-25T10:53:59Z</time>
      </trkpt>
      <trkpt lat="27.795245" lon="-17.942485">
        <ele>1044.885</ele>
        <time>2021-10-25T10:54:07Z</time>
      </trkpt>
      <trkpt lat="27.795898" lon="-17.942714">
        <ele>1032.789</ele>
        <time>2021-10-25T10:54:22Z</time>
      </trkpt>
      <trkpt lat="27.796228" lon="-17.943208">
        <ele>1024.417</ele>
        <time>2021-10-25T10:59:18Z</time>
      </trkpt>
      <trkpt lat="27.796779" lon="-17.943585">
        <ele>1016.608</ele>
        <time>2021-10-25T11:00:33Z</time>
      </trkpt>
      <trkpt lat="27.797988" lon="-17.943631">
        <ele>1004.426</ele>
        <time>2021-10-25T11:02:46Z</time>
      </trkpt>
      <trkpt lat="27.798843" lon="-17.943824">
        <ele>999.615</ele>
        <time>2021-10-25T11:04:15Z</time>
      </trkpt>
      <trkpt lat="27.799880" lon="-17.943726">
        <ele>988.991</ele>
        <time>2021-10-25T11:06:05Z</time>
      </trkpt>
      <trkpt lat="27.799945" lon="-17.943861">
        <ele>986.255</ele>
        <time>2021-10-25T11:06:19Z</time>
      </trkpt>
      <trkpt lat="27.799887" lon="-17.944282">
        <ele>982.358</ele>
        <time>2021-10-25T11:06:57Z</time>
      </trkpt>
      <trkpt lat="27.800248" lon="-17.944440">
        <ele>977.928</ele>
        <time>2021-10-25T11:08:03Z</time>
      </trkpt>
      <trkpt lat="27.800196" lon="-17.944117">
        <ele>970.022</ele>
        <time>2021-10-25T11:09:36Z</time>
      </trkpt>
      <trkpt lat="27.800293" lon="-17.944166">
        <ele>969.285</ele>
        <time>2021-10-25T11:11:48Z</time>
      </trkpt>
      <trkpt lat="27.800284" lon="-17.943480">
        <ele>973.053</ele>
        <time>2021-10-25T11:14:49Z</time>
      </trkpt>
      <trkpt lat="27.799984" lon="-17.943229">
        <ele>966.404</ele>
        <time>2021-10-25T11:15:35Z</time>
      </trkpt>
      <trkpt lat="27.799761" lon="-17.942865">
        <ele>961.914</ele>
        <time>2021-10-25T11:17:20Z</time>
      </trkpt>
      <trkpt lat="27.799344" lon="-17.942597">
        <ele>954.708</ele>
        <time>2021-10-25T11:19:05Z</time>
      </trkpt>
      <trkpt lat="27.799298" lon="-17.942445">
        <ele>954.673</ele>
        <time>2021-10-25T11:19:21Z</time>
      </trkpt>
      <trkpt lat="27.799676" lon="-17.942148">
        <ele>963.312</ele>
        <time>2021-10-25T11:20:41Z</time>
      </trkpt>
      <trkpt lat="27.799541" lon="-17.941582">
        <ele>973.178</ele>
        <time>2021-10-25T11:22:02Z</time>
      </trkpt>
      <trkpt lat="27.799602" lon="-17.941492">
        <ele>974.832</ele>
        <time>2021-10-25T11:22:12Z</time>
      </trkpt>
      <trkpt lat="27.800120" lon="-17.941344">
        <ele>975.815</ele>
        <time>2021-10-25T11:23:35Z</time>
      </trkpt>
      <trkpt lat="27.800235" lon="-17.941165">
        <ele>974.145</ele>
        <time>2021-10-25T11:23:56Z</time>
      </trkpt>
      <trkpt lat="27.799998" lon="-17.940392">
        <ele>962.059</ele>
        <time>2021-10-25T11:26:13Z</time>
      </trkpt>
      <trkpt lat="27.800055" lon="-17.940303">
        <ele>962.252</ele>
        <time>2021-10-25T11:26:26Z</time>
      </trkpt>
      <trkpt lat="27.800783" lon="-17.940317">
        <ele>968.995</ele>
        <time>2021-10-25T11:27:55Z</time>
      </trkpt>
      <trkpt lat="27.801174" lon="-17.940128">
        <ele>975.249</ele>
        <time>2021-10-25T11:29:24Z</time>
      </trkpt>
      <trkpt lat="27.801075" lon="-17.939590">
        <ele>978.823</ele>
        <time>2021-10-25T11:30:13Z</time>
      </trkpt>
      <trkpt lat="27.800503" lon="-17.938956">
        <ele>984.208</ele>
        <time>2021-10-25T11:32:33Z</time>
      </trkpt>
      <trkpt lat="27.800635" lon="-17.939024">
        <ele>981.567</ele>
        <time>2021-10-25T11:33:57Z</time>
      </trkpt>
      <trkpt lat="27.800846" lon="-17.938907">
        <ele>981.196</ele>
        <time>2021-10-25T11:34:17Z</time>
      </trkpt>
      <trkpt lat="27.801142" lon="-17.938305">
        <ele>985.492</ele>
        <time>2021-10-25T11:35:55Z</time>
      </trkpt>
      <trkpt lat="27.801439" lon="-17.938109">
        <ele>986.716</ele>
        <time>2021-10-25T11:36:33Z</time>
      </trkpt>
      <trkpt lat="27.801481" lon="-17.937732">
        <ele>986.969</ele>
        <time>2021-10-25T11:37:30Z</time>
      </trkpt>
      <trkpt lat="27.801358" lon="-17.937498">
        <ele>987.049</ele>
        <time>2021-10-25T11:38:20Z</time>
      </trkpt>
      <trkpt lat="27.801531" lon="-17.937132">
        <ele>983.823</ele>
        <time>2021-10-25T11:41:06Z</time>
      </trkpt>
      <trkpt lat="27.802205" lon="-17.936623">
        <ele>980.226</ele>
        <time>2021-10-25T11:45:31Z</time>
      </trkpt>
      <trkpt lat="27.802214" lon="-17.936419">
        <ele>978.148</ele>
        <time>2021-10-25T11:47:09Z</time>
      </trkpt>
      <trkpt lat="27.802485" lon="-17.935961">
        <ele>972.961</ele>
        <time>2021-10-25T11:48:48Z</time>
      </trkpt>
      <trkpt lat="27.802519" lon="-17.935588">
        <ele>967.917</ele>
        <time>2021-10-25T11:50:39Z</time>
      </trkpt>
      <trkpt lat="27.803287" lon="-17.934667">
        <ele>966.308</ele>
        <time>2021-10-25T11:53:30Z</time>
      </trkpt>
      <trkpt lat="27.803295" lon="-17.934331">
        <ele>957.792</ele>
        <time>2021-10-25T11:54:36Z</time>
      </trkpt>
      <trkpt lat="27.803141" lon="-17.933931">
        <ele>955.321</ele>
        <time>2021-10-25T11:55:19Z</time>
      </trkpt>
      <trkpt lat="27.803257" lon="-17.933699">
        <ele>952.367</ele>
        <time>2021-10-25T11:55:53Z</time>
      </trkpt>
      <trkpt lat="27.803767" lon="-17.933191">
        <ele>937.681</ele>
        <time>2021-10-25T11:58:49Z</time>
      </trkpt>
      <trkpt lat="27.803853" lon="-17.933317">
        <ele>934.544</ele>
        <time>2021-10-25T11:59:07Z</time>
      </trkpt>
      <trkpt lat="27.804020" lon="-17.933129">
        <ele>928.864</ele>
        <time>2021-10-25T11:59:37Z</time>
      </trkpt>
      <trkpt lat="27.804219" lon="-17.933247">
        <ele>923.258</ele>
        <time>2021-10-25T12:00:13Z</time>
      </trkpt>
      <trkpt lat="27.804308" lon="-17.933071">
        <ele>919.241</ele>
        <time>2021-10-25T12:00:37Z</time>
      </trkpt>
      <trkpt lat="27.804447" lon="-17.933193">
        <ele>914.382</ele>
        <time>2021-10-25T12:01:21Z</time>
      </trkpt>
      <trkpt lat="27.804645" lon="-17.932966">
        <ele>906.543</ele>
        <time>2021-10-25T12:02:11Z</time>
      </trkpt>
      <trkpt lat="27.804774" lon="-17.933234">
        <ele>900.717</ele>
        <time>2021-10-25T12:02:40Z</time>
      </trkpt>
      <trkpt lat="27.804958" lon="-17.933188">
        <ele>897.008</ele>
        <time>2021-10-25T12:03:20Z</time>
      </trkpt>
      <trkpt lat="27.805032" lon="-17.932422">
        <ele>883.766</ele>
        <time>2021-10-25T12:04:42Z</time>
      </trkpt>
      <trkpt lat="27.804544" lon="-17.931950">
        <ele>874.515</ele>
        <time>2021-10-25T12:06:06Z</time>
      </trkpt>
      <trkpt lat="27.804849" lon="-17.931609">
        <ele>874.171</ele>
        <time>2021-10-25T12:06:49Z</time>
      </trkpt>
      <trkpt lat="27.805039" lon="-17.931033">
        <ele>867.745</ele>
        <time>2021-10-25T12:07:54Z</time>
      </trkpt>
      <trkpt lat="27.805512" lon="-17.930533">
        <ele>854.018</ele>
        <time>2021-10-25T12:09:11Z</time>
      </trkpt>
      <trkpt lat="27.806113" lon="-17.929473">
        <ele>837.218</ele>
        <time>2021-10-25T12:14:07Z</time>
      </trkpt>
      <trkpt lat="27.805989" lon="-17.929337">
        <ele>832.932</ele>
        <time>2021-10-25T12:14:39Z</time>
      </trkpt>
      <trkpt lat="27.805616" lon="-17.929319">
        <ele>825.355</ele>
        <time>2021-10-25T12:15:29Z</time>
      </trkpt>
      <trkpt lat="27.805547" lon="-17.929645">
        <ele>826.973</ele>
        <time>2021-10-25T12:16:58Z</time>
      </trkpt>
      <trkpt lat="27.805656" lon="-17.929105">
        <ele>824.985</ele>
        <time>2021-10-25T12:28:30Z</time>
      </trkpt>
      <trkpt lat="27.806089" lon="-17.928627">
        <ele>818.113</ele>
        <time>2021-10-25T12:29:56Z</time>
      </trkpt>
      <trkpt lat="27.806224" lon="-17.927916">
        <ele>813.508</ele>
        <time>2021-10-25T12:30:51Z</time>
      </trkpt>
      <trkpt lat="27.806034" lon="-17.927575">
        <ele>813.195</ele>
        <time>2021-10-25T12:31:24Z</time>
      </trkpt>
      <trkpt lat="27.805655" lon="-17.927463">
        <ele>810.874</ele>
        <time>2021-10-25T12:32:06Z</time>
      </trkpt>
      <trkpt lat="27.805555" lon="-17.927345">
        <ele>809.660</ele>
        <time>2021-10-25T12:32:19Z</time>
      </trkpt>
      <trkpt lat="27.805781" lon="-17.925697">
        <ele>808.074</ele>
        <time>2021-10-25T12:34:28Z</time>
      </trkpt>
      <trkpt lat="27.805374" lon="-17.924887">
        <ele>794.647</ele>
        <time>2021-10-25T12:35:53Z</time>
      </trkpt>
      <trkpt lat="27.805461" lon="-17.924870">
        <ele>791.587</ele>
        <time>2021-10-25T12:36:19Z</time>
      </trkpt>
      <trkpt lat="27.804895" lon="-17.924317">
        <ele>784.991</ele>
        <time>2021-10-25T12:38:12Z</time>
      </trkpt>
      <trkpt lat="27.804954" lon="-17.924169">
        <ele>785.254</ele>
        <time>2021-10-25T12:38:52Z</time>
      </trkpt>
      <trkpt lat="27.804777" lon="-17.923788">
        <ele>785.447</ele>
        <time>2021-10-25T12:40:54Z</time>
      </trkpt>
      <trkpt lat="27.804857" lon="-17.923716">
        <ele>785.329</ele>
        <time>2021-10-25T12:41:05Z</time>
      </trkpt>
      <trkpt lat="27.804767" lon="-17.923148">
        <ele>781.321</ele>
        <time>2021-10-25T12:42:08Z</time>
      </trkpt>
      <trkpt lat="27.804652" lon="-17.922853">
        <ele>775.208</ele>
        <time>2021-10-25T12:45:57Z</time>
      </trkpt>
      <trkpt lat="27.804377" lon="-17.922596">
        <ele>775.082</ele>
        <time>2021-10-25T12:46:29Z</time>
      </trkpt>
      <trkpt lat="27.804704" lon="-17.922861">
        <ele>775.211</ele>
        <time>2021-10-25T12:47:54Z</time>
      </trkpt>
      <trkpt lat="27.805057" lon="-17.922693">
        <ele>770.137</ele>
        <time>2021-10-25T12:48:36Z</time>
      </trkpt>
      <trkpt lat="27.804878" lon="-17.922612">
        <ele>768.341</ele>
        <time>2021-10-25T12:49:35Z</time>
      </trkpt>
      <trkpt lat="27.804721" lon="-17.921950">
        <ele>750.454</ele>
        <time>2021-10-25T12:50:55Z</time>
      </trkpt>
      <trkpt lat="27.804890" lon="-17.922607">
        <ele>755.844</ele>
        <time>2021-10-25T12:53:36Z</time>
      </trkpt>
      <trkpt lat="27.805049" lon="-17.922716">
        <ele>764.638</ele>
        <time>2021-10-25T12:56:29Z</time>
      </trkpt>
      <trkpt lat="27.804616" lon="-17.922963">
        <ele>775.511</ele>
        <time>2021-10-25T12:57:45Z</time>
      </trkpt>
      <trkpt lat="27.804468" lon="-17.922743">
        <ele>777.219</ele>
        <time>2021-10-25T12:58:10Z</time>
      </trkpt>
      <trkpt lat="27.804783" lon="-17.923128">
        <ele>778.109</ele>
        <time>2021-10-25T12:59:47Z</time>
      </trkpt>
      <trkpt lat="27.804775" lon="-17.923418">
        <ele>782.419</ele>
        <time>2021-10-25T13:00:15Z</time>
      </trkpt>
      <trkpt lat="27.804819" lon="-17.923135">
        <ele>782.408</ele>
        <time>2021-10-25T13:00:55Z</time>
      </trkpt>
      <trkpt lat="27.804750" lon="-17.923451">
        <ele>781.889</ele>
        <time>2021-10-25T13:01:57Z</time>
      </trkpt>
      <trkpt lat="27.804639" lon="-17.923239">
        <ele>785.378</ele>
        <time>2021-10-25T13:03:12Z</time>
      </trkpt>
      <trkpt lat="27.804176" lon="-17.922878">
        <ele>786.044</ele>
        <time>2021-10-25T13:04:10Z</time>
      </trkpt>
      <trkpt lat="27.803832" lon="-17.922955">
        <ele>785.318</ele>
        <time>2021-10-25T13:04:52Z</time>
      </trkpt>
      <trkpt lat="27.803432" lon="-17.923489">
        <ele>783.071</ele>
        <time>2021-10-25T13:05:45Z</time>
      </trkpt>
      <trkpt lat="27.802980" lon="-17.923736">
        <ele>782.421</ele>
        <time>2021-10-25T13:06:25Z</time>
      </trkpt>
      <trkpt lat="27.802552" lon="-17.924207">
        <ele>781.325</ele>
        <time>2021-10-25T13:07:15Z</time>
      </trkpt>
      <trkpt lat="27.802392" lon="-17.924084">
        <ele>780.428</ele>
        <time>2021-10-25T13:07:31Z</time>
      </trkpt>
      <trkpt lat="27.802094" lon="-17.923500">
        <ele>779.669</ele>
        <time>2021-10-25T13:08:21Z</time>
      </trkpt>
      <trkpt lat="27.801741" lon="-17.923458">
        <ele>777.604</ele>
        <time>2021-10-25T13:08:55Z</time>
      </trkpt>
      <trkpt lat="27.801533" lon="-17.923856">
        <ele>775.524</ele>
        <time>2021-10-25T13:09:34Z</time>
      </trkpt>
      <trkpt lat="27.801356" lon="-17.923936">
        <ele>774.408</ele>
        <time>2021-10-25T13:09:49Z</time>
      </trkpt>
      <trkpt lat="27.800940" lon="-17.923358">
        <ele>774.634</ele>
        <time>2021-10-25T13:10:42Z</time>
      </trkpt>
      <trkpt lat="27.800746" lon="-17.923294">
        <ele>774.353</ele>
        <time>2021-10-25T13:11:02Z</time>
      </trkpt>
      <trkpt lat="27.800269" lon="-17.923680">
        <ele>772.129</ele>
        <time>2021-10-25T13:12:04Z</time>
      </trkpt>
      <trkpt lat="27.799934" lon="-17.923625">
        <ele>772.353</ele>
        <time>2021-10-25T13:12:32Z</time>
      </trkpt>
      <trkpt lat="27.799609" lon="-17.923876">
        <ele>771.836</ele>
        <time>2021-10-25T13:13:07Z</time>
      </trkpt>
      <trkpt lat="27.799333" lon="-17.923738">
        <ele>771.926</ele>
        <time>2021-10-25T13:14:08Z</time>
      </trkpt>
      <trkpt lat="27.798767" lon="-17.924228">
        <ele>788.390</ele>
        <time>2021-10-25T13:15:58Z</time>
      </trkpt>
      <trkpt lat="27.798278" lon="-17.924235">
        <ele>800.523</ele>
        <time>2021-10-25T13:18:10Z</time>
      </trkpt>
      <trkpt lat="27.797258" lon="-17.925034">
        <ele>814.094</ele>
        <time>2021-10-25T13:20:16Z</time>
      </trkpt>
      <trkpt lat="27.797512" lon="-17.925916">
        <ele>838.357</ele>
        <time>2021-10-25T13:23:25Z</time>
      </trkpt>
      <trkpt lat="27.797625" lon="-17.925819">
        <ele>840.722</ele>
        <time>2021-10-25T13:25:43Z</time>
      </trkpt>
      <trkpt lat="27.797609" lon="-17.925597">
        <ele>840.908</ele>
        <time>2021-10-25T13:26:10Z</time>
      </trkpt>
      <trkpt lat="27.797676" lon="-17.925625">
        <ele>841.877</ele>
        <time>2021-10-25T13:26:20Z</time>
      </trkpt>
      <trkpt lat="27.797654" lon="-17.926169">
        <ele>849.016</ele>
        <time>2021-10-25T13:27:40Z</time>
      </trkpt>
      <trkpt lat="27.797460" lon="-17.926187">
        <ele>851.352</ele>
        <time>2021-10-25T13:28:05Z</time>
      </trkpt>
      <trkpt lat="27.797157" lon="-17.925900">
        <ele>852.856</ele>
        <time>2021-10-25T13:29:10Z</time>
      </trkpt>
      <trkpt lat="27.797051" lon="-17.925914">
        <ele>853.899</ele>
        <time>2021-10-25T13:29:26Z</time>
      </trkpt>
      <trkpt lat="27.796615" lon="-17.926501">
        <ele>857.949</ele>
        <time>2021-10-25T13:30:42Z</time>
      </trkpt>
      <trkpt lat="27.796083" lon="-17.926345">
        <ele>859.173</ele>
        <time>2021-10-25T13:32:01Z</time>
      </trkpt>
      <trkpt lat="27.795707" lon="-17.926729">
        <ele>857.346</ele>
        <time>2021-10-25T13:32:51Z</time>
      </trkpt>
      <trkpt lat="27.795318" lon="-17.926782">
        <ele>856.512</ele>
        <time>2021-10-25T13:33:42Z</time>
      </trkpt>
      <trkpt lat="27.794793" lon="-17.927355">
        <ele>865.532</ele>
        <time>2021-10-25T13:34:59Z</time>
      </trkpt>
      <trkpt lat="27.794647" lon="-17.927807">
        <ele>862.405</ele>
        <time>2021-10-25T13:35:41Z</time>
      </trkpt>
      <trkpt lat="27.794060" lon="-17.928024">
        <ele>868.608</ele>
        <time>2021-10-25T13:37:00Z</time>
      </trkpt>
      <trkpt lat="27.794016" lon="-17.928507">
        <ele>871.649</ele>
        <time>2021-10-25T13:37:58Z</time>
      </trkpt>
      <trkpt lat="27.793723" lon="-17.928687">
        <ele>873.738</ele>
        <time>2021-10-25T13:40:21Z</time>
      </trkpt>
      <trkpt lat="27.793568" lon="-17.929055">
        <ele>876.754</ele>
        <time>2021-10-25T13:40:54Z</time>
      </trkpt>
      <trkpt lat="27.793237" lon="-17.929113">
        <ele>877.868</ele>
        <time>2021-10-25T13:41:28Z</time>
      </trkpt>
      <trkpt lat="27.793106" lon="-17.929589">
        <ele>875.561</ele>
        <time>2021-10-25T13:42:11Z</time>
      </trkpt>
      <trkpt lat="27.792978" lon="-17.929608">
        <ele>875.261</ele>
        <time>2021-10-25T13:42:37Z</time>
      </trkpt>
      <trkpt lat="27.792685" lon="-17.929396">
        <ele>880.895</ele>
        <time>2021-10-25T13:43:36Z</time>
      </trkpt>
      <trkpt lat="27.791898" lon="-17.929938">
        <ele>884.268</ele>
        <time>2021-10-25T13:45:14Z</time>
      </trkpt>
      <trkpt lat="27.791432" lon="-17.930106">
        <ele>887.833</ele>
        <time>2021-10-25T13:46:09Z</time>
      </trkpt>
      <trkpt lat="27.791295" lon="-17.930269">
        <ele>889.723</ele>
        <time>2021-10-25T13:46:26Z</time>
      </trkpt>
      <trkpt lat="27.790833" lon="-17.930885">
        <ele>904.915</ele>
        <time>2021-10-25T13:49:16Z</time>
      </trkpt>
      <trkpt lat="27.790855" lon="-17.931070">
        <ele>905.108</ele>
        <time>2021-10-25T13:49:58Z</time>
      </trkpt>
      <trkpt lat="27.790552" lon="-17.931512">
        <ele>907.061</ele>
        <time>2021-10-25T13:50:46Z</time>
      </trkpt>
      <trkpt lat="27.790067" lon="-17.932014">
        <ele>911.380</ele>
        <time>2021-10-25T13:51:47Z</time>
      </trkpt>
      <trkpt lat="27.789640" lon="-17.932797">
        <ele>911.926</ele>
        <time>2021-10-25T13:56:10Z</time>
      </trkpt>
      <trkpt lat="27.789589" lon="-17.933707">
        <ele>919.550</ele>
        <time>2021-10-25T13:57:34Z</time>
      </trkpt>
      <trkpt lat="27.789305" lon="-17.933982">
        <ele>924.033</ele>
        <time>2021-10-25T13:58:15Z</time>
      </trkpt>
      <trkpt lat="27.789265" lon="-17.934184">
        <ele>924.613</ele>
        <time>2021-10-25T13:58:39Z</time>
      </trkpt>
      <trkpt lat="27.789326" lon="-17.934608">
        <ele>934.187</ele>
        <time>2021-10-25T14:00:02Z</time>
      </trkpt>
      <trkpt lat="27.789178" lon="-17.934603">
        <ele>934.490</ele>
        <time>2021-10-25T14:00:19Z</time>
      </trkpt>
      <trkpt lat="27.789151" lon="-17.934806">
        <ele>940.614</ele>
        <time>2021-10-25T14:00:53Z</time>
      </trkpt>
      <trkpt lat="27.789025" lon="-17.934747">
        <ele>942.854</ele>
        <time>2021-10-25T14:03:11Z</time>
      </trkpt>
      <trkpt lat="27.788847" lon="-17.934831">
        <ele>949.709</ele>
        <time>2021-10-25T14:03:39Z</time>
      </trkpt>
      <trkpt lat="27.788880" lon="-17.935257">
        <ele>956.208</ele>
        <time>2021-10-25T14:04:44Z</time>
      </trkpt>
      <trkpt lat="27.788230" lon="-17.935367">
        <ele>962.099</ele>
        <time>2021-10-25T14:07:39Z</time>
      </trkpt>
      <trkpt lat="27.788457" lon="-17.935430">
        <ele>966.638</ele>
        <time>2021-10-25T14:08:06Z</time>
      </trkpt>
      <trkpt lat="27.788400" lon="-17.936057">
        <ele>972.544</ele>
        <time>2021-10-25T14:09:09Z</time>
      </trkpt>
      <trkpt lat="27.788480" lon="-17.936426">
        <ele>972.878</ele>
        <time>2021-10-25T14:09:47Z</time>
      </trkpt>
      <trkpt lat="27.788702" lon="-17.936805">
        <ele>979.231</ele>
        <time>2021-10-25T14:11:53Z</time>
      </trkpt>
      <trkpt lat="27.788230" lon="-17.937291">
        <ele>994.081</ele>
        <time>2021-10-25T14:13:42Z</time>
      </trkpt>
      <trkpt lat="27.788136" lon="-17.937545">
        <ele>998.085</ele>
        <time>2021-10-25T14:14:16Z</time>
      </trkpt>
      <trkpt lat="27.787758" lon="-17.937525">
        <ele>1002.698</ele>
        <time>2021-10-25T14:16:09Z</time>
      </trkpt>
      <trkpt lat="27.787395" lon="-17.938033">
        <ele>1012.368</ele>
        <time>2021-10-25T14:17:09Z</time>
      </trkpt>
      <trkpt lat="27.787306" lon="-17.938304">
        <ele>1016.842</ele>
        <time>2021-10-25T14:17:40Z</time>
      </trkpt>
      <trkpt lat="27.787415" lon="-17.938357">
        <ele>1019.326</ele>
        <time>2021-10-25T14:18:48Z</time>
      </trkpt>
      <trkpt lat="27.787303" lon="-17.938419">
        <ele>1019.508</ele>
        <time>2021-10-25T14:20:34Z</time>
      </trkpt>
      <trkpt lat="27.787276" lon="-17.938644">
        <ele>1021.264</ele>
        <time>2021-10-25T14:20:57Z</time>
      </trkpt>
      <trkpt lat="27.787359" lon="-17.938994">
        <ele>1022.573</ele>
        <time>2021-10-25T14:21:29Z</time>
      </trkpt>
      <trkpt lat="27.787237" lon="-17.939721">
        <ele>1032.589</ele>
        <time>2021-10-25T14:22:44Z</time>
      </trkpt>
      <trkpt lat="27.787327" lon="-17.939719">
        <ele>1035.543</ele>
        <time>2021-10-25T14:23:00Z</time>
      </trkpt>
      <trkpt lat="27.786973" lon="-17.940053">
        <ele>1042.156</ele>
        <time>2021-10-25T14:25:32Z</time>
      </trkpt>
      <trkpt lat="27.786745" lon="-17.940040">
        <ele>1044.666</ele>
        <time>2021-10-25T14:26:02Z</time>
      </trkpt>
      <trkpt lat="27.786417" lon="-17.940200">
        <ele>1047.830</ele>
        <time>2021-10-25T14:26:35Z</time>
      </trkpt>
      <trkpt lat="27.784753" lon="-17.941507">
        <ele>1044.333</ele>
        <time>2021-10-25T14:30:47Z</time>
      </trkpt>
      <trkpt lat="27.784745" lon="-17.942396">
        <ele>1045.062</ele>
        <time>2021-10-25T14:32:08Z</time>
      </trkpt>
      <trkpt lat="27.784357" lon="-17.943320">
        <ele>1036.083</ele>
        <time>2021-10-25T14:35:17Z</time>
      </trkpt>
      <trkpt lat="27.784063" lon="-17.943687">
        <ele>1036.111</ele>
        <time>2021-10-25T14:35:57Z</time>
      </trkpt>
      <trkpt lat="27.783871" lon="-17.944726">
        <ele>1038.608</ele>
        <time>2021-10-25T14:37:18Z</time>
      </trkpt>
      <trkpt lat="27.783965" lon="-17.946404">
        <ele>1038.634</ele>
        <time>2021-10-25T14:39:22Z</time>
      </trkpt>
      <trkpt lat="27.783515" lon="-17.946996">
        <ele>1039.363</ele>
        <time>2021-10-25T14:40:50Z</time>
      </trkpt>
      <trkpt lat="27.783087" lon="-17.947340">
        <ele>1038.849</ele>
        <time>2021-10-25T14:41:37Z</time>
      </trkpt>
      <trkpt lat="27.782917" lon="-17.947935">
        <ele>1037.933</ele>
        <time>2021-10-25T14:42:26Z</time>
      </trkpt>
      <trkpt lat="27.783055" lon="-17.947916">
        <ele>1037.896</ele>
        <time>2021-10-25T14:42:41Z</time>
      </trkpt>
      <trkpt lat="27.783318" lon="-17.947645">
        <ele>1044.656</ele>
        <time>2021-10-25T14:43:17Z</time>
      </trkpt>
      <trkpt lat="27.784282" lon="-17.947215">
        <ele>1064.240</ele>
        <time>2021-10-25T14:46:27Z</time>
      </trkpt>
      <trkpt lat="27.784892" lon="-17.946377">
        <ele>1077.713</ele>
        <time>2021-10-25T14:48:06Z</time>
      </trkpt>
      <trkpt lat="27.785744" lon="-17.945558">
        <ele>1083.868</ele>
        <time>2021-10-25T14:49:38Z</time>
      </trkpt>
      <trkpt lat="27.786464" lon="-17.945184">
        <ele>1090.842</ele>
        <time>2021-10-25T14:50:46Z</time>
      </trkpt>
      <trkpt lat="27.787002" lon="-17.945065">
        <ele>1092.826</ele>
        <time>2021-10-25T14:51:32Z</time>
      </trkpt>
      <trkpt lat="27.788316" lon="-17.944082">
        <ele>1104.408</ele>
        <time>2021-10-25T14:53:58Z</time>
      </trkpt>
      <trkpt lat="27.789159" lon="-17.943705">
        <ele>1113.264</ele>
        <time>2021-10-25T14:55:24Z</time>
      </trkpt>
      <trkpt lat="27.790456" lon="-17.942718">
        <ele>1104.213</ele>
        <time>2021-10-25T14:57:50Z</time>
      </trkpt>
      <trkpt lat="27.792298" lon="-17.941833">
        <ele>1100.769</ele>
        <time>2021-10-25T15:01:21Z</time>
      </trkpt>
      <trkpt lat="27.792546" lon="-17.941992">
        <ele>1100.423</ele>
        <time>2021-10-25T15:06:04Z</time>
      </trkpt>
      <trkpt lat="27.793269" lon="-17.941919">
        <ele>1087.536</ele>
        <time>2021-10-25T15:07:33Z</time>
      </trkpt>
      <trkpt lat="27.794139" lon="-17.942087">
        <ele>1069.656</ele>
        <time>2021-10-25T15:09:07Z</time>
      </trkpt>
      <trkpt lat="27.794496" lon="-17.942261">
        <ele>1063.510</ele>
        <time>2021-10-25T15:09:46Z</time>
      </trkpt>
      <trkpt lat="27.794912" lon="-17.942131">
        <ele>1054.633</ele>
        <time>2021-10-25T15:10:31Z</time>
      </trkpt>
      <trkpt lat="27.795249" lon="-17.942514">
        <ele>1044.538</ele>
        <time>2021-10-25T15:11:58Z</time>
      </trkpt>
      <trkpt lat="27.795962" lon="-17.942765">
        <ele>1032.770</ele>
        <time>2021-10-25T15:14:12Z</time>
      </trkpt>
    </trkseg>
  </trk></gpx>