<?xml version="1.0" encoding="UTF-8"?>
<gpx version="1.1" creator="Aventuras en Cada Paso" xmlns="http://www.topografix.com/GPX/1/1">
  <metadata>
    <name>Ruta 0-4-0 Teide</name>
    <desc>Del nivel del mar en Playa del Socorro hasta la cima del Teide y vuelta al mar. La ruta más extrema de Canarias: más de 3.700 m de desnivel.</desc>
    <author><name>Aventuras en Cada Paso</name></author>
    <time>2026-07-08T08:12:58.154Z</time>
    <keywords>Tenerife, Senderismo, Extrema, senderismo Canarias</keywords>
  </metadata>
  <wpt lat="28.5022" lon="-16.7044">
    <name>Ruta 0-4-0 Teide</name>
    <desc>Del nivel del mar en Playa del Socorro hasta la cima del Teide y vuelta al mar. La ruta más extrema de Canarias: más de 3.700 m de desnivel. | Isla: Tenerife | Tipo: Senderismo | Dificultad: Extrema | Distancia: 42km | Duración: Día completo</desc>
    <type>Senderismo</type>
    <extensions>
      <isla>Tenerife</isla>
      <dificultad>Extrema</dificultad>
      <distancia>42</distancia>
      <duracion>Día completo</duracion>
    </extensions>
  </wpt>
</gpx>