<?xml version="1.0" encoding="UTF-8"?>
<gpx version="1.1" creator="Aventuras en Cada Paso" xmlns="http://www.topografix.com/GPX/1/1">
  <metadata>
    <name>Ruta del Mencey – Patrimonio Bimbache</name>
    <desc>Sendero histórico por los principales yacimientos arqueológicos bimbaches. Grabados rupestres del Julan, uno de los más importantes de Canarias.</desc>
    <author><name>Aventuras en Cada Paso</name></author>
    <time>2026-07-08T08:12:58.207Z</time>
    <keywords>El Hierro, Senderismo, Media, senderismo Canarias</keywords>
  </metadata>
  <wpt lat="27.71" lon="-18.04">
    <name>Ruta del Mencey – Patrimonio Bimbache</name>
    <desc>Sendero histórico por los principales yacimientos arqueológicos bimbaches. Grabados rupestres del Julan, uno de los más importantes de Canarias. | Isla: El Hierro | Tipo: Senderismo | Dificultad: Media | Distancia: 13km | Duración: 4-8 horas</desc>
    <type>Senderismo</type>
    <extensions>
      <isla>El Hierro</isla>
      <dificultad>Media</dificultad>
      <distancia>13</distancia>
      <duracion>4-8 horas</duracion>
    </extensions>
  </wpt>
</gpx>