<?xml version="1.0" encoding="UTF-8"?>
<gpx version="1.1" creator="Aventuras en Cada Paso" xmlns="http://www.topografix.com/GPX/1/1">
  <metadata>
    <name>Sabinosa – Bosque de Sabinas Milenarias</name>
    <desc>Sendero entre sabinas milenarias retorcidas por el viento, uno de los árboles más longevos de Canarias. Paisaje mágico y único en el mundo.</desc>
    <author><name>Aventuras en Cada Paso</name></author>
    <time>2026-07-08T08:12:58.203Z</time>
    <keywords>El Hierro, Senderismo, Media, senderismo Canarias</keywords>
  </metadata>
  <wpt lat="27.7933" lon="-18.1375">
    <name>Sabinosa – Bosque de Sabinas Milenarias</name>
    <desc>Sendero entre sabinas milenarias retorcidas por el viento, uno de los árboles más longevos de Canarias. Paisaje mágico y único en el mundo. | Isla: El Hierro | Tipo: Senderismo | Dificultad: Media | Distancia: 7km | Duración: 2-4 horas</desc>
    <type>Senderismo</type>
    <extensions>
      <isla>El Hierro</isla>
      <dificultad>Media</dificultad>
      <distancia>7</distancia>
      <duracion>2-4 horas</duracion>
    </extensions>
  </wpt>
</gpx>