<?xml version="1.0" encoding="UTF-8"?>
<gpx version="1.1" creator="Aventuras en Cada Paso" xmlns="http://www.topografix.com/GPX/1/1">
  <metadata>
    <name>Antiguas Salinas de Lobos</name>
    <desc>Paseo hasta las antiguas salinas abandonadas del islote. Historia de la explotación salinera y aves zancudas que frecuentan las balsas en invierno.</desc>
    <author><name>Aventuras en Cada Paso</name></author>
    <time>2026-07-08T08:12:58.212Z</time>
    <keywords>Isla de Lobos, Fotografía, Fácil, senderismo Canarias</keywords>
  </metadata>
  <wpt lat="28.7472" lon="-13.8186">
    <name>Antiguas Salinas de Lobos</name>
    <desc>Paseo hasta las antiguas salinas abandonadas del islote. Historia de la explotación salinera y aves zancudas que frecuentan las balsas en invierno. | Isla: Isla de Lobos | Tipo: Fotografía | Dificultad: Fácil | Distancia: 2km | Duración: Menos de 2h</desc>
    <type>Fotografía</type>
    <extensions>
      <isla>Isla de Lobos</isla>
      <dificultad>Fácil</dificultad>
      <distancia>2</distancia>
      <duracion>Menos de 2h</duracion>
    </extensions>
  </wpt>
</gpx>