<?xml version="1.0" encoding="UTF-8"?>
<gpx version="1.1" creator="Aventuras en Cada Paso" xmlns="http://www.topografix.com/GPX/1/1">
  <metadata>
    <name>Salinas del Carmen – Ruta Costera</name>
    <desc>Paseo junto a las antiguas salinas del Carmen en el este de la isla. Museo de la Sal y paisaje costero único con aves limícolas en las balsas salineras.</desc>
    <author><name>Aventuras en Cada Paso</name></author>
    <time>2026-07-08T08:12:58.181Z</time>
    <keywords>Fuerteventura, Senderismo, Fácil, senderismo Canarias</keywords>
  </metadata>
  <wpt lat="28.2208" lon="-13.9972">
    <name>Salinas del Carmen – Ruta Costera</name>
    <desc>Paseo junto a las antiguas salinas del Carmen en el este de la isla. Museo de la Sal y paisaje costero único con aves limícolas en las balsas salineras. | Isla: Fuerteventura | Tipo: Senderismo | Dificultad: Fácil | Distancia: 4km | Duración: Menos de 2h</desc>
    <type>Senderismo</type>
    <extensions>
      <isla>Fuerteventura</isla>
      <dificultad>Fácil</dificultad>
      <distancia>4</distancia>
      <duracion>Menos de 2h</duracion>
    </extensions>
  </wpt>
</gpx>