<?xml version="1.0" encoding="UTF-8"?>
<gpx version="1.1" creator="Aventuras en Cada Paso" xmlns="http://www.topografix.com/GPX/1/1">
  <metadata>
    <name>Antiguas Salinas – Historia Salinera</name>
    <desc>Paseo hasta las antiguas salinas abandonadas de La Graciosa. Historia de la explotación salinera y aves zancudas que frecuentan las balsas en invierno.</desc>
    <author><name>Aventuras en Cada Paso</name></author>
    <time>2026-07-08T08:12:58.210Z</time>
    <keywords>La Graciosa, Fotografía, Fácil, senderismo Canarias</keywords>
  </metadata>
  <wpt lat="29.22" lon="-13.5">
    <name>Antiguas Salinas – Historia Salinera</name>
    <desc>Paseo hasta las antiguas salinas abandonadas de La Graciosa. Historia de la explotación salinera y aves zancudas que frecuentan las balsas en invierno. | Isla: La Graciosa | Tipo: Fotografía | Dificultad: Fácil | Distancia: 2km | Duración: Menos de 2h</desc>
    <type>Fotografía</type>
    <extensions>
      <isla>La Graciosa</isla>
      <dificultad>Fácil</dificultad>
      <distancia>2</distancia>
      <duracion>Menos de 2h</duracion>
    </extensions>
  </wpt>
</gpx>