<?xml version="1.0" encoding="UTF-8"?>
<gpx creator="Wikiloc - https://www.wikiloc.com" version="1.1" xmlns="http://www.topografix.com/GPX/1/1" xmlns:xsi="http://www.w3.org/2001/XMLSchema-instance" xsi:schemaLocation="http://www.topografix.com/GPX/1/1 http://www.topografix.com/GPX/1/1/gpx.xsd">
  <metadata>
    <name>Wikiloc - San Sebastián-alto garajonay</name>
    <link href="https://www.wikiloc.com/trail-running-trails/san-sebastian-alto-garajonay-7556787">
      <text>San Sebastián-alto garajonay - Wikiloc on Wikiloc</text>
    </link>
    <time>2014-08-17T11:18:50Z</time>
  </metadata>
  <trk>
    <name>San Sebastián-alto garajonay - Wikiloc</name>
    <cmt></cmt>
    <desc></desc>
    <trkseg>
      <trkpt lat="28.091146" lon="-17.112470">
        <ele>6.241</ele>
        <time>2014-08-17T08:13:09Z</time>
      </trkpt>
      <trkpt lat="28.090878" lon="-17.113049">
        <ele>6.081</ele>
        <time>2014-08-17T08:14:17Z</time>
      </trkpt>
      <trkpt lat="28.091037" lon="-17.113172">
        <ele>6.409</ele>
        <time>2014-08-17T08:14:31Z</time>
      </trkpt>
      <trkpt lat="28.091144" lon="-17.113791">
        <ele>6.207</ele>
        <time>2014-08-17T08:15:16Z</time>
      </trkpt>
      <trkpt lat="28.090894" lon="-17.114308">
        <ele>5.721</ele>
        <time>2014-08-17T08:15:34Z</time>
      </trkpt>
      <trkpt lat="28.090846" lon="-17.115020">
        <ele>9.329</ele>
        <time>2014-08-17T08:16:00Z</time>
      </trkpt>
      <trkpt lat="28.091053" lon="-17.116668">
        <ele>29.889</ele>
        <time>2014-08-17T08:17:07Z</time>
      </trkpt>
      <trkpt lat="28.090911" lon="-17.118083">
        <ele>43.150</ele>
        <time>2014-08-17T08:18:27Z</time>
      </trkpt>
      <trkpt lat="28.091084" lon="-17.118820">
        <ele>48.871</ele>
        <time>2014-08-17T08:19:10Z</time>
      </trkpt>
      <trkpt lat="28.090567" lon="-17.119035">
        <ele>50.682</ele>
        <time>2014-08-17T08:19:38Z</time>
      </trkpt>
      <trkpt lat="28.090561" lon="-17.120240">
        <ele>66.421</ele>
        <time>2014-08-17T08:20:50Z</time>
      </trkpt>
      <trkpt lat="28.091373" lon="-17.122143">
        <ele>100.014</ele>
        <time>2014-08-17T08:23:02Z</time>
      </trkpt>
      <trkpt lat="28.091205" lon="-17.122122">
        <ele>100.854</ele>
        <time>2014-08-17T08:23:16Z</time>
      </trkpt>
      <trkpt lat="28.091016" lon="-17.121838">
        <ele>96.709</ele>
        <time>2014-08-17T08:23:29Z</time>
      </trkpt>
      <trkpt lat="28.090929" lon="-17.121983">
        <ele>99.407</ele>
        <time>2014-08-17T08:23:59Z</time>
      </trkpt>
      <trkpt lat="28.091557" lon="-17.123439">
        <ele>139.418</ele>
        <time>2014-08-17T08:25:59Z</time>
      </trkpt>
      <trkpt lat="28.092332" lon="-17.124634">
        <ele>167.896</ele>
        <time>2014-08-17T08:27:43Z</time>
      </trkpt>
      <trkpt lat="28.091976" lon="-17.124551">
        <ele>171.346</ele>
        <time>2014-08-17T08:28:17Z</time>
      </trkpt>
      <trkpt lat="28.092630" lon="-17.125462">
        <ele>201.557</ele>
        <time>2014-08-17T08:29:50Z</time>
      </trkpt>
      <trkpt lat="28.092278" lon="-17.125530">
        <ele>207.328</ele>
        <time>2014-08-17T08:30:31Z</time>
      </trkpt>
      <trkpt lat="28.092665" lon="-17.125962">
        <ele>223.519</ele>
        <time>2014-08-17T08:31:26Z</time>
      </trkpt>
      <trkpt lat="28.092931" lon="-17.126727">
        <ele>244.678</ele>
        <time>2014-08-17T08:32:38Z</time>
      </trkpt>
      <trkpt lat="28.092609" lon="-17.126640">
        <ele>245.218</ele>
        <time>2014-08-17T08:33:09Z</time>
      </trkpt>
      <trkpt lat="28.092475" lon="-17.126898">
        <ele>246.298</ele>
        <time>2014-08-17T08:33:30Z</time>
      </trkpt>
      <trkpt lat="28.092829" lon="-17.128929">
        <ele>287.017</ele>
        <time>2014-08-17T08:36:01Z</time>
      </trkpt>
      <trkpt lat="28.093041" lon="-17.128648">
        <ele>295.007</ele>
        <time>2014-08-17T08:36:33Z</time>
      </trkpt>
      <trkpt lat="28.093057" lon="-17.128802">
        <ele>299.258</ele>
        <time>2014-08-17T08:36:53Z</time>
      </trkpt>
      <trkpt lat="28.093183" lon="-17.128652">
        <ele>298.916</ele>
        <time>2014-08-17T08:37:08Z</time>
      </trkpt>
      <trkpt lat="28.093455" lon="-17.128911">
        <ele>311.726</ele>
        <time>2014-08-17T08:37:45Z</time>
      </trkpt>
      <trkpt lat="28.093230" lon="-17.129813">
        <ele>330.627</ele>
        <time>2014-08-17T08:39:08Z</time>
      </trkpt>
      <trkpt lat="28.093523" lon="-17.129714">
        <ele>339.998</ele>
        <time>2014-08-17T08:39:53Z</time>
      </trkpt>
      <trkpt lat="28.093434" lon="-17.129902">
        <ele>341.459</ele>
        <time>2014-08-17T08:40:08Z</time>
      </trkpt>
      <trkpt lat="28.093777" lon="-17.129968">
        <ele>350.518</ele>
        <time>2014-08-17T08:40:43Z</time>
      </trkpt>
      <trkpt lat="28.093731" lon="-17.130198">
        <ele>355.497</ele>
        <time>2014-08-17T08:41:09Z</time>
      </trkpt>
      <trkpt lat="28.094115" lon="-17.130634">
        <ele>372.123</ele>
        <time>2014-08-17T08:42:02Z</time>
      </trkpt>
      <trkpt lat="28.093732" lon="-17.131623">
        <ele>389.925</ele>
        <time>2014-08-17T08:43:22Z</time>
      </trkpt>
      <trkpt lat="28.093740" lon="-17.132754">
        <ele>412.807</ele>
        <time>2014-08-17T08:44:57Z</time>
      </trkpt>
      <trkpt lat="28.093308" lon="-17.133484">
        <ele>415.226</ele>
        <time>2014-08-17T08:45:38Z</time>
      </trkpt>
      <trkpt lat="28.093174" lon="-17.134004">
        <ele>421.084</ele>
        <time>2014-08-17T08:46:06Z</time>
      </trkpt>
      <trkpt lat="28.094400" lon="-17.135412">
        <ele>463.124</ele>
        <time>2014-08-17T08:48:44Z</time>
      </trkpt>
      <trkpt lat="28.095027" lon="-17.137216">
        <ele>490.255</ele>
        <time>2014-08-17T08:50:56Z</time>
      </trkpt>
      <trkpt lat="28.094903" lon="-17.137739">
        <ele>490.176</ele>
        <time>2014-08-17T08:51:31Z</time>
      </trkpt>
      <trkpt lat="28.095246" lon="-17.139264">
        <ele>502.017</ele>
        <time>2014-08-17T08:52:44Z</time>
      </trkpt>
      <trkpt lat="28.095164" lon="-17.140710">
        <ele>518.176</ele>
        <time>2014-08-17T08:53:52Z</time>
      </trkpt>
      <trkpt lat="28.095264" lon="-17.140767">
        <ele>522.142</ele>
        <time>2014-08-17T08:54:12Z</time>
      </trkpt>
      <trkpt lat="28.095356" lon="-17.140596">
        <ele>520.522</ele>
        <time>2014-08-17T08:54:27Z</time>
      </trkpt>
      <trkpt lat="28.095334" lon="-17.142295">
        <ele>544.714</ele>
        <time>2014-08-17T08:57:05Z</time>
      </trkpt>
      <trkpt lat="28.095462" lon="-17.142481">
        <ele>546.507</ele>
        <time>2014-08-17T08:57:40Z</time>
      </trkpt>
      <trkpt lat="28.095625" lon="-17.143909">
        <ele>568.561</ele>
        <time>2014-08-17T08:59:31Z</time>
      </trkpt>
      <trkpt lat="28.095557" lon="-17.144358">
        <ele>579.499</ele>
        <time>2014-08-17T08:59:59Z</time>
      </trkpt>
      <trkpt lat="28.095747" lon="-17.145189">
        <ele>593.029</ele>
        <time>2014-08-17T09:01:06Z</time>
      </trkpt>
      <trkpt lat="28.095464" lon="-17.146704">
        <ele>616.890</ele>
        <time>2014-08-17T09:03:11Z</time>
      </trkpt>
      <trkpt lat="28.095657" lon="-17.148518">
        <ele>659.131</ele>
        <time>2014-08-17T09:05:36Z</time>
      </trkpt>
      <trkpt lat="28.095629" lon="-17.149718">
        <ele>666.872</ele>
        <time>2014-08-17T09:06:53Z</time>
      </trkpt>
      <trkpt lat="28.096799" lon="-17.150852">
        <ele>670.051</ele>
        <time>2014-08-17T09:07:52Z</time>
      </trkpt>
      <trkpt lat="28.097232" lon="-17.151432">
        <ele>675.284</ele>
        <time>2014-08-17T09:08:28Z</time>
      </trkpt>
      <trkpt lat="28.097634" lon="-17.152349">
        <ele>685.007</ele>
        <time>2014-08-17T09:09:09Z</time>
      </trkpt>
      <trkpt lat="28.097691" lon="-17.153149">
        <ele>689.617</ele>
        <time>2014-08-17T09:09:39Z</time>
      </trkpt>
      <trkpt lat="28.097487" lon="-17.153787">
        <ele>690.007</ele>
        <time>2014-08-17T09:10:05Z</time>
      </trkpt>
      <trkpt lat="28.097445" lon="-17.155074">
        <ele>701.455</ele>
        <time>2014-08-17T09:11:51Z</time>
      </trkpt>
      <trkpt lat="28.097884" lon="-17.157729">
        <ele>732.433</ele>
        <time>2014-08-17T09:14:30Z</time>
      </trkpt>
      <trkpt lat="28.097888" lon="-17.159500">
        <ele>747.383</ele>
        <time>2014-08-17T09:16:04Z</time>
      </trkpt>
      <trkpt lat="28.099326" lon="-17.161064">
        <ele>772.544</ele>
        <time>2014-08-17T09:18:00Z</time>
      </trkpt>
      <trkpt lat="28.099610" lon="-17.162404">
        <ele>773.775</ele>
        <time>2014-08-17T09:18:55Z</time>
      </trkpt>
      <trkpt lat="28.100181" lon="-17.163571">
        <ele>781.276</ele>
        <time>2014-08-17T09:20:05Z</time>
      </trkpt>
      <trkpt lat="28.100169" lon="-17.164879">
        <ele>778.985</ele>
        <time>2014-08-17T09:20:43Z</time>
      </trkpt>
      <trkpt lat="28.100492" lon="-17.166036">
        <ele>764.888</ele>
        <time>2014-08-17T09:21:24Z</time>
      </trkpt>
      <trkpt lat="28.101158" lon="-17.166775">
        <ele>767.624</ele>
        <time>2014-08-17T09:22:00Z</time>
      </trkpt>
      <trkpt lat="28.101265" lon="-17.167119">
        <ele>764.326</ele>
        <time>2014-08-17T09:22:13Z</time>
      </trkpt>
      <trkpt lat="28.101776" lon="-17.167697">
        <ele>762.107</ele>
        <time>2014-08-17T09:22:46Z</time>
      </trkpt>
      <trkpt lat="28.102009" lon="-17.168364">
        <ele>760.235</ele>
        <time>2014-08-17T09:23:26Z</time>
      </trkpt>
      <trkpt lat="28.102497" lon="-17.168672">
        <ele>759.443</ele>
        <time>2014-08-17T09:24:12Z</time>
      </trkpt>
      <trkpt lat="28.102260" lon="-17.168712">
        <ele>757.513</ele>
        <time>2014-08-17T09:24:51Z</time>
      </trkpt>
      <trkpt lat="28.102690" lon="-17.169133">
        <ele>764.564</ele>
        <time>2014-08-17T09:25:20Z</time>
      </trkpt>
      <trkpt lat="28.102671" lon="-17.169933">
        <ele>774.945</ele>
        <time>2014-08-17T09:25:51Z</time>
      </trkpt>
      <trkpt lat="28.102134" lon="-17.171011">
        <ele>789.696</ele>
        <time>2014-08-17T09:27:31Z</time>
      </trkpt>
      <trkpt lat="28.102033" lon="-17.172297">
        <ele>820.065</ele>
        <time>2014-08-17T09:30:19Z</time>
      </trkpt>
      <trkpt lat="28.101534" lon="-17.172811">
        <ele>823.875</ele>
        <time>2014-08-17T09:31:10Z</time>
      </trkpt>
      <trkpt lat="28.101083" lon="-17.173614">
        <ele>845.428</ele>
        <time>2014-08-17T09:32:14Z</time>
      </trkpt>
      <trkpt lat="28.100408" lon="-17.173843">
        <ele>850.220</ele>
        <time>2014-08-17T09:33:03Z</time>
      </trkpt>
      <trkpt lat="28.099927" lon="-17.173827">
        <ele>845.307</ele>
        <time>2014-08-17T09:33:42Z</time>
      </trkpt>
      <trkpt lat="28.100046" lon="-17.173994">
        <ele>852.344</ele>
        <time>2014-08-17T09:33:54Z</time>
      </trkpt>
      <trkpt lat="28.099636" lon="-17.175794">
        <ele>892.132</ele>
        <time>2014-08-17T09:35:55Z</time>
      </trkpt>
      <trkpt lat="28.098836" lon="-17.176194">
        <ele>907.732</ele>
        <time>2014-08-17T09:37:02Z</time>
      </trkpt>
      <trkpt lat="28.098973" lon="-17.176310">
        <ele>910.873</ele>
        <time>2014-08-17T09:37:22Z</time>
      </trkpt>
      <trkpt lat="28.098803" lon="-17.176420">
        <ele>912.994</ele>
        <time>2014-08-17T09:37:40Z</time>
      </trkpt>
      <trkpt lat="28.098704" lon="-17.176933">
        <ele>915.025</ele>
        <time>2014-08-17T09:38:36Z</time>
      </trkpt>
      <trkpt lat="28.098802" lon="-17.177381">
        <ele>930.194</ele>
        <time>2014-08-17T09:39:17Z</time>
      </trkpt>
      <trkpt lat="28.098461" lon="-17.177120">
        <ele>923.045</ele>
        <time>2014-08-17T09:39:53Z</time>
      </trkpt>
      <trkpt lat="28.098281" lon="-17.177141">
        <ele>924.847</ele>
        <time>2014-08-17T09:40:08Z</time>
      </trkpt>
      <trkpt lat="28.098336" lon="-17.178134">
        <ele>942.111</ele>
        <time>2014-08-17T09:41:08Z</time>
      </trkpt>
      <trkpt lat="28.098052" lon="-17.178627">
        <ele>929.707</ele>
        <time>2014-08-17T09:41:28Z</time>
      </trkpt>
      <trkpt lat="28.098032" lon="-17.179209">
        <ele>922.361</ele>
        <time>2014-08-17T09:41:48Z</time>
      </trkpt>
      <trkpt lat="28.098186" lon="-17.179509">
        <ele>922.229</ele>
        <time>2014-08-17T09:42:04Z</time>
      </trkpt>
      <trkpt lat="28.098452" lon="-17.179633">
        <ele>931.519</ele>
        <time>2014-08-17T09:42:14Z</time>
      </trkpt>
      <trkpt lat="28.098640" lon="-17.180144">
        <ele>926.080</ele>
        <time>2014-08-17T09:42:30Z</time>
      </trkpt>
      <trkpt lat="28.098848" lon="-17.180149">
        <ele>926.381</ele>
        <time>2014-08-17T09:42:58Z</time>
      </trkpt>
      <trkpt lat="28.099057" lon="-17.180377">
        <ele>922.832</ele>
        <time>2014-08-17T09:43:15Z</time>
      </trkpt>
      <trkpt lat="28.098690" lon="-17.180136">
        <ele>926.281</ele>
        <time>2014-08-17T09:44:02Z</time>
      </trkpt>
      <trkpt lat="28.098463" lon="-17.180462">
        <ele>925.747</ele>
        <time>2014-08-17T09:44:29Z</time>
      </trkpt>
      <trkpt lat="28.098143" lon="-17.181795">
        <ele>924.829</ele>
        <time>2014-08-17T09:45:14Z</time>
      </trkpt>
      <trkpt lat="28.098159" lon="-17.182254">
        <ele>931.921</ele>
        <time>2014-08-17T09:45:31Z</time>
      </trkpt>
      <trkpt lat="28.098630" lon="-17.183229">
        <ele>929.307</ele>
        <time>2014-08-17T09:46:29Z</time>
      </trkpt>
      <trkpt lat="28.098994" lon="-17.183473">
        <ele>935.711</ele>
        <time>2014-08-17T09:48:05Z</time>
      </trkpt>
      <trkpt lat="28.099365" lon="-17.184040">
        <ele>926.739</ele>
        <time>2014-08-17T09:48:27Z</time>
      </trkpt>
      <trkpt lat="28.099673" lon="-17.184814">
        <ele>931.529</ele>
        <time>2014-08-17T09:49:10Z</time>
      </trkpt>
      <trkpt lat="28.099368" lon="-17.186314">
        <ele>960.130</ele>
        <time>2014-08-17T09:51:01Z</time>
      </trkpt>
      <trkpt lat="28.099598" lon="-17.186160">
        <ele>965.131</ele>
        <time>2014-08-17T09:51:47Z</time>
      </trkpt>
      <trkpt lat="28.099482" lon="-17.186926">
        <ele>979.082</ele>
        <time>2014-08-17T09:52:51Z</time>
      </trkpt>
      <trkpt lat="28.100946" lon="-17.192314">
        <ele>1035.941</ele>
        <time>2014-08-17T09:57:16Z</time>
      </trkpt>
      <trkpt lat="28.100619" lon="-17.194104">
        <ele>1048.216</ele>
        <time>2014-08-17T09:59:03Z</time>
      </trkpt>
      <trkpt lat="28.101045" lon="-17.194988">
        <ele>1051.176</ele>
        <time>2014-08-17T09:59:39Z</time>
      </trkpt>
      <trkpt lat="28.101372" lon="-17.196268">
        <ele>1061.813</ele>
        <time>2014-08-17T10:00:37Z</time>
      </trkpt>
      <trkpt lat="28.101543" lon="-17.199344">
        <ele>1084.207</ele>
        <time>2014-08-17T10:03:03Z</time>
      </trkpt>
      <trkpt lat="28.102006" lon="-17.200190">
        <ele>1101.588</ele>
        <time>2014-08-17T10:03:46Z</time>
      </trkpt>
      <trkpt lat="28.101567" lon="-17.201334">
        <ele>1117.316</ele>
        <time>2014-08-17T10:04:45Z</time>
      </trkpt>
      <trkpt lat="28.101121" lon="-17.201766">
        <ele>1117.046</ele>
        <time>2014-08-17T10:05:33Z</time>
      </trkpt>
      <trkpt lat="28.100980" lon="-17.202150">
        <ele>1114.857</ele>
        <time>2014-08-17T10:06:02Z</time>
      </trkpt>
      <trkpt lat="28.101659" lon="-17.202741">
        <ele>1130.258</ele>
        <time>2014-08-17T10:06:47Z</time>
      </trkpt>
      <trkpt lat="28.102311" lon="-17.204499">
        <ele>1137.779</ele>
        <time>2014-08-17T10:08:00Z</time>
      </trkpt>
      <trkpt lat="28.102107" lon="-17.205108">
        <ele>1145.978</ele>
        <time>2014-08-17T10:08:40Z</time>
      </trkpt>
      <trkpt lat="28.102251" lon="-17.206108">
        <ele>1142.674</ele>
        <time>2014-08-17T10:09:29Z</time>
      </trkpt>
      <trkpt lat="28.102096" lon="-17.206370">
        <ele>1137.456</ele>
        <time>2014-08-17T10:09:42Z</time>
      </trkpt>
      <trkpt lat="28.101967" lon="-17.207308">
        <ele>1127.421</ele>
        <time>2014-08-17T10:10:12Z</time>
      </trkpt>
      <trkpt lat="28.102598" lon="-17.208299">
        <ele>1114.107</ele>
        <time>2014-08-17T10:10:43Z</time>
      </trkpt>
      <trkpt lat="28.103231" lon="-17.208360">
        <ele>1099.464</ele>
        <time>2014-08-17T10:11:04Z</time>
      </trkpt>
      <trkpt lat="28.103490" lon="-17.209083">
        <ele>1094.522</ele>
        <time>2014-08-17T10:11:40Z</time>
      </trkpt>
      <trkpt lat="28.104646" lon="-17.209582">
        <ele>1056.262</ele>
        <time>2014-08-17T10:12:25Z</time>
      </trkpt>
      <trkpt lat="28.105509" lon="-17.210235">
        <ele>1056.973</ele>
        <time>2014-08-17T10:12:57Z</time>
      </trkpt>
      <trkpt lat="28.106048" lon="-17.211404">
        <ele>1054.934</ele>
        <time>2014-08-17T10:13:44Z</time>
      </trkpt>
      <trkpt lat="28.106093" lon="-17.212583">
        <ele>1071.395</ele>
        <time>2014-08-17T10:14:23Z</time>
      </trkpt>
      <trkpt lat="28.106370" lon="-17.213036">
        <ele>1074.814</ele>
        <time>2014-08-17T10:15:00Z</time>
      </trkpt>
      <trkpt lat="28.106923" lon="-17.213391">
        <ele>1057.722</ele>
        <time>2014-08-17T10:15:25Z</time>
      </trkpt>
      <trkpt lat="28.107282" lon="-17.213418">
        <ele>1062.862</ele>
        <time>2014-08-17T10:15:51Z</time>
      </trkpt>
      <trkpt lat="28.107379" lon="-17.213639">
        <ele>1069.308</ele>
        <time>2014-08-17T10:17:31Z</time>
      </trkpt>
      <trkpt lat="28.108199" lon="-17.213750">
        <ele>1080.107</ele>
        <time>2014-08-17T10:20:58Z</time>
      </trkpt>
      <trkpt lat="28.108663" lon="-17.214224">
        <ele>1094.619</ele>
        <time>2014-08-17T10:21:55Z</time>
      </trkpt>
      <trkpt lat="28.109072" lon="-17.214323">
        <ele>1104.027</ele>
        <time>2014-08-17T10:22:39Z</time>
      </trkpt>
      <trkpt lat="28.109035" lon="-17.214925">
        <ele>1101.127</ele>
        <time>2014-08-17T10:23:31Z</time>
      </trkpt>
      <trkpt lat="28.109262" lon="-17.215279">
        <ele>1106.078</ele>
        <time>2014-08-17T10:23:52Z</time>
      </trkpt>
      <trkpt lat="28.109211" lon="-17.215736">
        <ele>1112.279</ele>
        <time>2014-08-17T10:24:09Z</time>
      </trkpt>
      <trkpt lat="28.109382" lon="-17.216458">
        <ele>1131.870</ele>
        <time>2014-08-17T10:25:09Z</time>
      </trkpt>
      <trkpt lat="28.109614" lon="-17.216812">
        <ele>1148.389</ele>
        <time>2014-08-17T10:25:41Z</time>
      </trkpt>
      <trkpt lat="28.110031" lon="-17.217065">
        <ele>1157.472</ele>
        <time>2014-08-17T10:26:19Z</time>
      </trkpt>
      <trkpt lat="28.110420" lon="-17.217028">
        <ele>1161.113</ele>
        <time>2014-08-17T10:26:43Z</time>
      </trkpt>
      <trkpt lat="28.110710" lon="-17.216722">
        <ele>1163.514</ele>
        <time>2014-08-17T10:27:07Z</time>
      </trkpt>
      <trkpt lat="28.110799" lon="-17.216940">
        <ele>1169.807</ele>
        <time>2014-08-17T10:27:32Z</time>
      </trkpt>
      <trkpt lat="28.111024" lon="-17.216806">
        <ele>1175.384</ele>
        <time>2014-08-17T10:28:14Z</time>
      </trkpt>
      <trkpt lat="28.111326" lon="-17.217023">
        <ele>1178.982</ele>
        <time>2014-08-17T10:28:41Z</time>
      </trkpt>
      <trkpt lat="28.111355" lon="-17.217230">
        <ele>1177.262</ele>
        <time>2014-08-17T10:28:59Z</time>
      </trkpt>
      <trkpt lat="28.111581" lon="-17.217193">
        <ele>1173.393</ele>
        <time>2014-08-17T10:29:21Z</time>
      </trkpt>
      <trkpt lat="28.111592" lon="-17.217517">
        <ele>1179.284</ele>
        <time>2014-08-17T10:29:38Z</time>
      </trkpt>
      <trkpt lat="28.112086" lon="-17.217920">
        <ele>1177.825</ele>
        <time>2014-08-17T10:30:28Z</time>
      </trkpt>
      <trkpt lat="28.111020" lon="-17.219042">
        <ele>1200.144</ele>
        <time>2014-08-17T10:32:09Z</time>
      </trkpt>
      <trkpt lat="28.110447" lon="-17.219035">
        <ele>1216.647</ele>
        <time>2014-08-17T10:32:45Z</time>
      </trkpt>
      <trkpt lat="28.110155" lon="-17.219692">
        <ele>1215.329</ele>
        <time>2014-08-17T10:33:22Z</time>
      </trkpt>
      <trkpt lat="28.109509" lon="-17.220025">
        <ele>1236.521</ele>
        <time>2014-08-17T10:33:56Z</time>
      </trkpt>
      <trkpt lat="28.109261" lon="-17.220655">
        <ele>1239.207</ele>
        <time>2014-08-17T10:34:25Z</time>
      </trkpt>
      <trkpt lat="28.109260" lon="-17.221081">
        <ele>1244.931</ele>
        <time>2014-08-17T10:34:53Z</time>
      </trkpt>
      <trkpt lat="28.109591" lon="-17.221644">
        <ele>1234.389</ele>
        <time>2014-08-17T10:35:31Z</time>
      </trkpt>
      <trkpt lat="28.109518" lon="-17.222335">
        <ele>1255.129</ele>
        <time>2014-08-17T10:36:05Z</time>
      </trkpt>
      <trkpt lat="28.109819" lon="-17.223181">
        <ele>1262.210</ele>
        <time>2014-08-17T10:36:36Z</time>
      </trkpt>
      <trkpt lat="28.109738" lon="-17.223935">
        <ele>1274.521</ele>
        <time>2014-08-17T10:37:24Z</time>
      </trkpt>
      <trkpt lat="28.109948" lon="-17.224694">
        <ele>1266.662</ele>
        <time>2014-08-17T10:37:53Z</time>
      </trkpt>
      <trkpt lat="28.109673" lon="-17.224030">
        <ele>1280.391</ele>
        <time>2014-08-17T10:38:35Z</time>
      </trkpt>
      <trkpt lat="28.109500" lon="-17.222934">
        <ele>1284.476</ele>
        <time>2014-08-17T10:39:17Z</time>
      </trkpt>
      <trkpt lat="28.108719" lon="-17.221851">
        <ele>1282.390</ele>
        <time>2014-08-17T10:40:15Z</time>
      </trkpt>
      <trkpt lat="28.108579" lon="-17.221405">
        <ele>1277.419</ele>
        <time>2014-08-17T10:40:34Z</time>
      </trkpt>
      <trkpt lat="28.108148" lon="-17.221115">
        <ele>1274.007</ele>
        <time>2014-08-17T10:41:10Z</time>
      </trkpt>
      <trkpt lat="28.108420" lon="-17.222030">
        <ele>1280.664</ele>
        <time>2014-08-17T10:42:57Z</time>
      </trkpt>
      <trkpt lat="28.108800" lon="-17.222552">
        <ele>1293.142</ele>
        <time>2014-08-17T10:43:34Z</time>
      </trkpt>
      <trkpt lat="28.109068" lon="-17.223345">
        <ele>1301.692</ele>
        <time>2014-08-17T10:44:06Z</time>
      </trkpt>
      <trkpt lat="28.109098" lon="-17.225225">
        <ele>1286.333</ele>
        <time>2014-08-17T10:45:47Z</time>
      </trkpt>
      <trkpt lat="28.108788" lon="-17.227069">
        <ele>1285.964</ele>
        <time>2014-08-17T10:46:44Z</time>
      </trkpt>
      <trkpt lat="28.108921" lon="-17.227646">
        <ele>1290.755</ele>
        <time>2014-08-17T10:47:03Z</time>
      </trkpt>
      <trkpt lat="28.108357" lon="-17.228985">
        <ele>1296.164</ele>
        <time>2014-08-17T10:48:00Z</time>
      </trkpt>
      <trkpt lat="28.107857" lon="-17.229547">
        <ele>1292.948</ele>
        <time>2014-08-17T10:48:29Z</time>
      </trkpt>
      <trkpt lat="28.107671" lon="-17.230259">
        <ele>1297.661</ele>
        <time>2014-08-17T10:48:51Z</time>
      </trkpt>
      <trkpt lat="28.107247" lon="-17.230748">
        <ele>1297.117</ele>
        <time>2014-08-17T10:49:16Z</time>
      </trkpt>
      <trkpt lat="28.106882" lon="-17.231888">
        <ele>1307.007</ele>
        <time>2014-08-17T10:50:29Z</time>
      </trkpt>
      <trkpt lat="28.106694" lon="-17.232059">
        <ele>1308.531</ele>
        <time>2014-08-17T10:51:00Z</time>
      </trkpt>
      <trkpt lat="28.107100" lon="-17.232131">
        <ele>1316.679</ele>
        <time>2014-08-17T10:52:08Z</time>
      </trkpt>
      <trkpt lat="28.106801" lon="-17.232463">
        <ele>1324.789</ele>
        <time>2014-08-17T10:52:51Z</time>
      </trkpt>
      <trkpt lat="28.106945" lon="-17.232598">
        <ele>1329.160</ele>
        <time>2014-08-17T10:53:08Z</time>
      </trkpt>
      <trkpt lat="28.106752" lon="-17.232790">
        <ele>1330.451</ele>
        <time>2014-08-17T10:53:34Z</time>
      </trkpt>
      <trkpt lat="28.107247" lon="-17.234025">
        <ele>1338.732</ele>
        <time>2014-08-17T10:54:58Z</time>
      </trkpt>
      <trkpt lat="28.107255" lon="-17.234360">
        <ele>1340.831</ele>
        <time>2014-08-17T10:55:24Z</time>
      </trkpt>
      <trkpt lat="28.107012" lon="-17.234826">
        <ele>1345.529</ele>
        <time>2014-08-17T10:55:53Z</time>
      </trkpt>
      <trkpt lat="28.107282" lon="-17.236030">
        <ele>1355.700</ele>
        <time>2014-08-17T10:56:57Z</time>
      </trkpt>
      <trkpt lat="28.107048" lon="-17.237250">
        <ele>1362.120</ele>
        <time>2014-08-17T10:57:44Z</time>
      </trkpt>
      <trkpt lat="28.106465" lon="-17.237609">
        <ele>1380.907</ele>
        <time>2014-08-17T10:58:30Z</time>
      </trkpt>
      <trkpt lat="28.106145" lon="-17.238011">
        <ele>1386.749</ele>
        <time>2014-08-17T10:59:18Z</time>
      </trkpt>
      <trkpt lat="28.107101" lon="-17.239231">
        <ele>1379.127</ele>
        <time>2014-08-17T11:00:55Z</time>
      </trkpt>
      <trkpt lat="28.107172" lon="-17.239549">
        <ele>1377.967</ele>
        <time>2014-08-17T11:01:08Z</time>
      </trkpt>
      <trkpt lat="28.106997" lon="-17.240184">
        <ele>1365.238</ele>
        <time>2014-08-17T11:01:29Z</time>
      </trkpt>
      <trkpt lat="28.107377" lon="-17.241476">
        <ele>1356.129</ele>
        <time>2014-08-17T11:02:12Z</time>
      </trkpt>
      <trkpt lat="28.108203" lon="-17.241659">
        <ele>1356.690</ele>
        <time>2014-08-17T11:02:41Z</time>
      </trkpt>
      <trkpt lat="28.108382" lon="-17.241996">
        <ele>1352.549</ele>
        <time>2014-08-17T11:04:28Z</time>
      </trkpt>
      <trkpt lat="28.108374" lon="-17.242736">
        <ele>1364.951</ele>
        <time>2014-08-17T11:07:24Z</time>
      </trkpt>
      <trkpt lat="28.107955" lon="-17.243107">
        <ele>1373.201</ele>
        <time>2014-08-17T11:08:08Z</time>
      </trkpt>
      <trkpt lat="28.108494" lon="-17.243652">
        <ele>1390.511</ele>
        <time>2014-08-17T11:09:55Z</time>
      </trkpt>
      <trkpt lat="28.109113" lon="-17.243950">
        <ele>1395.007</ele>
        <time>2014-08-17T11:10:24Z</time>
      </trkpt>
      <trkpt lat="28.109561" lon="-17.244099">
        <ele>1402.842</ele>
        <time>2014-08-17T11:10:57Z</time>
      </trkpt>
      <trkpt lat="28.110444" lon="-17.244088">
        <ele>1427.570</ele>
        <time>2014-08-17T11:12:24Z</time>
      </trkpt>
      <trkpt lat="28.111028" lon="-17.244749">
        <ele>1451.340</ele>
        <time>2014-08-17T11:14:25Z</time>
      </trkpt>
      <trkpt lat="28.110966" lon="-17.245439">
        <ele>1450.581</ele>
        <time>2014-08-17T11:14:47Z</time>
      </trkpt>
      <trkpt lat="28.110533" lon="-17.246828">
        <ele>1459.442</ele>
        <time>2014-08-17T11:16:14Z</time>
      </trkpt>
      <trkpt lat="28.109694" lon="-17.248421">
        <ele>1477.073</ele>
        <time>2014-08-17T11:18:04Z</time>
      </trkpt>
      <trkpt lat="28.109808" lon="-17.248359">
        <ele>1476.832</ele>
        <time>2014-08-17T11:18:50Z</time>
      </trkpt>
    </trkseg>
  </trk></gpx>