<?xml version="1.0" encoding="UTF-8"?>
<gpx version="1.1" creator="Aventuras en Cada Paso" xmlns="http://www.topografix.com/GPX/1/1">
  <metadata>
    <name>Volcán de San Antonio – Fuencaliente</name>
    <desc>Sendero muy accesible alrededor del cráter del Volcán de San Antonio. Vistas al nuevo delta del Tajogaite y al faro de Fuencaliente.</desc>
    <author><name>Aventuras en Cada Paso</name></author>
    <time>2026-07-08T08:12:58.185Z</time>
    <keywords>La Palma, Senderismo, Fácil, senderismo Canarias</keywords>
  </metadata>
  <wpt lat="28.4578" lon="-17.8453">
    <name>Volcán de San Antonio – Fuencaliente</name>
    <desc>Sendero muy accesible alrededor del cráter del Volcán de San Antonio. Vistas al nuevo delta del Tajogaite y al faro de Fuencaliente. | Isla: La Palma | Tipo: Senderismo | Dificultad: Fácil | Distancia: 2km | Duración: Menos de 2h</desc>
    <type>Senderismo</type>
    <extensions>
      <isla>La Palma</isla>
      <dificultad>Fácil</dificultad>
      <distancia>2</distancia>
      <duracion>Menos de 2h</duracion>
    </extensions>
  </wpt>
</gpx>