<?xml version="1.0" encoding="UTF-8"?>
<gpx creator="Wikiloc - https://www.wikiloc.com" version="1.1" xmlns="http://www.topografix.com/GPX/1/1" xmlns:xsi="http://www.w3.org/2001/XMLSchema-instance" xsi:schemaLocation="http://www.topografix.com/GPX/1/1 http://www.topografix.com/GPX/1/1/gpx.xsd">
  <metadata>
    <name>Wikiloc - Ruta volcán Santa Catalina</name>
    <link href="https://www.wikiloc.com/hiking-trails/ruta-volcan-santa-catalina-166543008">
      <text>Ruta volcán Santa Catalina - Wikiloc on Wikiloc</text>
    </link>
    <time>2024-04-07T16:04:42.988Z</time>
  </metadata>
  <trk>
    <name>Ruta volcán Santa Catalina - Wikiloc</name>
    <cmt></cmt>
    <desc></desc>
    <trkseg>
      <trkpt lat="29.030963" lon="-13.686001">
        <ele>314.691</ele>
        <time>2024-04-07T13:22:36.994Z</time>
      </trkpt>
      <trkpt lat="29.030925" lon="-13.685972">
        <ele>315.881</ele>
        <time>2024-04-07T13:23:12.994Z</time>
      </trkpt>
      <trkpt lat="29.030926" lon="-13.686067">
        <ele>315.819</ele>
        <time>2024-04-07T13:24:34.993Z</time>
      </trkpt>
      <trkpt lat="29.030920" lon="-13.686118">
        <ele>315.809</ele>
        <time>2024-04-07T13:24:36.994Z</time>
      </trkpt>
      <trkpt lat="29.030896" lon="-13.686175">
        <ele>316.130</ele>
        <time>2024-04-07T13:24:40.994Z</time>
      </trkpt>
      <trkpt lat="29.030884" lon="-13.686231">
        <ele>316.435</ele>
        <time>2024-04-07T13:24:45.994Z</time>
      </trkpt>
      <trkpt lat="29.030879" lon="-13.686290">
        <ele>318.025</ele>
        <time>2024-04-07T13:24:50.994Z</time>
      </trkpt>
      <trkpt lat="29.030860" lon="-13.686347">
        <ele>318.164</ele>
        <time>2024-04-07T13:24:55.994Z</time>
      </trkpt>
      <trkpt lat="29.030820" lon="-13.686390">
        <ele>318.213</ele>
        <time>2024-04-07T13:25:00.994Z</time>
      </trkpt>
      <trkpt lat="29.030780" lon="-13.686431">
        <ele>318.442</ele>
        <time>2024-04-07T13:25:05.994Z</time>
      </trkpt>
      <trkpt lat="29.030734" lon="-13.686450">
        <ele>318.879</ele>
        <time>2024-04-07T13:25:10.994Z</time>
      </trkpt>
      <trkpt lat="29.030686" lon="-13.686465">
        <ele>319.549</ele>
        <time>2024-04-07T13:25:15.994Z</time>
      </trkpt>
      <trkpt lat="29.030632" lon="-13.686469">
        <ele>319.627</ele>
        <time>2024-04-07T13:25:22.994Z</time>
      </trkpt>
      <trkpt lat="29.030581" lon="-13.686480">
        <ele>319.714</ele>
        <time>2024-04-07T13:25:27.994Z</time>
      </trkpt>
      <trkpt lat="29.030544" lon="-13.686521">
        <ele>319.854</ele>
        <time>2024-04-07T13:25:33.994Z</time>
      </trkpt>
      <trkpt lat="29.030503" lon="-13.686549">
        <ele>319.909</ele>
        <time>2024-04-07T13:25:39.994Z</time>
      </trkpt>
      <trkpt lat="29.030461" lon="-13.686583">
        <ele>320.109</ele>
        <time>2024-04-07T13:25:45.994Z</time>
      </trkpt>
      <trkpt lat="29.030428" lon="-13.686625">
        <ele>320.362</ele>
        <time>2024-04-07T13:25:50.994Z</time>
      </trkpt>
      <trkpt lat="29.030391" lon="-13.686665">
        <ele>320.347</ele>
        <time>2024-04-07T13:25:55.994Z</time>
      </trkpt>
      <trkpt lat="29.030362" lon="-13.686711">
        <ele>320.457</ele>
        <time>2024-04-07T13:26:00.994Z</time>
      </trkpt>
      <trkpt lat="29.030329" lon="-13.686758">
        <ele>320.446</ele>
        <time>2024-04-07T13:26:05.994Z</time>
      </trkpt>
      <trkpt lat="29.030301" lon="-13.686812">
        <ele>320.345</ele>
        <time>2024-04-07T13:26:10.994Z</time>
      </trkpt>
      <trkpt lat="29.030272" lon="-13.686862">
        <ele>320.284</ele>
        <time>2024-04-07T13:26:15.994Z</time>
      </trkpt>
      <trkpt lat="29.030240" lon="-13.686909">
        <ele>320.221</ele>
        <time>2024-04-07T13:26:20.994Z</time>
      </trkpt>
      <trkpt lat="29.030209" lon="-13.686958">
        <ele>320.211</ele>
        <time>2024-04-07T13:26:25.994Z</time>
      </trkpt>
      <trkpt lat="29.030176" lon="-13.687009">
        <ele>320.329</ele>
        <time>2024-04-07T13:26:30.994Z</time>
      </trkpt>
      <trkpt lat="29.030151" lon="-13.687054">
        <ele>320.597</ele>
        <time>2024-04-07T13:26:34.994Z</time>
      </trkpt>
      <trkpt lat="29.030117" lon="-13.687093">
        <ele>320.723</ele>
        <time>2024-04-07T13:26:38.994Z</time>
      </trkpt>
      <trkpt lat="29.024609" lon="-13.693822">
        <ele>321.025</ele>
        <time>2024-04-07T13:42:14.988Z</time>
      </trkpt>
      <trkpt lat="29.024564" lon="-13.693833">
        <ele>322.209</ele>
        <time>2024-04-07T13:42:18.988Z</time>
      </trkpt>
      <trkpt lat="29.024522" lon="-13.693860">
        <ele>322.130</ele>
        <time>2024-04-07T13:42:22.988Z</time>
      </trkpt>
      <trkpt lat="29.024480" lon="-13.693880">
        <ele>322.095</ele>
        <time>2024-04-07T13:42:26.988Z</time>
      </trkpt>
      <trkpt lat="29.024444" lon="-13.693911">
        <ele>321.935</ele>
        <time>2024-04-07T13:42:30.988Z</time>
      </trkpt>
      <trkpt lat="29.024401" lon="-13.693935">
        <ele>321.864</ele>
        <time>2024-04-07T13:42:34.988Z</time>
      </trkpt>
      <trkpt lat="29.024351" lon="-13.693946">
        <ele>321.733</ele>
        <time>2024-04-07T13:42:38.988Z</time>
      </trkpt>
      <trkpt lat="29.024307" lon="-13.693960">
        <ele>321.592</ele>
        <time>2024-04-07T13:42:42.988Z</time>
      </trkpt>
      <trkpt lat="29.024259" lon="-13.693976">
        <ele>321.429</ele>
        <time>2024-04-07T13:42:47.988Z</time>
      </trkpt>
      <trkpt lat="29.024214" lon="-13.693980">
        <ele>321.459</ele>
        <time>2024-04-07T13:43:04.988Z</time>
      </trkpt>
      <trkpt lat="29.024170" lon="-13.694008">
        <ele>321.147</ele>
        <time>2024-04-07T13:43:13.988Z</time>
      </trkpt>
      <trkpt lat="29.024120" lon="-13.694029">
        <ele>321.167</ele>
        <time>2024-04-07T13:43:18.988Z</time>
      </trkpt>
      <trkpt lat="29.024068" lon="-13.694038">
        <ele>320.781</ele>
        <time>2024-04-07T13:43:22.988Z</time>
      </trkpt>
      <trkpt lat="29.024023" lon="-13.694044">
        <ele>319.919</ele>
        <time>2024-04-07T13:43:26.988Z</time>
      </trkpt>
      <trkpt lat="29.023971" lon="-13.694051">
        <ele>319.909</ele>
        <time>2024-04-07T13:43:30.988Z</time>
      </trkpt>
      <trkpt lat="29.023921" lon="-13.694054">
        <ele>319.977</ele>
        <time>2024-04-07T13:43:34.988Z</time>
      </trkpt>
      <trkpt lat="29.023866" lon="-13.694059">
        <ele>320.072</ele>
        <time>2024-04-07T13:43:39.988Z</time>
      </trkpt>
      <trkpt lat="29.023819" lon="-13.694067">
        <ele>320.442</ele>
        <time>2024-04-07T13:43:45.988Z</time>
      </trkpt>
      <trkpt lat="29.023772" lon="-13.694070">
        <ele>320.911</ele>
        <time>2024-04-07T13:43:49.988Z</time>
      </trkpt>
      <trkpt lat="29.023719" lon="-13.694081">
        <ele>322.080</ele>
        <time>2024-04-07T13:43:54.988Z</time>
      </trkpt>
      <trkpt lat="29.023672" lon="-13.694101">
        <ele>322.569</ele>
        <time>2024-04-07T13:43:59.988Z</time>
      </trkpt>
      <trkpt lat="29.023625" lon="-13.694112">
        <ele>323.396</ele>
        <time>2024-04-07T13:44:03.988Z</time>
      </trkpt>
      <trkpt lat="29.023576" lon="-13.694126">
        <ele>324.286</ele>
        <time>2024-04-07T13:44:08.988Z</time>
      </trkpt>
      <trkpt lat="29.023533" lon="-13.694145">
        <ele>325.394</ele>
        <time>2024-04-07T13:44:12.988Z</time>
      </trkpt>
      <trkpt lat="29.023485" lon="-13.694153">
        <ele>325.318</ele>
        <time>2024-04-07T13:45:19.988Z</time>
      </trkpt>
      <trkpt lat="29.023432" lon="-13.694160">
        <ele>323.898</ele>
        <time>2024-04-07T13:46:02.988Z</time>
      </trkpt>
      <trkpt lat="29.011941" lon="-13.698516">
        <ele>322.917</ele>
        <time>2024-04-07T14:11:53.992Z</time>
      </trkpt>
      <trkpt lat="29.011889" lon="-13.698538">
        <ele>317.009</ele>
        <time>2024-04-07T14:11:59.992Z</time>
      </trkpt>
      <trkpt lat="29.011835" lon="-13.698552">
        <ele>317.072</ele>
        <time>2024-04-07T14:12:04.992Z</time>
      </trkpt>
      <trkpt lat="29.011788" lon="-13.698560">
        <ele>317.257</ele>
        <time>2024-04-07T14:12:08.992Z</time>
      </trkpt>
      <trkpt lat="29.011737" lon="-13.698570">
        <ele>317.517</ele>
        <time>2024-04-07T14:12:13.992Z</time>
      </trkpt>
      <trkpt lat="29.011682" lon="-13.698570">
        <ele>317.656</ele>
        <time>2024-04-07T14:12:18.992Z</time>
      </trkpt>
      <trkpt lat="29.011636" lon="-13.698574">
        <ele>318.125</ele>
        <time>2024-04-07T14:12:22.992Z</time>
      </trkpt>
      <trkpt lat="29.011587" lon="-13.698572">
        <ele>318.124</ele>
        <time>2024-04-07T14:12:26.992Z</time>
      </trkpt>
      <trkpt lat="29.011533" lon="-13.698574">
        <ele>318.111</ele>
        <time>2024-04-07T14:12:31.992Z</time>
      </trkpt>
      <trkpt lat="29.011484" lon="-13.698568">
        <ele>318.141</ele>
        <time>2024-04-07T14:12:35.992Z</time>
      </trkpt>
      <trkpt lat="29.011430" lon="-13.698554">
        <ele>318.179</ele>
        <time>2024-04-07T14:12:40.992Z</time>
      </trkpt>
      <trkpt lat="29.011384" lon="-13.698544">
        <ele>318.117</ele>
        <time>2024-04-07T14:12:44.992Z</time>
      </trkpt>
      <trkpt lat="29.011337" lon="-13.698538">
        <ele>318.487</ele>
        <time>2024-04-07T14:12:48.992Z</time>
      </trkpt>
      <trkpt lat="29.011285" lon="-13.698540">
        <ele>318.615</ele>
        <time>2024-04-07T14:12:53.992Z</time>
      </trkpt>
      <trkpt lat="29.011232" lon="-13.698553">
        <ele>319.109</ele>
        <time>2024-04-07T14:12:58.992Z</time>
      </trkpt>
      <trkpt lat="29.011188" lon="-13.698565">
        <ele>319.542</ele>
        <time>2024-04-07T14:13:02.992Z</time>
      </trkpt>
      <trkpt lat="29.006243" lon="-13.702489">
        <ele>320.287</ele>
        <time>2024-04-07T14:23:49.990Z</time>
      </trkpt>
      <trkpt lat="29.006277" lon="-13.702532">
        <ele>324.697</ele>
        <time>2024-04-07T14:23:54.990Z</time>
      </trkpt>
      <trkpt lat="29.004449" lon="-13.708687">
        <ele>324.656</ele>
        <time>2024-04-07T14:53:31.990Z</time>
      </trkpt>
      <trkpt lat="29.004418" lon="-13.708732">
        <ele>341.375</ele>
        <time>2024-04-07T14:53:47.990Z</time>
      </trkpt>
      <trkpt lat="29.004375" lon="-13.708771">
        <ele>359.764</ele>
        <time>2024-04-07T14:53:53.990Z</time>
      </trkpt>
      <trkpt lat="29.004324" lon="-13.708797">
        <ele>378.271</ele>
        <time>2024-04-07T14:53:58.990Z</time>
      </trkpt>
      <trkpt lat="29.004271" lon="-13.708803">
        <ele>382.121</ele>
        <time>2024-04-07T14:54:03.990Z</time>
      </trkpt>
      <trkpt lat="29.004220" lon="-13.708800">
        <ele>380.499</ele>
        <time>2024-04-07T14:54:08.990Z</time>
      </trkpt>
      <trkpt lat="29.004174" lon="-13.708823">
        <ele>379.399</ele>
        <time>2024-04-07T14:54:14.990Z</time>
      </trkpt>
      <trkpt lat="29.004128" lon="-13.708832">
        <ele>378.507</ele>
        <time>2024-04-07T14:54:20.990Z</time>
      </trkpt>
      <trkpt lat="29.004083" lon="-13.708832">
        <ele>378.227</ele>
        <time>2024-04-07T14:54:26.990Z</time>
      </trkpt>
      <trkpt lat="29.004034" lon="-13.708845">
        <ele>377.509</ele>
        <time>2024-04-07T14:54:33.990Z</time>
      </trkpt>
      <trkpt lat="29.003985" lon="-13.708827">
        <ele>377.550</ele>
        <time>2024-04-07T14:54:39.990Z</time>
      </trkpt>
      <trkpt lat="29.003934" lon="-13.708817">
        <ele>377.575</ele>
        <time>2024-04-07T14:54:44.990Z</time>
      </trkpt>
      <trkpt lat="29.003892" lon="-13.708843">
        <ele>377.515</ele>
        <time>2024-04-07T14:54:49.990Z</time>
      </trkpt>
      <trkpt lat="29.003848" lon="-13.708856">
        <ele>379.684</ele>
        <time>2024-04-07T14:54:54.990Z</time>
      </trkpt>
      <trkpt lat="29.003794" lon="-13.708839">
        <ele>381.823</ele>
        <time>2024-04-07T14:54:59.990Z</time>
      </trkpt>
      <trkpt lat="29.003754" lon="-13.708805">
        <ele>384.872</ele>
        <time>2024-04-07T14:55:04.990Z</time>
      </trkpt>
      <trkpt lat="29.003703" lon="-13.708802">
        <ele>385.319</ele>
        <time>2024-04-07T14:55:09.990Z</time>
      </trkpt>
      <trkpt lat="29.003652" lon="-13.708796">
        <ele>385.379</ele>
        <time>2024-04-07T14:55:14.990Z</time>
      </trkpt>
      <trkpt lat="29.003603" lon="-13.708791">
        <ele>385.447</ele>
        <time>2024-04-07T14:55:19.990Z</time>
      </trkpt>
      <trkpt lat="29.003554" lon="-13.708780">
        <ele>385.428</ele>
        <time>2024-04-07T14:55:24.990Z</time>
      </trkpt>
      <trkpt lat="29.003509" lon="-13.708771">
        <ele>385.489</ele>
        <time>2024-04-07T14:55:28.990Z</time>
      </trkpt>
      <trkpt lat="29.003456" lon="-13.708763">
        <ele>386.517</ele>
        <time>2024-04-07T14:56:03.990Z</time>
      </trkpt>
      <trkpt lat="29.003419" lon="-13.708733">
        <ele>386.509</ele>
        <time>2024-04-07T14:56:07.990Z</time>
      </trkpt>
      <trkpt lat="29.003377" lon="-13.708701">
        <ele>386.563</ele>
        <time>2024-04-07T14:56:11.990Z</time>
      </trkpt>
      <trkpt lat="29.003343" lon="-13.708661">
        <ele>386.538</ele>
        <time>2024-04-07T14:56:15.990Z</time>
      </trkpt>
      <trkpt lat="29.003301" lon="-13.708643">
        <ele>386.438</ele>
        <time>2024-04-07T14:56:19.990Z</time>
      </trkpt>
      <trkpt lat="29.003262" lon="-13.708608">
        <ele>383.977</ele>
        <time>2024-04-07T14:56:23.990Z</time>
      </trkpt>
      <trkpt lat="29.003217" lon="-13.708574">
        <ele>383.976</ele>
        <time>2024-04-07T14:56:28.990Z</time>
      </trkpt>
      <trkpt lat="29.003180" lon="-13.708543">
        <ele>383.935</ele>
        <time>2024-04-07T14:56:32.990Z</time>
      </trkpt>
      <trkpt lat="29.003144" lon="-13.708501">
        <ele>383.962</ele>
        <time>2024-04-07T14:56:37.990Z</time>
      </trkpt>
      <trkpt lat="29.003105" lon="-13.708460">
        <ele>384.042</ele>
        <time>2024-04-07T14:56:41.990Z</time>
      </trkpt>
      <trkpt lat="29.003069" lon="-13.708413">
        <ele>384.020</ele>
        <time>2024-04-07T14:56:45.990Z</time>
      </trkpt>
      <trkpt lat="29.003037" lon="-13.708365">
        <ele>384.016</ele>
        <time>2024-04-07T14:56:49.990Z</time>
      </trkpt>
      <trkpt lat="29.003004" lon="-13.708323">
        <ele>383.776</ele>
        <time>2024-04-07T14:56:53.990Z</time>
      </trkpt>
      <trkpt lat="29.003009" lon="-13.708374">
        <ele>381.313</ele>
        <time>2024-04-07T14:57:01.990Z</time>
      </trkpt>
      <trkpt lat="29.002974" lon="-13.708332">
        <ele>373.709</ele>
        <time>2024-04-07T14:58:03.990Z</time>
      </trkpt>
      <trkpt lat="29.002952" lon="-13.708286">
        <ele>373.312</ele>
        <time>2024-04-07T14:58:12.990Z</time>
      </trkpt>
      <trkpt lat="29.002932" lon="-13.708230">
        <ele>372.277</ele>
        <time>2024-04-07T14:58:27.990Z</time>
      </trkpt>
      <trkpt lat="29.002909" lon="-13.708176">
        <ele>372.267</ele>
        <time>2024-04-07T14:58:31.990Z</time>
      </trkpt>
      <trkpt lat="29.002890" lon="-13.708123">
        <ele>372.126</ele>
        <time>2024-04-07T14:58:35.990Z</time>
      </trkpt>
      <trkpt lat="29.002874" lon="-13.708073">
        <ele>370.535</ele>
        <time>2024-04-07T14:58:39.990Z</time>
      </trkpt>
      <trkpt lat="29.002855" lon="-13.708025">
        <ele>370.234</ele>
        <time>2024-04-07T14:58:44.990Z</time>
      </trkpt>
      <trkpt lat="29.002827" lon="-13.707982">
        <ele>369.511</ele>
        <time>2024-04-07T14:59:02.990Z</time>
      </trkpt>
      <trkpt lat="29.002806" lon="-13.707927">
        <ele>369.571</ele>
        <time>2024-04-07T14:59:08.990Z</time>
      </trkpt>
      <trkpt lat="29.002785" lon="-13.707873">
        <ele>369.499</ele>
        <time>2024-04-07T14:59:13.990Z</time>
      </trkpt>
      <trkpt lat="29.002756" lon="-13.707828">
        <ele>369.386</ele>
        <time>2024-04-07T14:59:18.990Z</time>
      </trkpt>
      <trkpt lat="29.002727" lon="-13.707775">
        <ele>369.160</ele>
        <time>2024-04-07T14:59:23.990Z</time>
      </trkpt>
      <trkpt lat="29.002700" lon="-13.707732">
        <ele>369.026</ele>
        <time>2024-04-07T14:59:27.990Z</time>
      </trkpt>
      <trkpt lat="29.002672" lon="-13.707691">
        <ele>366.209</ele>
        <time>2024-04-07T14:59:32.990Z</time>
      </trkpt>
      <trkpt lat="29.002638" lon="-13.707642">
        <ele>363.159</ele>
        <time>2024-04-07T14:59:55.990Z</time>
      </trkpt>
      <trkpt lat="29.002613" lon="-13.707596">
        <ele>363.134</ele>
        <time>2024-04-07T14:59:59.990Z</time>
      </trkpt>
      <trkpt lat="29.002586" lon="-13.707538">
        <ele>363.164</ele>
        <time>2024-04-07T15:00:04.990Z</time>
      </trkpt>
      <trkpt lat="29.002569" lon="-13.707488">
        <ele>363.153</ele>
        <time>2024-04-07T15:00:08.990Z</time>
      </trkpt>
      <trkpt lat="29.002552" lon="-13.707440">
        <ele>363.032</ele>
        <time>2024-04-07T15:00:12.990Z</time>
      </trkpt>
      <trkpt lat="29.002532" lon="-13.707390">
        <ele>361.551</ele>
        <time>2024-04-07T15:00:16.990Z</time>
      </trkpt>
      <trkpt lat="29.002515" lon="-13.707336">
        <ele>360.458</ele>
        <time>2024-04-07T15:00:20.990Z</time>
      </trkpt>
      <trkpt lat="29.002498" lon="-13.707283">
        <ele>359.658</ele>
        <time>2024-04-07T15:00:24.990Z</time>
      </trkpt>
      <trkpt lat="29.002483" lon="-13.707234">
        <ele>359.556</ele>
        <time>2024-04-07T15:00:28.990Z</time>
      </trkpt>
      <trkpt lat="29.002468" lon="-13.707183">
        <ele>359.253</ele>
        <time>2024-04-07T15:00:32.990Z</time>
      </trkpt>
      <trkpt lat="29.002453" lon="-13.707134">
        <ele>358.904</ele>
        <time>2024-04-07T15:00:36.990Z</time>
      </trkpt>
      <trkpt lat="29.002440" lon="-13.707084">
        <ele>358.014</ele>
        <time>2024-04-07T15:00:40.990Z</time>
      </trkpt>
      <trkpt lat="29.002424" lon="-13.707025">
        <ele>357.809</ele>
        <time>2024-04-07T15:00:45.990Z</time>
      </trkpt>
      <trkpt lat="29.002414" lon="-13.706965">
        <ele>357.776</ele>
        <time>2024-04-07T15:00:50.990Z</time>
      </trkpt>
      <trkpt lat="29.002421" lon="-13.706910">
        <ele>357.561</ele>
        <time>2024-04-07T15:00:56.990Z</time>
      </trkpt>
      <trkpt lat="29.002417" lon="-13.706856">
        <ele>357.291</ele>
        <time>2024-04-07T15:01:02.990Z</time>
      </trkpt>
      <trkpt lat="29.002402" lon="-13.706802">
        <ele>354.920</ele>
        <time>2024-04-07T15:01:08.990Z</time>
      </trkpt>
      <trkpt lat="29.002406" lon="-13.706738">
        <ele>353.119</ele>
        <time>2024-04-07T15:01:14.990Z</time>
      </trkpt>
      <trkpt lat="29.002397" lon="-13.706685">
        <ele>352.768</ele>
        <time>2024-04-07T15:01:18.990Z</time>
      </trkpt>
      <trkpt lat="29.002391" lon="-13.706632">
        <ele>352.195</ele>
        <time>2024-04-07T15:01:22.990Z</time>
      </trkpt>
      <trkpt lat="29.002387" lon="-13.706578">
        <ele>351.635</ele>
        <time>2024-04-07T15:01:26.990Z</time>
      </trkpt>
      <trkpt lat="29.002387" lon="-13.706526">
        <ele>351.053</ele>
        <time>2024-04-07T15:01:30.990Z</time>
      </trkpt>
      <trkpt lat="29.002387" lon="-13.706472">
        <ele>350.765</ele>
        <time>2024-04-07T15:01:34.990Z</time>
      </trkpt>
      <trkpt lat="29.002383" lon="-13.706419">
        <ele>350.068</ele>
        <time>2024-04-07T15:01:38.990Z</time>
      </trkpt>
      <trkpt lat="29.002415" lon="-13.706382">
        <ele>349.314</ele>
        <time>2024-04-07T15:01:41.990Z</time>
      </trkpt>
      <trkpt lat="29.002390" lon="-13.706333">
        <ele>348.909</ele>
        <time>2024-04-07T15:02:03.990Z</time>
      </trkpt>
      <trkpt lat="29.002380" lon="-13.706274">
        <ele>348.937</ele>
        <time>2024-04-07T15:02:08.990Z</time>
      </trkpt>
      <trkpt lat="29.002380" lon="-13.706220">
        <ele>348.942</ele>
        <time>2024-04-07T15:02:12.990Z</time>
      </trkpt>
      <trkpt lat="29.002372" lon="-13.706164">
        <ele>348.942</ele>
        <time>2024-04-07T15:02:16.990Z</time>
      </trkpt>
      <trkpt lat="29.002371" lon="-13.706089">
        <ele>351.551</ele>
        <time>2024-04-07T15:02:21.990Z</time>
      </trkpt>
      <trkpt lat="29.002364" lon="-13.706033">
        <ele>350.560</ele>
        <time>2024-04-07T15:02:25.990Z</time>
      </trkpt>
      <trkpt lat="29.002362" lon="-13.705975">
        <ele>349.489</ele>
        <time>2024-04-07T15:02:29.990Z</time>
      </trkpt>
      <trkpt lat="29.002357" lon="-13.705917">
        <ele>349.256</ele>
        <time>2024-04-07T15:02:33.990Z</time>
      </trkpt>
      <trkpt lat="29.002357" lon="-13.705861">
        <ele>349.136</ele>
        <time>2024-04-07T15:02:37.990Z</time>
      </trkpt>
      <trkpt lat="29.002361" lon="-13.705807">
        <ele>348.994</ele>
        <time>2024-04-07T15:02:42.990Z</time>
      </trkpt>
      <trkpt lat="29.002359" lon="-13.705750">
        <ele>348.675</ele>
        <time>2024-04-07T15:02:47.990Z</time>
      </trkpt>
      <trkpt lat="29.002364" lon="-13.705698">
        <ele>348.328</ele>
        <time>2024-04-07T15:02:51.990Z</time>
      </trkpt>
      <trkpt lat="29.002365" lon="-13.705646">
        <ele>347.720</ele>
        <time>2024-04-07T15:02:55.990Z</time>
      </trkpt>
      <trkpt lat="29.002378" lon="-13.705595">
        <ele>346.709</ele>
        <time>2024-04-07T15:03:00.990Z</time>
      </trkpt>
      <trkpt lat="29.002390" lon="-13.705537">
        <ele>346.578</ele>
        <time>2024-04-07T15:03:05.990Z</time>
      </trkpt>
      <trkpt lat="29.002403" lon="-13.705485">
        <ele>346.413</ele>
        <time>2024-04-07T15:03:09.990Z</time>
      </trkpt>
      <trkpt lat="29.002397" lon="-13.705432">
        <ele>345.973</ele>
        <time>2024-04-07T15:03:31.990Z</time>
      </trkpt>
      <trkpt lat="29.002394" lon="-13.705371">
        <ele>345.912</ele>
        <time>2024-04-07T15:03:37.990Z</time>
      </trkpt>
      <trkpt lat="29.002386" lon="-13.705309">
        <ele>345.881</ele>
        <time>2024-04-07T15:03:42.990Z</time>
      </trkpt>
      <trkpt lat="29.002375" lon="-13.705254">
        <ele>344.740</ele>
        <time>2024-04-07T15:03:47.990Z</time>
      </trkpt>
      <trkpt lat="29.002375" lon="-13.705199">
        <ele>344.147</ele>
        <time>2024-04-07T15:03:51.990Z</time>
      </trkpt>
      <trkpt lat="29.002373" lon="-13.705140">
        <ele>342.827</ele>
        <time>2024-04-07T15:03:55.990Z</time>
      </trkpt>
      <trkpt lat="29.002365" lon="-13.705086">
        <ele>342.515</ele>
        <time>2024-04-07T15:03:59.990Z</time>
      </trkpt>
      <trkpt lat="29.002355" lon="-13.705029">
        <ele>342.344</ele>
        <time>2024-04-07T15:04:04.990Z</time>
      </trkpt>
      <trkpt lat="29.002357" lon="-13.704970">
        <ele>342.205</ele>
        <time>2024-04-07T15:04:08.990Z</time>
      </trkpt>
      <trkpt lat="29.002323" lon="-13.704935">
        <ele>342.315</ele>
        <time>2024-04-07T15:04:11.990Z</time>
      </trkpt>
      <trkpt lat="29.002319" lon="-13.704876">
        <ele>342.409</ele>
        <time>2024-04-07T15:04:16.990Z</time>
      </trkpt>
      <trkpt lat="29.002307" lon="-13.704818">
        <ele>342.925</ele>
        <time>2024-04-07T15:04:20.990Z</time>
      </trkpt>
      <trkpt lat="29.002295" lon="-13.704768">
        <ele>343.210</ele>
        <time>2024-04-07T15:04:24.990Z</time>
      </trkpt>
      <trkpt lat="29.002291" lon="-13.704716">
        <ele>343.720</ele>
        <time>2024-04-07T15:04:28.990Z</time>
      </trkpt>
      <trkpt lat="29.002281" lon="-13.704665">
        <ele>344.029</ele>
        <time>2024-04-07T15:04:32.990Z</time>
      </trkpt>
      <trkpt lat="29.002278" lon="-13.704601">
        <ele>344.748</ele>
        <time>2024-04-07T15:04:37.990Z</time>
      </trkpt>
      <trkpt lat="29.002288" lon="-13.704548">
        <ele>345.377</ele>
        <time>2024-04-07T15:04:41.990Z</time>
      </trkpt>
      <trkpt lat="29.002294" lon="-13.704486">
        <ele>345.614</ele>
        <time>2024-04-07T15:04:46.990Z</time>
      </trkpt>
      <trkpt lat="29.002309" lon="-13.704426">
        <ele>346.024</ele>
        <time>2024-04-07T15:04:51.990Z</time>
      </trkpt>
      <trkpt lat="29.002313" lon="-13.704374">
        <ele>346.422</ele>
        <time>2024-04-07T15:04:55.990Z</time>
      </trkpt>
      <trkpt lat="29.002324" lon="-13.704324">
        <ele>346.442</ele>
        <time>2024-04-07T15:04:59.990Z</time>
      </trkpt>
      <trkpt lat="29.002342" lon="-13.704272">
        <ele>346.522</ele>
        <time>2024-04-07T15:05:03.990Z</time>
      </trkpt>
      <trkpt lat="29.002373" lon="-13.704231">
        <ele>346.514</ele>
        <time>2024-04-07T15:05:07.990Z</time>
      </trkpt>
      <trkpt lat="29.002402" lon="-13.704191">
        <ele>346.509</ele>
        <time>2024-04-07T15:05:11.990Z</time>
      </trkpt>
      <trkpt lat="29.002431" lon="-13.704150">
        <ele>347.365</ele>
        <time>2024-04-07T15:05:15.990Z</time>
      </trkpt>
      <trkpt lat="29.002465" lon="-13.704098">
        <ele>347.680</ele>
        <time>2024-04-07T15:05:20.990Z</time>
      </trkpt>
      <trkpt lat="29.002495" lon="-13.704054">
        <ele>347.930</ele>
        <time>2024-04-07T15:05:25.990Z</time>
      </trkpt>
      <trkpt lat="29.002540" lon="-13.704023">
        <ele>348.139</ele>
        <time>2024-04-07T15:05:34.990Z</time>
      </trkpt>
      <trkpt lat="29.002575" lon="-13.703975">
        <ele>348.388</ele>
        <time>2024-04-07T15:05:39.990Z</time>
      </trkpt>
      <trkpt lat="29.002616" lon="-13.703938">
        <ele>348.667</ele>
        <time>2024-04-07T15:05:44.990Z</time>
      </trkpt>
      <trkpt lat="29.003113" lon="-13.703447">
        <ele>348.674</ele>
        <time>2024-04-07T15:06:47.982Z</time>
      </trkpt>
      <trkpt lat="29.003141" lon="-13.703392">
        <ele>357.154</ele>
        <time>2024-04-07T15:06:52.997Z</time>
      </trkpt>
      <trkpt lat="29.003165" lon="-13.703346">
        <ele>355.832</ele>
        <time>2024-04-07T15:06:56.997Z</time>
      </trkpt>
      <trkpt lat="29.003195" lon="-13.703305">
        <ele>355.516</ele>
        <time>2024-04-07T15:07:00.997Z</time>
      </trkpt>
      <trkpt lat="29.003231" lon="-13.703257">
        <ele>355.576</ele>
        <time>2024-04-07T15:07:05.997Z</time>
      </trkpt>
      <trkpt lat="29.003266" lon="-13.703223">
        <ele>355.513</ele>
        <time>2024-04-07T15:07:09.997Z</time>
      </trkpt>
      <trkpt lat="29.003304" lon="-13.703185">
        <ele>355.409</ele>
        <time>2024-04-07T15:07:14.997Z</time>
      </trkpt>
      <trkpt lat="29.003334" lon="-13.703145">
        <ele>355.412</ele>
        <time>2024-04-07T15:07:18.997Z</time>
      </trkpt>
      <trkpt lat="29.003350" lon="-13.703096">
        <ele>355.517</ele>
        <time>2024-04-07T15:07:22.997Z</time>
      </trkpt>
      <trkpt lat="29.003378" lon="-13.703041">
        <ele>357.537</ele>
        <time>2024-04-07T15:08:27.997Z</time>
      </trkpt>
      <trkpt lat="29.003411" lon="-13.703001">
        <ele>358.026</ele>
        <time>2024-04-07T15:08:54.992Z</time>
      </trkpt>
      <trkpt lat="29.003435" lon="-13.702951">
        <ele>358.145</ele>
        <time>2024-04-07T15:09:20.992Z</time>
      </trkpt>
      <trkpt lat="29.003444" lon="-13.702897">
        <ele>358.624</ele>
        <time>2024-04-07T15:09:26.992Z</time>
      </trkpt>
      <trkpt lat="29.003460" lon="-13.702841">
        <ele>359.791</ele>
        <time>2024-04-07T15:09:31.992Z</time>
      </trkpt>
      <trkpt lat="29.003466" lon="-13.702785">
        <ele>359.841</ele>
        <time>2024-04-07T15:09:36.992Z</time>
      </trkpt>
      <trkpt lat="29.003483" lon="-13.702732">
        <ele>359.979</ele>
        <time>2024-04-07T15:09:40.992Z</time>
      </trkpt>
      <trkpt lat="29.003498" lon="-13.702673">
        <ele>359.828</ele>
        <time>2024-04-07T15:09:45.992Z</time>
      </trkpt>
      <trkpt lat="29.003502" lon="-13.702609">
        <ele>359.889</ele>
        <time>2024-04-07T15:09:49.992Z</time>
      </trkpt>
      <trkpt lat="29.003516" lon="-13.702552">
        <ele>360.017</ele>
        <time>2024-04-07T15:09:53.992Z</time>
      </trkpt>
      <trkpt lat="29.003812" lon="-13.701849">
        <ele>360.009</ele>
        <time>2024-04-07T15:11:17.980Z</time>
      </trkpt>
      <trkpt lat="29.003857" lon="-13.701822">
        <ele>360.233</ele>
        <time>2024-04-07T15:11:20.991Z</time>
      </trkpt>
      <trkpt lat="29.003903" lon="-13.701789">
        <ele>358.848</ele>
        <time>2024-04-07T15:11:24.991Z</time>
      </trkpt>
      <trkpt lat="29.003937" lon="-13.701755">
        <ele>358.948</ele>
        <time>2024-04-07T15:11:27.991Z</time>
      </trkpt>
      <trkpt lat="29.003981" lon="-13.701721">
        <ele>359.677</ele>
        <time>2024-04-07T15:11:31.991Z</time>
      </trkpt>
      <trkpt lat="29.004022" lon="-13.701689">
        <ele>360.436</ele>
        <time>2024-04-07T15:11:35.991Z</time>
      </trkpt>
      <trkpt lat="29.004058" lon="-13.701656">
        <ele>362.615</ele>
        <time>2024-04-07T15:11:56.991Z</time>
      </trkpt>
      <trkpt lat="29.004096" lon="-13.701627">
        <ele>362.682</ele>
        <time>2024-04-07T15:11:59.991Z</time>
      </trkpt>
      <trkpt lat="29.004139" lon="-13.701607">
        <ele>362.642</ele>
        <time>2024-04-07T15:12:03.991Z</time>
      </trkpt>
      <trkpt lat="29.004180" lon="-13.701566">
        <ele>362.650</ele>
        <time>2024-04-07T15:12:07.991Z</time>
      </trkpt>
      <trkpt lat="29.004232" lon="-13.701536">
        <ele>362.689</ele>
        <time>2024-04-07T15:12:11.991Z</time>
      </trkpt>
      <trkpt lat="29.004701" lon="-13.701052">
        <ele>362.606</ele>
        <time>2024-04-07T15:13:38.977Z</time>
      </trkpt>
      <trkpt lat="29.004743" lon="-13.701008">
        <ele>359.426</ele>
        <time>2024-04-07T15:13:41.987Z</time>
      </trkpt>
      <trkpt lat="29.004785" lon="-13.700971">
        <ele>358.409</ele>
        <time>2024-04-07T15:13:45.987Z</time>
      </trkpt>
      <trkpt lat="29.004822" lon="-13.700936">
        <ele>358.249</ele>
        <time>2024-04-07T15:13:49.987Z</time>
      </trkpt>
      <trkpt lat="29.004857" lon="-13.700901">
        <ele>357.854</ele>
        <time>2024-04-07T15:13:53.987Z</time>
      </trkpt>
      <trkpt lat="29.004897" lon="-13.700872">
        <ele>357.774</ele>
        <time>2024-04-07T15:13:57.987Z</time>
      </trkpt>
      <trkpt lat="29.004936" lon="-13.700840">
        <ele>357.633</ele>
        <time>2024-04-07T15:14:01.987Z</time>
      </trkpt>
      <trkpt lat="29.004972" lon="-13.700802">
        <ele>357.522</ele>
        <time>2024-04-07T15:14:05.987Z</time>
      </trkpt>
      <trkpt lat="29.005015" lon="-13.700769">
        <ele>357.481</ele>
        <time>2024-04-07T15:14:09.987Z</time>
      </trkpt>
      <trkpt lat="29.005061" lon="-13.700736">
        <ele>357.288</ele>
        <time>2024-04-07T15:14:13.987Z</time>
      </trkpt>
      <trkpt lat="29.005102" lon="-13.700709">
        <ele>357.118</ele>
        <time>2024-04-07T15:14:17.987Z</time>
      </trkpt>
      <trkpt lat="29.005145" lon="-13.700676">
        <ele>357.166</ele>
        <time>2024-04-07T15:14:21.987Z</time>
      </trkpt>
      <trkpt lat="29.005193" lon="-13.700655">
        <ele>357.111</ele>
        <time>2024-04-07T15:14:25.987Z</time>
      </trkpt>
      <trkpt lat="29.005242" lon="-13.700632">
        <ele>357.521</ele>
        <time>2024-04-07T15:14:29.987Z</time>
      </trkpt>
      <trkpt lat="29.005282" lon="-13.700600">
        <ele>358.203</ele>
        <time>2024-04-07T15:14:33.987Z</time>
      </trkpt>
      <trkpt lat="29.005320" lon="-13.700563">
        <ele>358.609</ele>
        <time>2024-04-07T15:14:37.987Z</time>
      </trkpt>
      <trkpt lat="29.005370" lon="-13.700532">
        <ele>359.822</ele>
        <time>2024-04-07T15:14:41.987Z</time>
      </trkpt>
      <trkpt lat="29.005414" lon="-13.700491">
        <ele>359.827</ele>
        <time>2024-04-07T15:14:45.987Z</time>
      </trkpt>
      <trkpt lat="29.005455" lon="-13.700447">
        <ele>359.917</ele>
        <time>2024-04-07T15:14:49.987Z</time>
      </trkpt>
      <trkpt lat="29.005492" lon="-13.700413">
        <ele>360.256</ele>
        <time>2024-04-07T15:14:53.987Z</time>
      </trkpt>
      <trkpt lat="29.005532" lon="-13.700380">
        <ele>360.285</ele>
        <time>2024-04-07T15:14:57.987Z</time>
      </trkpt>
      <trkpt lat="29.005574" lon="-13.700338">
        <ele>360.534</ele>
        <time>2024-04-07T15:15:02.987Z</time>
      </trkpt>
      <trkpt lat="29.005599" lon="-13.700290">
        <ele>360.621</ele>
        <time>2024-04-07T15:15:06.987Z</time>
      </trkpt>
      <trkpt lat="29.005633" lon="-13.700249">
        <ele>360.631</ele>
        <time>2024-04-07T15:15:10.987Z</time>
      </trkpt>
      <trkpt lat="29.005674" lon="-13.700215">
        <ele>360.479</ele>
        <time>2024-04-07T15:15:14.987Z</time>
      </trkpt>
      <trkpt lat="29.005710" lon="-13.700174">
        <ele>360.195</ele>
        <time>2024-04-07T15:15:18.987Z</time>
      </trkpt>
      <trkpt lat="29.005747" lon="-13.700124">
        <ele>359.949</ele>
        <time>2024-04-07T15:15:22.987Z</time>
      </trkpt>
      <trkpt lat="29.005779" lon="-13.700083">
        <ele>359.723</ele>
        <time>2024-04-07T15:15:26.987Z</time>
      </trkpt>
      <trkpt lat="29.005811" lon="-13.700028">
        <ele>359.609</ele>
        <time>2024-04-07T15:15:31.987Z</time>
      </trkpt>
      <trkpt lat="29.005844" lon="-13.699992">
        <ele>359.330</ele>
        <time>2024-04-07T15:15:35.987Z</time>
      </trkpt>
      <trkpt lat="29.005884" lon="-13.699948">
        <ele>359.445</ele>
        <time>2024-04-07T15:15:53.987Z</time>
      </trkpt>
      <trkpt lat="29.005907" lon="-13.699894">
        <ele>359.455</ele>
        <time>2024-04-07T15:15:58.987Z</time>
      </trkpt>
      <trkpt lat="29.005941" lon="-13.699842">
        <ele>359.444</ele>
        <time>2024-04-07T15:16:03.987Z</time>
      </trkpt>
      <trkpt lat="29.005974" lon="-13.699806">
        <ele>359.313</ele>
        <time>2024-04-07T15:16:07.987Z</time>
      </trkpt>
      <trkpt lat="29.006013" lon="-13.699772">
        <ele>358.372</ele>
        <time>2024-04-07T15:16:12.987Z</time>
      </trkpt>
      <trkpt lat="29.006062" lon="-13.699761">
        <ele>357.329</ele>
        <time>2024-04-07T15:16:17.987Z</time>
      </trkpt>
      <trkpt lat="29.006106" lon="-13.699771">
        <ele>356.979</ele>
        <time>2024-04-07T15:16:21.987Z</time>
      </trkpt>
      <trkpt lat="29.006150" lon="-13.699759">
        <ele>356.277</ele>
        <time>2024-04-07T15:16:25.987Z</time>
      </trkpt>
      <trkpt lat="29.006194" lon="-13.699739">
        <ele>356.033</ele>
        <time>2024-04-07T15:16:29.987Z</time>
      </trkpt>
      <trkpt lat="29.006234" lon="-13.699695">
        <ele>355.723</ele>
        <time>2024-04-07T15:16:34.987Z</time>
      </trkpt>
      <trkpt lat="29.006277" lon="-13.699657">
        <ele>355.415</ele>
        <time>2024-04-07T15:16:39.987Z</time>
      </trkpt>
      <trkpt lat="29.006316" lon="-13.699624">
        <ele>355.309</ele>
        <time>2024-04-07T15:16:43.987Z</time>
      </trkpt>
      <trkpt lat="29.006353" lon="-13.699579">
        <ele>354.954</ele>
        <time>2024-04-07T15:16:48.987Z</time>
      </trkpt>
      <trkpt lat="29.006385" lon="-13.699537">
        <ele>354.659</ele>
        <time>2024-04-07T15:16:52.987Z</time>
      </trkpt>
      <trkpt lat="29.006418" lon="-13.699501">
        <ele>354.629</ele>
        <time>2024-04-07T15:16:56.987Z</time>
      </trkpt>
      <trkpt lat="29.006448" lon="-13.699456">
        <ele>354.628</ele>
        <time>2024-04-07T15:17:00.987Z</time>
      </trkpt>
      <trkpt lat="29.006467" lon="-13.699399">
        <ele>354.887</ele>
        <time>2024-04-07T15:17:05.987Z</time>
      </trkpt>
      <trkpt lat="29.006494" lon="-13.699343">
        <ele>354.836</ele>
        <time>2024-04-07T15:17:10.987Z</time>
      </trkpt>
      <trkpt lat="29.006521" lon="-13.699288">
        <ele>354.843</ele>
        <time>2024-04-07T15:17:15.987Z</time>
      </trkpt>
      <trkpt lat="29.006547" lon="-13.699240">
        <ele>354.933</ele>
        <time>2024-04-07T15:17:19.987Z</time>
      </trkpt>
      <trkpt lat="29.006577" lon="-13.699192">
        <ele>354.921</ele>
        <time>2024-04-07T15:17:23.987Z</time>
      </trkpt>
      <trkpt lat="29.006608" lon="-13.699154">
        <ele>355.088</ele>
        <time>2024-04-07T15:17:27.987Z</time>
      </trkpt>
      <trkpt lat="29.006626" lon="-13.699105">
        <ele>355.424</ele>
        <time>2024-04-07T15:17:31.987Z</time>
      </trkpt>
      <trkpt lat="29.006603" lon="-13.699058">
        <ele>356.126</ele>
        <time>2024-04-07T15:17:45.987Z</time>
      </trkpt>
      <trkpt lat="29.006618" lon="-13.699000">
        <ele>356.109</ele>
        <time>2024-04-07T15:17:50.987Z</time>
      </trkpt>
      <trkpt lat="29.006633" lon="-13.698939">
        <ele>356.179</ele>
        <time>2024-04-07T15:17:55.987Z</time>
      </trkpt>
      <trkpt lat="29.006652" lon="-13.698882">
        <ele>356.124</ele>
        <time>2024-04-07T15:18:00.987Z</time>
      </trkpt>
      <trkpt lat="29.006660" lon="-13.698831">
        <ele>356.124</ele>
        <time>2024-04-07T15:18:04.987Z</time>
      </trkpt>
      <trkpt lat="29.006676" lon="-13.698774">
        <ele>356.023</ele>
        <time>2024-04-07T15:18:09.987Z</time>
      </trkpt>
      <trkpt lat="29.006925" lon="-13.698294">
        <ele>356.052</ele>
        <time>2024-04-07T15:19:05.997Z</time>
      </trkpt>
      <trkpt lat="29.006946" lon="-13.698247">
        <ele>353.311</ele>
        <time>2024-04-07T15:19:10Z</time>
      </trkpt>
      <trkpt lat="29.006970" lon="-13.698197">
        <ele>353.338</ele>
        <time>2024-04-07T15:19:14Z</time>
      </trkpt>
      <trkpt lat="29.006999" lon="-13.698153">
        <ele>353.128</ele>
        <time>2024-04-07T15:19:18Z</time>
      </trkpt>
      <trkpt lat="29.007037" lon="-13.698108">
        <ele>352.546</ele>
        <time>2024-04-07T15:19:26Z</time>
      </trkpt>
      <trkpt lat="29.007070" lon="-13.698068">
        <ele>352.456</ele>
        <time>2024-04-07T15:19:31Z</time>
      </trkpt>
      <trkpt lat="29.007106" lon="-13.698035">
        <ele>352.159</ele>
        <time>2024-04-07T15:19:37Z</time>
      </trkpt>
      <trkpt lat="29.007146" lon="-13.698006">
        <ele>351.414</ele>
        <time>2024-04-07T15:19:47Z</time>
      </trkpt>
      <trkpt lat="29.007174" lon="-13.697957">
        <ele>350.209</ele>
        <time>2024-04-07T15:19:52Z</time>
      </trkpt>
      <trkpt lat="29.007207" lon="-13.697915">
        <ele>349.336</ele>
        <time>2024-04-07T15:19:57Z</time>
      </trkpt>
      <trkpt lat="29.007234" lon="-13.697870">
        <ele>348.671</ele>
        <time>2024-04-07T15:20:01Z</time>
      </trkpt>
      <trkpt lat="29.007259" lon="-13.697815">
        <ele>347.061</ele>
        <time>2024-04-07T15:20:06Z</time>
      </trkpt>
      <trkpt lat="29.007280" lon="-13.697762">
        <ele>346.380</ele>
        <time>2024-04-07T15:20:10Z</time>
      </trkpt>
      <trkpt lat="29.007311" lon="-13.697710">
        <ele>345.229</ele>
        <time>2024-04-07T15:20:14Z</time>
      </trkpt>
      <trkpt lat="29.009284" lon="-13.695331">
        <ele>345.168</ele>
        <time>2024-04-07T15:26:17.988Z</time>
      </trkpt>
      <trkpt lat="29.009282" lon="-13.695385">
        <ele>329.445</ele>
        <time>2024-04-07T15:26:21.988Z</time>
      </trkpt>
      <trkpt lat="29.009280" lon="-13.695441">
        <ele>326.935</ele>
        <time>2024-04-07T15:26:25.988Z</time>
      </trkpt>
      <trkpt lat="29.009283" lon="-13.695496">
        <ele>327.493</ele>
        <time>2024-04-07T15:26:29.988Z</time>
      </trkpt>
      <trkpt lat="29.009290" lon="-13.695551">
        <ele>327.411</ele>
        <time>2024-04-07T15:26:33.988Z</time>
      </trkpt>
      <trkpt lat="29.009296" lon="-13.695605">
        <ele>327.621</ele>
        <time>2024-04-07T15:26:37.988Z</time>
      </trkpt>
      <trkpt lat="29.009302" lon="-13.695659">
        <ele>327.503</ele>
        <time>2024-04-07T15:26:41.988Z</time>
      </trkpt>
      <trkpt lat="29.009315" lon="-13.695716">
        <ele>327.509</ele>
        <time>2024-04-07T15:26:45.988Z</time>
      </trkpt>
      <trkpt lat="29.009336" lon="-13.695765">
        <ele>327.352</ele>
        <time>2024-04-07T15:26:49.988Z</time>
      </trkpt>
      <trkpt lat="29.015515" lon="-13.692803">
        <ele>327.257</ele>
        <time>2024-04-07T15:39:44.991Z</time>
      </trkpt>
      <trkpt lat="29.015559" lon="-13.692829">
        <ele>313.397</ele>
        <time>2024-04-07T15:39:48.991Z</time>
      </trkpt>
      <trkpt lat="29.015604" lon="-13.692858">
        <ele>313.456</ele>
        <time>2024-04-07T15:39:52.991Z</time>
      </trkpt>
      <trkpt lat="29.015649" lon="-13.692889">
        <ele>313.485</ele>
        <time>2024-04-07T15:39:56.991Z</time>
      </trkpt>
      <trkpt lat="29.015694" lon="-13.692920">
        <ele>313.364</ele>
        <time>2024-04-07T15:40:00.991Z</time>
      </trkpt>
      <trkpt lat="29.015735" lon="-13.692949">
        <ele>313.371</ele>
        <time>2024-04-07T15:40:04.991Z</time>
      </trkpt>
      <trkpt lat="29.015773" lon="-13.692979">
        <ele>313.291</ele>
        <time>2024-04-07T15:40:08.991Z</time>
      </trkpt>
      <trkpt lat="29.015814" lon="-13.693006">
        <ele>313.019</ele>
        <time>2024-04-07T15:40:12.991Z</time>
      </trkpt>
      <trkpt lat="29.015858" lon="-13.693037">
        <ele>312.783</ele>
        <time>2024-04-07T15:40:16.991Z</time>
      </trkpt>
      <trkpt lat="29.015903" lon="-13.693071">
        <ele>312.525</ele>
        <time>2024-04-07T15:40:20.991Z</time>
      </trkpt>
      <trkpt lat="29.015941" lon="-13.693103">
        <ele>312.317</ele>
        <time>2024-04-07T15:40:24.991Z</time>
      </trkpt>
      <trkpt lat="29.015975" lon="-13.693141">
        <ele>312.309</ele>
        <time>2024-04-07T15:40:28.991Z</time>
      </trkpt>
      <trkpt lat="29.016016" lon="-13.693176">
        <ele>312.379</ele>
        <time>2024-04-07T15:40:32.991Z</time>
      </trkpt>
      <trkpt lat="29.016055" lon="-13.693210">
        <ele>312.514</ele>
        <time>2024-04-07T15:40:36.991Z</time>
      </trkpt>
      <trkpt lat="29.016096" lon="-13.693245">
        <ele>312.814</ele>
        <time>2024-04-07T15:40:40.991Z</time>
      </trkpt>
      <trkpt lat="29.016140" lon="-13.693283">
        <ele>313.583</ele>
        <time>2024-04-07T15:40:44.991Z</time>
      </trkpt>
      <trkpt lat="29.016173" lon="-13.693331">
        <ele>313.742</ele>
        <time>2024-04-07T15:40:48.991Z</time>
      </trkpt>
      <trkpt lat="29.016207" lon="-13.693372">
        <ele>314.211</ele>
        <time>2024-04-07T15:40:52.991Z</time>
      </trkpt>
      <trkpt lat="29.016242" lon="-13.693407">
        <ele>316.368</ele>
        <time>2024-04-07T15:41:10.991Z</time>
      </trkpt>
      <trkpt lat="29.027708" lon="-13.689233">
        <ele>316.348</ele>
        <time>2024-04-07T16:02:53.988Z</time>
      </trkpt>
      <trkpt lat="29.027744" lon="-13.689191">
        <ele>308.246</ele>
        <time>2024-04-07T16:02:58.988Z</time>
      </trkpt>
      <trkpt lat="29.027779" lon="-13.689150">
        <ele>308.219</ele>
        <time>2024-04-07T16:03:02.988Z</time>
      </trkpt>
      <trkpt lat="29.027808" lon="-13.689105">
        <ele>308.209</ele>
        <time>2024-04-07T16:03:06.988Z</time>
      </trkpt>
      <trkpt lat="29.027835" lon="-13.689062">
        <ele>308.319</ele>
        <time>2024-04-07T16:03:10.988Z</time>
      </trkpt>
      <trkpt lat="29.027876" lon="-13.689025">
        <ele>308.709</ele>
        <time>2024-04-07T16:03:14.988Z</time>
      </trkpt>
      <trkpt lat="29.027917" lon="-13.688991">
        <ele>308.812</ele>
        <time>2024-04-07T16:03:18.988Z</time>
      </trkpt>
      <trkpt lat="29.027946" lon="-13.688940">
        <ele>308.997</ele>
        <time>2024-04-07T16:03:22.988Z</time>
      </trkpt>
      <trkpt lat="29.027988" lon="-13.688898">
        <ele>309.197</ele>
        <time>2024-04-07T16:03:27.988Z</time>
      </trkpt>
      <trkpt lat="29.028027" lon="-13.688859">
        <ele>309.216</ele>
        <time>2024-04-07T16:03:31.988Z</time>
      </trkpt>
      <trkpt lat="29.028068" lon="-13.688824">
        <ele>309.395</ele>
        <time>2024-04-07T16:03:35.988Z</time>
      </trkpt>
      <trkpt lat="29.028105" lon="-13.688791">
        <ele>309.314</ele>
        <time>2024-04-07T16:03:39.988Z</time>
      </trkpt>
      <trkpt lat="29.028147" lon="-13.688758">
        <ele>309.331</ele>
        <time>2024-04-07T16:03:43.988Z</time>
      </trkpt>
      <trkpt lat="29.028192" lon="-13.688720">
        <ele>309.391</ele>
        <time>2024-04-07T16:03:48.988Z</time>
      </trkpt>
      <trkpt lat="29.028230" lon="-13.688682">
        <ele>309.389</ele>
        <time>2024-04-07T16:03:52.988Z</time>
      </trkpt>
      <trkpt lat="29.028278" lon="-13.688649">
        <ele>309.018</ele>
        <time>2024-04-07T16:03:57.988Z</time>
      </trkpt>
      <trkpt lat="29.028319" lon="-13.688605">
        <ele>308.998</ele>
        <time>2024-04-07T16:04:02.988Z</time>
      </trkpt>
      <trkpt lat="29.028357" lon="-13.688578">
        <ele>308.917</ele>
        <time>2024-04-07T16:04:06.988Z</time>
      </trkpt>
      <trkpt lat="29.028400" lon="-13.688556">
        <ele>309.309</ele>
        <time>2024-04-07T16:04:24.988Z</time>
      </trkpt>
      <trkpt lat="29.028447" lon="-13.688519">
        <ele>309.712</ele>
        <time>2024-04-07T16:04:29.988Z</time>
      </trkpt>
      <trkpt lat="29.028487" lon="-13.688475">
        <ele>309.777</ele>
        <time>2024-04-07T16:04:34.988Z</time>
      </trkpt>
      <trkpt lat="29.028524" lon="-13.688444">
        <ele>309.877</ele>
        <time>2024-04-07T16:04:38.988Z</time>
      </trkpt>
      <trkpt lat="29.028558" lon="-13.688409">
        <ele>309.826</ele>
        <time>2024-04-07T16:04:42.988Z</time>
      </trkpt>
    </trkseg>
  </trk></gpx>