<?xml version="1.0" encoding="UTF-8"?>
<gpx creator="Wikiloc - https://www.wikiloc.com" version="1.1" xmlns="http://www.topografix.com/GPX/1/1" xmlns:xsi="http://www.w3.org/2001/XMLSchema-instance" xsi:schemaLocation="http://www.topografix.com/GPX/1/1 http://www.topografix.com/GPX/1/1/gpx.xsd">
  <metadata>
    <name>Wikiloc - Teguise - Castillo de Santa Bárbara - Teguise ( Lanzarote) -...</name>
    <link href="https://www.wikiloc.com/hiking-trails/teguise-castillo-de-santa-barbara-teguise-lanzarote-143137063">
      <text>Teguise - Castillo de Santa Bárbara - Teguise ( Lanzarote) -... on Wikiloc</text>
    </link>
    <time>2023-08-09T11:50:22Z</time>
  </metadata>
  <trk>
    <name>Teguise - Castillo de Santa Bárbara - Teguise ( Lanzarote) -... - Wikiloc</name>
    <cmt></cmt>
    <desc></desc>
    <trkseg>
      <trkpt lat="29.059130" lon="-13.560179">
        <ele>317.952</ele>
        <time>2023-08-09T09:35:57Z</time>
      </trkpt>
      <trkpt lat="29.059120" lon="-13.560282">
        <ele>317.253</ele>
        <time>2023-08-09T09:36:13Z</time>
      </trkpt>
      <trkpt lat="29.059113" lon="-13.560166">
        <ele>316.508</ele>
        <time>2023-08-09T09:36:46Z</time>
      </trkpt>
      <trkpt lat="29.059212" lon="-13.560275">
        <ele>314.909</ele>
        <time>2023-08-09T09:38:12Z</time>
      </trkpt>
      <trkpt lat="29.059189" lon="-13.560326">
        <ele>311.786</ele>
        <time>2023-08-09T09:39:01Z</time>
      </trkpt>
      <trkpt lat="29.059286" lon="-13.560364">
        <ele>309.179</ele>
        <time>2023-08-09T09:39:23Z</time>
      </trkpt>
      <trkpt lat="29.059047" lon="-13.560660">
        <ele>312.738</ele>
        <time>2023-08-09T09:42:10Z</time>
      </trkpt>
      <trkpt lat="29.059121" lon="-13.560667">
        <ele>298.676</ele>
        <time>2023-08-09T09:42:12Z</time>
      </trkpt>
      <trkpt lat="29.058823" lon="-13.560741">
        <ele>224.538</ele>
        <time>2023-08-09T09:42:16Z</time>
      </trkpt>
      <trkpt lat="29.058768" lon="-13.560808">
        <ele>220.492</ele>
        <time>2023-08-09T09:42:39Z</time>
      </trkpt>
      <trkpt lat="29.058996" lon="-13.560677">
        <ele>241.315</ele>
        <time>2023-08-09T09:42:58Z</time>
      </trkpt>
      <trkpt lat="29.059120" lon="-13.560388">
        <ele>280.471</ele>
        <time>2023-08-09T09:43:14Z</time>
      </trkpt>
      <trkpt lat="29.059596" lon="-13.560266">
        <ele>300.228</ele>
        <time>2023-08-09T09:44:17Z</time>
      </trkpt>
      <trkpt lat="29.059522" lon="-13.560096">
        <ele>301.889</ele>
        <time>2023-08-09T09:44:39Z</time>
      </trkpt>
      <trkpt lat="29.059609" lon="-13.559956">
        <ele>308.506</ele>
        <time>2023-08-09T09:45:04Z</time>
      </trkpt>
      <trkpt lat="29.059542" lon="-13.560180">
        <ele>308.526</ele>
        <time>2023-08-09T09:48:33Z</time>
      </trkpt>
      <trkpt lat="29.060012" lon="-13.559647">
        <ele>309.809</ele>
        <time>2023-08-09T09:48:37Z</time>
      </trkpt>
      <trkpt lat="29.059597" lon="-13.559992">
        <ele>311.099</ele>
        <time>2023-08-09T09:48:49Z</time>
      </trkpt>
      <trkpt lat="29.059647" lon="-13.560009">
        <ele>313.382</ele>
        <time>2023-08-09T09:48:52Z</time>
      </trkpt>
      <trkpt lat="29.059534" lon="-13.560065">
        <ele>315.251</ele>
        <time>2023-08-09T09:48:55Z</time>
      </trkpt>
      <trkpt lat="29.059401" lon="-13.560012">
        <ele>308.819</ele>
        <time>2023-08-09T09:49:27Z</time>
      </trkpt>
      <trkpt lat="29.059321" lon="-13.559744">
        <ele>308.081</ele>
        <time>2023-08-09T09:49:51Z</time>
      </trkpt>
      <trkpt lat="29.059317" lon="-13.559820">
        <ele>307.715</ele>
        <time>2023-08-09T09:49:54Z</time>
      </trkpt>
      <trkpt lat="29.059407" lon="-13.559701">
        <ele>303.018</ele>
        <time>2023-08-09T09:50:05Z</time>
      </trkpt>
      <trkpt lat="29.059419" lon="-13.559754">
        <ele>305.274</ele>
        <time>2023-08-09T09:50:18Z</time>
      </trkpt>
      <trkpt lat="29.059310" lon="-13.559718">
        <ele>305.741</ele>
        <time>2023-08-09T09:50:23Z</time>
      </trkpt>
      <trkpt lat="29.059464" lon="-13.559920">
        <ele>306.962</ele>
        <time>2023-08-09T09:50:44Z</time>
      </trkpt>
      <trkpt lat="29.059613" lon="-13.559825">
        <ele>307.683</ele>
        <time>2023-08-09T09:51:01Z</time>
      </trkpt>
      <trkpt lat="29.059733" lon="-13.559612">
        <ele>306.911</ele>
        <time>2023-08-09T09:51:26Z</time>
      </trkpt>
      <trkpt lat="29.059598" lon="-13.558838">
        <ele>306.409</ele>
        <time>2023-08-09T09:52:29Z</time>
      </trkpt>
      <trkpt lat="29.059467" lon="-13.558782">
        <ele>306.767</ele>
        <time>2023-08-09T09:52:45Z</time>
      </trkpt>
      <trkpt lat="29.059016" lon="-13.558774">
        <ele>309.870</ele>
        <time>2023-08-09T09:53:24Z</time>
      </trkpt>
      <trkpt lat="29.058782" lon="-13.558077">
        <ele>317.219</ele>
        <time>2023-08-09T09:54:21Z</time>
      </trkpt>
      <trkpt lat="29.058786" lon="-13.557803">
        <ele>317.767</ele>
        <time>2023-08-09T09:54:43Z</time>
      </trkpt>
      <trkpt lat="29.059015" lon="-13.557662">
        <ele>315.589</ele>
        <time>2023-08-09T09:55:03Z</time>
      </trkpt>
      <trkpt lat="29.059529" lon="-13.557017">
        <ele>318.643</ele>
        <time>2023-08-09T09:56:08Z</time>
      </trkpt>
      <trkpt lat="29.059517" lon="-13.556860">
        <ele>318.236</ele>
        <time>2023-08-09T09:56:22Z</time>
      </trkpt>
      <trkpt lat="29.059663" lon="-13.556569">
        <ele>322.612</ele>
        <time>2023-08-09T09:57:51Z</time>
      </trkpt>
      <trkpt lat="29.059634" lon="-13.556410">
        <ele>322.799</ele>
        <time>2023-08-09T09:58:13Z</time>
      </trkpt>
      <trkpt lat="29.057904" lon="-13.555752">
        <ele>334.965</ele>
        <time>2023-08-09T10:01:27Z</time>
      </trkpt>
      <trkpt lat="29.057712" lon="-13.555490">
        <ele>337.768</ele>
        <time>2023-08-09T10:01:51Z</time>
      </trkpt>
      <trkpt lat="29.057136" lon="-13.554292">
        <ele>347.814</ele>
        <time>2023-08-09T10:03:41Z</time>
      </trkpt>
      <trkpt lat="29.056889" lon="-13.554226">
        <ele>354.209</ele>
        <time>2023-08-09T10:04:05Z</time>
      </trkpt>
      <trkpt lat="29.056048" lon="-13.554409">
        <ele>365.057</ele>
        <time>2023-08-09T10:05:24Z</time>
      </trkpt>
      <trkpt lat="29.055756" lon="-13.554310">
        <ele>366.680</ele>
        <time>2023-08-09T10:05:53Z</time>
      </trkpt>
      <trkpt lat="29.055662" lon="-13.554159">
        <ele>368.169</ele>
        <time>2023-08-09T10:06:08Z</time>
      </trkpt>
      <trkpt lat="29.055476" lon="-13.553316">
        <ele>370.837</ele>
        <time>2023-08-09T10:07:29Z</time>
      </trkpt>
      <trkpt lat="29.055125" lon="-13.551416">
        <ele>386.989</ele>
        <time>2023-08-09T10:10:00Z</time>
      </trkpt>
      <trkpt lat="29.055004" lon="-13.551233">
        <ele>389.083</ele>
        <time>2023-08-09T10:10:19Z</time>
      </trkpt>
      <trkpt lat="29.054793" lon="-13.551082">
        <ele>395.546</ele>
        <time>2023-08-09T10:10:43Z</time>
      </trkpt>
      <trkpt lat="29.055558" lon="-13.550155">
        <ele>406.832</ele>
        <time>2023-08-09T10:14:35Z</time>
      </trkpt>
      <trkpt lat="29.055952" lon="-13.550334">
        <ele>416.179</ele>
        <time>2023-08-09T10:16:48Z</time>
      </trkpt>
      <trkpt lat="29.056061" lon="-13.550595">
        <ele>419.882</ele>
        <time>2023-08-09T10:17:08Z</time>
      </trkpt>
      <trkpt lat="29.055823" lon="-13.550286">
        <ele>426.443</ele>
        <time>2023-08-09T10:18:54Z</time>
      </trkpt>
      <trkpt lat="29.055769" lon="-13.549941">
        <ele>425.717</ele>
        <time>2023-08-09T10:19:25Z</time>
      </trkpt>
      <trkpt lat="29.055879" lon="-13.549750">
        <ele>428.009</ele>
        <time>2023-08-09T10:19:53Z</time>
      </trkpt>
      <trkpt lat="29.055856" lon="-13.549588">
        <ele>428.459</ele>
        <time>2023-08-09T10:20:55Z</time>
      </trkpt>
      <trkpt lat="29.055783" lon="-13.549520">
        <ele>428.042</ele>
        <time>2023-08-09T10:21:14Z</time>
      </trkpt>
      <trkpt lat="29.055934" lon="-13.549059">
        <ele>427.861</ele>
        <time>2023-08-09T10:21:57Z</time>
      </trkpt>
      <trkpt lat="29.056139" lon="-13.548728">
        <ele>426.369</ele>
        <time>2023-08-09T10:22:59Z</time>
      </trkpt>
      <trkpt lat="29.056716" lon="-13.548263">
        <ele>427.671</ele>
        <time>2023-08-09T10:24:06Z</time>
      </trkpt>
      <trkpt lat="29.056867" lon="-13.548247">
        <ele>428.875</ele>
        <time>2023-08-09T10:24:56Z</time>
      </trkpt>
      <trkpt lat="29.056936" lon="-13.548091">
        <ele>428.718</ele>
        <time>2023-08-09T10:26:09Z</time>
      </trkpt>
      <trkpt lat="29.056963" lon="-13.548189">
        <ele>430.834</ele>
        <time>2023-08-09T10:27:51Z</time>
      </trkpt>
      <trkpt lat="29.057567" lon="-13.548377">
        <ele>434.861</ele>
        <time>2023-08-09T10:29:04Z</time>
      </trkpt>
      <trkpt lat="29.057767" lon="-13.548376">
        <ele>437.157</ele>
        <time>2023-08-09T10:29:30Z</time>
      </trkpt>
      <trkpt lat="29.058068" lon="-13.549081">
        <ele>434.400</ele>
        <time>2023-08-09T10:32:24Z</time>
      </trkpt>
      <trkpt lat="29.058001" lon="-13.549561">
        <ele>434.920</ele>
        <time>2023-08-09T10:33:19Z</time>
      </trkpt>
      <trkpt lat="29.057692" lon="-13.550227">
        <ele>437.309</ele>
        <time>2023-08-09T10:35:39Z</time>
      </trkpt>
      <trkpt lat="29.057761" lon="-13.550309">
        <ele>436.696</ele>
        <time>2023-08-09T10:35:51Z</time>
      </trkpt>
      <trkpt lat="29.057909" lon="-13.550287">
        <ele>436.719</ele>
        <time>2023-08-09T10:37:00Z</time>
      </trkpt>
      <trkpt lat="29.057941" lon="-13.550166">
        <ele>455.178</ele>
        <time>2023-08-09T10:39:18Z</time>
      </trkpt>
      <trkpt lat="29.057817" lon="-13.550090">
        <ele>455.156</ele>
        <time>2023-08-09T10:39:24Z</time>
      </trkpt>
      <trkpt lat="29.057795" lon="-13.549987">
        <ele>452.088</ele>
        <time>2023-08-09T10:39:28Z</time>
      </trkpt>
      <trkpt lat="29.057965" lon="-13.550164">
        <ele>450.542</ele>
        <time>2023-08-09T10:50:51Z</time>
      </trkpt>
      <trkpt lat="29.058004" lon="-13.549997">
        <ele>437.075</ele>
        <time>2023-08-09T10:50:53Z</time>
      </trkpt>
      <trkpt lat="29.057940" lon="-13.550073">
        <ele>441.911</ele>
        <time>2023-08-09T10:50:54Z</time>
      </trkpt>
      <trkpt lat="29.057939" lon="-13.549976">
        <ele>447.128</ele>
        <time>2023-08-09T10:51:04Z</time>
      </trkpt>
      <trkpt lat="29.057980" lon="-13.550080">
        <ele>447.937</ele>
        <time>2023-08-09T10:52:10Z</time>
      </trkpt>
      <trkpt lat="29.057830" lon="-13.550193">
        <ele>451.149</ele>
        <time>2023-08-09T10:53:36Z</time>
      </trkpt>
      <trkpt lat="29.058069" lon="-13.550135">
        <ele>445.413</ele>
        <time>2023-08-09T10:55:23Z</time>
      </trkpt>
      <trkpt lat="29.058081" lon="-13.549913">
        <ele>446.109</ele>
        <time>2023-08-09T10:56:27Z</time>
      </trkpt>
      <trkpt lat="29.057952" lon="-13.549958">
        <ele>446.854</ele>
        <time>2023-08-09T10:57:13Z</time>
      </trkpt>
      <trkpt lat="29.057909" lon="-13.549914">
        <ele>446.897</ele>
        <time>2023-08-09T10:57:18Z</time>
      </trkpt>
      <trkpt lat="29.057904" lon="-13.550024">
        <ele>450.266</ele>
        <time>2023-08-09T10:58:11Z</time>
      </trkpt>
      <trkpt lat="29.057971" lon="-13.550087">
        <ele>450.274</ele>
        <time>2023-08-09T10:58:23Z</time>
      </trkpt>
      <trkpt lat="29.058075" lon="-13.549939">
        <ele>445.246</ele>
        <time>2023-08-09T10:58:35Z</time>
      </trkpt>
      <trkpt lat="29.058133" lon="-13.550209">
        <ele>445.140</ele>
        <time>2023-08-09T11:00:40Z</time>
      </trkpt>
      <trkpt lat="29.057834" lon="-13.550352">
        <ele>499.283</ele>
        <time>2023-08-09T11:02:25Z</time>
      </trkpt>
      <trkpt lat="29.057879" lon="-13.550216">
        <ele>454.329</ele>
        <time>2023-08-09T11:03:03Z</time>
      </trkpt>
      <trkpt lat="29.057921" lon="-13.550237">
        <ele>452.356</ele>
        <time>2023-08-09T11:03:10Z</time>
      </trkpt>
      <trkpt lat="29.057764" lon="-13.550381">
        <ele>442.219</ele>
        <time>2023-08-09T11:03:31Z</time>
      </trkpt>
      <trkpt lat="29.057853" lon="-13.550412">
        <ele>441.609</ele>
        <time>2023-08-09T11:03:50Z</time>
      </trkpt>
      <trkpt lat="29.058042" lon="-13.550314">
        <ele>440.419</ele>
        <time>2023-08-09T11:04:11Z</time>
      </trkpt>
      <trkpt lat="29.058077" lon="-13.550353">
        <ele>436.009</ele>
        <time>2023-08-09T11:04:48Z</time>
      </trkpt>
      <trkpt lat="29.057942" lon="-13.550582">
        <ele>435.332</ele>
        <time>2023-08-09T11:05:33Z</time>
      </trkpt>
      <trkpt lat="29.058145" lon="-13.550579">
        <ele>432.135</ele>
        <time>2023-08-09T11:07:56Z</time>
      </trkpt>
      <trkpt lat="29.058035" lon="-13.550925">
        <ele>412.474</ele>
        <time>2023-08-09T11:08:47Z</time>
      </trkpt>
      <trkpt lat="29.058563" lon="-13.551024">
        <ele>394.922</ele>
        <time>2023-08-09T11:12:26Z</time>
      </trkpt>
      <trkpt lat="29.058668" lon="-13.551221">
        <ele>390.034</ele>
        <time>2023-08-09T11:12:49Z</time>
      </trkpt>
      <trkpt lat="29.059278" lon="-13.551863">
        <ele>364.718</ele>
        <time>2023-08-09T11:14:22Z</time>
      </trkpt>
      <trkpt lat="29.059467" lon="-13.552274">
        <ele>357.611</ele>
        <time>2023-08-09T11:14:58Z</time>
      </trkpt>
      <trkpt lat="29.059674" lon="-13.553202">
        <ele>343.797</ele>
        <time>2023-08-09T11:16:13Z</time>
      </trkpt>
      <trkpt lat="29.059949" lon="-13.553506">
        <ele>343.974</ele>
        <time>2023-08-09T11:16:47Z</time>
      </trkpt>
      <trkpt lat="29.060181" lon="-13.554038">
        <ele>336.775</ele>
        <time>2023-08-09T11:17:37Z</time>
      </trkpt>
      <trkpt lat="29.060130" lon="-13.554661">
        <ele>327.228</ele>
        <time>2023-08-09T11:18:28Z</time>
      </trkpt>
      <trkpt lat="29.060213" lon="-13.554914">
        <ele>323.820</ele>
        <time>2023-08-09T11:18:58Z</time>
      </trkpt>
      <trkpt lat="29.060137" lon="-13.555410">
        <ele>322.509</ele>
        <time>2023-08-09T11:19:44Z</time>
      </trkpt>
      <trkpt lat="29.059907" lon="-13.555625">
        <ele>323.718</ele>
        <time>2023-08-09T11:20:28Z</time>
      </trkpt>
      <trkpt lat="29.059748" lon="-13.555674">
        <ele>325.971</ele>
        <time>2023-08-09T11:20:48Z</time>
      </trkpt>
      <trkpt lat="29.059595" lon="-13.555886">
        <ele>326.990</ele>
        <time>2023-08-09T11:21:15Z</time>
      </trkpt>
      <trkpt lat="29.059611" lon="-13.555938">
        <ele>326.988</ele>
        <time>2023-08-09T11:21:23Z</time>
      </trkpt>
      <trkpt lat="29.059417" lon="-13.555972">
        <ele>324.520</ele>
        <time>2023-08-09T11:21:53Z</time>
      </trkpt>
      <trkpt lat="29.059293" lon="-13.556154">
        <ele>324.944</ele>
        <time>2023-08-09T11:22:12Z</time>
      </trkpt>
      <trkpt lat="29.059364" lon="-13.556311">
        <ele>324.867</ele>
        <time>2023-08-09T11:22:30Z</time>
      </trkpt>
      <trkpt lat="29.059669" lon="-13.556488">
        <ele>319.483</ele>
        <time>2023-08-09T11:22:59Z</time>
      </trkpt>
      <trkpt lat="29.059700" lon="-13.556581">
        <ele>319.220</ele>
        <time>2023-08-09T11:23:07Z</time>
      </trkpt>
      <trkpt lat="29.059564" lon="-13.556828">
        <ele>316.855</ele>
        <time>2023-08-09T11:23:35Z</time>
      </trkpt>
      <trkpt lat="29.059267" lon="-13.557157">
        <ele>321.307</ele>
        <time>2023-08-09T11:24:13Z</time>
      </trkpt>
      <trkpt lat="29.059223" lon="-13.557423">
        <ele>321.817</ele>
        <time>2023-08-09T11:24:50Z</time>
      </trkpt>
      <trkpt lat="29.059581" lon="-13.556933">
        <ele>320.809</ele>
        <time>2023-08-09T11:26:01Z</time>
      </trkpt>
      <trkpt lat="29.059707" lon="-13.557370">
        <ele>317.846</ele>
        <time>2023-08-09T11:27:16Z</time>
      </trkpt>
      <trkpt lat="29.059772" lon="-13.557945">
        <ele>311.879</ele>
        <time>2023-08-09T11:28:16Z</time>
      </trkpt>
      <trkpt lat="29.059856" lon="-13.558021">
        <ele>311.628</ele>
        <time>2023-08-09T11:28:25Z</time>
      </trkpt>
      <trkpt lat="29.060139" lon="-13.558022">
        <ele>310.536</ele>
        <time>2023-08-09T11:28:57Z</time>
      </trkpt>
      <trkpt lat="29.060271" lon="-13.557938">
        <ele>315.378</ele>
        <time>2023-08-09T11:29:09Z</time>
      </trkpt>
      <trkpt lat="29.060351" lon="-13.558128">
        <ele>316.352</ele>
        <time>2023-08-09T11:29:33Z</time>
      </trkpt>
      <trkpt lat="29.060434" lon="-13.558085">
        <ele>316.575</ele>
        <time>2023-08-09T11:30:05Z</time>
      </trkpt>
      <trkpt lat="29.060349" lon="-13.558128">
        <ele>314.431</ele>
        <time>2023-08-09T11:30:28Z</time>
      </trkpt>
      <trkpt lat="29.060299" lon="-13.558034">
        <ele>313.438</ele>
        <time>2023-08-09T11:31:33Z</time>
      </trkpt>
      <trkpt lat="29.059888" lon="-13.558055">
        <ele>310.962</ele>
        <time>2023-08-09T11:32:20Z</time>
      </trkpt>
      <trkpt lat="29.059800" lon="-13.558004">
        <ele>310.983</ele>
        <time>2023-08-09T11:32:29Z</time>
      </trkpt>
      <trkpt lat="29.059771" lon="-13.557515">
        <ele>315.811</ele>
        <time>2023-08-09T11:34:02Z</time>
      </trkpt>
      <trkpt lat="29.059788" lon="-13.557822">
        <ele>315.809</ele>
        <time>2023-08-09T11:44:28Z</time>
      </trkpt>
      <trkpt lat="29.059904" lon="-13.558022">
        <ele>313.577</ele>
        <time>2023-08-09T11:44:45Z</time>
      </trkpt>
      <trkpt lat="29.059760" lon="-13.558191">
        <ele>315.040</ele>
        <time>2023-08-09T11:45:01Z</time>
      </trkpt>
      <trkpt lat="29.059604" lon="-13.558846">
        <ele>310.019</ele>
        <time>2023-08-09T11:45:50Z</time>
      </trkpt>
      <trkpt lat="29.059709" lon="-13.559509">
        <ele>311.537</ele>
        <time>2023-08-09T11:46:43Z</time>
      </trkpt>
      <trkpt lat="29.059269" lon="-13.559550">
        <ele>309.769</ele>
        <time>2023-08-09T11:47:22Z</time>
      </trkpt>
      <trkpt lat="29.058862" lon="-13.559420">
        <ele>311.273</ele>
        <time>2023-08-09T11:47:55Z</time>
      </trkpt>
      <trkpt lat="29.058371" lon="-13.559505">
        <ele>315.746</ele>
        <time>2023-08-09T11:48:39Z</time>
      </trkpt>
      <trkpt lat="29.058188" lon="-13.559337">
        <ele>316.312</ele>
        <time>2023-08-09T11:48:59Z</time>
      </trkpt>
      <trkpt lat="29.057991" lon="-13.559331">
        <ele>318.359</ele>
        <time>2023-08-09T11:49:14Z</time>
      </trkpt>
      <trkpt lat="29.058104" lon="-13.559801">
        <ele>313.284</ele>
        <time>2023-08-09T11:49:53Z</time>
      </trkpt>
      <trkpt lat="29.057881" lon="-13.560019">
        <ele>309.307</ele>
        <time>2023-08-09T11:50:22Z</time>
      </trkpt>
    </trkseg>
  </trk></gpx>