<?xml version="1.0" encoding="UTF-8"?>
<gpx version="1.1" creator="Aventuras en Cada Paso" xmlns="http://www.topografix.com/GPX/1/1">
  <metadata>
    <name>Costa de Gran Tarajal – Ruta Costera</name>
    <desc>Paseo costero por el sur entre playas tranquilas y acantilados de colores ocres. Zona alejada del turismo masivo con vistas al océano Atlántico.</desc>
    <author><name>Aventuras en Cada Paso</name></author>
    <time>2026-07-08T08:12:58.178Z</time>
    <keywords>Fuerteventura, Senderismo, Fácil, senderismo Canarias</keywords>
  </metadata>
  <wpt lat="28.2164" lon="-14.0133">
    <name>Costa de Gran Tarajal – Ruta Costera</name>
    <desc>Paseo costero por el sur entre playas tranquilas y acantilados de colores ocres. Zona alejada del turismo masivo con vistas al océano Atlántico. | Isla: Fuerteventura | Tipo: Senderismo | Dificultad: Fácil | Distancia: 9km | Duración: 2-4 horas</desc>
    <type>Senderismo</type>
    <extensions>
      <isla>Fuerteventura</isla>
      <dificultad>Fácil</dificultad>
      <distancia>9</distancia>
      <duracion>2-4 horas</duracion>
    </extensions>
  </wpt>
</gpx>