<?xml version="1.0" encoding="UTF-8"?>
<gpx creator="Wikiloc - https://www.wikiloc.com" version="1.1" xmlns="http://www.topografix.com/GPX/1/1" xmlns:xsi="http://www.w3.org/2001/XMLSchema-instance" xsi:schemaLocation="http://www.topografix.com/GPX/1/1 http://www.topografix.com/GPX/1/1/gpx.xsd">
  <metadata>
    <name>Wikiloc - Fuerteventura: de Bayuyo a Calderón Hondo</name>
    <link href="https://www.wikiloc.com/hiking-trails/fuerteventura-de-bayuyo-a-calderon-hondo-124672629">
      <text>Fuerteventura: de Bayuyo a Calderón Hondo - Wikiloc on Wikiloc</text>
    </link>
    <time>2022-08-14T08:58:49Z</time>
  </metadata>
  <trk>
    <name>Fuerteventura: de Bayuyo a Calderón Hondo - Wikiloc</name>
    <cmt></cmt>
    <desc></desc>
    <trkseg>
      <trkpt lat="28.722308" lon="-13.889956">
        <ele>89.539</ele>
        <time>2022-08-14T06:03:01Z</time>
      </trkpt>
      <trkpt lat="28.721276" lon="-13.888244">
        <ele>87.201</ele>
        <time>2022-08-14T06:05:41Z</time>
      </trkpt>
      <trkpt lat="28.720978" lon="-13.887988">
        <ele>85.221</ele>
        <time>2022-08-14T06:06:07Z</time>
      </trkpt>
      <trkpt lat="28.720793" lon="-13.887995">
        <ele>86.009</ele>
        <time>2022-08-14T06:06:26Z</time>
      </trkpt>
      <trkpt lat="28.720387" lon="-13.888690">
        <ele>21.274</ele>
        <time>2022-08-14T06:09:46Z</time>
      </trkpt>
      <trkpt lat="28.720097" lon="-13.888893">
        <ele>123.265</ele>
        <time>2022-08-14T06:11:27Z</time>
      </trkpt>
      <trkpt lat="28.719633" lon="-13.891082">
        <ele>18.797</ele>
        <time>2022-08-14T06:17:36Z</time>
      </trkpt>
      <trkpt lat="28.718524" lon="-13.892184">
        <ele>25.119</ele>
        <time>2022-08-14T06:20:29Z</time>
      </trkpt>
      <trkpt lat="28.717670" lon="-13.892605">
        <ele>17.170</ele>
        <time>2022-08-14T06:22:32Z</time>
      </trkpt>
      <trkpt lat="28.716755" lon="-13.892641">
        <ele>258.575</ele>
        <time>2022-08-14T06:24:44Z</time>
      </trkpt>
      <trkpt lat="28.715938" lon="-13.892116">
        <ele>265.139</ele>
        <time>2022-08-14T06:26:13Z</time>
      </trkpt>
      <trkpt lat="28.715383" lon="-13.892084">
        <ele>266.575</ele>
        <time>2022-08-14T06:27:20Z</time>
      </trkpt>
      <trkpt lat="28.713742" lon="-13.893396">
        <ele>259.912</ele>
        <time>2022-08-14T06:30:48Z</time>
      </trkpt>
      <trkpt lat="28.713009" lon="-13.895767">
        <ele>244.194</ele>
        <time>2022-08-14T06:33:37Z</time>
      </trkpt>
      <trkpt lat="28.712950" lon="-13.897054">
        <ele>225.257</ele>
        <time>2022-08-14T06:35:21Z</time>
      </trkpt>
      <trkpt lat="28.712668" lon="-13.898047">
        <ele>206.522</ele>
        <time>2022-08-14T06:36:30Z</time>
      </trkpt>
      <trkpt lat="28.713057" lon="-13.898484">
        <ele>188.509</ele>
        <time>2022-08-14T06:37:22Z</time>
      </trkpt>
      <trkpt lat="28.713212" lon="-13.899104">
        <ele>175.090</ele>
        <time>2022-08-14T06:38:08Z</time>
      </trkpt>
      <trkpt lat="28.713161" lon="-13.899525">
        <ele>171.011</ele>
        <time>2022-08-14T06:38:36Z</time>
      </trkpt>
      <trkpt lat="28.713402" lon="-13.900104">
        <ele>154.393</ele>
        <time>2022-08-14T06:39:36Z</time>
      </trkpt>
      <trkpt lat="28.713333" lon="-13.900306">
        <ele>149.975</ele>
        <time>2022-08-14T06:39:58Z</time>
      </trkpt>
      <trkpt lat="28.713058" lon="-13.900583">
        <ele>140.966</ele>
        <time>2022-08-14T06:40:54Z</time>
      </trkpt>
      <trkpt lat="28.712726" lon="-13.900400">
        <ele>139.951</ele>
        <time>2022-08-14T06:41:21Z</time>
      </trkpt>
      <trkpt lat="28.712375" lon="-13.900557">
        <ele>142.515</ele>
        <time>2022-08-14T06:41:49Z</time>
      </trkpt>
      <trkpt lat="28.712213" lon="-13.900921">
        <ele>142.741</ele>
        <time>2022-08-14T06:42:14Z</time>
      </trkpt>
      <trkpt lat="28.712227" lon="-13.901560">
        <ele>138.678</ele>
        <time>2022-08-14T06:42:56Z</time>
      </trkpt>
      <trkpt lat="28.712058" lon="-13.901649">
        <ele>136.663</ele>
        <time>2022-08-14T06:43:35Z</time>
      </trkpt>
      <trkpt lat="28.711137" lon="-13.901676">
        <ele>125.044</ele>
        <time>2022-08-14T06:44:54Z</time>
      </trkpt>
      <trkpt lat="28.710249" lon="-13.901513">
        <ele>124.118</ele>
        <time>2022-08-14T06:50:36Z</time>
      </trkpt>
      <trkpt lat="28.709720" lon="-13.901693">
        <ele>124.809</ele>
        <time>2022-08-14T06:51:18Z</time>
      </trkpt>
      <trkpt lat="28.709546" lon="-13.901618">
        <ele>125.117</ele>
        <time>2022-08-14T06:52:12Z</time>
      </trkpt>
      <trkpt lat="28.708648" lon="-13.901918">
        <ele>122.578</ele>
        <time>2022-08-14T06:53:21Z</time>
      </trkpt>
      <trkpt lat="28.707933" lon="-13.902618">
        <ele>117.630</ele>
        <time>2022-08-14T06:54:29Z</time>
      </trkpt>
      <trkpt lat="28.707439" lon="-13.902890">
        <ele>116.842</ele>
        <time>2022-08-14T06:56:50Z</time>
      </trkpt>
      <trkpt lat="28.707065" lon="-13.902863">
        <ele>125.283</ele>
        <time>2022-08-14T06:57:53Z</time>
      </trkpt>
      <trkpt lat="28.706956" lon="-13.903037">
        <ele>135.548</ele>
        <time>2022-08-14T06:58:41Z</time>
      </trkpt>
      <trkpt lat="28.707314" lon="-13.903499">
        <ele>143.272</ele>
        <time>2022-08-14T06:59:55Z</time>
      </trkpt>
      <trkpt lat="28.707624" lon="-13.903726">
        <ele>151.328</ele>
        <time>2022-08-14T07:00:53Z</time>
      </trkpt>
      <trkpt lat="28.708168" lon="-13.903759">
        <ele>163.685</ele>
        <time>2022-08-14T07:02:06Z</time>
      </trkpt>
      <trkpt lat="28.708330" lon="-13.904559">
        <ele>173.085</ele>
        <time>2022-08-14T07:04:31Z</time>
      </trkpt>
      <trkpt lat="28.708051" lon="-13.905986">
        <ele>214.789</ele>
        <time>2022-08-14T07:10:13Z</time>
      </trkpt>
      <trkpt lat="28.707667" lon="-13.906411">
        <ele>194.117</ele>
        <time>2022-08-14T07:12:06Z</time>
      </trkpt>
      <trkpt lat="28.707297" lon="-13.907150">
        <ele>195.709</ele>
        <time>2022-08-14T07:13:25Z</time>
      </trkpt>
      <trkpt lat="28.706909" lon="-13.908807">
        <ele>210.159</ele>
        <time>2022-08-14T07:15:43Z</time>
      </trkpt>
      <trkpt lat="28.706268" lon="-13.909832">
        <ele>222.010</ele>
        <time>2022-08-14T07:17:09Z</time>
      </trkpt>
      <trkpt lat="28.705945" lon="-13.910043">
        <ele>231.632</ele>
        <time>2022-08-14T07:18:06Z</time>
      </trkpt>
      <trkpt lat="28.705222" lon="-13.909918">
        <ele>224.894</ele>
        <time>2022-08-14T07:20:09Z</time>
      </trkpt>
      <trkpt lat="28.703989" lon="-13.909501">
        <ele>218.895</ele>
        <time>2022-08-14T07:23:29Z</time>
      </trkpt>
      <trkpt lat="28.703195" lon="-13.908966">
        <ele>241.260</ele>
        <time>2022-08-14T07:25:48Z</time>
      </trkpt>
      <trkpt lat="28.702869" lon="-13.909185">
        <ele>32.244</ele>
        <time>2022-08-14T07:27:44Z</time>
      </trkpt>
      <trkpt lat="28.702138" lon="-13.910145">
        <ele>31.930</ele>
        <time>2022-08-14T07:29:09Z</time>
      </trkpt>
      <trkpt lat="28.701719" lon="-13.911545">
        <ele>32.017</ele>
        <time>2022-08-14T07:30:50Z</time>
      </trkpt>
      <trkpt lat="28.701968" lon="-13.912765">
        <ele>211.617</ele>
        <time>2022-08-14T07:33:00Z</time>
      </trkpt>
      <trkpt lat="28.701989" lon="-13.913827">
        <ele>182.687</ele>
        <time>2022-08-14T07:34:50Z</time>
      </trkpt>
      <trkpt lat="28.702245" lon="-13.914127">
        <ele>178.715</ele>
        <time>2022-08-14T07:35:14Z</time>
      </trkpt>
      <trkpt lat="28.702932" lon="-13.914459">
        <ele>177.209</ele>
        <time>2022-08-14T07:36:07Z</time>
      </trkpt>
      <trkpt lat="28.703158" lon="-13.914790">
        <ele>177.812</ele>
        <time>2022-08-14T07:36:36Z</time>
      </trkpt>
      <trkpt lat="28.701363" lon="-13.915918">
        <ele>186.393</ele>
        <time>2022-08-14T07:39:07Z</time>
      </trkpt>
      <trkpt lat="28.701391" lon="-13.916555">
        <ele>187.255</ele>
        <time>2022-08-14T07:39:44Z</time>
      </trkpt>
      <trkpt lat="28.701170" lon="-13.917570">
        <ele>189.817</ele>
        <time>2022-08-14T07:40:53Z</time>
      </trkpt>
      <trkpt lat="28.701241" lon="-13.917986">
        <ele>189.618</ele>
        <time>2022-08-14T07:41:17Z</time>
      </trkpt>
      <trkpt lat="28.701634" lon="-13.918682">
        <ele>192.693</ele>
        <time>2022-08-14T07:42:26Z</time>
      </trkpt>
      <trkpt lat="28.701641" lon="-13.919303">
        <ele>198.247</ele>
        <time>2022-08-14T07:43:16Z</time>
      </trkpt>
      <trkpt lat="28.701282" lon="-13.919344">
        <ele>217.423</ele>
        <time>2022-08-14T07:44:21Z</time>
      </trkpt>
      <trkpt lat="28.701264" lon="-13.919129">
        <ele>223.320</ele>
        <time>2022-08-14T07:48:13Z</time>
      </trkpt>
      <trkpt lat="28.700636" lon="-13.918694">
        <ele>229.096</ele>
        <time>2022-08-14T07:49:28Z</time>
      </trkpt>
      <trkpt lat="28.699890" lon="-13.918709">
        <ele>234.531</ele>
        <time>2022-08-14T07:51:15Z</time>
      </trkpt>
      <trkpt lat="28.699365" lon="-13.918938">
        <ele>242.624</ele>
        <time>2022-08-14T07:52:47Z</time>
      </trkpt>
      <trkpt lat="28.698753" lon="-13.919718">
        <ele>261.109</ele>
        <time>2022-08-14T07:54:30Z</time>
      </trkpt>
      <trkpt lat="28.698637" lon="-13.920748">
        <ele>269.420</ele>
        <time>2022-08-14T07:55:50Z</time>
      </trkpt>
      <trkpt lat="28.699420" lon="-13.921651">
        <ele>265.271</ele>
        <time>2022-08-14T07:58:05Z</time>
      </trkpt>
      <trkpt lat="28.699929" lon="-13.921875">
        <ele>254.533</ele>
        <time>2022-08-14T07:59:15Z</time>
      </trkpt>
      <trkpt lat="28.700300" lon="-13.921821">
        <ele>256.085</ele>
        <time>2022-08-14T07:59:44Z</time>
      </trkpt>
      <trkpt lat="28.700815" lon="-13.921593">
        <ele>252.336</ele>
        <time>2022-08-14T08:00:28Z</time>
      </trkpt>
      <trkpt lat="28.701342" lon="-13.921007">
        <ele>241.441</ele>
        <time>2022-08-14T08:01:56Z</time>
      </trkpt>
      <trkpt lat="28.701449" lon="-13.920182">
        <ele>224.085</ele>
        <time>2022-08-14T08:06:13Z</time>
      </trkpt>
      <trkpt lat="28.701296" lon="-13.919364">
        <ele>227.151</ele>
        <time>2022-08-14T08:08:00Z</time>
      </trkpt>
      <trkpt lat="28.701665" lon="-13.919360">
        <ele>216.048</ele>
        <time>2022-08-14T08:11:30Z</time>
      </trkpt>
      <trkpt lat="28.702853" lon="-13.917785">
        <ele>182.796</ele>
        <time>2022-08-14T08:14:05Z</time>
      </trkpt>
      <trkpt lat="28.702560" lon="-13.917317">
        <ele>185.931</ele>
        <time>2022-08-14T08:14:53Z</time>
      </trkpt>
      <trkpt lat="28.702665" lon="-13.916711">
        <ele>180.624</ele>
        <time>2022-08-14T08:15:30Z</time>
      </trkpt>
      <trkpt lat="28.702489" lon="-13.916116">
        <ele>178.409</ele>
        <time>2022-08-14T08:16:15Z</time>
      </trkpt>
      <trkpt lat="28.702951" lon="-13.914976">
        <ele>177.660</ele>
        <time>2022-08-14T08:17:45Z</time>
      </trkpt>
      <trkpt lat="28.703781" lon="-13.914448">
        <ele>175.711</ele>
        <time>2022-08-14T08:18:52Z</time>
      </trkpt>
      <trkpt lat="28.704880" lon="-13.914171">
        <ele>167.523</ele>
        <time>2022-08-14T08:20:06Z</time>
      </trkpt>
      <trkpt lat="28.705828" lon="-13.914127">
        <ele>166.085</ele>
        <time>2022-08-14T08:21:08Z</time>
      </trkpt>
      <trkpt lat="28.706185" lon="-13.913952">
        <ele>165.056</ele>
        <time>2022-08-14T08:21:52Z</time>
      </trkpt>
      <trkpt lat="28.707374" lon="-13.912615">
        <ele>152.361</ele>
        <time>2022-08-14T08:23:45Z</time>
      </trkpt>
      <trkpt lat="28.707963" lon="-13.910598">
        <ele>140.925</ele>
        <time>2022-08-14T08:25:55Z</time>
      </trkpt>
      <trkpt lat="28.708623" lon="-13.909556">
        <ele>136.251</ele>
        <time>2022-08-14T08:27:11Z</time>
      </trkpt>
      <trkpt lat="28.710471" lon="-13.909172">
        <ele>122.988</ele>
        <time>2022-08-14T08:29:10Z</time>
      </trkpt>
      <trkpt lat="28.712094" lon="-13.908588">
        <ele>116.516</ele>
        <time>2022-08-14T08:31:10Z</time>
      </trkpt>
      <trkpt lat="28.713693" lon="-13.907471">
        <ele>92.476</ele>
        <time>2022-08-14T08:33:17Z</time>
      </trkpt>
      <trkpt lat="28.713956" lon="-13.906243">
        <ele>92.913</ele>
        <time>2022-08-14T08:34:27Z</time>
      </trkpt>
      <trkpt lat="28.714814" lon="-13.904854">
        <ele>87.109</ele>
        <time>2022-08-14T08:36:03Z</time>
      </trkpt>
      <trkpt lat="28.714755" lon="-13.904024">
        <ele>102.772</ele>
        <time>2022-08-14T08:36:50Z</time>
      </trkpt>
      <trkpt lat="28.714264" lon="-13.903097">
        <ele>111.153</ele>
        <time>2022-08-14T08:37:49Z</time>
      </trkpt>
      <trkpt lat="28.714703" lon="-13.902735">
        <ele>111.455</ele>
        <time>2022-08-14T08:39:04Z</time>
      </trkpt>
      <trkpt lat="28.714694" lon="-13.902104">
        <ele>103.587</ele>
        <time>2022-08-14T08:40:26Z</time>
      </trkpt>
      <trkpt lat="28.714451" lon="-13.901850">
        <ele>111.688</ele>
        <time>2022-08-14T08:41:09Z</time>
      </trkpt>
      <trkpt lat="28.714673" lon="-13.901059">
        <ele>114.743</ele>
        <time>2022-08-14T08:42:03Z</time>
      </trkpt>
      <trkpt lat="28.715325" lon="-13.900360">
        <ele>125.087</ele>
        <time>2022-08-14T08:43:39Z</time>
      </trkpt>
      <trkpt lat="28.715451" lon="-13.899756">
        <ele>127.013</ele>
        <time>2022-08-14T08:44:15Z</time>
      </trkpt>
      <trkpt lat="28.716130" lon="-13.899010">
        <ele>128.060</ele>
        <time>2022-08-14T08:45:20Z</time>
      </trkpt>
      <trkpt lat="28.716658" lon="-13.898811">
        <ele>126.656</ele>
        <time>2022-08-14T08:46:01Z</time>
      </trkpt>
      <trkpt lat="28.716558" lon="-13.897558">
        <ele>111.859</ele>
        <time>2022-08-14T08:47:36Z</time>
      </trkpt>
      <trkpt lat="28.716822" lon="-13.896791">
        <ele>102.714</ele>
        <time>2022-08-14T08:48:31Z</time>
      </trkpt>
      <trkpt lat="28.717409" lon="-13.896254">
        <ele>93.409</ele>
        <time>2022-08-14T08:49:25Z</time>
      </trkpt>
      <trkpt lat="28.718706" lon="-13.896224">
        <ele>107.236</ele>
        <time>2022-08-14T08:50:56Z</time>
      </trkpt>
      <trkpt lat="28.719005" lon="-13.895983">
        <ele>106.317</ele>
        <time>2022-08-14T08:51:22Z</time>
      </trkpt>
      <trkpt lat="28.720413" lon="-13.893006">
        <ele>96.639</ele>
        <time>2022-08-14T08:54:47Z</time>
      </trkpt>
      <trkpt lat="28.722436" lon="-13.891117">
        <ele>91.051</ele>
        <time>2022-08-14T08:57:45Z</time>
      </trkpt>
      <trkpt lat="28.722535" lon="-13.890722">
        <ele>90.962</ele>
        <time>2022-08-14T08:58:11Z</time>
      </trkpt>
      <trkpt lat="28.722413" lon="-13.890083">
        <ele>89.427</ele>
        <time>2022-08-14T08:58:49Z</time>
      </trkpt>
    </trkseg>
  </trk></gpx>