<?xml version="1.0" encoding="UTF-8"?>
<gpx version="1.1" creator="Aventuras en Cada Paso" xmlns="http://www.topografix.com/GPX/1/1">
  <metadata>
    <name>Snorkel – El Puertito de Lobos</name>
    <desc>Las mejores lagunas naturales del archipiélago para snorkel. Aguas turquesas protegidas del viento con gran variedad de peces tropicales y fondos volcánicos.</desc>
    <author><name>Aventuras en Cada Paso</name></author>
    <time>2026-07-08T08:12:58.211Z</time>
    <keywords>Isla de Lobos, Submarinismo, Fácil, senderismo Canarias</keywords>
  </metadata>
  <wpt lat="28.7489" lon="-13.8203">
    <name>Snorkel – El Puertito de Lobos</name>
    <desc>Las mejores lagunas naturales del archipiélago para snorkel. Aguas turquesas protegidas del viento con gran variedad de peces tropicales y fondos volcánicos. | Isla: Isla de Lobos | Tipo: Submarinismo | Dificultad: Fácil | Distancia: km | Duración: Menos de 2h</desc>
    <type>Submarinismo</type>
    <extensions>
      <isla>Isla de Lobos</isla>
      <dificultad>Fácil</dificultad>
      <distancia></distancia>
      <duracion>Menos de 2h</duracion>
    </extensions>
  </wpt>
</gpx>