<?xml version="1.0" encoding="UTF-8"?>
<gpx version="1.1" creator="Aventuras en Cada Paso" xmlns="http://www.topografix.com/GPX/1/1">
  <metadata>
    <name>Snorkel – Charcos de Montaña Amarilla</name>
    <desc>Los charcos naturales detrás de Montaña Amarilla son los mejores de La Graciosa para snorkel. Aguas turquesas cristalinas con gran variedad de peces y fondos volcánicos.</desc>
    <author><name>Aventuras en Cada Paso</name></author>
    <time>2026-07-08T08:12:58.209Z</time>
    <keywords>La Graciosa, Submarinismo, Fácil, senderismo Canarias</keywords>
  </metadata>
  <wpt lat="29.2147" lon="-13.4808">
    <name>Snorkel – Charcos de Montaña Amarilla</name>
    <desc>Los charcos naturales detrás de Montaña Amarilla son los mejores de La Graciosa para snorkel. Aguas turquesas cristalinas con gran variedad de peces y fondos volcánicos. | Isla: La Graciosa | Tipo: Submarinismo | Dificultad: Fácil | Distancia: 4km | Duración: 2-4 horas</desc>
    <type>Submarinismo</type>
    <extensions>
      <isla>La Graciosa</isla>
      <dificultad>Fácil</dificultad>
      <distancia>4</distancia>
      <duracion>2-4 horas</duracion>
    </extensions>
  </wpt>
</gpx>