<?xml version="1.0" encoding="UTF-8"?>
<gpx version="1.1" creator="Aventuras en Cada Paso" xmlns="http://www.topografix.com/GPX/1/1">
  <metadata>
    <name>Snorkel – Playa de La Concha</name>
    <desc>La bahía protegida de La Concha es perfecta para el snorkel con niños. Aguas poco profundas, arena blanca y gran variedad de peces en un entorno paradisíaco.</desc>
    <author><name>Aventuras en Cada Paso</name></author>
    <time>2026-07-08T08:12:58.213Z</time>
    <keywords>Isla de Lobos, Submarinismo, Fácil, senderismo Canarias</keywords>
  </metadata>
  <wpt lat="28.7481" lon="-13.825">
    <name>Snorkel – Playa de La Concha</name>
    <desc>La bahía protegida de La Concha es perfecta para el snorkel con niños. Aguas poco profundas, arena blanca y gran variedad de peces en un entorno paradisíaco. | Isla: Isla de Lobos | Tipo: Submarinismo | Dificultad: Fácil | Distancia: km | Duración: Menos de 2h</desc>
    <type>Submarinismo</type>
    <extensions>
      <isla>Isla de Lobos</isla>
      <dificultad>Fácil</dificultad>
      <distancia></distancia>
      <duracion>Menos de 2h</duracion>
    </extensions>
  </wpt>
</gpx>