<?xml version="1.0" encoding="UTF-8"?>
<gpx version="1.1" creator="Aventuras en Cada Paso" xmlns="http://www.topografix.com/GPX/1/1">
  <metadata>
    <name>Arenal Playa de Sotavento – Circular</name>
    <desc>Circular por el arenal de la Playa de Sotavento en Costa Calma. Laguna natural, dunas y el entorno donde se celebran los mundiales de kitesurf y windsurf.</desc>
    <author><name>Aventuras en Cada Paso</name></author>
    <time>2026-07-08T08:12:58.181Z</time>
    <keywords>Fuerteventura, Senderismo, Fácil, senderismo Canarias</keywords>
  </metadata>
  <wpt lat="28.15" lon="-14.2083">
    <name>Arenal Playa de Sotavento – Circular</name>
    <desc>Circular por el arenal de la Playa de Sotavento en Costa Calma. Laguna natural, dunas y el entorno donde se celebran los mundiales de kitesurf y windsurf. | Isla: Fuerteventura | Tipo: Senderismo | Dificultad: Fácil | Distancia: 8km | Duración: 2-4 horas</desc>
    <type>Senderismo</type>
    <extensions>
      <isla>Fuerteventura</isla>
      <dificultad>Fácil</dificultad>
      <distancia>8</distancia>
      <duracion>2-4 horas</duracion>
    </extensions>
  </wpt>
</gpx>