<?xml version="1.0" encoding="UTF-8"?>
<gpx version="1.1" creator="Aventuras en Cada Paso" xmlns="http://www.topografix.com/GPX/1/1">
  <metadata>
    <name>El Tablado – Gallegos (Costa Norte)</name>
    <desc>Costa norte salvaje entre barrancos y acantilados, plantaciones en terrazas y caseríos remotos. Gran sensación de aislamiento. Solo ida.</desc>
    <author><name>Aventuras en Cada Paso</name></author>
    <time>2026-07-08T08:12:58.184Z</time>
    <keywords>La Palma, Senderismo, Media, senderismo Canarias</keywords>
  </metadata>
  <wpt lat="28.79" lon="-17.805">
    <name>El Tablado – Gallegos (Costa Norte)</name>
    <desc>Costa norte salvaje entre barrancos y acantilados, plantaciones en terrazas y caseríos remotos. Gran sensación de aislamiento. Solo ida. | Isla: La Palma | Tipo: Senderismo | Dificultad: Media | Distancia: 9km | Duración: 4-8 horas</desc>
    <type>Senderismo</type>
    <extensions>
      <isla>La Palma</isla>
      <dificultad>Media</dificultad>
      <distancia>9</distancia>
      <duracion>4-8 horas</duracion>
    </extensions>
  </wpt>
</gpx>