<?xml version="1.0" encoding="UTF-8"?>
<gpx creator="Wikiloc - https://www.wikiloc.com" version="1.1" xmlns="http://www.topografix.com/GPX/1/1" xmlns:xsi="http://www.w3.org/2001/XMLSchema-instance" xsi:schemaLocation="http://www.topografix.com/GPX/1/1 http://www.topografix.com/GPX/1/1/gpx.xsd">
  <metadata>
    <name>Wikiloc - La Palma: El Tablado - Franceses - Gallegos ( GR LP 130 - Ca...</name>
    <link href="https://www.wikiloc.com/hiking-trails/la-palma-el-tablado-franceses-gallegos-gr-lp-130-camino-real-de-la-costa-43225365">
      <text>La Palma: El Tablado - Franceses - Gallegos ( GR LP 130 - Ca... on Wikiloc</text>
    </link>
    <time>2019-11-01T15:52:00Z</time>
  </metadata>
  <trk>
    <name>La Palma: El Tablado - Franceses - Gallegos ( GR LP 130 - Ca... - Wikiloc</name>
    <cmt></cmt>
    <desc></desc>
    <trkseg>
      <trkpt lat="28.831895" lon="-17.876325">
        <ele>337.456</ele>
        <time>2019-11-01T11:17:19Z</time>
      </trkpt>
      <trkpt lat="28.832215" lon="-17.876181">
        <ele>337.459</ele>
        <time>2019-11-01T11:19:06Z</time>
      </trkpt>
      <trkpt lat="28.832170" lon="-17.876069">
        <ele>337.414</ele>
        <time>2019-11-01T11:19:23Z</time>
      </trkpt>
      <trkpt lat="28.832595" lon="-17.875785">
        <ele>339.008</ele>
        <time>2019-11-01T11:20:11Z</time>
      </trkpt>
      <trkpt lat="28.832648" lon="-17.875303">
        <ele>339.399</ele>
        <time>2019-11-01T11:20:53Z</time>
      </trkpt>
      <trkpt lat="28.832840" lon="-17.875073">
        <ele>335.098</ele>
        <time>2019-11-01T11:21:20Z</time>
      </trkpt>
      <trkpt lat="28.833065" lon="-17.874977">
        <ele>330.327</ele>
        <time>2019-11-01T11:21:57Z</time>
      </trkpt>
      <trkpt lat="28.832952" lon="-17.874883">
        <ele>330.967</ele>
        <time>2019-11-01T11:22:22Z</time>
      </trkpt>
      <trkpt lat="28.833142" lon="-17.874802">
        <ele>324.410</ele>
        <time>2019-11-01T11:23:20Z</time>
      </trkpt>
      <trkpt lat="28.833242" lon="-17.874879">
        <ele>323.148</ele>
        <time>2019-11-01T11:23:26Z</time>
      </trkpt>
      <trkpt lat="28.833655" lon="-17.874664">
        <ele>316.151</ele>
        <time>2019-11-01T11:24:45Z</time>
      </trkpt>
      <trkpt lat="28.833858" lon="-17.874672">
        <ele>306.150</ele>
        <time>2019-11-01T11:25:09Z</time>
      </trkpt>
      <trkpt lat="28.833523" lon="-17.874215">
        <ele>287.958</ele>
        <time>2019-11-01T11:26:09Z</time>
      </trkpt>
      <trkpt lat="28.833616" lon="-17.874081">
        <ele>285.552</ele>
        <time>2019-11-01T11:26:34Z</time>
      </trkpt>
      <trkpt lat="28.833786" lon="-17.874068">
        <ele>284.117</ele>
        <time>2019-11-01T11:26:53Z</time>
      </trkpt>
      <trkpt lat="28.833684" lon="-17.874029">
        <ele>285.608</ele>
        <time>2019-11-01T11:27:15Z</time>
      </trkpt>
      <trkpt lat="28.833125" lon="-17.874295">
        <ele>289.899</ele>
        <time>2019-11-01T11:28:14Z</time>
      </trkpt>
      <trkpt lat="28.832960" lon="-17.874527">
        <ele>287.358</ele>
        <time>2019-11-01T11:28:47Z</time>
      </trkpt>
      <trkpt lat="28.832714" lon="-17.874670">
        <ele>284.147</ele>
        <time>2019-11-01T11:29:14Z</time>
      </trkpt>
      <trkpt lat="28.832690" lon="-17.874793">
        <ele>282.667</ele>
        <time>2019-11-01T11:29:32Z</time>
      </trkpt>
      <trkpt lat="28.832202" lon="-17.874607">
        <ele>265.340</ele>
        <time>2019-11-01T11:30:49Z</time>
      </trkpt>
      <trkpt lat="28.832249" lon="-17.874528">
        <ele>261.468</ele>
        <time>2019-11-01T11:31:07Z</time>
      </trkpt>
      <trkpt lat="28.832587" lon="-17.874452">
        <ele>251.111</ele>
        <time>2019-11-01T11:33:16Z</time>
      </trkpt>
      <trkpt lat="28.832390" lon="-17.874362">
        <ele>248.310</ele>
        <time>2019-11-01T11:33:58Z</time>
      </trkpt>
      <trkpt lat="28.832240" lon="-17.874403">
        <ele>245.644</ele>
        <time>2019-11-01T11:34:27Z</time>
      </trkpt>
      <trkpt lat="28.832167" lon="-17.874312">
        <ele>244.205</ele>
        <time>2019-11-01T11:35:14Z</time>
      </trkpt>
      <trkpt lat="28.832235" lon="-17.874291">
        <ele>243.015</ele>
        <time>2019-11-01T11:35:36Z</time>
      </trkpt>
      <trkpt lat="28.832038" lon="-17.874217">
        <ele>242.008</ele>
        <time>2019-11-01T11:36:04Z</time>
      </trkpt>
      <trkpt lat="28.832009" lon="-17.874123">
        <ele>244.228</ele>
        <time>2019-11-01T11:36:36Z</time>
      </trkpt>
      <trkpt lat="28.832202" lon="-17.874265">
        <ele>244.167</ele>
        <time>2019-11-01T11:37:50Z</time>
      </trkpt>
      <trkpt lat="28.832520" lon="-17.874134">
        <ele>235.666</ele>
        <time>2019-11-01T11:38:54Z</time>
      </trkpt>
      <trkpt lat="28.832180" lon="-17.874053">
        <ele>220.446</ele>
        <time>2019-11-01T11:39:50Z</time>
      </trkpt>
      <trkpt lat="28.832215" lon="-17.874002">
        <ele>219.489</ele>
        <time>2019-11-01T11:40:15Z</time>
      </trkpt>
      <trkpt lat="28.832030" lon="-17.873791">
        <ele>214.327</ele>
        <time>2019-11-01T11:40:47Z</time>
      </trkpt>
      <trkpt lat="28.832073" lon="-17.873483">
        <ele>205.990</ele>
        <time>2019-11-01T11:41:15Z</time>
      </trkpt>
      <trkpt lat="28.831977" lon="-17.873378">
        <ele>199.799</ele>
        <time>2019-11-01T11:41:34Z</time>
      </trkpt>
      <trkpt lat="28.831711" lon="-17.873172">
        <ele>191.853</ele>
        <time>2019-11-01T11:42:17Z</time>
      </trkpt>
      <trkpt lat="28.831380" lon="-17.873121">
        <ele>184.404</ele>
        <time>2019-11-01T11:43:06Z</time>
      </trkpt>
      <trkpt lat="28.831626" lon="-17.872966">
        <ele>174.414</ele>
        <time>2019-11-01T11:43:39Z</time>
      </trkpt>
      <trkpt lat="28.831506" lon="-17.872875">
        <ele>171.108</ele>
        <time>2019-11-01T11:44:06Z</time>
      </trkpt>
      <trkpt lat="28.831301" lon="-17.872946">
        <ele>165.829</ele>
        <time>2019-11-01T11:44:41Z</time>
      </trkpt>
      <trkpt lat="28.831459" lon="-17.872745">
        <ele>156.418</ele>
        <time>2019-11-01T11:45:15Z</time>
      </trkpt>
      <trkpt lat="28.831248" lon="-17.872756">
        <ele>151.757</ele>
        <time>2019-11-01T11:45:54Z</time>
      </trkpt>
      <trkpt lat="28.831502" lon="-17.872617">
        <ele>135.227</ele>
        <time>2019-11-01T11:46:57Z</time>
      </trkpt>
      <trkpt lat="28.831171" lon="-17.872519">
        <ele>129.090</ele>
        <time>2019-11-01T11:47:42Z</time>
      </trkpt>
      <trkpt lat="28.831047" lon="-17.872629">
        <ele>128.748</ele>
        <time>2019-11-01T11:48:01Z</time>
      </trkpt>
      <trkpt lat="28.831022" lon="-17.872530">
        <ele>126.021</ele>
        <time>2019-11-01T11:48:14Z</time>
      </trkpt>
      <trkpt lat="28.831209" lon="-17.872426">
        <ele>114.850</ele>
        <time>2019-11-01T11:48:35Z</time>
      </trkpt>
      <trkpt lat="28.831126" lon="-17.872391">
        <ele>110.343</ele>
        <time>2019-11-01T11:49:08Z</time>
      </trkpt>
      <trkpt lat="28.831173" lon="-17.872300">
        <ele>107.764</ele>
        <time>2019-11-01T11:49:23Z</time>
      </trkpt>
      <trkpt lat="28.831262" lon="-17.872301">
        <ele>105.710</ele>
        <time>2019-11-01T11:49:35Z</time>
      </trkpt>
      <trkpt lat="28.831111" lon="-17.872261">
        <ele>106.208</ele>
        <time>2019-11-01T11:50:02Z</time>
      </trkpt>
      <trkpt lat="28.831014" lon="-17.872375">
        <ele>102.768</ele>
        <time>2019-11-01T11:50:21Z</time>
      </trkpt>
      <trkpt lat="28.830882" lon="-17.872063">
        <ele>104.537</ele>
        <time>2019-11-01T11:50:57Z</time>
      </trkpt>
      <trkpt lat="28.830937" lon="-17.871976">
        <ele>97.156</ele>
        <time>2019-11-01T11:51:07Z</time>
      </trkpt>
      <trkpt lat="28.831212" lon="-17.871991">
        <ele>80.236</ele>
        <time>2019-11-01T11:51:45Z</time>
      </trkpt>
      <trkpt lat="28.831278" lon="-17.871703">
        <ele>81.889</ele>
        <time>2019-11-01T11:52:54Z</time>
      </trkpt>
      <trkpt lat="28.831453" lon="-17.871529">
        <ele>91.967</ele>
        <time>2019-11-01T11:53:39Z</time>
      </trkpt>
      <trkpt lat="28.832178" lon="-17.871821">
        <ele>103.730</ele>
        <time>2019-11-01T11:57:04Z</time>
      </trkpt>
      <trkpt lat="28.832228" lon="-17.871738">
        <ele>102.759</ele>
        <time>2019-11-01T11:57:43Z</time>
      </trkpt>
      <trkpt lat="28.832576" lon="-17.871768">
        <ele>100.725</ele>
        <time>2019-11-01T11:58:19Z</time>
      </trkpt>
      <trkpt lat="28.832667" lon="-17.871542">
        <ele>91.126</ele>
        <time>2019-11-01T11:59:06Z</time>
      </trkpt>
      <trkpt lat="28.832903" lon="-17.871521">
        <ele>90.108</ele>
        <time>2019-11-01T11:59:40Z</time>
      </trkpt>
      <trkpt lat="28.833019" lon="-17.871606">
        <ele>80.808</ele>
        <time>2019-11-01T12:00:28Z</time>
      </trkpt>
      <trkpt lat="28.833021" lon="-17.871387">
        <ele>78.716</ele>
        <time>2019-11-01T12:01:24Z</time>
      </trkpt>
      <trkpt lat="28.832923" lon="-17.871465">
        <ele>82.415</ele>
        <time>2019-11-01T12:01:49Z</time>
      </trkpt>
      <trkpt lat="28.832676" lon="-17.871329">
        <ele>84.824</ele>
        <time>2019-11-01T12:03:01Z</time>
      </trkpt>
      <trkpt lat="28.832654" lon="-17.871217">
        <ele>84.764</ele>
        <time>2019-11-01T12:03:25Z</time>
      </trkpt>
      <trkpt lat="28.832804" lon="-17.870997">
        <ele>96.197</ele>
        <time>2019-11-01T12:05:24Z</time>
      </trkpt>
      <trkpt lat="28.832986" lon="-17.870966">
        <ele>97.075</ele>
        <time>2019-11-01T12:05:45Z</time>
      </trkpt>
      <trkpt lat="28.833035" lon="-17.871092">
        <ele>104.648</ele>
        <time>2019-11-01T12:06:12Z</time>
      </trkpt>
      <trkpt lat="28.833095" lon="-17.871012">
        <ele>109.967</ele>
        <time>2019-11-01T12:06:49Z</time>
      </trkpt>
      <trkpt lat="28.832941" lon="-17.870861">
        <ele>117.946</ele>
        <time>2019-11-01T12:07:27Z</time>
      </trkpt>
      <trkpt lat="28.832863" lon="-17.870529">
        <ele>128.588</ele>
        <time>2019-11-01T12:09:36Z</time>
      </trkpt>
      <trkpt lat="28.832708" lon="-17.870346">
        <ele>127.616</ele>
        <time>2019-11-01T12:10:16Z</time>
      </trkpt>
      <trkpt lat="28.832806" lon="-17.870329">
        <ele>134.108</ele>
        <time>2019-11-01T12:10:42Z</time>
      </trkpt>
      <trkpt lat="28.832858" lon="-17.870423">
        <ele>139.928</ele>
        <time>2019-11-01T12:11:07Z</time>
      </trkpt>
      <trkpt lat="28.832988" lon="-17.870385">
        <ele>151.957</ele>
        <time>2019-11-01T12:11:33Z</time>
      </trkpt>
      <trkpt lat="28.833163" lon="-17.870521">
        <ele>161.536</ele>
        <time>2019-11-01T12:12:24Z</time>
      </trkpt>
      <trkpt lat="28.833164" lon="-17.870371">
        <ele>161.376</ele>
        <time>2019-11-01T12:12:52Z</time>
      </trkpt>
      <trkpt lat="28.833019" lon="-17.870105">
        <ele>163.579</ele>
        <time>2019-11-01T12:14:32Z</time>
      </trkpt>
      <trkpt lat="28.832574" lon="-17.869748">
        <ele>173.237</ele>
        <time>2019-11-01T12:16:26Z</time>
      </trkpt>
      <trkpt lat="28.832675" lon="-17.869758">
        <ele>177.120</ele>
        <time>2019-11-01T12:17:08Z</time>
      </trkpt>
      <trkpt lat="28.832606" lon="-17.869655">
        <ele>175.759</ele>
        <time>2019-11-01T12:17:32Z</time>
      </trkpt>
      <trkpt lat="28.832702" lon="-17.869595">
        <ele>179.988</ele>
        <time>2019-11-01T12:18:01Z</time>
      </trkpt>
      <trkpt lat="28.832546" lon="-17.869467">
        <ele>186.824</ele>
        <time>2019-11-01T12:18:19Z</time>
      </trkpt>
      <trkpt lat="28.832469" lon="-17.869531">
        <ele>188.126</ele>
        <time>2019-11-01T12:19:10Z</time>
      </trkpt>
      <trkpt lat="28.832907" lon="-17.869569">
        <ele>210.408</ele>
        <time>2019-11-01T12:21:24Z</time>
      </trkpt>
      <trkpt lat="28.832894" lon="-17.869511">
        <ele>210.962</ele>
        <time>2019-11-01T12:22:00Z</time>
      </trkpt>
      <trkpt lat="28.832703" lon="-17.869199">
        <ele>206.451</ele>
        <time>2019-11-01T12:23:08Z</time>
      </trkpt>
      <trkpt lat="28.832546" lon="-17.869235">
        <ele>210.230</ele>
        <time>2019-11-01T12:24:06Z</time>
      </trkpt>
      <trkpt lat="28.832622" lon="-17.869202">
        <ele>213.590</ele>
        <time>2019-11-01T12:24:33Z</time>
      </trkpt>
      <trkpt lat="28.832577" lon="-17.868998">
        <ele>222.843</ele>
        <time>2019-11-01T12:25:37Z</time>
      </trkpt>
      <trkpt lat="28.832274" lon="-17.868750">
        <ele>230.791</ele>
        <time>2019-11-01T12:27:39Z</time>
      </trkpt>
      <trkpt lat="28.831990" lon="-17.868736">
        <ele>246.874</ele>
        <time>2019-11-01T12:28:41Z</time>
      </trkpt>
      <trkpt lat="28.831851" lon="-17.868817">
        <ele>256.763</ele>
        <time>2019-11-01T12:30:03Z</time>
      </trkpt>
      <trkpt lat="28.831669" lon="-17.868756">
        <ele>261.665</ele>
        <time>2019-11-01T12:32:10Z</time>
      </trkpt>
      <trkpt lat="28.831537" lon="-17.868810">
        <ele>270.868</ele>
        <time>2019-11-01T12:32:33Z</time>
      </trkpt>
      <trkpt lat="28.831592" lon="-17.868722">
        <ele>274.814</ele>
        <time>2019-11-01T12:33:31Z</time>
      </trkpt>
      <trkpt lat="28.831519" lon="-17.868819">
        <ele>282.708</ele>
        <time>2019-11-01T12:33:45Z</time>
      </trkpt>
      <trkpt lat="28.831386" lon="-17.868766">
        <ele>286.770</ele>
        <time>2019-11-01T12:34:10Z</time>
      </trkpt>
      <trkpt lat="28.831795" lon="-17.868611">
        <ele>287.159</ele>
        <time>2019-11-01T12:36:30Z</time>
      </trkpt>
      <trkpt lat="28.831991" lon="-17.868179">
        <ele>298.478</ele>
        <time>2019-11-01T12:37:22Z</time>
      </trkpt>
      <trkpt lat="28.831884" lon="-17.868008">
        <ele>304.198</ele>
        <time>2019-11-01T12:37:57Z</time>
      </trkpt>
      <trkpt lat="28.831783" lon="-17.867994">
        <ele>307.891</ele>
        <time>2019-11-01T12:38:10Z</time>
      </trkpt>
      <trkpt lat="28.831628" lon="-17.868113">
        <ele>311.939</ele>
        <time>2019-11-01T12:38:31Z</time>
      </trkpt>
      <trkpt lat="28.831660" lon="-17.868251">
        <ele>314.862</ele>
        <time>2019-11-01T12:38:46Z</time>
      </trkpt>
      <trkpt lat="28.831464" lon="-17.868358">
        <ele>322.171</ele>
        <time>2019-11-01T12:39:11Z</time>
      </trkpt>
      <trkpt lat="28.831436" lon="-17.868044">
        <ele>318.995</ele>
        <time>2019-11-01T12:40:07Z</time>
      </trkpt>
      <trkpt lat="28.831274" lon="-17.868367">
        <ele>331.849</ele>
        <time>2019-11-01T12:40:47Z</time>
      </trkpt>
      <trkpt lat="28.831149" lon="-17.868358">
        <ele>334.323</ele>
        <time>2019-11-01T12:41:07Z</time>
      </trkpt>
      <trkpt lat="28.831119" lon="-17.868045">
        <ele>332.008</ele>
        <time>2019-11-01T12:42:08Z</time>
      </trkpt>
      <trkpt lat="28.831437" lon="-17.867798">
        <ele>338.713</ele>
        <time>2019-11-01T12:42:59Z</time>
      </trkpt>
      <trkpt lat="28.831475" lon="-17.867560">
        <ele>339.752</ele>
        <time>2019-11-01T12:43:27Z</time>
      </trkpt>
      <trkpt lat="28.831527" lon="-17.867664">
        <ele>342.991</ele>
        <time>2019-11-01T12:43:39Z</time>
      </trkpt>
      <trkpt lat="28.831494" lon="-17.867562">
        <ele>345.621</ele>
        <time>2019-11-01T12:43:48Z</time>
      </trkpt>
      <trkpt lat="28.831110" lon="-17.867673">
        <ele>348.874</ele>
        <time>2019-11-01T12:44:22Z</time>
      </trkpt>
      <trkpt lat="28.830907" lon="-17.867585">
        <ele>355.142</ele>
        <time>2019-11-01T12:45:10Z</time>
      </trkpt>
      <trkpt lat="28.830632" lon="-17.867943">
        <ele>355.965</ele>
        <time>2019-11-01T12:45:43Z</time>
      </trkpt>
      <trkpt lat="28.830500" lon="-17.867921">
        <ele>355.024</ele>
        <time>2019-11-01T12:45:57Z</time>
      </trkpt>
      <trkpt lat="28.830604" lon="-17.867975">
        <ele>353.772</ele>
        <time>2019-11-01T12:46:11Z</time>
      </trkpt>
      <trkpt lat="28.830491" lon="-17.867942">
        <ele>352.813</ele>
        <time>2019-11-01T12:46:17Z</time>
      </trkpt>
      <trkpt lat="28.830081" lon="-17.867243">
        <ele>364.914</ele>
        <time>2019-11-01T12:48:58Z</time>
      </trkpt>
      <trkpt lat="28.830220" lon="-17.866983">
        <ele>377.108</ele>
        <time>2019-11-01T12:50:30Z</time>
      </trkpt>
      <trkpt lat="28.830142" lon="-17.866998">
        <ele>376.661</ele>
        <time>2019-11-01T12:50:51Z</time>
      </trkpt>
      <trkpt lat="28.830053" lon="-17.866814">
        <ele>382.970</ele>
        <time>2019-11-01T12:51:25Z</time>
      </trkpt>
      <trkpt lat="28.829850" lon="-17.866724">
        <ele>394.879</ele>
        <time>2019-11-01T12:52:08Z</time>
      </trkpt>
      <trkpt lat="28.829930" lon="-17.866865">
        <ele>396.449</ele>
        <time>2019-11-01T12:52:25Z</time>
      </trkpt>
      <trkpt lat="28.829992" lon="-17.866717">
        <ele>395.022</ele>
        <time>2019-11-01T12:53:06Z</time>
      </trkpt>
      <trkpt lat="28.829864" lon="-17.866502">
        <ele>406.780</ele>
        <time>2019-11-01T12:54:52Z</time>
      </trkpt>
      <trkpt lat="28.829691" lon="-17.866500">
        <ele>415.913</ele>
        <time>2019-11-01T12:55:36Z</time>
      </trkpt>
      <trkpt lat="28.829748" lon="-17.866563">
        <ele>416.992</ele>
        <time>2019-11-01T12:55:47Z</time>
      </trkpt>
      <trkpt lat="28.829320" lon="-17.866389">
        <ele>430.726</ele>
        <time>2019-11-01T12:57:12Z</time>
      </trkpt>
      <trkpt lat="28.829224" lon="-17.866260">
        <ele>432.347</ele>
        <time>2019-11-01T12:57:59Z</time>
      </trkpt>
      <trkpt lat="28.828801" lon="-17.866063">
        <ele>445.811</ele>
        <time>2019-11-01T12:59:33Z</time>
      </trkpt>
      <trkpt lat="28.828461" lon="-17.866104">
        <ele>449.408</ele>
        <time>2019-11-01T13:01:04Z</time>
      </trkpt>
      <trkpt lat="28.828267" lon="-17.866010">
        <ele>452.236</ele>
        <time>2019-11-01T13:01:21Z</time>
      </trkpt>
      <trkpt lat="28.828317" lon="-17.865875">
        <ele>451.895</ele>
        <time>2019-11-01T13:01:45Z</time>
      </trkpt>
      <trkpt lat="28.828247" lon="-17.865656">
        <ele>455.474</ele>
        <time>2019-11-01T13:02:15Z</time>
      </trkpt>
      <trkpt lat="28.827761" lon="-17.865309">
        <ele>467.574</ele>
        <time>2019-11-01T13:03:54Z</time>
      </trkpt>
      <trkpt lat="28.827457" lon="-17.864792">
        <ele>459.287</ele>
        <time>2019-11-01T13:05:02Z</time>
      </trkpt>
      <trkpt lat="28.827436" lon="-17.864632">
        <ele>460.275</ele>
        <time>2019-11-01T13:05:18Z</time>
      </trkpt>
      <trkpt lat="28.827712" lon="-17.864440">
        <ele>460.398</ele>
        <time>2019-11-01T13:05:54Z</time>
      </trkpt>
      <trkpt lat="28.827618" lon="-17.864309">
        <ele>468.637</ele>
        <time>2019-11-01T13:14:28Z</time>
      </trkpt>
      <trkpt lat="28.827687" lon="-17.864322">
        <ele>468.526</ele>
        <time>2019-11-01T13:15:20Z</time>
      </trkpt>
      <trkpt lat="28.827733" lon="-17.864194">
        <ele>467.747</ele>
        <time>2019-11-01T13:16:04Z</time>
      </trkpt>
      <trkpt lat="28.827693" lon="-17.864339">
        <ele>468.011</ele>
        <time>2019-11-01T13:16:46Z</time>
      </trkpt>
      <trkpt lat="28.827625" lon="-17.864058">
        <ele>466.108</ele>
        <time>2019-11-01T13:21:22Z</time>
      </trkpt>
      <trkpt lat="28.827360" lon="-17.863800">
        <ele>460.836</ele>
        <time>2019-11-01T13:21:59Z</time>
      </trkpt>
      <trkpt lat="28.826890" lon="-17.863598">
        <ele>446.945</ele>
        <time>2019-11-01T13:22:37Z</time>
      </trkpt>
      <trkpt lat="28.826954" lon="-17.863567">
        <ele>446.414</ele>
        <time>2019-11-01T13:22:51Z</time>
      </trkpt>
      <trkpt lat="28.826620" lon="-17.863512">
        <ele>444.934</ele>
        <time>2019-11-01T13:23:24Z</time>
      </trkpt>
      <trkpt lat="28.826609" lon="-17.863214">
        <ele>443.637</ele>
        <time>2019-11-01T13:24:00Z</time>
      </trkpt>
      <trkpt lat="28.826496" lon="-17.863095">
        <ele>442.025</ele>
        <time>2019-11-01T13:24:13Z</time>
      </trkpt>
      <trkpt lat="28.826131" lon="-17.863128">
        <ele>448.678</ele>
        <time>2019-11-01T13:25:11Z</time>
      </trkpt>
      <trkpt lat="28.826158" lon="-17.862613">
        <ele>454.737</ele>
        <time>2019-11-01T13:26:18Z</time>
      </trkpt>
      <trkpt lat="28.826413" lon="-17.862498">
        <ele>455.515</ele>
        <time>2019-11-01T13:26:51Z</time>
      </trkpt>
      <trkpt lat="28.826780" lon="-17.862665">
        <ele>461.565</ele>
        <time>2019-11-01T13:27:42Z</time>
      </trkpt>
      <trkpt lat="28.827438" lon="-17.862594">
        <ele>448.711</ele>
        <time>2019-11-01T13:29:17Z</time>
      </trkpt>
      <trkpt lat="28.827811" lon="-17.862743">
        <ele>445.608</ele>
        <time>2019-11-01T13:29:50Z</time>
      </trkpt>
      <trkpt lat="28.828028" lon="-17.862643">
        <ele>442.555</ele>
        <time>2019-11-01T13:30:05Z</time>
      </trkpt>
      <trkpt lat="28.828114" lon="-17.862498">
        <ele>444.654</ele>
        <time>2019-11-01T13:30:13Z</time>
      </trkpt>
      <trkpt lat="28.828120" lon="-17.862017">
        <ele>442.553</ele>
        <time>2019-11-01T13:31:02Z</time>
      </trkpt>
      <trkpt lat="28.827851" lon="-17.861433">
        <ele>448.153</ele>
        <time>2019-11-01T13:32:11Z</time>
      </trkpt>
      <trkpt lat="28.827408" lon="-17.861163">
        <ele>428.166</ele>
        <time>2019-11-01T13:33:31Z</time>
      </trkpt>
      <trkpt lat="28.827068" lon="-17.861166">
        <ele>425.364</ele>
        <time>2019-11-01T13:34:02Z</time>
      </trkpt>
      <trkpt lat="28.827115" lon="-17.861086">
        <ele>422.337</ele>
        <time>2019-11-01T13:34:08Z</time>
      </trkpt>
      <trkpt lat="28.826888" lon="-17.861344">
        <ele>409.076</ele>
        <time>2019-11-01T13:34:36Z</time>
      </trkpt>
      <trkpt lat="28.826799" lon="-17.861331">
        <ele>407.977</ele>
        <time>2019-11-01T13:34:45Z</time>
      </trkpt>
      <trkpt lat="28.826886" lon="-17.861387">
        <ele>410.761</ele>
        <time>2019-11-01T13:34:52Z</time>
      </trkpt>
      <trkpt lat="28.826666" lon="-17.861136">
        <ele>415.627</ele>
        <time>2019-11-01T13:35:11Z</time>
      </trkpt>
      <trkpt lat="28.826955" lon="-17.860326">
        <ele>430.108</ele>
        <time>2019-11-01T13:37:29Z</time>
      </trkpt>
      <trkpt lat="28.827516" lon="-17.860034">
        <ele>429.291</ele>
        <time>2019-11-01T13:38:42Z</time>
      </trkpt>
      <trkpt lat="28.827665" lon="-17.859772">
        <ele>440.390</ele>
        <time>2019-11-01T13:39:26Z</time>
      </trkpt>
      <trkpt lat="28.827604" lon="-17.859742">
        <ele>440.989</ele>
        <time>2019-11-01T13:40:05Z</time>
      </trkpt>
      <trkpt lat="28.827819" lon="-17.859660">
        <ele>437.459</ele>
        <time>2019-11-01T13:42:12Z</time>
      </trkpt>
      <trkpt lat="28.827883" lon="-17.859371">
        <ele>437.642</ele>
        <time>2019-11-01T13:42:43Z</time>
      </trkpt>
      <trkpt lat="28.827784" lon="-17.859212">
        <ele>438.750</ele>
        <time>2019-11-01T13:42:52Z</time>
      </trkpt>
      <trkpt lat="28.827663" lon="-17.858498">
        <ele>444.043</ele>
        <time>2019-11-01T13:43:53Z</time>
      </trkpt>
      <trkpt lat="28.827351" lon="-17.858314">
        <ele>442.032</ele>
        <time>2019-11-01T13:44:20Z</time>
      </trkpt>
      <trkpt lat="28.827101" lon="-17.858318">
        <ele>438.912</ele>
        <time>2019-11-01T13:44:46Z</time>
      </trkpt>
      <trkpt lat="28.826836" lon="-17.858508">
        <ele>434.832</ele>
        <time>2019-11-01T13:45:37Z</time>
      </trkpt>
      <trkpt lat="28.826759" lon="-17.858466">
        <ele>434.405</ele>
        <time>2019-11-01T13:45:52Z</time>
      </trkpt>
      <trkpt lat="28.826408" lon="-17.858601">
        <ele>426.908</ele>
        <time>2019-11-01T13:46:34Z</time>
      </trkpt>
      <trkpt lat="28.825576" lon="-17.858517">
        <ele>412.865</ele>
        <time>2019-11-01T13:47:59Z</time>
      </trkpt>
      <trkpt lat="28.825546" lon="-17.858411">
        <ele>412.864</ele>
        <time>2019-11-01T13:48:14Z</time>
      </trkpt>
      <trkpt lat="28.825852" lon="-17.857955">
        <ele>408.643</ele>
        <time>2019-11-01T13:49:03Z</time>
      </trkpt>
      <trkpt lat="28.825227" lon="-17.857764">
        <ele>387.223</ele>
        <time>2019-11-01T13:50:12Z</time>
      </trkpt>
      <trkpt lat="28.825291" lon="-17.857805">
        <ele>391.266</ele>
        <time>2019-11-01T13:50:23Z</time>
      </trkpt>
      <trkpt lat="28.825039" lon="-17.857321">
        <ele>403.944</ele>
        <time>2019-11-01T13:50:42Z</time>
      </trkpt>
      <trkpt lat="28.825123" lon="-17.857018">
        <ele>410.687</ele>
        <time>2019-11-01T13:51:11Z</time>
      </trkpt>
      <trkpt lat="28.825474" lon="-17.857062">
        <ele>419.966</ele>
        <time>2019-11-01T13:51:43Z</time>
      </trkpt>
      <trkpt lat="28.825376" lon="-17.857117">
        <ele>416.371</ele>
        <time>2019-11-01T13:51:48Z</time>
      </trkpt>
      <trkpt lat="28.825719" lon="-17.856957">
        <ele>408.641</ele>
        <time>2019-11-01T13:52:10Z</time>
      </trkpt>
      <trkpt lat="28.825601" lon="-17.856995">
        <ele>406.715</ele>
        <time>2019-11-01T13:52:17Z</time>
      </trkpt>
      <trkpt lat="28.826350" lon="-17.856454">
        <ele>401.508</ele>
        <time>2019-11-01T13:53:29Z</time>
      </trkpt>
      <trkpt lat="28.826983" lon="-17.856192">
        <ele>402.121</ele>
        <time>2019-11-01T13:54:18Z</time>
      </trkpt>
      <trkpt lat="28.827394" lon="-17.855679">
        <ele>398.580</ele>
        <time>2019-11-01T13:55:08Z</time>
      </trkpt>
      <trkpt lat="28.827513" lon="-17.855153">
        <ele>406.569</ele>
        <time>2019-11-01T13:56:20Z</time>
      </trkpt>
      <trkpt lat="28.827596" lon="-17.855205">
        <ele>406.629</ele>
        <time>2019-11-01T13:58:05Z</time>
      </trkpt>
      <trkpt lat="28.828008" lon="-17.854974">
        <ele>394.862</ele>
        <time>2019-11-01T13:59:13Z</time>
      </trkpt>
      <trkpt lat="28.828212" lon="-17.854962">
        <ele>392.050</ele>
        <time>2019-11-01T13:59:42Z</time>
      </trkpt>
      <trkpt lat="28.828283" lon="-17.854752">
        <ele>386.583</ele>
        <time>2019-11-01T14:00:31Z</time>
      </trkpt>
      <trkpt lat="28.828511" lon="-17.854823">
        <ele>382.422</ele>
        <time>2019-11-01T14:00:43Z</time>
      </trkpt>
      <trkpt lat="28.828441" lon="-17.854722">
        <ele>379.881</ele>
        <time>2019-11-01T14:00:52Z</time>
      </trkpt>
      <trkpt lat="28.828593" lon="-17.854751">
        <ele>379.361</ele>
        <time>2019-11-01T14:01:01Z</time>
      </trkpt>
      <trkpt lat="28.828545" lon="-17.854592">
        <ele>377.317</ele>
        <time>2019-11-01T14:01:15Z</time>
      </trkpt>
      <trkpt lat="28.828152" lon="-17.854406">
        <ele>370.408</ele>
        <time>2019-11-01T14:02:05Z</time>
      </trkpt>
      <trkpt lat="28.828016" lon="-17.854199">
        <ele>360.662</ele>
        <time>2019-11-01T14:02:27Z</time>
      </trkpt>
      <trkpt lat="28.828438" lon="-17.853889">
        <ele>354.841</ele>
        <time>2019-11-01T14:03:19Z</time>
      </trkpt>
      <trkpt lat="28.828491" lon="-17.853512">
        <ele>350.410</ele>
        <time>2019-11-01T14:03:54Z</time>
      </trkpt>
      <trkpt lat="28.828645" lon="-17.853267">
        <ele>347.440</ele>
        <time>2019-11-01T14:04:19Z</time>
      </trkpt>
      <trkpt lat="28.829543" lon="-17.852931">
        <ele>337.393</ele>
        <time>2019-11-01T14:06:06Z</time>
      </trkpt>
      <trkpt lat="28.830279" lon="-17.852313">
        <ele>325.721</ele>
        <time>2019-11-01T14:07:38Z</time>
      </trkpt>
      <trkpt lat="28.830440" lon="-17.852038">
        <ele>324.544</ele>
        <time>2019-11-01T14:08:08Z</time>
      </trkpt>
      <trkpt lat="28.830530" lon="-17.852012">
        <ele>322.473</ele>
        <time>2019-11-01T14:08:17Z</time>
      </trkpt>
      <trkpt lat="28.830396" lon="-17.852098">
        <ele>318.421</ele>
        <time>2019-11-01T14:08:29Z</time>
      </trkpt>
      <trkpt lat="28.830633" lon="-17.851949">
        <ele>314.441</ele>
        <time>2019-11-01T14:08:42Z</time>
      </trkpt>
      <trkpt lat="28.831258" lon="-17.851778">
        <ele>300.305</ele>
        <time>2019-11-01T14:10:05Z</time>
      </trkpt>
      <trkpt lat="28.831415" lon="-17.851531">
        <ele>294.008</ele>
        <time>2019-11-01T14:10:45Z</time>
      </trkpt>
      <trkpt lat="28.831116" lon="-17.851571">
        <ele>289.256</ele>
        <time>2019-11-01T14:11:24Z</time>
      </trkpt>
      <trkpt lat="28.831127" lon="-17.851516">
        <ele>287.945</ele>
        <time>2019-11-01T14:11:33Z</time>
      </trkpt>
      <trkpt lat="28.831419" lon="-17.851070">
        <ele>275.774</ele>
        <time>2019-11-01T14:12:28Z</time>
      </trkpt>
      <trkpt lat="28.831698" lon="-17.850867">
        <ele>274.184</ele>
        <time>2019-11-01T14:13:16Z</time>
      </trkpt>
      <trkpt lat="28.832324" lon="-17.850849">
        <ele>251.137</ele>
        <time>2019-11-01T14:15:21Z</time>
      </trkpt>
      <trkpt lat="28.832083" lon="-17.850507">
        <ele>238.315</ele>
        <time>2019-11-01T14:19:01Z</time>
      </trkpt>
      <trkpt lat="28.832512" lon="-17.850536">
        <ele>223.068</ele>
        <time>2019-11-01T14:20:34Z</time>
      </trkpt>
      <trkpt lat="28.832523" lon="-17.850452">
        <ele>225.867</ele>
        <time>2019-11-01T14:20:48Z</time>
      </trkpt>
      <trkpt lat="28.832290" lon="-17.850314">
        <ele>222.743</ele>
        <time>2019-11-01T14:21:30Z</time>
      </trkpt>
      <trkpt lat="28.832297" lon="-17.850195">
        <ele>215.864</ele>
        <time>2019-11-01T14:22:17Z</time>
      </trkpt>
      <trkpt lat="28.832711" lon="-17.850262">
        <ele>201.410</ele>
        <time>2019-11-01T14:23:45Z</time>
      </trkpt>
      <trkpt lat="28.832552" lon="-17.849912">
        <ele>198.608</ele>
        <time>2019-11-01T14:25:00Z</time>
      </trkpt>
      <trkpt lat="28.832547" lon="-17.849473">
        <ele>184.348</ele>
        <time>2019-11-01T14:25:43Z</time>
      </trkpt>
      <trkpt lat="28.832723" lon="-17.849518">
        <ele>181.947</ele>
        <time>2019-11-01T14:26:11Z</time>
      </trkpt>
      <trkpt lat="28.832731" lon="-17.849445">
        <ele>180.386</ele>
        <time>2019-11-01T14:26:30Z</time>
      </trkpt>
      <trkpt lat="28.832886" lon="-17.849442">
        <ele>175.936</ele>
        <time>2019-11-01T14:26:55Z</time>
      </trkpt>
      <trkpt lat="28.833047" lon="-17.849204">
        <ele>170.259</ele>
        <time>2019-11-01T14:27:37Z</time>
      </trkpt>
      <trkpt lat="28.833168" lon="-17.849251">
        <ele>167.217</ele>
        <time>2019-11-01T14:27:57Z</time>
      </trkpt>
      <trkpt lat="28.833289" lon="-17.849181">
        <ele>162.990</ele>
        <time>2019-11-01T14:28:11Z</time>
      </trkpt>
      <trkpt lat="28.833801" lon="-17.849350">
        <ele>145.899</ele>
        <time>2019-11-01T14:30:00Z</time>
      </trkpt>
      <trkpt lat="28.833707" lon="-17.849262">
        <ele>150.453</ele>
        <time>2019-11-01T14:31:35Z</time>
      </trkpt>
      <trkpt lat="28.833706" lon="-17.848729">
        <ele>141.804</ele>
        <time>2019-11-01T14:32:59Z</time>
      </trkpt>
      <trkpt lat="28.833364" lon="-17.848514">
        <ele>133.314</ele>
        <time>2019-11-01T14:33:58Z</time>
      </trkpt>
      <trkpt lat="28.833570" lon="-17.848475">
        <ele>120.108</ele>
        <time>2019-11-01T14:34:44Z</time>
      </trkpt>
      <trkpt lat="28.833441" lon="-17.848397">
        <ele>111.719</ele>
        <time>2019-11-01T14:35:32Z</time>
      </trkpt>
      <trkpt lat="28.833496" lon="-17.848309">
        <ele>108.058</ele>
        <time>2019-11-01T14:35:52Z</time>
      </trkpt>
      <trkpt lat="28.833958" lon="-17.848200">
        <ele>97.597</ele>
        <time>2019-11-01T14:37:03Z</time>
      </trkpt>
      <trkpt lat="28.833924" lon="-17.848132">
        <ele>99.217</ele>
        <time>2019-11-01T14:37:20Z</time>
      </trkpt>
      <trkpt lat="28.833375" lon="-17.848275">
        <ele>81.760</ele>
        <time>2019-11-01T14:39:14Z</time>
      </trkpt>
      <trkpt lat="28.833238" lon="-17.848228">
        <ele>72.338</ele>
        <time>2019-11-01T14:39:44Z</time>
      </trkpt>
      <trkpt lat="28.833211" lon="-17.848112">
        <ele>69.481</ele>
        <time>2019-11-01T14:40:08Z</time>
      </trkpt>
      <trkpt lat="28.833429" lon="-17.847851">
        <ele>62.950</ele>
        <time>2019-11-01T14:40:58Z</time>
      </trkpt>
      <trkpt lat="28.833610" lon="-17.847868">
        <ele>62.526</ele>
        <time>2019-11-01T14:41:33Z</time>
      </trkpt>
      <trkpt lat="28.833567" lon="-17.847585">
        <ele>53.047</ele>
        <time>2019-11-01T14:42:27Z</time>
      </trkpt>
      <trkpt lat="28.833522" lon="-17.847678">
        <ele>48.311</ele>
        <time>2019-11-01T14:43:11Z</time>
      </trkpt>
      <trkpt lat="28.833410" lon="-17.847652">
        <ele>43.008</ele>
        <time>2019-11-01T14:43:30Z</time>
      </trkpt>
      <trkpt lat="28.833284" lon="-17.847570">
        <ele>34.556</ele>
        <time>2019-11-01T14:44:12Z</time>
      </trkpt>
      <trkpt lat="28.833287" lon="-17.847467">
        <ele>27.425</ele>
        <time>2019-11-01T14:44:44Z</time>
      </trkpt>
      <trkpt lat="28.833613" lon="-17.847547">
        <ele>27.724</ele>
        <time>2019-11-01T14:47:12Z</time>
      </trkpt>
      <trkpt lat="28.833469" lon="-17.847523">
        <ele>27.864</ele>
        <time>2019-11-01T14:47:21Z</time>
      </trkpt>
      <trkpt lat="28.833562" lon="-17.847511">
        <ele>26.917</ele>
        <time>2019-11-01T14:48:13Z</time>
      </trkpt>
      <trkpt lat="28.833530" lon="-17.847567">
        <ele>23.755</ele>
        <time>2019-11-01T14:50:04Z</time>
      </trkpt>
      <trkpt lat="28.833541" lon="-17.847423">
        <ele>23.188</ele>
        <time>2019-11-01T14:52:52Z</time>
      </trkpt>
      <trkpt lat="28.833872" lon="-17.847216">
        <ele>22.667</ele>
        <time>2019-11-01T14:53:09Z</time>
      </trkpt>
      <trkpt lat="28.834200" lon="-17.847125">
        <ele>32.127</ele>
        <time>2019-11-01T14:54:14Z</time>
      </trkpt>
      <trkpt lat="28.834044" lon="-17.846950">
        <ele>47.668</ele>
        <time>2019-11-01T14:55:24Z</time>
      </trkpt>
      <trkpt lat="28.833856" lon="-17.847027">
        <ele>49.214</ele>
        <time>2019-11-01T14:56:11Z</time>
      </trkpt>
      <trkpt lat="28.833958" lon="-17.846713">
        <ele>57.808</ele>
        <time>2019-11-01T14:58:06Z</time>
      </trkpt>
      <trkpt lat="28.833773" lon="-17.846617">
        <ele>63.486</ele>
        <time>2019-11-01T14:59:12Z</time>
      </trkpt>
      <trkpt lat="28.833654" lon="-17.846320">
        <ele>75.865</ele>
        <time>2019-11-01T15:00:50Z</time>
      </trkpt>
      <trkpt lat="28.833792" lon="-17.846307">
        <ele>82.034</ele>
        <time>2019-11-01T15:01:25Z</time>
      </trkpt>
      <trkpt lat="28.833627" lon="-17.846197">
        <ele>83.054</ele>
        <time>2019-11-01T15:02:52Z</time>
      </trkpt>
      <trkpt lat="28.833633" lon="-17.846084">
        <ele>88.447</ele>
        <time>2019-11-01T15:03:40Z</time>
      </trkpt>
      <trkpt lat="28.833504" lon="-17.846063">
        <ele>88.265</ele>
        <time>2019-11-01T15:04:14Z</time>
      </trkpt>
      <trkpt lat="28.833606" lon="-17.845895">
        <ele>91.788</ele>
        <time>2019-11-01T15:05:14Z</time>
      </trkpt>
      <trkpt lat="28.833676" lon="-17.845919">
        <ele>98.717</ele>
        <time>2019-11-01T15:06:05Z</time>
      </trkpt>
      <trkpt lat="28.834034" lon="-17.845645">
        <ele>113.935</ele>
        <time>2019-11-01T15:07:10Z</time>
      </trkpt>
      <trkpt lat="28.834153" lon="-17.845405">
        <ele>116.086</ele>
        <time>2019-11-01T15:07:40Z</time>
      </trkpt>
      <trkpt lat="28.833939" lon="-17.845339">
        <ele>114.214</ele>
        <time>2019-11-01T15:08:07Z</time>
      </trkpt>
      <trkpt lat="28.833548" lon="-17.845381">
        <ele>123.008</ele>
        <time>2019-11-01T15:09:24Z</time>
      </trkpt>
      <trkpt lat="28.833295" lon="-17.845287">
        <ele>128.447</ele>
        <time>2019-11-01T15:09:59Z</time>
      </trkpt>
      <trkpt lat="28.833661" lon="-17.844979">
        <ele>123.746</ele>
        <time>2019-11-01T15:11:34Z</time>
      </trkpt>
      <trkpt lat="28.834195" lon="-17.844732">
        <ele>142.935</ele>
        <time>2019-11-01T15:14:42Z</time>
      </trkpt>
      <trkpt lat="28.834175" lon="-17.844663">
        <ele>144.385</ele>
        <time>2019-11-01T15:14:50Z</time>
      </trkpt>
      <trkpt lat="28.834467" lon="-17.844681">
        <ele>140.058</ele>
        <time>2019-11-01T15:15:33Z</time>
      </trkpt>
      <trkpt lat="28.834472" lon="-17.844582">
        <ele>146.896</ele>
        <time>2019-11-01T15:16:05Z</time>
      </trkpt>
      <trkpt lat="28.834529" lon="-17.844601">
        <ele>150.869</ele>
        <time>2019-11-01T15:16:53Z</time>
      </trkpt>
      <trkpt lat="28.834454" lon="-17.844499">
        <ele>160.778</ele>
        <time>2019-11-01T15:18:11Z</time>
      </trkpt>
      <trkpt lat="28.834061" lon="-17.844386">
        <ele>166.739</ele>
        <time>2019-11-01T15:20:07Z</time>
      </trkpt>
      <trkpt lat="28.834058" lon="-17.844465">
        <ele>167.401</ele>
        <time>2019-11-01T15:20:16Z</time>
      </trkpt>
      <trkpt lat="28.834157" lon="-17.844290">
        <ele>168.921</ele>
        <time>2019-11-01T15:20:47Z</time>
      </trkpt>
      <trkpt lat="28.834070" lon="-17.844333">
        <ele>171.408</ele>
        <time>2019-11-01T15:21:14Z</time>
      </trkpt>
      <trkpt lat="28.834126" lon="-17.844342">
        <ele>171.827</ele>
        <time>2019-11-01T15:21:33Z</time>
      </trkpt>
      <trkpt lat="28.833990" lon="-17.844236">
        <ele>175.816</ele>
        <time>2019-11-01T15:22:28Z</time>
      </trkpt>
      <trkpt lat="28.833817" lon="-17.844319">
        <ele>180.395</ele>
        <time>2019-11-01T15:23:10Z</time>
      </trkpt>
      <trkpt lat="28.834053" lon="-17.844071">
        <ele>191.875</ele>
        <time>2019-11-01T15:24:25Z</time>
      </trkpt>
      <trkpt lat="28.834094" lon="-17.843480">
        <ele>198.438</ele>
        <time>2019-11-01T15:26:02Z</time>
      </trkpt>
      <trkpt lat="28.833629" lon="-17.843216">
        <ele>213.766</ele>
        <time>2019-11-01T15:28:49Z</time>
      </trkpt>
      <trkpt lat="28.833774" lon="-17.842983">
        <ele>221.879</ele>
        <time>2019-11-01T15:30:14Z</time>
      </trkpt>
      <trkpt lat="28.833487" lon="-17.842444">
        <ele>226.888</ele>
        <time>2019-11-01T15:30:55Z</time>
      </trkpt>
      <trkpt lat="28.833302" lon="-17.842359">
        <ele>230.175</ele>
        <time>2019-11-01T15:32:31Z</time>
      </trkpt>
      <trkpt lat="28.833188" lon="-17.842055">
        <ele>231.628</ele>
        <time>2019-11-01T15:32:43Z</time>
      </trkpt>
      <trkpt lat="28.833095" lon="-17.842013">
        <ele>230.820</ele>
        <time>2019-11-01T15:33:02Z</time>
      </trkpt>
      <trkpt lat="28.833027" lon="-17.841525">
        <ele>240.108</ele>
        <time>2019-11-01T15:33:56Z</time>
      </trkpt>
      <trkpt lat="28.832401" lon="-17.841312">
        <ele>238.671</ele>
        <time>2019-11-01T15:35:19Z</time>
      </trkpt>
      <trkpt lat="28.832357" lon="-17.840920">
        <ele>247.070</ele>
        <time>2019-11-01T15:36:18Z</time>
      </trkpt>
      <trkpt lat="28.832096" lon="-17.840822">
        <ele>251.039</ele>
        <time>2019-11-01T15:37:05Z</time>
      </trkpt>
      <trkpt lat="28.831789" lon="-17.839937">
        <ele>263.649</ele>
        <time>2019-11-01T15:38:48Z</time>
      </trkpt>
      <trkpt lat="28.831349" lon="-17.839295">
        <ele>269.972</ele>
        <time>2019-11-01T15:40:41Z</time>
      </trkpt>
      <trkpt lat="28.830992" lon="-17.839182">
        <ele>272.530</ele>
        <time>2019-11-01T15:41:47Z</time>
      </trkpt>
      <trkpt lat="28.831268" lon="-17.838830">
        <ele>286.343</ele>
        <time>2019-11-01T15:43:06Z</time>
      </trkpt>
      <trkpt lat="28.831217" lon="-17.838490">
        <ele>289.672</ele>
        <time>2019-11-01T15:43:46Z</time>
      </trkpt>
      <trkpt lat="28.830875" lon="-17.838305">
        <ele>298.846</ele>
        <time>2019-11-01T15:44:48Z</time>
      </trkpt>
      <trkpt lat="28.830723" lon="-17.838391">
        <ele>298.188</ele>
        <time>2019-11-01T15:45:28Z</time>
      </trkpt>
      <trkpt lat="28.830187" lon="-17.838334">
        <ele>305.316</ele>
        <time>2019-11-01T15:46:23Z</time>
      </trkpt>
      <trkpt lat="28.829415" lon="-17.838097">
        <ele>328.708</ele>
        <time>2019-11-01T15:49:53Z</time>
      </trkpt>
      <trkpt lat="28.829415" lon="-17.838237">
        <ele>329.828</ele>
        <time>2019-11-01T15:51:39Z</time>
      </trkpt>
      <trkpt lat="28.829405" lon="-17.838020">
        <ele>334.827</ele>
        <time>2019-11-01T15:52:00Z</time>
      </trkpt>
    </trkseg>
  </trk></gpx>