<?xml version="1.0" encoding="UTF-8"?>
<gpx version="1.1" creator="Aventuras en Cada Paso" xmlns="http://www.topografix.com/GPX/1/1">
  <metadata>
    <name>Taborno – Carboneras – Llano Frío</name>
    <desc>Circular completa por el corazón de Anaga: Taborno, Carboneras, Chinamada, Llano Frío y vuelta por el PR-TF 2. Exige orientación y buen calzado.</desc>
    <author><name>Aventuras en Cada Paso</name></author>
    <time>2026-07-08T08:12:58.161Z</time>
    <keywords>Tenerife, Senderismo, Difícil, senderismo Canarias</keywords>
  </metadata>
  <wpt lat="28.5742" lon="-16.2003">
    <name>Taborno – Carboneras – Llano Frío</name>
    <desc>Circular completa por el corazón de Anaga: Taborno, Carboneras, Chinamada, Llano Frío y vuelta por el PR-TF 2. Exige orientación y buen calzado. | Isla: Tenerife | Tipo: Senderismo | Dificultad: Difícil | Distancia: 17km | Duración: 4-8 horas</desc>
    <type>Senderismo</type>
    <extensions>
      <isla>Tenerife</isla>
      <dificultad>Difícil</dificultad>
      <distancia>17</distancia>
      <duracion>4-8 horas</duracion>
    </extensions>
  </wpt>
</gpx>