<?xml version="1.0" encoding="UTF-8"?>
<gpx creator="Wikiloc - https://www.wikiloc.com" version="1.1" xmlns="http://www.topografix.com/GPX/1/1" xmlns:xsi="http://www.w3.org/2001/XMLSchema-instance" xsi:schemaLocation="http://www.topografix.com/GPX/1/1 http://www.topografix.com/GPX/1/1/gpx.xsd">
  <metadata>
    <name>Wikiloc - 475 EL HIERRO. Arenas Blancas</name>
    <link href="https://www.wikiloc.com/hiking-trails/475-el-hierro-arenas-blancas-213954129">
      <text>475 EL HIERRO. Arenas Blancas - Wikiloc on Wikiloc</text>
    </link>
    <time>2025-05-17T11:57:23.422Z</time>
  </metadata>
  <trk>
    <name>475 EL HIERRO. Arenas Blancas - Wikiloc</name>
    <cmt></cmt>
    <desc></desc>
    <trkseg>
      <trkpt lat="27.768290" lon="-18.122943">
        <ele>10.511</ele>
        <time>2025-05-17T09:22:32.326Z</time>
      </trkpt>
      <trkpt lat="27.768247" lon="-18.122908">
        <ele>10.921</ele>
        <time>2025-05-17T09:22:38.377Z</time>
      </trkpt>
      <trkpt lat="27.768473" lon="-18.122883">
        <ele>8.403</ele>
        <time>2025-05-17T09:24:55.396Z</time>
      </trkpt>
      <trkpt lat="27.768568" lon="-18.123181">
        <ele>9.609</ele>
        <time>2025-05-17T09:26:08.395Z</time>
      </trkpt>
      <trkpt lat="27.768719" lon="-18.123327">
        <ele>10.543</ele>
        <time>2025-05-17T09:26:29.398Z</time>
      </trkpt>
      <trkpt lat="27.768741" lon="-18.123439">
        <ele>10.932</ele>
        <time>2025-05-17T09:26:39.401Z</time>
      </trkpt>
      <trkpt lat="27.768835" lon="-18.123434">
        <ele>10.374</ele>
        <time>2025-05-17T09:27:00.402Z</time>
      </trkpt>
      <trkpt lat="27.768858" lon="-18.123659">
        <ele>10.260</ele>
        <time>2025-05-17T09:29:03.420Z</time>
      </trkpt>
      <trkpt lat="27.768700" lon="-18.124096">
        <ele>11.566</ele>
        <time>2025-05-17T09:31:18.426Z</time>
      </trkpt>
      <trkpt lat="27.768796" lon="-18.124273">
        <ele>9.875</ele>
        <time>2025-05-17T09:32:15.411Z</time>
      </trkpt>
      <trkpt lat="27.768772" lon="-18.124487">
        <ele>10.862</ele>
        <time>2025-05-17T09:33:19.406Z</time>
      </trkpt>
      <trkpt lat="27.768872" lon="-18.124724">
        <ele>10.313</ele>
        <time>2025-05-17T09:34:22.433Z</time>
      </trkpt>
      <trkpt lat="27.768990" lon="-18.124825">
        <ele>9.550</ele>
        <time>2025-05-17T09:34:41.424Z</time>
      </trkpt>
      <trkpt lat="27.769030" lon="-18.124988">
        <ele>10.829</ele>
        <time>2025-05-17T09:34:58.430Z</time>
      </trkpt>
      <trkpt lat="27.769001" lon="-18.124878">
        <ele>10.000</ele>
        <time>2025-05-17T09:35:12.427Z</time>
      </trkpt>
      <trkpt lat="27.769051" lon="-18.124916">
        <ele>9.520</ele>
        <time>2025-05-17T09:35:59.429Z</time>
      </trkpt>
      <trkpt lat="27.768997" lon="-18.124925">
        <ele>10.709</ele>
        <time>2025-05-17T09:36:08.417Z</time>
      </trkpt>
      <trkpt lat="27.769049" lon="-18.125132">
        <ele>11.474</ele>
        <time>2025-05-17T09:36:43.420Z</time>
      </trkpt>
      <trkpt lat="27.769141" lon="-18.125157">
        <ele>10.133</ele>
        <time>2025-05-17T09:37:03.417Z</time>
      </trkpt>
      <trkpt lat="27.769236" lon="-18.125392">
        <ele>11.275</ele>
        <time>2025-05-17T09:38:15.423Z</time>
      </trkpt>
      <trkpt lat="27.769512" lon="-18.125600">
        <ele>10.051</ele>
        <time>2025-05-17T09:39:35.425Z</time>
      </trkpt>
      <trkpt lat="27.769656" lon="-18.125948">
        <ele>12.877</ele>
        <time>2025-05-17T09:40:16.412Z</time>
      </trkpt>
      <trkpt lat="27.769776" lon="-18.125972">
        <ele>11.036</ele>
        <time>2025-05-17T09:41:03.425Z</time>
      </trkpt>
      <trkpt lat="27.769988" lon="-18.126180">
        <ele>9.083</ele>
        <time>2025-05-17T09:42:03.418Z</time>
      </trkpt>
      <trkpt lat="27.770007" lon="-18.126398">
        <ele>10.974</ele>
        <time>2025-05-17T09:42:44.415Z</time>
      </trkpt>
      <trkpt lat="27.769908" lon="-18.126631">
        <ele>14.421</ele>
        <time>2025-05-17T09:43:32.422Z</time>
      </trkpt>
      <trkpt lat="27.769957" lon="-18.126775">
        <ele>14.532</ele>
        <time>2025-05-17T09:45:22.413Z</time>
      </trkpt>
      <trkpt lat="27.770017" lon="-18.126770">
        <ele>13.392</ele>
        <time>2025-05-17T09:46:19.400Z</time>
      </trkpt>
      <trkpt lat="27.769923" lon="-18.126758">
        <ele>15.011</ele>
        <time>2025-05-17T09:47:09.406Z</time>
      </trkpt>
      <trkpt lat="27.770108" lon="-18.127194">
        <ele>15.009</ele>
        <time>2025-05-17T09:48:09.431Z</time>
      </trkpt>
      <trkpt lat="27.770197" lon="-18.127248">
        <ele>13.125</ele>
        <time>2025-05-17T09:48:19.418Z</time>
      </trkpt>
      <trkpt lat="27.770268" lon="-18.127408">
        <ele>11.994</ele>
        <time>2025-05-17T09:48:33.416Z</time>
      </trkpt>
      <trkpt lat="27.770302" lon="-18.127732">
        <ele>13.816</ele>
        <time>2025-05-17T09:49:08.413Z</time>
      </trkpt>
      <trkpt lat="27.770226" lon="-18.127956">
        <ele>16.932</ele>
        <time>2025-05-17T09:49:52.423Z</time>
      </trkpt>
      <trkpt lat="27.770119" lon="-18.128057">
        <ele>18.738</ele>
        <time>2025-05-17T09:50:07.414Z</time>
      </trkpt>
      <trkpt lat="27.770214" lon="-18.128222">
        <ele>18.397</ele>
        <time>2025-05-17T09:50:32.421Z</time>
      </trkpt>
      <trkpt lat="27.770503" lon="-18.128346">
        <ele>12.324</ele>
        <time>2025-05-17T09:51:18.430Z</time>
      </trkpt>
      <trkpt lat="27.770532" lon="-18.129107">
        <ele>12.965</ele>
        <time>2025-05-17T09:52:31.418Z</time>
      </trkpt>
      <trkpt lat="27.770515" lon="-18.129219">
        <ele>13.982</ele>
        <time>2025-05-17T09:52:41.418Z</time>
      </trkpt>
      <trkpt lat="27.770440" lon="-18.129205">
        <ele>14.516</ele>
        <time>2025-05-17T09:54:05.422Z</time>
      </trkpt>
      <trkpt lat="27.770650" lon="-18.129402">
        <ele>13.276</ele>
        <time>2025-05-17T09:54:39.423Z</time>
      </trkpt>
      <trkpt lat="27.770827" lon="-18.130200">
        <ele>9.613</ele>
        <time>2025-05-17T09:56:51.422Z</time>
      </trkpt>
      <trkpt lat="27.770796" lon="-18.130241">
        <ele>9.609</ele>
        <time>2025-05-17T09:57:49.439Z</time>
      </trkpt>
      <trkpt lat="27.770786" lon="-18.130190">
        <ele>10.113</ele>
        <time>2025-05-17T09:58:08.423Z</time>
      </trkpt>
      <trkpt lat="27.770694" lon="-18.130190">
        <ele>11.032</ele>
        <time>2025-05-17T09:58:21.422Z</time>
      </trkpt>
      <trkpt lat="27.770632" lon="-18.130258">
        <ele>10.724</ele>
        <time>2025-05-17T09:59:47.427Z</time>
      </trkpt>
      <trkpt lat="27.770503" lon="-18.130035">
        <ele>14.970</ele>
        <time>2025-05-17T10:00:39.461Z</time>
      </trkpt>
      <trkpt lat="27.770125" lon="-18.130229">
        <ele>15.066</ele>
        <time>2025-05-17T10:01:59.436Z</time>
      </trkpt>
      <trkpt lat="27.770077" lon="-18.130346">
        <ele>14.745</ele>
        <time>2025-05-17T10:02:34.446Z</time>
      </trkpt>
      <trkpt lat="27.770475" lon="-18.130737">
        <ele>12.872</ele>
        <time>2025-05-17T10:05:19.442Z</time>
      </trkpt>
      <trkpt lat="27.770474" lon="-18.130942">
        <ele>13.973</ele>
        <time>2025-05-17T10:05:47.447Z</time>
      </trkpt>
      <trkpt lat="27.770837" lon="-18.131491">
        <ele>7.960</ele>
        <time>2025-05-17T10:08:01.447Z</time>
      </trkpt>
      <trkpt lat="27.770845" lon="-18.131654">
        <ele>7.843</ele>
        <time>2025-05-17T10:09:00.442Z</time>
      </trkpt>
      <trkpt lat="27.770767" lon="-18.131729">
        <ele>8.964</ele>
        <time>2025-05-17T10:09:09.446Z</time>
      </trkpt>
      <trkpt lat="27.770822" lon="-18.131937">
        <ele>7.210</ele>
        <time>2025-05-17T10:09:30.453Z</time>
      </trkpt>
      <trkpt lat="27.770641" lon="-18.132080">
        <ele>7.609</ele>
        <time>2025-05-17T10:13:02.435Z</time>
      </trkpt>
      <trkpt lat="27.770281" lon="-18.132106">
        <ele>11.226</ele>
        <time>2025-05-17T10:13:40.450Z</time>
      </trkpt>
      <trkpt lat="27.770199" lon="-18.132317">
        <ele>10.085</ele>
        <time>2025-05-17T10:14:02.442Z</time>
      </trkpt>
      <trkpt lat="27.770109" lon="-18.132274">
        <ele>11.957</ele>
        <time>2025-05-17T10:14:11.428Z</time>
      </trkpt>
      <trkpt lat="27.770011" lon="-18.132733">
        <ele>10.953</ele>
        <time>2025-05-17T10:15:17.439Z</time>
      </trkpt>
      <trkpt lat="27.770037" lon="-18.132839">
        <ele>10.269</ele>
        <time>2025-05-17T10:15:46.438Z</time>
      </trkpt>
      <trkpt lat="27.770160" lon="-18.132894">
        <ele>6.838</ele>
        <time>2025-05-17T10:16:03.429Z</time>
      </trkpt>
      <trkpt lat="27.770221" lon="-18.133105">
        <ele>5.665</ele>
        <time>2025-05-17T10:16:22.413Z</time>
      </trkpt>
      <trkpt lat="27.770167" lon="-18.133199">
        <ele>6.856</ele>
        <time>2025-05-17T10:16:31.444Z</time>
      </trkpt>
      <trkpt lat="27.770260" lon="-18.133244">
        <ele>4.483</ele>
        <time>2025-05-17T10:16:42.447Z</time>
      </trkpt>
      <trkpt lat="27.770262" lon="-18.133306">
        <ele>4.425</ele>
        <time>2025-05-17T10:16:47.431Z</time>
      </trkpt>
      <trkpt lat="27.770110" lon="-18.133443">
        <ele>7.026</ele>
        <time>2025-05-17T10:17:05.428Z</time>
      </trkpt>
      <trkpt lat="27.770120" lon="-18.133551">
        <ele>6.208</ele>
        <time>2025-05-17T10:17:16.421Z</time>
      </trkpt>
      <trkpt lat="27.770071" lon="-18.133561">
        <ele>7.009</ele>
        <time>2025-05-17T10:17:29.428Z</time>
      </trkpt>
      <trkpt lat="27.770037" lon="-18.133458">
        <ele>8.494</ele>
        <time>2025-05-17T10:18:35.433Z</time>
      </trkpt>
      <trkpt lat="27.769869" lon="-18.133580">
        <ele>10.193</ele>
        <time>2025-05-17T10:19:23.430Z</time>
      </trkpt>
      <trkpt lat="27.769810" lon="-18.133484">
        <ele>11.795</ele>
        <time>2025-05-17T10:20:06.420Z</time>
      </trkpt>
      <trkpt lat="27.769918" lon="-18.133541">
        <ele>9.711</ele>
        <time>2025-05-17T10:20:58.444Z</time>
      </trkpt>
      <trkpt lat="27.769792" lon="-18.133536">
        <ele>11.557</ele>
        <time>2025-05-17T10:22:33.435Z</time>
      </trkpt>
      <trkpt lat="27.769577" lon="-18.134048">
        <ele>13.666</ele>
        <time>2025-05-17T10:24:00.434Z</time>
      </trkpt>
      <trkpt lat="27.769514" lon="-18.134140">
        <ele>13.853</ele>
        <time>2025-05-17T10:24:13.427Z</time>
      </trkpt>
      <trkpt lat="27.769420" lon="-18.134155">
        <ele>15.664</ele>
        <time>2025-05-17T10:24:26.435Z</time>
      </trkpt>
      <trkpt lat="27.769443" lon="-18.134213">
        <ele>14.061</ele>
        <time>2025-05-17T10:24:43.437Z</time>
      </trkpt>
      <trkpt lat="27.769297" lon="-18.134426">
        <ele>12.597</ele>
        <time>2025-05-17T10:25:27.442Z</time>
      </trkpt>
      <trkpt lat="27.769111" lon="-18.134426">
        <ele>16.523</ele>
        <time>2025-05-17T10:27:50.434Z</time>
      </trkpt>
      <trkpt lat="27.769081" lon="-18.134537">
        <ele>14.725</ele>
        <time>2025-05-17T10:28:01.440Z</time>
      </trkpt>
      <trkpt lat="27.768893" lon="-18.134585">
        <ele>17.409</ele>
        <time>2025-05-17T10:28:20.410Z</time>
      </trkpt>
      <trkpt lat="27.768890" lon="-18.134690">
        <ele>14.811</ele>
        <time>2025-05-17T10:28:30.429Z</time>
      </trkpt>
      <trkpt lat="27.768787" lon="-18.134691">
        <ele>16.830</ele>
        <time>2025-05-17T10:28:39.436Z</time>
      </trkpt>
      <trkpt lat="27.768825" lon="-18.134660">
        <ele>16.742</ele>
        <time>2025-05-17T10:28:50.446Z</time>
      </trkpt>
      <trkpt lat="27.768835" lon="-18.134716">
        <ele>15.398</ele>
        <time>2025-05-17T10:29:12.445Z</time>
      </trkpt>
      <trkpt lat="27.768743" lon="-18.134682">
        <ele>17.974</ele>
        <time>2025-05-17T10:29:19.433Z</time>
      </trkpt>
      <trkpt lat="27.768657" lon="-18.134727">
        <ele>18.843</ele>
        <time>2025-05-17T10:29:29.432Z</time>
      </trkpt>
      <trkpt lat="27.768358" lon="-18.134595">
        <ele>23.270</ele>
        <time>2025-05-17T10:30:02.437Z</time>
      </trkpt>
      <trkpt lat="27.768154" lon="-18.134723">
        <ele>23.941</ele>
        <time>2025-05-17T10:30:56.435Z</time>
      </trkpt>
      <trkpt lat="27.768012" lon="-18.134737">
        <ele>24.798</ele>
        <time>2025-05-17T10:31:12.442Z</time>
      </trkpt>
      <trkpt lat="27.768058" lon="-18.134738">
        <ele>24.693</ele>
        <time>2025-05-17T10:31:29.431Z</time>
      </trkpt>
      <trkpt lat="27.767975" lon="-18.134725">
        <ele>24.965</ele>
        <time>2025-05-17T10:32:37.418Z</time>
      </trkpt>
      <trkpt lat="27.767978" lon="-18.134667">
        <ele>25.621</ele>
        <time>2025-05-17T10:33:10.422Z</time>
      </trkpt>
      <trkpt lat="27.767850" lon="-18.134779">
        <ele>24.009</ele>
        <time>2025-05-17T10:34:15.437Z</time>
      </trkpt>
      <trkpt lat="27.767710" lon="-18.134720">
        <ele>25.331</ele>
        <time>2025-05-17T10:34:31.424Z</time>
      </trkpt>
      <trkpt lat="27.767574" lon="-18.134774">
        <ele>25.380</ele>
        <time>2025-05-17T10:34:45.411Z</time>
      </trkpt>
      <trkpt lat="27.767523" lon="-18.134692">
        <ele>26.212</ele>
        <time>2025-05-17T10:35:09.418Z</time>
      </trkpt>
      <trkpt lat="27.767429" lon="-18.134688">
        <ele>27.118</ele>
        <time>2025-05-17T10:35:47.436Z</time>
      </trkpt>
      <trkpt lat="27.767522" lon="-18.135029">
        <ele>23.514</ele>
        <time>2025-05-17T10:39:06.408Z</time>
      </trkpt>
      <trkpt lat="27.767345" lon="-18.135200">
        <ele>24.693</ele>
        <time>2025-05-17T10:41:55.419Z</time>
      </trkpt>
      <trkpt lat="27.767557" lon="-18.135404">
        <ele>19.780</ele>
        <time>2025-05-17T10:42:37.407Z</time>
      </trkpt>
      <trkpt lat="27.767515" lon="-18.135616">
        <ele>18.181</ele>
        <time>2025-05-17T10:42:58.406Z</time>
      </trkpt>
      <trkpt lat="27.767427" lon="-18.135764">
        <ele>18.198</ele>
        <time>2025-05-17T10:44:18.416Z</time>
      </trkpt>
      <trkpt lat="27.767241" lon="-18.135847">
        <ele>20.468</ele>
        <time>2025-05-17T10:44:43.405Z</time>
      </trkpt>
      <trkpt lat="27.767003" lon="-18.136025">
        <ele>21.542</ele>
        <time>2025-05-17T10:45:27.414Z</time>
      </trkpt>
      <trkpt lat="27.767043" lon="-18.136052">
        <ele>20.326</ele>
        <time>2025-05-17T10:45:38.416Z</time>
      </trkpt>
      <trkpt lat="27.767003" lon="-18.136080">
        <ele>20.509</ele>
        <time>2025-05-17T10:45:43.401Z</time>
      </trkpt>
      <trkpt lat="27.766990" lon="-18.136031">
        <ele>21.688</ele>
        <time>2025-05-17T10:46:02.405Z</time>
      </trkpt>
      <trkpt lat="27.767003" lon="-18.136145">
        <ele>18.947</ele>
        <time>2025-05-17T10:46:46.410Z</time>
      </trkpt>
      <trkpt lat="27.766910" lon="-18.136162">
        <ele>19.889</ele>
        <time>2025-05-17T10:47:38.420Z</time>
      </trkpt>
      <trkpt lat="27.766785" lon="-18.136315">
        <ele>17.145</ele>
        <time>2025-05-17T10:48:25.396Z</time>
      </trkpt>
      <trkpt lat="27.766819" lon="-18.136280">
        <ele>17.681</ele>
        <time>2025-05-17T10:49:11.402Z</time>
      </trkpt>
      <trkpt lat="27.766487" lon="-18.136419">
        <ele>16.510</ele>
        <time>2025-05-17T10:49:56.420Z</time>
      </trkpt>
      <trkpt lat="27.766498" lon="-18.136353">
        <ele>17.867</ele>
        <time>2025-05-17T10:50:13.410Z</time>
      </trkpt>
      <trkpt lat="27.766598" lon="-18.136361">
        <ele>17.618</ele>
        <time>2025-05-17T10:50:28.415Z</time>
      </trkpt>
      <trkpt lat="27.766242" lon="-18.136497">
        <ele>16.285</ele>
        <time>2025-05-17T10:52:59.397Z</time>
      </trkpt>
      <trkpt lat="27.766242" lon="-18.136779">
        <ele>13.769</ele>
        <time>2025-05-17T10:53:24.406Z</time>
      </trkpt>
      <trkpt lat="27.766178" lon="-18.136931">
        <ele>14.104</ele>
        <time>2025-05-17T10:53:41.414Z</time>
      </trkpt>
      <trkpt lat="27.766470" lon="-18.136915">
        <ele>11.224</ele>
        <time>2025-05-17T10:54:14.415Z</time>
      </trkpt>
      <trkpt lat="27.766585" lon="-18.137016">
        <ele>10.809</ele>
        <time>2025-05-17T10:54:28.413Z</time>
      </trkpt>
      <trkpt lat="27.766541" lon="-18.137165">
        <ele>10.658</ele>
        <time>2025-05-17T10:54:41.421Z</time>
      </trkpt>
      <trkpt lat="27.766498" lon="-18.137142">
        <ele>10.797</ele>
        <time>2025-05-17T10:55:03.422Z</time>
      </trkpt>
      <trkpt lat="27.766326" lon="-18.137342">
        <ele>11.629</ele>
        <time>2025-05-17T10:55:38.428Z</time>
      </trkpt>
      <trkpt lat="27.766316" lon="-18.137513">
        <ele>11.245</ele>
        <time>2025-05-17T10:55:56.418Z</time>
      </trkpt>
      <trkpt lat="27.766395" lon="-18.137663">
        <ele>8.231</ele>
        <time>2025-05-17T10:56:11.429Z</time>
      </trkpt>
      <trkpt lat="27.766053" lon="-18.137763">
        <ele>14.370</ele>
        <time>2025-05-17T10:56:50.427Z</time>
      </trkpt>
      <trkpt lat="27.765955" lon="-18.137973">
        <ele>15.187</ele>
        <time>2025-05-17T10:57:10.418Z</time>
      </trkpt>
      <trkpt lat="27.765669" lon="-18.138182">
        <ele>21.638</ele>
        <time>2025-05-17T10:57:47.420Z</time>
      </trkpt>
      <trkpt lat="27.765667" lon="-18.138290">
        <ele>21.215</ele>
        <time>2025-05-17T10:57:57.421Z</time>
      </trkpt>
      <trkpt lat="27.765588" lon="-18.138332">
        <ele>23.874</ele>
        <time>2025-05-17T10:58:11.417Z</time>
      </trkpt>
      <trkpt lat="27.765632" lon="-18.138346">
        <ele>22.156</ele>
        <time>2025-05-17T10:58:30.410Z</time>
      </trkpt>
      <trkpt lat="27.765553" lon="-18.138347">
        <ele>24.921</ele>
        <time>2025-05-17T11:00:16.402Z</time>
      </trkpt>
      <trkpt lat="27.765597" lon="-18.138323">
        <ele>23.509</ele>
        <time>2025-05-17T11:01:21.410Z</time>
      </trkpt>
      <trkpt lat="27.765673" lon="-18.138524">
        <ele>18.479</ele>
        <time>2025-05-17T11:02:38.414Z</time>
      </trkpt>
      <trkpt lat="27.765621" lon="-18.138592">
        <ele>19.668</ele>
        <time>2025-05-17T11:02:48.429Z</time>
      </trkpt>
      <trkpt lat="27.765529" lon="-18.138544">
        <ele>23.290</ele>
        <time>2025-05-17T11:03:02.413Z</time>
      </trkpt>
      <trkpt lat="27.765573" lon="-18.138506">
        <ele>22.536</ele>
        <time>2025-05-17T11:03:17.408Z</time>
      </trkpt>
      <trkpt lat="27.765527" lon="-18.138530">
        <ele>23.362</ele>
        <time>2025-05-17T11:03:49.416Z</time>
      </trkpt>
      <trkpt lat="27.765480" lon="-18.138975">
        <ele>20.321</ele>
        <time>2025-05-17T11:04:30.409Z</time>
      </trkpt>
      <trkpt lat="27.765581" lon="-18.139085">
        <ele>16.628</ele>
        <time>2025-05-17T11:06:42.424Z</time>
      </trkpt>
      <trkpt lat="27.765495" lon="-18.139154">
        <ele>18.679</ele>
        <time>2025-05-17T11:07:14.419Z</time>
      </trkpt>
      <trkpt lat="27.765558" lon="-18.139071">
        <ele>17.686</ele>
        <time>2025-05-17T11:07:40.430Z</time>
      </trkpt>
      <trkpt lat="27.765428" lon="-18.138973">
        <ele>21.672</ele>
        <time>2025-05-17T11:13:07.422Z</time>
      </trkpt>
      <trkpt lat="27.765405" lon="-18.138748">
        <ele>23.813</ele>
        <time>2025-05-17T11:13:34.434Z</time>
      </trkpt>
      <trkpt lat="27.765443" lon="-18.138777">
        <ele>22.714</ele>
        <time>2025-05-17T11:13:44.418Z</time>
      </trkpt>
      <trkpt lat="27.764169" lon="-18.138118">
        <ele>29.009</ele>
        <time>2025-05-17T11:16:10.431Z</time>
      </trkpt>
      <trkpt lat="27.763884" lon="-18.137886">
        <ele>32.679</ele>
        <time>2025-05-17T11:16:43.414Z</time>
      </trkpt>
      <trkpt lat="27.763659" lon="-18.137769">
        <ele>33.958</ele>
        <time>2025-05-17T11:17:09.411Z</time>
      </trkpt>
      <trkpt lat="27.763567" lon="-18.137791">
        <ele>34.140</ele>
        <time>2025-05-17T11:17:21.411Z</time>
      </trkpt>
      <trkpt lat="27.763540" lon="-18.137749">
        <ele>34.566</ele>
        <time>2025-05-17T11:17:46.406Z</time>
      </trkpt>
      <trkpt lat="27.763634" lon="-18.137700">
        <ele>34.752</ele>
        <time>2025-05-17T11:18:35.417Z</time>
      </trkpt>
      <trkpt lat="27.763395" lon="-18.137512">
        <ele>36.931</ele>
        <time>2025-05-17T11:19:09.406Z</time>
      </trkpt>
      <trkpt lat="27.763258" lon="-18.137043">
        <ele>41.388</ele>
        <time>2025-05-17T11:20:25.417Z</time>
      </trkpt>
      <trkpt lat="27.763731" lon="-18.136184">
        <ele>41.059</ele>
        <time>2025-05-17T11:21:57.409Z</time>
      </trkpt>
      <trkpt lat="27.765302" lon="-18.132730">
        <ele>37.746</ele>
        <time>2025-05-17T11:28:10.422Z</time>
      </trkpt>
      <trkpt lat="27.765434" lon="-18.132552">
        <ele>39.399</ele>
        <time>2025-05-17T11:28:26.407Z</time>
      </trkpt>
      <trkpt lat="27.765596" lon="-18.132135">
        <ele>40.907</ele>
        <time>2025-05-17T11:29:16.401Z</time>
      </trkpt>
      <trkpt lat="27.765616" lon="-18.132187">
        <ele>40.527</ele>
        <time>2025-05-17T11:29:28.413Z</time>
      </trkpt>
      <trkpt lat="27.766215" lon="-18.130857">
        <ele>38.809</ele>
        <time>2025-05-17T11:32:12.399Z</time>
      </trkpt>
      <trkpt lat="27.766487" lon="-18.130416">
        <ele>37.661</ele>
        <time>2025-05-17T11:32:50.403Z</time>
      </trkpt>
      <trkpt lat="27.766708" lon="-18.129623">
        <ele>34.550</ele>
        <time>2025-05-17T11:34:28.407Z</time>
      </trkpt>
      <trkpt lat="27.766849" lon="-18.128212">
        <ele>30.022</ele>
        <time>2025-05-17T11:36:32.412Z</time>
      </trkpt>
      <trkpt lat="27.766833" lon="-18.127373">
        <ele>25.748</ele>
        <time>2025-05-17T11:38:02.397Z</time>
      </trkpt>
      <trkpt lat="27.766676" lon="-18.126940">
        <ele>25.024</ele>
        <time>2025-05-17T11:38:37.404Z</time>
      </trkpt>
      <trkpt lat="27.766239" lon="-18.126455">
        <ele>27.533</ele>
        <time>2025-05-17T11:40:08.403Z</time>
      </trkpt>
      <trkpt lat="27.766107" lon="-18.126216">
        <ele>28.060</ele>
        <time>2025-05-17T11:41:03.402Z</time>
      </trkpt>
      <trkpt lat="27.766059" lon="-18.126221">
        <ele>28.171</ele>
        <time>2025-05-17T11:41:08.396Z</time>
      </trkpt>
      <trkpt lat="27.766285" lon="-18.126093">
        <ele>27.318</ele>
        <time>2025-05-17T11:41:45.412Z</time>
      </trkpt>
      <trkpt lat="27.767149" lon="-18.124675">
        <ele>21.985</ele>
        <time>2025-05-17T11:43:46.410Z</time>
      </trkpt>
      <trkpt lat="27.767757" lon="-18.123985">
        <ele>14.789</ele>
        <time>2025-05-17T11:44:56.423Z</time>
      </trkpt>
      <trkpt lat="27.768001" lon="-18.123546">
        <ele>13.017</ele>
        <time>2025-05-17T11:45:36.425Z</time>
      </trkpt>
      <trkpt lat="27.768050" lon="-18.123193">
        <ele>13.009</ele>
        <time>2025-05-17T11:46:02.420Z</time>
      </trkpt>
      <trkpt lat="27.767891" lon="-18.122971">
        <ele>13.290</ele>
        <time>2025-05-17T11:46:25.416Z</time>
      </trkpt>
      <trkpt lat="27.767780" lon="-18.122932">
        <ele>13.139</ele>
        <time>2025-05-17T11:46:34.418Z</time>
      </trkpt>
      <trkpt lat="27.767652" lon="-18.122741">
        <ele>11.361</ele>
        <time>2025-05-17T11:46:50.425Z</time>
      </trkpt>
      <trkpt lat="27.767399" lon="-18.122535">
        <ele>9.637</ele>
        <time>2025-05-17T11:47:16.415Z</time>
      </trkpt>
      <trkpt lat="27.767323" lon="-18.122283">
        <ele>7.983</ele>
        <time>2025-05-17T11:47:38.425Z</time>
      </trkpt>
      <trkpt lat="27.767201" lon="-18.122243">
        <ele>7.242</ele>
        <time>2025-05-17T11:47:51.427Z</time>
      </trkpt>
      <trkpt lat="27.766921" lon="-18.121932">
        <ele>3.229</ele>
        <time>2025-05-17T11:50:06.420Z</time>
      </trkpt>
      <trkpt lat="27.766771" lon="-18.121683">
        <ele>4.240</ele>
        <time>2025-05-17T11:50:37.413Z</time>
      </trkpt>
      <trkpt lat="27.766806" lon="-18.121415">
        <ele>3.577</ele>
        <time>2025-05-17T11:51:11.422Z</time>
      </trkpt>
      <trkpt lat="27.766844" lon="-18.121383">
        <ele>3.386</ele>
        <time>2025-05-17T11:51:31.405Z</time>
      </trkpt>
      <trkpt lat="27.766809" lon="-18.121425">
        <ele>3.660</ele>
        <time>2025-05-17T11:52:11.424Z</time>
      </trkpt>
      <trkpt lat="27.766921" lon="-18.121784">
        <ele>3.226</ele>
        <time>2025-05-17T11:53:18.409Z</time>
      </trkpt>
      <trkpt lat="27.767438" lon="-18.122525">
        <ele>9.409</ele>
        <time>2025-05-17T11:55:27.428Z</time>
      </trkpt>
      <trkpt lat="27.768003" lon="-18.123033">
        <ele>13.210</ele>
        <time>2025-05-17T11:56:34.437Z</time>
      </trkpt>
      <trkpt lat="27.768121" lon="-18.122935">
        <ele>12.389</ele>
        <time>2025-05-17T11:56:51.423Z</time>
      </trkpt>
      <trkpt lat="27.768249" lon="-18.122946">
        <ele>10.971</ele>
        <time>2025-05-17T11:57:23.422Z</time>
      </trkpt>
    </trkseg>
  </trk></gpx>