<?xml version="1.0" encoding="UTF-8"?>
<gpx creator="Wikiloc - https://www.wikiloc.com" version="1.1" xmlns="http://www.topografix.com/GPX/1/1" xmlns:xsi="http://www.w3.org/2001/XMLSchema-instance" xsi:schemaLocation="http://www.topografix.com/GPX/1/1 http://www.topografix.com/GPX/1/1/gpx.xsd">
  <metadata>
    <name>Wikiloc - Ruta guiada por Zona de Control del Volcán de Tajogaite. Cum...</name>
    <link href="https://www.wikiloc.com/hiking-trails/ruta-guiada-por-zona-de-control-del-volcan-de-tajogaite-cumbre-vieja-isla-de-la-palma-209949051">
      <text>Ruta guiada por Zona de Control del Volcán de Tajogaite. Cum... on Wikiloc</text>
    </link>
    <time>2025-04-20T18:56:36.559Z</time>
  </metadata>
  <trk>
    <name>Ruta guiada por Zona de Control del Volcán de Tajogaite. Cum... - Wikiloc</name>
    <cmt></cmt>
    <desc></desc>
    <trkseg>
      <trkpt lat="28.622695" lon="-17.842544">
        <ele>1271.146</ele>
        <time>2025-04-20T15:33:36.734Z</time>
      </trkpt>
      <trkpt lat="28.622641" lon="-17.842578">
        <ele>1269.488</ele>
        <time>2025-04-20T15:33:38.556Z</time>
      </trkpt>
      <trkpt lat="28.622641" lon="-17.842518">
        <ele>1269.516</ele>
        <time>2025-04-20T15:33:40.558Z</time>
      </trkpt>
      <trkpt lat="28.622803" lon="-17.842612">
        <ele>1274.009</ele>
        <time>2025-04-20T15:34:08.558Z</time>
      </trkpt>
      <trkpt lat="28.622806" lon="-17.842688">
        <ele>1273.626</ele>
        <time>2025-04-20T15:39:32.558Z</time>
      </trkpt>
      <trkpt lat="28.622560" lon="-17.843170">
        <ele>1264.184</ele>
        <time>2025-04-20T15:40:45.558Z</time>
      </trkpt>
      <trkpt lat="28.622548" lon="-17.843554">
        <ele>1260.683</ele>
        <time>2025-04-20T15:41:15.558Z</time>
      </trkpt>
      <trkpt lat="28.622670" lon="-17.844064">
        <ele>1260.313</ele>
        <time>2025-04-20T15:41:52.558Z</time>
      </trkpt>
      <trkpt lat="28.623210" lon="-17.845280">
        <ele>1248.528</ele>
        <time>2025-04-20T15:44:43.558Z</time>
      </trkpt>
      <trkpt lat="28.623133" lon="-17.846344">
        <ele>1237.083</ele>
        <time>2025-04-20T15:48:10.558Z</time>
      </trkpt>
      <trkpt lat="28.623051" lon="-17.846612">
        <ele>1233.154</ele>
        <time>2025-04-20T15:48:34.558Z</time>
      </trkpt>
      <trkpt lat="28.622711" lon="-17.847087">
        <ele>1234.349</ele>
        <time>2025-04-20T15:49:22.558Z</time>
      </trkpt>
      <trkpt lat="28.622093" lon="-17.847345">
        <ele>1237.195</ele>
        <time>2025-04-20T15:50:27.558Z</time>
      </trkpt>
      <trkpt lat="28.622062" lon="-17.847546">
        <ele>1236.186</ele>
        <time>2025-04-20T15:50:51.558Z</time>
      </trkpt>
      <trkpt lat="28.621587" lon="-17.848371">
        <ele>1239.060</ele>
        <time>2025-04-20T15:56:46.558Z</time>
      </trkpt>
      <trkpt lat="28.621024" lon="-17.849095">
        <ele>1244.326</ele>
        <time>2025-04-20T15:58:04.558Z</time>
      </trkpt>
      <trkpt lat="28.620751" lon="-17.849891">
        <ele>1246.309</ele>
        <time>2025-04-20T15:59:21.558Z</time>
      </trkpt>
      <trkpt lat="28.620091" lon="-17.850409">
        <ele>1246.630</ele>
        <time>2025-04-20T16:00:42.558Z</time>
      </trkpt>
      <trkpt lat="28.619944" lon="-17.850599">
        <ele>1247.018</ele>
        <time>2025-04-20T16:01:02.558Z</time>
      </trkpt>
      <trkpt lat="28.619474" lon="-17.851744">
        <ele>1247.457</ele>
        <time>2025-04-20T16:02:45.558Z</time>
      </trkpt>
      <trkpt lat="28.619200" lon="-17.852068">
        <ele>1246.377</ele>
        <time>2025-04-20T16:03:18.558Z</time>
      </trkpt>
      <trkpt lat="28.619036" lon="-17.852426">
        <ele>1243.542</ele>
        <time>2025-04-20T16:03:52.558Z</time>
      </trkpt>
      <trkpt lat="28.619162" lon="-17.852676">
        <ele>1239.177</ele>
        <time>2025-04-20T16:04:17.558Z</time>
      </trkpt>
      <trkpt lat="28.619166" lon="-17.853287">
        <ele>1230.758</ele>
        <time>2025-04-20T16:05:08.558Z</time>
      </trkpt>
      <trkpt lat="28.619024" lon="-17.853425">
        <ele>1228.013</ele>
        <time>2025-04-20T16:05:24.558Z</time>
      </trkpt>
      <trkpt lat="28.618829" lon="-17.853459">
        <ele>1226.459</ele>
        <time>2025-04-20T16:05:43.558Z</time>
      </trkpt>
      <trkpt lat="28.618598" lon="-17.853923">
        <ele>1219.426</ele>
        <time>2025-04-20T16:06:29.558Z</time>
      </trkpt>
      <trkpt lat="28.618734" lon="-17.854910">
        <ele>1204.447</ele>
        <time>2025-04-20T16:07:52.558Z</time>
      </trkpt>
      <trkpt lat="28.618894" lon="-17.855164">
        <ele>1201.911</ele>
        <time>2025-04-20T16:09:19.558Z</time>
      </trkpt>
      <trkpt lat="28.619104" lon="-17.855927">
        <ele>1182.709</ele>
        <time>2025-04-20T16:11:26.558Z</time>
      </trkpt>
      <trkpt lat="28.618819" lon="-17.856388">
        <ele>1171.014</ele>
        <time>2025-04-20T16:12:27.558Z</time>
      </trkpt>
      <trkpt lat="28.618973" lon="-17.856663">
        <ele>1168.052</ele>
        <time>2025-04-20T16:12:55.558Z</time>
      </trkpt>
      <trkpt lat="28.618927" lon="-17.857166">
        <ele>1160.051</ele>
        <time>2025-04-20T16:13:39.558Z</time>
      </trkpt>
      <trkpt lat="28.619074" lon="-17.857573">
        <ele>1152.911</ele>
        <time>2025-04-20T16:14:13.558Z</time>
      </trkpt>
      <trkpt lat="28.618976" lon="-17.857774">
        <ele>1151.516</ele>
        <time>2025-04-20T16:14:37.558Z</time>
      </trkpt>
      <trkpt lat="28.619115" lon="-17.857856">
        <ele>1147.061</ele>
        <time>2025-04-20T16:14:52.558Z</time>
      </trkpt>
      <trkpt lat="28.619138" lon="-17.858006">
        <ele>1142.872</ele>
        <time>2025-04-20T16:15:08.558Z</time>
      </trkpt>
      <trkpt lat="28.619062" lon="-17.858091">
        <ele>1141.647</ele>
        <time>2025-04-20T16:15:18.558Z</time>
      </trkpt>
      <trkpt lat="28.619086" lon="-17.858305">
        <ele>1133.833</ele>
        <time>2025-04-20T16:15:38.558Z</time>
      </trkpt>
      <trkpt lat="28.618621" lon="-17.858408">
        <ele>1133.827</ele>
        <time>2025-04-20T16:33:59.559Z</time>
      </trkpt>
      <trkpt lat="28.617826" lon="-17.858117">
        <ele>1141.168</ele>
        <time>2025-04-20T16:37:00.559Z</time>
      </trkpt>
      <trkpt lat="28.617248" lon="-17.856804">
        <ele>1164.514</ele>
        <time>2025-04-20T16:39:03.559Z</time>
      </trkpt>
      <trkpt lat="28.617075" lon="-17.856612">
        <ele>1167.209</ele>
        <time>2025-04-20T16:39:28.559Z</time>
      </trkpt>
      <trkpt lat="28.616935" lon="-17.856585">
        <ele>1167.184</ele>
        <time>2025-04-20T16:39:40.559Z</time>
      </trkpt>
      <trkpt lat="28.616713" lon="-17.856684">
        <ele>1166.232</ele>
        <time>2025-04-20T16:40:07.559Z</time>
      </trkpt>
      <trkpt lat="28.616663" lon="-17.856649">
        <ele>1167.691</ele>
        <time>2025-04-20T16:40:10.559Z</time>
      </trkpt>
      <trkpt lat="28.616456" lon="-17.856970">
        <ele>1165.751</ele>
        <time>2025-04-20T16:40:44.559Z</time>
      </trkpt>
      <trkpt lat="28.616428" lon="-17.857265">
        <ele>1162.956</ele>
        <time>2025-04-20T16:44:33.559Z</time>
      </trkpt>
      <trkpt lat="28.616517" lon="-17.857530">
        <ele>1159.891</ele>
        <time>2025-04-20T16:44:55.559Z</time>
      </trkpt>
      <trkpt lat="28.616460" lon="-17.857627">
        <ele>1161.582</ele>
        <time>2025-04-20T16:45:05.559Z</time>
      </trkpt>
      <trkpt lat="28.616316" lon="-17.857592">
        <ele>1165.227</ele>
        <time>2025-04-20T16:45:19.559Z</time>
      </trkpt>
      <trkpt lat="28.615989" lon="-17.857076">
        <ele>1172.523</ele>
        <time>2025-04-20T16:46:20.559Z</time>
      </trkpt>
      <trkpt lat="28.615393" lon="-17.857125">
        <ele>1173.478</ele>
        <time>2025-04-20T16:51:35.559Z</time>
      </trkpt>
      <trkpt lat="28.614696" lon="-17.857638">
        <ele>1168.533</ele>
        <time>2025-04-20T16:52:58.559Z</time>
      </trkpt>
      <trkpt lat="28.614253" lon="-17.857672">
        <ele>1167.926</ele>
        <time>2025-04-20T16:53:43.559Z</time>
      </trkpt>
      <trkpt lat="28.613729" lon="-17.858203">
        <ele>1158.209</ele>
        <time>2025-04-20T16:57:22.559Z</time>
      </trkpt>
      <trkpt lat="28.613471" lon="-17.858169">
        <ele>1160.019</ele>
        <time>2025-04-20T16:57:45.559Z</time>
      </trkpt>
      <trkpt lat="28.612795" lon="-17.858426">
        <ele>1161.877</ele>
        <time>2025-04-20T16:58:50.559Z</time>
      </trkpt>
      <trkpt lat="28.612447" lon="-17.858444">
        <ele>1162.126</ele>
        <time>2025-04-20T17:03:32.559Z</time>
      </trkpt>
      <trkpt lat="28.612231" lon="-17.858661">
        <ele>1158.296</ele>
        <time>2025-04-20T17:04:03.559Z</time>
      </trkpt>
      <trkpt lat="28.612175" lon="-17.858520">
        <ele>1161.271</ele>
        <time>2025-04-20T17:04:47.559Z</time>
      </trkpt>
      <trkpt lat="28.612195" lon="-17.858629">
        <ele>1159.126</ele>
        <time>2025-04-20T17:06:52.559Z</time>
      </trkpt>
      <trkpt lat="28.612292" lon="-17.858628">
        <ele>1159.247</ele>
        <time>2025-04-20T17:07:09.559Z</time>
      </trkpt>
      <trkpt lat="28.612421" lon="-17.858455">
        <ele>1161.972</ele>
        <time>2025-04-20T17:07:57.559Z</time>
      </trkpt>
      <trkpt lat="28.612407" lon="-17.859214">
        <ele>1146.528</ele>
        <time>2025-04-20T17:09:05.559Z</time>
      </trkpt>
      <trkpt lat="28.612254" lon="-17.859507">
        <ele>1138.319</ele>
        <time>2025-04-20T17:09:35.559Z</time>
      </trkpt>
      <trkpt lat="28.612326" lon="-17.859770">
        <ele>1131.309</ele>
        <time>2025-04-20T17:10:04.559Z</time>
      </trkpt>
      <trkpt lat="28.612246" lon="-17.860086">
        <ele>1120.619</ele>
        <time>2025-04-20T17:10:32.559Z</time>
      </trkpt>
      <trkpt lat="28.612309" lon="-17.860342">
        <ele>1115.709</ele>
        <time>2025-04-20T17:12:14.559Z</time>
      </trkpt>
      <trkpt lat="28.612252" lon="-17.860776">
        <ele>1103.663</ele>
        <time>2025-04-20T17:13:47.559Z</time>
      </trkpt>
      <trkpt lat="28.611860" lon="-17.861166">
        <ele>1091.011</ele>
        <time>2025-04-20T17:25:32.559Z</time>
      </trkpt>
      <trkpt lat="28.611753" lon="-17.861693">
        <ele>1078.550</ele>
        <time>2025-04-20T17:26:40.559Z</time>
      </trkpt>
      <trkpt lat="28.611567" lon="-17.861953">
        <ele>1074.590</ele>
        <time>2025-04-20T17:27:05.559Z</time>
      </trkpt>
      <trkpt lat="28.611584" lon="-17.862226">
        <ele>1068.835</ele>
        <time>2025-04-20T17:27:36.559Z</time>
      </trkpt>
      <trkpt lat="28.611361" lon="-17.862619">
        <ele>1061.130</ele>
        <time>2025-04-20T17:28:19.559Z</time>
      </trkpt>
      <trkpt lat="28.610963" lon="-17.863001">
        <ele>1055.361</ele>
        <time>2025-04-20T17:29:06.559Z</time>
      </trkpt>
      <trkpt lat="28.611116" lon="-17.863184">
        <ele>1050.826</ele>
        <time>2025-04-20T17:29:35.559Z</time>
      </trkpt>
      <trkpt lat="28.611235" lon="-17.863493">
        <ele>1043.652</ele>
        <time>2025-04-20T17:30:02.559Z</time>
      </trkpt>
      <trkpt lat="28.610774" lon="-17.863878">
        <ele>1029.139</ele>
        <time>2025-04-20T17:31:26.559Z</time>
      </trkpt>
      <trkpt lat="28.610258" lon="-17.864040">
        <ele>1019.601</ele>
        <time>2025-04-20T17:38:15.559Z</time>
      </trkpt>
      <trkpt lat="28.610259" lon="-17.864129">
        <ele>1017.621</ele>
        <time>2025-04-20T17:38:38.559Z</time>
      </trkpt>
      <trkpt lat="28.610467" lon="-17.864266">
        <ele>1016.209</ele>
        <time>2025-04-20T17:39:18.559Z</time>
      </trkpt>
      <trkpt lat="28.610971" lon="-17.864109">
        <ele>1024.165</ele>
        <time>2025-04-20T17:40:56.559Z</time>
      </trkpt>
      <trkpt lat="28.611214" lon="-17.864166">
        <ele>1024.173</ele>
        <time>2025-04-20T17:42:10.559Z</time>
      </trkpt>
      <trkpt lat="28.611500" lon="-17.864032">
        <ele>1030.582</ele>
        <time>2025-04-20T17:42:43.559Z</time>
      </trkpt>
      <trkpt lat="28.612222" lon="-17.864265">
        <ele>1032.872</ele>
        <time>2025-04-20T17:44:24.559Z</time>
      </trkpt>
      <trkpt lat="28.612181" lon="-17.864292">
        <ele>1032.377</ele>
        <time>2025-04-20T17:45:30.559Z</time>
      </trkpt>
      <trkpt lat="28.612425" lon="-17.863965">
        <ele>1039.452</ele>
        <time>2025-04-20T17:49:58.559Z</time>
      </trkpt>
      <trkpt lat="28.612656" lon="-17.862469">
        <ele>1056.923</ele>
        <time>2025-04-20T17:53:46.559Z</time>
      </trkpt>
      <trkpt lat="28.612844" lon="-17.862285">
        <ele>1060.128</ele>
        <time>2025-04-20T17:54:20.559Z</time>
      </trkpt>
      <trkpt lat="28.613089" lon="-17.862201">
        <ele>1062.494</ele>
        <time>2025-04-20T17:54:51.559Z</time>
      </trkpt>
      <trkpt lat="28.613472" lon="-17.862233">
        <ele>1060.736</ele>
        <time>2025-04-20T17:55:48.559Z</time>
      </trkpt>
      <trkpt lat="28.613546" lon="-17.862062">
        <ele>1064.217</ele>
        <time>2025-04-20T17:55:59.559Z</time>
      </trkpt>
      <trkpt lat="28.613942" lon="-17.861933">
        <ele>1064.718</ele>
        <time>2025-04-20T17:56:49.559Z</time>
      </trkpt>
      <trkpt lat="28.614276" lon="-17.861632">
        <ele>1066.609</ele>
        <time>2025-04-20T17:57:28.559Z</time>
      </trkpt>
      <trkpt lat="28.614350" lon="-17.861356">
        <ele>1071.695</ele>
        <time>2025-04-20T17:57:51.559Z</time>
      </trkpt>
      <trkpt lat="28.614579" lon="-17.861143">
        <ele>1076.593</ele>
        <time>2025-04-20T17:58:14.559Z</time>
      </trkpt>
      <trkpt lat="28.614778" lon="-17.861174">
        <ele>1076.692</ele>
        <time>2025-04-20T17:58:36.559Z</time>
      </trkpt>
      <trkpt lat="28.615048" lon="-17.861407">
        <ele>1072.662</ele>
        <time>2025-04-20T17:59:02.559Z</time>
      </trkpt>
      <trkpt lat="28.615131" lon="-17.861364">
        <ele>1074.217</ele>
        <time>2025-04-20T17:59:18.559Z</time>
      </trkpt>
      <trkpt lat="28.615244" lon="-17.860979">
        <ele>1085.712</ele>
        <time>2025-04-20T17:59:41.559Z</time>
      </trkpt>
      <trkpt lat="28.615543" lon="-17.861108">
        <ele>1077.393</ele>
        <time>2025-04-20T18:08:02.559Z</time>
      </trkpt>
      <trkpt lat="28.615685" lon="-17.860557">
        <ele>1087.798</ele>
        <time>2025-04-20T18:08:52.559Z</time>
      </trkpt>
      <trkpt lat="28.615880" lon="-17.860262">
        <ele>1095.124</ele>
        <time>2025-04-20T18:09:24.559Z</time>
      </trkpt>
      <trkpt lat="28.615981" lon="-17.860239">
        <ele>1094.963</ele>
        <time>2025-04-20T18:09:34.559Z</time>
      </trkpt>
      <trkpt lat="28.616054" lon="-17.860308">
        <ele>1091.544</ele>
        <time>2025-04-20T18:09:52.559Z</time>
      </trkpt>
      <trkpt lat="28.616195" lon="-17.860254">
        <ele>1091.918</ele>
        <time>2025-04-20T18:10:16.559Z</time>
      </trkpt>
      <trkpt lat="28.616452" lon="-17.860015">
        <ele>1097.009</ele>
        <time>2025-04-20T18:11:04.559Z</time>
      </trkpt>
      <trkpt lat="28.616749" lon="-17.859859">
        <ele>1100.638</ele>
        <time>2025-04-20T18:11:45.559Z</time>
      </trkpt>
      <trkpt lat="28.617009" lon="-17.859823">
        <ele>1101.546</ele>
        <time>2025-04-20T18:12:23.559Z</time>
      </trkpt>
      <trkpt lat="28.617010" lon="-17.859898">
        <ele>1099.525</ele>
        <time>2025-04-20T18:12:29.559Z</time>
      </trkpt>
      <trkpt lat="28.616954" lon="-17.859894">
        <ele>1099.735</ele>
        <time>2025-04-20T18:12:33.559Z</time>
      </trkpt>
      <trkpt lat="28.617010" lon="-17.859813">
        <ele>1101.850</ele>
        <time>2025-04-20T18:12:36.559Z</time>
      </trkpt>
      <trkpt lat="28.617405" lon="-17.859731">
        <ele>1103.575</ele>
        <time>2025-04-20T18:13:08.559Z</time>
      </trkpt>
      <trkpt lat="28.617426" lon="-17.859777">
        <ele>1102.286</ele>
        <time>2025-04-20T18:13:12.559Z</time>
      </trkpt>
      <trkpt lat="28.617428" lon="-17.859703">
        <ele>1104.311</ele>
        <time>2025-04-20T18:13:22.559Z</time>
      </trkpt>
      <trkpt lat="28.617598" lon="-17.859559">
        <ele>1107.717</ele>
        <time>2025-04-20T18:13:39.559Z</time>
      </trkpt>
      <trkpt lat="28.617743" lon="-17.859557">
        <ele>1105.045</ele>
        <time>2025-04-20T18:14:11.559Z</time>
      </trkpt>
      <trkpt lat="28.618275" lon="-17.859316">
        <ele>1112.847</ele>
        <time>2025-04-20T18:15:13.559Z</time>
      </trkpt>
      <trkpt lat="28.618751" lon="-17.858790">
        <ele>1121.611</ele>
        <time>2025-04-20T18:16:22.559Z</time>
      </trkpt>
      <trkpt lat="28.618781" lon="-17.858842">
        <ele>1120.009</ele>
        <time>2025-04-20T18:16:25.559Z</time>
      </trkpt>
      <trkpt lat="28.618856" lon="-17.858760">
        <ele>1120.436</ele>
        <time>2025-04-20T18:17:30.559Z</time>
      </trkpt>
      <trkpt lat="28.619280" lon="-17.858778">
        <ele>1119.214</ele>
        <time>2025-04-20T18:18:28.559Z</time>
      </trkpt>
      <trkpt lat="28.619418" lon="-17.858715">
        <ele>1120.533</ele>
        <time>2025-04-20T18:18:40.559Z</time>
      </trkpt>
      <trkpt lat="28.619424" lon="-17.858606">
        <ele>1122.283</ele>
        <time>2025-04-20T18:19:06.559Z</time>
      </trkpt>
      <trkpt lat="28.619575" lon="-17.858586">
        <ele>1123.318</ele>
        <time>2025-04-20T18:19:23.559Z</time>
      </trkpt>
      <trkpt lat="28.619591" lon="-17.858640">
        <ele>1122.043</ele>
        <time>2025-04-20T18:19:32.559Z</time>
      </trkpt>
      <trkpt lat="28.619766" lon="-17.858540">
        <ele>1125.524</ele>
        <time>2025-04-20T18:20:04.559Z</time>
      </trkpt>
      <trkpt lat="28.620007" lon="-17.858160">
        <ele>1136.599</ele>
        <time>2025-04-20T18:20:38.559Z</time>
      </trkpt>
      <trkpt lat="28.620430" lon="-17.857976">
        <ele>1135.535</ele>
        <time>2025-04-20T18:21:21.559Z</time>
      </trkpt>
      <trkpt lat="28.620617" lon="-17.857699">
        <ele>1141.028</ele>
        <time>2025-04-20T18:21:50.559Z</time>
      </trkpt>
      <trkpt lat="28.620857" lon="-17.857609">
        <ele>1141.589</ele>
        <time>2025-04-20T18:22:15.559Z</time>
      </trkpt>
      <trkpt lat="28.621103" lon="-17.857623">
        <ele>1139.517</ele>
        <time>2025-04-20T18:22:39.559Z</time>
      </trkpt>
      <trkpt lat="28.621506" lon="-17.857235">
        <ele>1146.309</ele>
        <time>2025-04-20T18:23:23.559Z</time>
      </trkpt>
      <trkpt lat="28.621693" lon="-17.857255">
        <ele>1145.454</ele>
        <time>2025-04-20T18:23:49.559Z</time>
      </trkpt>
      <trkpt lat="28.621784" lon="-17.857048">
        <ele>1150.512</ele>
        <time>2025-04-20T18:24:09.559Z</time>
      </trkpt>
      <trkpt lat="28.622192" lon="-17.856836">
        <ele>1151.791</ele>
        <time>2025-04-20T18:24:58.559Z</time>
      </trkpt>
      <trkpt lat="28.622202" lon="-17.856445">
        <ele>1160.161</ele>
        <time>2025-04-20T18:25:36.559Z</time>
      </trkpt>
      <trkpt lat="28.622435" lon="-17.856420">
        <ele>1158.116</ele>
        <time>2025-04-20T18:25:59.559Z</time>
      </trkpt>
      <trkpt lat="28.622699" lon="-17.856268">
        <ele>1159.611</ele>
        <time>2025-04-20T18:26:31.559Z</time>
      </trkpt>
      <trkpt lat="28.622808" lon="-17.855802">
        <ele>1167.222</ele>
        <time>2025-04-20T18:27:54.559Z</time>
      </trkpt>
      <trkpt lat="28.622741" lon="-17.855538">
        <ele>1171.867</ele>
        <time>2025-04-20T18:28:20.559Z</time>
      </trkpt>
      <trkpt lat="28.622784" lon="-17.855443">
        <ele>1173.433</ele>
        <time>2025-04-20T18:28:28.559Z</time>
      </trkpt>
      <trkpt lat="28.623121" lon="-17.855508">
        <ele>1168.731</ele>
        <time>2025-04-20T18:28:59.559Z</time>
      </trkpt>
      <trkpt lat="28.623204" lon="-17.855452">
        <ele>1168.261</ele>
        <time>2025-04-20T18:29:12.559Z</time>
      </trkpt>
      <trkpt lat="28.623206" lon="-17.855348">
        <ele>1169.407</ele>
        <time>2025-04-20T18:29:26.559Z</time>
      </trkpt>
      <trkpt lat="28.622702" lon="-17.854622">
        <ele>1184.509</ele>
        <time>2025-04-20T18:30:58.559Z</time>
      </trkpt>
      <trkpt lat="28.622476" lon="-17.853853">
        <ele>1191.935</ele>
        <time>2025-04-20T18:32:06.559Z</time>
      </trkpt>
      <trkpt lat="28.622530" lon="-17.853768">
        <ele>1192.773</ele>
        <time>2025-04-20T18:32:17.559Z</time>
      </trkpt>
      <trkpt lat="28.622674" lon="-17.853791">
        <ele>1192.032</ele>
        <time>2025-04-20T18:32:30.559Z</time>
      </trkpt>
      <trkpt lat="28.623147" lon="-17.853986">
        <ele>1184.512</ele>
        <time>2025-04-20T18:33:57.559Z</time>
      </trkpt>
      <trkpt lat="28.623268" lon="-17.853796">
        <ele>1185.097</ele>
        <time>2025-04-20T18:34:17.559Z</time>
      </trkpt>
      <trkpt lat="28.623423" lon="-17.853224">
        <ele>1185.862</ele>
        <time>2025-04-20T18:35:00.559Z</time>
      </trkpt>
      <trkpt lat="28.622868" lon="-17.852678">
        <ele>1196.773</ele>
        <time>2025-04-20T18:36:43.559Z</time>
      </trkpt>
      <trkpt lat="28.622674" lon="-17.852224">
        <ele>1201.918</ele>
        <time>2025-04-20T18:37:29.559Z</time>
      </trkpt>
      <trkpt lat="28.622644" lon="-17.851890">
        <ele>1205.544</ele>
        <time>2025-04-20T18:38:03.559Z</time>
      </trkpt>
      <trkpt lat="28.622740" lon="-17.851586">
        <ele>1206.135</ele>
        <time>2025-04-20T18:38:37.559Z</time>
      </trkpt>
      <trkpt lat="28.622474" lon="-17.851220">
        <ele>1211.386</ele>
        <time>2025-04-20T18:39:20.559Z</time>
      </trkpt>
      <trkpt lat="28.622445" lon="-17.851002">
        <ele>1211.414</ele>
        <time>2025-04-20T18:39:42.559Z</time>
      </trkpt>
      <trkpt lat="28.622258" lon="-17.850679">
        <ele>1214.209</ele>
        <time>2025-04-20T18:40:34.559Z</time>
      </trkpt>
      <trkpt lat="28.622366" lon="-17.850192">
        <ele>1212.235</ele>
        <time>2025-04-20T18:41:19.559Z</time>
      </trkpt>
      <trkpt lat="28.622348" lon="-17.849740">
        <ele>1217.843</ele>
        <time>2025-04-20T18:41:54.559Z</time>
      </trkpt>
      <trkpt lat="28.622407" lon="-17.849528">
        <ele>1219.322</ele>
        <time>2025-04-20T18:42:22.559Z</time>
      </trkpt>
      <trkpt lat="28.622329" lon="-17.849142">
        <ele>1220.212</ele>
        <time>2025-04-20T18:43:03.559Z</time>
      </trkpt>
      <trkpt lat="28.622392" lon="-17.848421">
        <ele>1224.367</ele>
        <time>2025-04-20T18:44:09.559Z</time>
      </trkpt>
      <trkpt lat="28.622159" lon="-17.847140">
        <ele>1237.582</ele>
        <time>2025-04-20T18:47:23.559Z</time>
      </trkpt>
      <trkpt lat="28.622225" lon="-17.846525">
        <ele>1240.583</ele>
        <time>2025-04-20T18:48:23.559Z</time>
      </trkpt>
      <trkpt lat="28.622385" lon="-17.846168">
        <ele>1244.378</ele>
        <time>2025-04-20T18:49:04.559Z</time>
      </trkpt>
      <trkpt lat="28.622552" lon="-17.846075">
        <ele>1244.134</ele>
        <time>2025-04-20T18:49:27.559Z</time>
      </trkpt>
      <trkpt lat="28.622747" lon="-17.845747">
        <ele>1247.452</ele>
        <time>2025-04-20T18:50:02.559Z</time>
      </trkpt>
      <trkpt lat="28.623150" lon="-17.845452">
        <ele>1247.553</ele>
        <time>2025-04-20T18:51:02.559Z</time>
      </trkpt>
      <trkpt lat="28.623138" lon="-17.845217">
        <ele>1248.508</ele>
        <time>2025-04-20T18:51:23.559Z</time>
      </trkpt>
      <trkpt lat="28.622917" lon="-17.844657">
        <ele>1252.809</ele>
        <time>2025-04-20T18:52:21.559Z</time>
      </trkpt>
      <trkpt lat="28.622645" lon="-17.844184">
        <ele>1258.877</ele>
        <time>2025-04-20T18:53:13.559Z</time>
      </trkpt>
      <trkpt lat="28.622485" lon="-17.843445">
        <ele>1260.075</ele>
        <time>2025-04-20T18:54:14.559Z</time>
      </trkpt>
      <trkpt lat="28.622653" lon="-17.842752">
        <ele>1269.444</ele>
        <time>2025-04-20T18:56:21.559Z</time>
      </trkpt>
      <trkpt lat="28.622774" lon="-17.842641">
        <ele>1272.954</ele>
        <time>2025-04-20T18:56:36.559Z</time>
      </trkpt>
    </trkseg>
  </trk></gpx>