<?xml version="1.0" encoding="UTF-8"?>
<gpx creator="Wikiloc - https://www.wikiloc.com" version="1.1" xmlns="http://www.topografix.com/GPX/1/1" xmlns:xsi="http://www.w3.org/2001/XMLSchema-instance" xsi:schemaLocation="http://www.topografix.com/GPX/1/1 http://www.topografix.com/GPX/1/1/gpx.xsd">
  <metadata>
    <name>Wikiloc - Circular por el Parque Natural del Pinar de Tamadaba. Gran C...</name>
    <link href="https://www.wikiloc.com/hiking-trails/pinos-de-tamadabs-pinos-de-tamadaba-168330900">
      <text>Circular por el Parque Natural del Pinar de Tamadaba. Gran C... on Wikiloc</text>
    </link>
    <time>2024-04-23T12:20:31.992Z</time>
  </metadata>
  <trk>
    <name>Circular por el Parque Natural del Pinar de Tamadaba. Gran C... - Wikiloc</name>
    <cmt></cmt>
    <desc></desc>
    <trkseg>
      <trkpt lat="28.056811" lon="-15.688794">
        <ele>1189.655</ele>
        <time>2024-04-23T08:58:03.763Z</time>
      </trkpt>
      <trkpt lat="28.056894" lon="-15.689061">
        <ele>1189.607</ele>
        <time>2024-04-23T08:58:04.763Z</time>
      </trkpt>
      <trkpt lat="28.056967" lon="-15.688923">
        <ele>1189.317</ele>
        <time>2024-04-23T08:58:18Z</time>
      </trkpt>
      <trkpt lat="28.057125" lon="-15.689117">
        <ele>1188.409</ele>
        <time>2024-04-23T08:58:52Z</time>
      </trkpt>
      <trkpt lat="28.057084" lon="-15.689327">
        <ele>1187.736</ele>
        <time>2024-04-23T08:59:31Z</time>
      </trkpt>
      <trkpt lat="28.056782" lon="-15.689931">
        <ele>1183.381</ele>
        <time>2024-04-23T09:00:33Z</time>
      </trkpt>
      <trkpt lat="28.056595" lon="-15.690690">
        <ele>1179.923</ele>
        <time>2024-04-23T09:01:44Z</time>
      </trkpt>
      <trkpt lat="28.056567" lon="-15.691369">
        <ele>1177.368</ele>
        <time>2024-04-23T09:02:52Z</time>
      </trkpt>
      <trkpt lat="28.056329" lon="-15.691652">
        <ele>1175.138</ele>
        <time>2024-04-23T09:03:22Z</time>
      </trkpt>
      <trkpt lat="28.056190" lon="-15.692154">
        <ele>1172.515</ele>
        <time>2024-04-23T09:04:03Z</time>
      </trkpt>
      <trkpt lat="28.055936" lon="-15.692485">
        <ele>1169.524</ele>
        <time>2024-04-23T09:04:57Z</time>
      </trkpt>
      <trkpt lat="28.055918" lon="-15.692944">
        <ele>1166.535</ele>
        <time>2024-04-23T09:05:32Z</time>
      </trkpt>
      <trkpt lat="28.055683" lon="-15.693662">
        <ele>1161.685</ele>
        <time>2024-04-23T09:06:32Z</time>
      </trkpt>
      <trkpt lat="28.055574" lon="-15.694326">
        <ele>1158.337</ele>
        <time>2024-04-23T09:07:21Z</time>
      </trkpt>
      <trkpt lat="28.055652" lon="-15.694956">
        <ele>1156.949</ele>
        <time>2024-04-23T09:08:09Z</time>
      </trkpt>
      <trkpt lat="28.055559" lon="-15.695508">
        <ele>1159.213</ele>
        <time>2024-04-23T09:08:57Z</time>
      </trkpt>
      <trkpt lat="28.055842" lon="-15.696233">
        <ele>1156.009</ele>
        <time>2024-04-23T09:09:59Z</time>
      </trkpt>
      <trkpt lat="28.055909" lon="-15.696321">
        <ele>1155.724</ele>
        <time>2024-04-23T09:10:40Z</time>
      </trkpt>
      <trkpt lat="28.055945" lon="-15.695967">
        <ele>1186.549</ele>
        <time>2024-04-23T09:12:05Z</time>
      </trkpt>
      <trkpt lat="28.056298" lon="-15.695769">
        <ele>1185.981</ele>
        <time>2024-04-23T09:12:43Z</time>
      </trkpt>
      <trkpt lat="28.056990" lon="-15.695597">
        <ele>1180.446</ele>
        <time>2024-04-23T09:15:00Z</time>
      </trkpt>
      <trkpt lat="28.057410" lon="-15.695760">
        <ele>1173.126</ele>
        <time>2024-04-23T09:15:37Z</time>
      </trkpt>
      <trkpt lat="28.057835" lon="-15.695691">
        <ele>1170.543</ele>
        <time>2024-04-23T09:16:13Z</time>
      </trkpt>
      <trkpt lat="28.058024" lon="-15.695751">
        <ele>1169.262</ele>
        <time>2024-04-23T09:16:32Z</time>
      </trkpt>
      <trkpt lat="28.057805" lon="-15.696230">
        <ele>1167.023</ele>
        <time>2024-04-23T09:17:14Z</time>
      </trkpt>
      <trkpt lat="28.057832" lon="-15.696347">
        <ele>1166.273</ele>
        <time>2024-04-23T09:17:22Z</time>
      </trkpt>
      <trkpt lat="28.057957" lon="-15.696414">
        <ele>1165.677</ele>
        <time>2024-04-23T09:17:39Z</time>
      </trkpt>
      <trkpt lat="28.057882" lon="-15.696111">
        <ele>1165.561</ele>
        <time>2024-04-23T09:19:01Z</time>
      </trkpt>
      <trkpt lat="28.058269" lon="-15.695494">
        <ele>1166.927</ele>
        <time>2024-04-23T09:20:01Z</time>
      </trkpt>
      <trkpt lat="28.058471" lon="-15.695429">
        <ele>1165.309</ele>
        <time>2024-04-23T09:20:20Z</time>
      </trkpt>
      <trkpt lat="28.058891" lon="-15.696104">
        <ele>1162.768</ele>
        <time>2024-04-23T09:21:22Z</time>
      </trkpt>
      <trkpt lat="28.059020" lon="-15.696055">
        <ele>1162.643</ele>
        <time>2024-04-23T09:21:36Z</time>
      </trkpt>
      <trkpt lat="28.059302" lon="-15.696340">
        <ele>1155.275</ele>
        <time>2024-04-23T09:22:14Z</time>
      </trkpt>
      <trkpt lat="28.059710" lon="-15.696435">
        <ele>1154.680</ele>
        <time>2024-04-23T09:22:48Z</time>
      </trkpt>
      <trkpt lat="28.059917" lon="-15.696600">
        <ele>1155.030</ele>
        <time>2024-04-23T09:23:10Z</time>
      </trkpt>
      <trkpt lat="28.060222" lon="-15.696683">
        <ele>1156.467</ele>
        <time>2024-04-23T09:23:37Z</time>
      </trkpt>
      <trkpt lat="28.060971" lon="-15.696662">
        <ele>1155.496</ele>
        <time>2024-04-23T09:25:51Z</time>
      </trkpt>
      <trkpt lat="28.060932" lon="-15.696555">
        <ele>1155.467</ele>
        <time>2024-04-23T09:26:39Z</time>
      </trkpt>
      <trkpt lat="28.061000" lon="-15.696488">
        <ele>1154.917</ele>
        <time>2024-04-23T09:27:09Z</time>
      </trkpt>
      <trkpt lat="28.060858" lon="-15.696541">
        <ele>1154.637</ele>
        <time>2024-04-23T09:28:32Z</time>
      </trkpt>
      <trkpt lat="28.060745" lon="-15.696440">
        <ele>1155.249</ele>
        <time>2024-04-23T09:28:49Z</time>
      </trkpt>
      <trkpt lat="28.060776" lon="-15.696082">
        <ele>1154.713</ele>
        <time>2024-04-23T09:29:24Z</time>
      </trkpt>
      <trkpt lat="28.060537" lon="-15.695922">
        <ele>1153.509</ele>
        <time>2024-04-23T09:30:06Z</time>
      </trkpt>
      <trkpt lat="28.060556" lon="-15.695759">
        <ele>1153.014</ele>
        <time>2024-04-23T09:30:20Z</time>
      </trkpt>
      <trkpt lat="28.060309" lon="-15.695428">
        <ele>1153.149</ele>
        <time>2024-04-23T09:30:56Z</time>
      </trkpt>
      <trkpt lat="28.059747" lon="-15.695201">
        <ele>1151.621</ele>
        <time>2024-04-23T09:31:47.999Z</time>
      </trkpt>
      <trkpt lat="28.059627" lon="-15.694911">
        <ele>1152.296</ele>
        <time>2024-04-23T09:32:13.999Z</time>
      </trkpt>
      <trkpt lat="28.059115" lon="-15.694421">
        <ele>1153.716</ele>
        <time>2024-04-23T09:33:13.999Z</time>
      </trkpt>
      <trkpt lat="28.058803" lon="-15.693898">
        <ele>1155.353</ele>
        <time>2024-04-23T09:34:07.999Z</time>
      </trkpt>
      <trkpt lat="28.058721" lon="-15.693517">
        <ele>1156.212</ele>
        <time>2024-04-23T09:34:39.999Z</time>
      </trkpt>
      <trkpt lat="28.058973" lon="-15.693081">
        <ele>1160.043</ele>
        <time>2024-04-23T09:35:23.999Z</time>
      </trkpt>
      <trkpt lat="28.058940" lon="-15.692798">
        <ele>1161.343</ele>
        <time>2024-04-23T09:35:47.999Z</time>
      </trkpt>
      <trkpt lat="28.058849" lon="-15.692606">
        <ele>1162.484</ele>
        <time>2024-04-23T09:36:20.999Z</time>
      </trkpt>
      <trkpt lat="28.058873" lon="-15.692714">
        <ele>1162.607</ele>
        <time>2024-04-23T09:36:47.999Z</time>
      </trkpt>
      <trkpt lat="28.058299" lon="-15.692471">
        <ele>1165.817</ele>
        <time>2024-04-23T09:38:01.999Z</time>
      </trkpt>
      <trkpt lat="28.058407" lon="-15.692271">
        <ele>1167.209</ele>
        <time>2024-04-23T09:38:36.999Z</time>
      </trkpt>
      <trkpt lat="28.058421" lon="-15.691890">
        <ele>1160.739</ele>
        <time>2024-04-23T09:39:52.999Z</time>
      </trkpt>
      <trkpt lat="28.058286" lon="-15.691528">
        <ele>1160.054</ele>
        <time>2024-04-23T09:40:26.999Z</time>
      </trkpt>
      <trkpt lat="28.058006" lon="-15.691258">
        <ele>1159.886</ele>
        <time>2024-04-23T09:41:07.999Z</time>
      </trkpt>
      <trkpt lat="28.057981" lon="-15.691104">
        <ele>1159.991</ele>
        <time>2024-04-23T09:41:18.999Z</time>
      </trkpt>
      <trkpt lat="28.058164" lon="-15.690882">
        <ele>1159.881</ele>
        <time>2024-04-23T09:41:56.999Z</time>
      </trkpt>
      <trkpt lat="28.058328" lon="-15.690317">
        <ele>1154.658</ele>
        <time>2024-04-23T09:43:24.999Z</time>
      </trkpt>
      <trkpt lat="28.058520" lon="-15.690221">
        <ele>1155.347</ele>
        <time>2024-04-23T09:43:53.999Z</time>
      </trkpt>
      <trkpt lat="28.058802" lon="-15.689854">
        <ele>1155.188</ele>
        <time>2024-04-23T09:45:06.999Z</time>
      </trkpt>
      <trkpt lat="28.058368" lon="-15.689612">
        <ele>1154.348</ele>
        <time>2024-04-23T09:46:06.999Z</time>
      </trkpt>
      <trkpt lat="28.058649" lon="-15.689579">
        <ele>1153.858</ele>
        <time>2024-04-23T09:47:01.999Z</time>
      </trkpt>
      <trkpt lat="28.058833" lon="-15.689238">
        <ele>1153.552</ele>
        <time>2024-04-23T09:47:43.999Z</time>
      </trkpt>
      <trkpt lat="28.059156" lon="-15.689062">
        <ele>1152.017</ele>
        <time>2024-04-23T09:48:15.999Z</time>
      </trkpt>
      <trkpt lat="28.059403" lon="-15.689114">
        <ele>1151.309</ele>
        <time>2024-04-23T09:48:40.999Z</time>
      </trkpt>
      <trkpt lat="28.060083" lon="-15.688910">
        <ele>1150.056</ele>
        <time>2024-04-23T09:49:37.999Z</time>
      </trkpt>
      <trkpt lat="28.060431" lon="-15.688913">
        <ele>1148.811</ele>
        <time>2024-04-23T09:50:07.999Z</time>
      </trkpt>
      <trkpt lat="28.060963" lon="-15.689166">
        <ele>1146.773</ele>
        <time>2024-04-23T09:50:55.999Z</time>
      </trkpt>
      <trkpt lat="28.061265" lon="-15.688817">
        <ele>1145.898</ele>
        <time>2024-04-23T09:51:32.999Z</time>
      </trkpt>
      <trkpt lat="28.061085" lon="-15.687745">
        <ele>1138.888</ele>
        <time>2024-04-23T09:53:05.999Z</time>
      </trkpt>
      <trkpt lat="28.060947" lon="-15.687503">
        <ele>1137.685</ele>
        <time>2024-04-23T09:53:29.999Z</time>
      </trkpt>
      <trkpt lat="28.061053" lon="-15.687066">
        <ele>1131.334</ele>
        <time>2024-04-23T09:54:05.999Z</time>
      </trkpt>
      <trkpt lat="28.061027" lon="-15.686827">
        <ele>1129.695</ele>
        <time>2024-04-23T09:54:22.999Z</time>
      </trkpt>
      <trkpt lat="28.060809" lon="-15.686163">
        <ele>1125.995</ele>
        <time>2024-04-23T09:55:16.999Z</time>
      </trkpt>
      <trkpt lat="28.060311" lon="-15.685332">
        <ele>1117.465</ele>
        <time>2024-04-23T09:56:44.999Z</time>
      </trkpt>
      <trkpt lat="28.060985" lon="-15.684593">
        <ele>1109.368</ele>
        <time>2024-04-23T09:58:25.999Z</time>
      </trkpt>
      <trkpt lat="28.060996" lon="-15.684249">
        <ele>1106.714</ele>
        <time>2024-04-23T09:58:50.999Z</time>
      </trkpt>
      <trkpt lat="28.061291" lon="-15.683905">
        <ele>1103.009</ele>
        <time>2024-04-23T09:59:30.999Z</time>
      </trkpt>
      <trkpt lat="28.061445" lon="-15.683890">
        <ele>1101.777</ele>
        <time>2024-04-23T09:59:58.999Z</time>
      </trkpt>
      <trkpt lat="28.061613" lon="-15.683737">
        <ele>1096.282</ele>
        <time>2024-04-23T10:00:30.999Z</time>
      </trkpt>
      <trkpt lat="28.061725" lon="-15.683557">
        <ele>1094.284</ele>
        <time>2024-04-23T10:00:47.999Z</time>
      </trkpt>
      <trkpt lat="28.062939" lon="-15.683445">
        <ele>1081.789</ele>
        <time>2024-04-23T10:03:21.999Z</time>
      </trkpt>
      <trkpt lat="28.063910" lon="-15.683122">
        <ele>1077.349</ele>
        <time>2024-04-23T10:04:41.999Z</time>
      </trkpt>
      <trkpt lat="28.064118" lon="-15.683261">
        <ele>1075.756</ele>
        <time>2024-04-23T10:05:16.999Z</time>
      </trkpt>
      <trkpt lat="28.064003" lon="-15.683274">
        <ele>1075.625</ele>
        <time>2024-04-23T10:06:05.999Z</time>
      </trkpt>
      <trkpt lat="28.064087" lon="-15.684649">
        <ele>1075.016</ele>
        <time>2024-04-23T10:07:52.999Z</time>
      </trkpt>
      <trkpt lat="28.064208" lon="-15.684966">
        <ele>1074.626</ele>
        <time>2024-04-23T10:08:17.999Z</time>
      </trkpt>
      <trkpt lat="28.064397" lon="-15.685052">
        <ele>1073.138</ele>
        <time>2024-04-23T10:08:35.999Z</time>
      </trkpt>
      <trkpt lat="28.064340" lon="-15.685150">
        <ele>1071.570</ele>
        <time>2024-04-23T10:08:45.999Z</time>
      </trkpt>
      <trkpt lat="28.063604" lon="-15.685546">
        <ele>1070.717</ele>
        <time>2024-04-23T10:10:02.999Z</time>
      </trkpt>
      <trkpt lat="28.063513" lon="-15.685755">
        <ele>1068.909</ele>
        <time>2024-04-23T10:10:19.999Z</time>
      </trkpt>
      <trkpt lat="28.063583" lon="-15.685817">
        <ele>1068.474</ele>
        <time>2024-04-23T10:10:26.999Z</time>
      </trkpt>
      <trkpt lat="28.063961" lon="-15.685645">
        <ele>1064.149</ele>
        <time>2024-04-23T10:11:30.999Z</time>
      </trkpt>
      <trkpt lat="28.063884" lon="-15.686151">
        <ele>1060.831</ele>
        <time>2024-04-23T10:12:41.999Z</time>
      </trkpt>
      <trkpt lat="28.063960" lon="-15.686293">
        <ele>1059.986</ele>
        <time>2024-04-23T10:12:53.999Z</time>
      </trkpt>
      <trkpt lat="28.064179" lon="-15.686230">
        <ele>1058.516</ele>
        <time>2024-04-23T10:13:27.999Z</time>
      </trkpt>
      <trkpt lat="28.064015" lon="-15.686255">
        <ele>1057.233</ele>
        <time>2024-04-23T10:14:18.999Z</time>
      </trkpt>
      <trkpt lat="28.064065" lon="-15.686579">
        <ele>1057.672</ele>
        <time>2024-04-23T10:14:42.999Z</time>
      </trkpt>
      <trkpt lat="28.063961" lon="-15.686808">
        <ele>1056.613</ele>
        <time>2024-04-23T10:15:01.999Z</time>
      </trkpt>
      <trkpt lat="28.063989" lon="-15.686965">
        <ele>1055.283</ele>
        <time>2024-04-23T10:15:16.999Z</time>
      </trkpt>
      <trkpt lat="28.065089" lon="-15.687655">
        <ele>1041.886</ele>
        <time>2024-04-23T10:17:08.999Z</time>
      </trkpt>
      <trkpt lat="28.065491" lon="-15.687575">
        <ele>1038.660</ele>
        <time>2024-04-23T10:17:44.999Z</time>
      </trkpt>
      <trkpt lat="28.065095" lon="-15.687636">
        <ele>1039.826</ele>
        <time>2024-04-23T10:18:50.999Z</time>
      </trkpt>
      <trkpt lat="28.064913" lon="-15.687470">
        <ele>1041.609</ele>
        <time>2024-04-23T10:19:25.999Z</time>
      </trkpt>
      <trkpt lat="28.065190" lon="-15.687315">
        <ele>1043.259</ele>
        <time>2024-04-23T10:20:10.999Z</time>
      </trkpt>
      <trkpt lat="28.065274" lon="-15.687062">
        <ele>1041.934</ele>
        <time>2024-04-23T10:20:38.999Z</time>
      </trkpt>
      <trkpt lat="28.065459" lon="-15.687113">
        <ele>1040.386</ele>
        <time>2024-04-23T10:20:56.999Z</time>
      </trkpt>
      <trkpt lat="28.065549" lon="-15.687046">
        <ele>1040.291</ele>
        <time>2024-04-23T10:21:05.999Z</time>
      </trkpt>
      <trkpt lat="28.065619" lon="-15.686485">
        <ele>1040.151</ele>
        <time>2024-04-23T10:22:08.999Z</time>
      </trkpt>
      <trkpt lat="28.065431" lon="-15.686224">
        <ele>1039.728</ele>
        <time>2024-04-23T10:22:48.999Z</time>
      </trkpt>
      <trkpt lat="28.065480" lon="-15.685937">
        <ele>1040.297</ele>
        <time>2024-04-23T10:23:48.999Z</time>
      </trkpt>
      <trkpt lat="28.065406" lon="-15.685866">
        <ele>1040.478</ele>
        <time>2024-04-23T10:24:06.998Z</time>
      </trkpt>
      <trkpt lat="28.065557" lon="-15.685914">
        <ele>1041.088</ele>
        <time>2024-04-23T10:25:48.999Z</time>
      </trkpt>
      <trkpt lat="28.065470" lon="-15.685893">
        <ele>1040.188</ele>
        <time>2024-04-23T10:26:04.999Z</time>
      </trkpt>
      <trkpt lat="28.065432" lon="-15.686185">
        <ele>1039.724</ele>
        <time>2024-04-23T10:26:49.998Z</time>
      </trkpt>
      <trkpt lat="28.065622" lon="-15.686501">
        <ele>1039.126</ele>
        <time>2024-04-23T10:28:03.998Z</time>
      </trkpt>
      <trkpt lat="28.065535" lon="-15.687064">
        <ele>1039.309</ele>
        <time>2024-04-23T10:29:00.997Z</time>
      </trkpt>
      <trkpt lat="28.065249" lon="-15.687042">
        <ele>1039.789</ele>
        <time>2024-04-23T10:29:34.997Z</time>
      </trkpt>
      <trkpt lat="28.065156" lon="-15.687333">
        <ele>1041.664</ele>
        <time>2024-04-23T10:30:05.997Z</time>
      </trkpt>
      <trkpt lat="28.064914" lon="-15.687508">
        <ele>1042.386</ele>
        <time>2024-04-23T10:30:33.996Z</time>
      </trkpt>
      <trkpt lat="28.065117" lon="-15.687671">
        <ele>1040.841</ele>
        <time>2024-04-23T10:31:06.996Z</time>
      </trkpt>
      <trkpt lat="28.065443" lon="-15.687565">
        <ele>1038.651</ele>
        <time>2024-04-23T10:31:44.996Z</time>
      </trkpt>
      <trkpt lat="28.065784" lon="-15.687598">
        <ele>1034.198</ele>
        <time>2024-04-23T10:32:14.996Z</time>
      </trkpt>
      <trkpt lat="28.065754" lon="-15.687762">
        <ele>1031.327</ele>
        <time>2024-04-23T10:32:28.996Z</time>
      </trkpt>
      <trkpt lat="28.065368" lon="-15.688121">
        <ele>1025.828</ele>
        <time>2024-04-23T10:33:13.995Z</time>
      </trkpt>
      <trkpt lat="28.064976" lon="-15.688015">
        <ele>1024.298</ele>
        <time>2024-04-23T10:35:39.995Z</time>
      </trkpt>
      <trkpt lat="28.065308" lon="-15.688151">
        <ele>1023.737</ele>
        <time>2024-04-23T10:36:26.995Z</time>
      </trkpt>
      <trkpt lat="28.065456" lon="-15.688330">
        <ele>1023.649</ele>
        <time>2024-04-23T10:36:45.994Z</time>
      </trkpt>
      <trkpt lat="28.065692" lon="-15.688304">
        <ele>1024.113</ele>
        <time>2024-04-23T10:37:11.994Z</time>
      </trkpt>
      <trkpt lat="28.065680" lon="-15.688454">
        <ele>1023.709</ele>
        <time>2024-04-23T10:37:27.994Z</time>
      </trkpt>
      <trkpt lat="28.065707" lon="-15.688291">
        <ele>1023.374</ele>
        <time>2024-04-23T10:38:19.994Z</time>
      </trkpt>
      <trkpt lat="28.066173" lon="-15.687917">
        <ele>1023.869</ele>
        <time>2024-04-23T10:39:13.993Z</time>
      </trkpt>
      <trkpt lat="28.066445" lon="-15.686606">
        <ele>1023.541</ele>
        <time>2024-04-23T10:40:53.993Z</time>
      </trkpt>
      <trkpt lat="28.066894" lon="-15.686255">
        <ele>1021.926</ele>
        <time>2024-04-23T10:41:38.993Z</time>
      </trkpt>
      <trkpt lat="28.066569" lon="-15.685751">
        <ele>1023.986</ele>
        <time>2024-04-23T10:42:26.993Z</time>
      </trkpt>
      <trkpt lat="28.067130" lon="-15.685283">
        <ele>1028.163</ele>
        <time>2024-04-23T10:43:32.993Z</time>
      </trkpt>
      <trkpt lat="28.066992" lon="-15.685063">
        <ele>1031.152</ele>
        <time>2024-04-23T10:43:54.993Z</time>
      </trkpt>
      <trkpt lat="28.066674" lon="-15.684874">
        <ele>1033.323</ele>
        <time>2024-04-23T10:44:25.993Z</time>
      </trkpt>
      <trkpt lat="28.066704" lon="-15.684775">
        <ele>1034.243</ele>
        <time>2024-04-23T10:44:35.992Z</time>
      </trkpt>
      <trkpt lat="28.067001" lon="-15.684784">
        <ele>1036.555</ele>
        <time>2024-04-23T10:45:02.992Z</time>
      </trkpt>
      <trkpt lat="28.067073" lon="-15.684702">
        <ele>1037.107</ele>
        <time>2024-04-23T10:45:13.992Z</time>
      </trkpt>
      <trkpt lat="28.066896" lon="-15.684228">
        <ele>1042.917</ele>
        <time>2024-04-23T10:46:03.992Z</time>
      </trkpt>
      <trkpt lat="28.066705" lon="-15.684131">
        <ele>1044.009</ele>
        <time>2024-04-23T10:46:21.992Z</time>
      </trkpt>
      <trkpt lat="28.066246" lon="-15.684128">
        <ele>1044.676</ele>
        <time>2024-04-23T10:47:01.992Z</time>
      </trkpt>
      <trkpt lat="28.066113" lon="-15.684065">
        <ele>1045.321</ele>
        <time>2024-04-23T10:47:16.992Z</time>
      </trkpt>
      <trkpt lat="28.066012" lon="-15.683869">
        <ele>1047.963</ele>
        <time>2024-04-23T10:47:36.992Z</time>
      </trkpt>
      <trkpt lat="28.065625" lon="-15.684008">
        <ele>1052.328</ele>
        <time>2024-04-23T10:48:23.992Z</time>
      </trkpt>
      <trkpt lat="28.065495" lon="-15.683934">
        <ele>1054.968</ele>
        <time>2024-04-23T10:49:09.992Z</time>
      </trkpt>
      <trkpt lat="28.064915" lon="-15.683981">
        <ele>1061.515</ele>
        <time>2024-04-23T10:50:39.992Z</time>
      </trkpt>
      <trkpt lat="28.064350" lon="-15.683315">
        <ele>1068.194</ele>
        <time>2024-04-23T10:52:12.992Z</time>
      </trkpt>
      <trkpt lat="28.064065" lon="-15.683186">
        <ele>1071.415</ele>
        <time>2024-04-23T10:52:42.992Z</time>
      </trkpt>
      <trkpt lat="28.063703" lon="-15.682774">
        <ele>1074.575</ele>
        <time>2024-04-23T10:53:51.992Z</time>
      </trkpt>
      <trkpt lat="28.062660" lon="-15.682433">
        <ele>1076.174</ele>
        <time>2024-04-23T10:56:11.992Z</time>
      </trkpt>
      <trkpt lat="28.062892" lon="-15.682111">
        <ele>1077.556</ele>
        <time>2024-04-23T10:56:48.992Z</time>
      </trkpt>
      <trkpt lat="28.063306" lon="-15.682166">
        <ele>1075.821</ele>
        <time>2024-04-23T10:57:30.992Z</time>
      </trkpt>
      <trkpt lat="28.064408" lon="-15.681912">
        <ele>1074.609</ele>
        <time>2024-04-23T10:59:03.992Z</time>
      </trkpt>
      <trkpt lat="28.064536" lon="-15.681746">
        <ele>1074.758</ele>
        <time>2024-04-23T11:02:34.992Z</time>
      </trkpt>
      <trkpt lat="28.064465" lon="-15.681653">
        <ele>1074.983</ele>
        <time>2024-04-23T11:02:43.992Z</time>
      </trkpt>
      <trkpt lat="28.064155" lon="-15.681755">
        <ele>1077.325</ele>
        <time>2024-04-23T11:03:10.992Z</time>
      </trkpt>
      <trkpt lat="28.063903" lon="-15.681693">
        <ele>1080.060</ele>
        <time>2024-04-23T11:03:36.992Z</time>
      </trkpt>
      <trkpt lat="28.063113" lon="-15.680914">
        <ele>1092.470</ele>
        <time>2024-04-23T11:06:26.992Z</time>
      </trkpt>
      <trkpt lat="28.063238" lon="-15.681055">
        <ele>1093.097</ele>
        <time>2024-04-23T11:08:37.992Z</time>
      </trkpt>
      <trkpt lat="28.062346" lon="-15.681025">
        <ele>1093.796</ele>
        <time>2024-04-23T11:10:14.992Z</time>
      </trkpt>
      <trkpt lat="28.062263" lon="-15.680601">
        <ele>1098.897</ele>
        <time>2024-04-23T11:12:03.992Z</time>
      </trkpt>
      <trkpt lat="28.061688" lon="-15.680397">
        <ele>1105.767</ele>
        <time>2024-04-23T11:12:53.992Z</time>
      </trkpt>
      <trkpt lat="28.061368" lon="-15.680410">
        <ele>1109.554</ele>
        <time>2024-04-23T11:13:20.992Z</time>
      </trkpt>
      <trkpt lat="28.061152" lon="-15.680223">
        <ele>1112.956</ele>
        <time>2024-04-23T11:13:50.992Z</time>
      </trkpt>
      <trkpt lat="28.060618" lon="-15.679355">
        <ele>1126.811</ele>
        <time>2024-04-23T11:15:23.992Z</time>
      </trkpt>
      <trkpt lat="28.059819" lon="-15.679640">
        <ele>1137.009</ele>
        <time>2024-04-23T11:16:36.992Z</time>
      </trkpt>
      <trkpt lat="28.058852" lon="-15.680299">
        <ele>1152.896</ele>
        <time>2024-04-23T11:18:24.992Z</time>
      </trkpt>
      <trkpt lat="28.058771" lon="-15.680271">
        <ele>1153.881</ele>
        <time>2024-04-23T11:18:38.992Z</time>
      </trkpt>
      <trkpt lat="28.058979" lon="-15.679258">
        <ele>1166.413</ele>
        <time>2024-04-23T11:20:36.992Z</time>
      </trkpt>
      <trkpt lat="28.058838" lon="-15.678535">
        <ele>1171.868</ele>
        <time>2024-04-23T11:21:37.992Z</time>
      </trkpt>
      <trkpt lat="28.059254" lon="-15.678163">
        <ele>1178.728</ele>
        <time>2024-04-23T11:22:49.992Z</time>
      </trkpt>
      <trkpt lat="28.058970" lon="-15.678091">
        <ele>1184.015</ele>
        <time>2024-04-23T11:23:32.992Z</time>
      </trkpt>
      <trkpt lat="28.059402" lon="-15.677716">
        <ele>1231.014</ele>
        <time>2024-04-23T11:24:50.992Z</time>
      </trkpt>
      <trkpt lat="28.059169" lon="-15.677753">
        <ele>1233.185</ele>
        <time>2024-04-23T11:25:13.992Z</time>
      </trkpt>
      <trkpt lat="28.059455" lon="-15.677199">
        <ele>1237.285</ele>
        <time>2024-04-23T11:41:46.992Z</time>
      </trkpt>
      <trkpt lat="28.059574" lon="-15.676754">
        <ele>1230.291</ele>
        <time>2024-04-23T11:42:36.992Z</time>
      </trkpt>
      <trkpt lat="28.059784" lon="-15.676427">
        <ele>1219.781</ele>
        <time>2024-04-23T11:44:08.992Z</time>
      </trkpt>
      <trkpt lat="28.059527" lon="-15.675973">
        <ele>1218.919</ele>
        <time>2024-04-23T11:45:29.992Z</time>
      </trkpt>
      <trkpt lat="28.059559" lon="-15.675803">
        <ele>1220.709</ele>
        <time>2024-04-23T11:45:45.992Z</time>
      </trkpt>
      <trkpt lat="28.059477" lon="-15.675594">
        <ele>1221.490</ele>
        <time>2024-04-23T11:46:07.992Z</time>
      </trkpt>
      <trkpt lat="28.059318" lon="-15.675983">
        <ele>1229.825</ele>
        <time>2024-04-23T11:46:54.992Z</time>
      </trkpt>
      <trkpt lat="28.059328" lon="-15.676427">
        <ele>1233.477</ele>
        <time>2024-04-23T11:47:33.992Z</time>
      </trkpt>
      <trkpt lat="28.058671" lon="-15.676944">
        <ele>1247.412</ele>
        <time>2024-04-23T11:48:56.992Z</time>
      </trkpt>
      <trkpt lat="28.058127" lon="-15.677744">
        <ele>1277.422</ele>
        <time>2024-04-23T11:51:32.992Z</time>
      </trkpt>
      <trkpt lat="28.057776" lon="-15.678083">
        <ele>1284.599</ele>
        <time>2024-04-23T11:52:22.992Z</time>
      </trkpt>
      <trkpt lat="28.057406" lon="-15.678795">
        <ele>1287.278</ele>
        <time>2024-04-23T11:53:39.992Z</time>
      </trkpt>
      <trkpt lat="28.056773" lon="-15.679402">
        <ele>1286.079</ele>
        <time>2024-04-23T11:54:55.992Z</time>
      </trkpt>
      <trkpt lat="28.056543" lon="-15.679851">
        <ele>1288.949</ele>
        <time>2024-04-23T11:55:38.992Z</time>
      </trkpt>
      <trkpt lat="28.056001" lon="-15.680149">
        <ele>1293.057</ele>
        <time>2024-04-23T11:56:37.992Z</time>
      </trkpt>
      <trkpt lat="28.056372" lon="-15.681552">
        <ele>1284.100</ele>
        <time>2024-04-23T11:59:28.992Z</time>
      </trkpt>
      <trkpt lat="28.056539" lon="-15.681761">
        <ele>1282.720</ele>
        <time>2024-04-23T11:59:49.992Z</time>
      </trkpt>
      <trkpt lat="28.056797" lon="-15.681765">
        <ele>1274.309</ele>
        <time>2024-04-23T12:00:26.992Z</time>
      </trkpt>
      <trkpt lat="28.056704" lon="-15.681733">
        <ele>1272.416</ele>
        <time>2024-04-23T12:00:56.992Z</time>
      </trkpt>
      <trkpt lat="28.056651" lon="-15.681842">
        <ele>1272.471</ele>
        <time>2024-04-23T12:01:06.992Z</time>
      </trkpt>
      <trkpt lat="28.056685" lon="-15.682101">
        <ele>1276.573</ele>
        <time>2024-04-23T12:01:29.992Z</time>
      </trkpt>
      <trkpt lat="28.056927" lon="-15.682063">
        <ele>1275.078</ele>
        <time>2024-04-23T12:02:15.992Z</time>
      </trkpt>
      <trkpt lat="28.056835" lon="-15.682105">
        <ele>1274.388</ele>
        <time>2024-04-23T12:03:18.992Z</time>
      </trkpt>
      <trkpt lat="28.056878" lon="-15.682148">
        <ele>1274.355</ele>
        <time>2024-04-23T12:03:31.992Z</time>
      </trkpt>
      <trkpt lat="28.056725" lon="-15.682146">
        <ele>1275.084</ele>
        <time>2024-04-23T12:04:03.992Z</time>
      </trkpt>
      <trkpt lat="28.056645" lon="-15.682409">
        <ele>1280.165</ele>
        <time>2024-04-23T12:04:29.992Z</time>
      </trkpt>
      <trkpt lat="28.056713" lon="-15.682790">
        <ele>1278.415</ele>
        <time>2024-04-23T12:04:58.992Z</time>
      </trkpt>
      <trkpt lat="28.056563" lon="-15.683274">
        <ele>1279.346</ele>
        <time>2024-04-23T12:05:44.992Z</time>
      </trkpt>
      <trkpt lat="28.056657" lon="-15.683987">
        <ele>1275.288</ele>
        <time>2024-04-23T12:06:50.992Z</time>
      </trkpt>
      <trkpt lat="28.056535" lon="-15.684291">
        <ele>1269.516</ele>
        <time>2024-04-23T12:07:20.992Z</time>
      </trkpt>
      <trkpt lat="28.056476" lon="-15.684809">
        <ele>1258.909</ele>
        <time>2024-04-23T12:07:57.992Z</time>
      </trkpt>
      <trkpt lat="28.056756" lon="-15.685068">
        <ele>1253.965</ele>
        <time>2024-04-23T12:08:25.992Z</time>
      </trkpt>
      <trkpt lat="28.057229" lon="-15.685150">
        <ele>1248.680</ele>
        <time>2024-04-23T12:09:05.992Z</time>
      </trkpt>
      <trkpt lat="28.057625" lon="-15.685749">
        <ele>1218.322</ele>
        <time>2024-04-23T12:10:01.992Z</time>
      </trkpt>
      <trkpt lat="28.057533" lon="-15.686483">
        <ele>1211.427</ele>
        <time>2024-04-23T12:10:56.992Z</time>
      </trkpt>
      <trkpt lat="28.057245" lon="-15.686863">
        <ele>1235.747</ele>
        <time>2024-04-23T12:11:44.992Z</time>
      </trkpt>
      <trkpt lat="28.057281" lon="-15.687254">
        <ele>1231.564</ele>
        <time>2024-04-23T12:12:16.992Z</time>
      </trkpt>
      <trkpt lat="28.057404" lon="-15.687441">
        <ele>1230.673</ele>
        <time>2024-04-23T12:12:38.992Z</time>
      </trkpt>
      <trkpt lat="28.057693" lon="-15.687572">
        <ele>1195.234</ele>
        <time>2024-04-23T12:13:03.992Z</time>
      </trkpt>
      <trkpt lat="28.058117" lon="-15.687987">
        <ele>1190.114</ele>
        <time>2024-04-23T12:14:03.992Z</time>
      </trkpt>
      <trkpt lat="28.058245" lon="-15.688167">
        <ele>1188.745</ele>
        <time>2024-04-23T12:14:20.992Z</time>
      </trkpt>
      <trkpt lat="28.058261" lon="-15.688374">
        <ele>1188.147</ele>
        <time>2024-04-23T12:15:38.992Z</time>
      </trkpt>
      <trkpt lat="28.058283" lon="-15.688320">
        <ele>1188.611</ele>
        <time>2024-04-23T12:17:08.992Z</time>
      </trkpt>
      <trkpt lat="28.058209" lon="-15.688430">
        <ele>1212.409</ele>
        <time>2024-04-23T12:17:50.992Z</time>
      </trkpt>
      <trkpt lat="28.057386" lon="-15.688652">
        <ele>1220.035</ele>
        <time>2024-04-23T12:19:35.992Z</time>
      </trkpt>
      <trkpt lat="28.057201" lon="-15.688970">
        <ele>1223.070</ele>
        <time>2024-04-23T12:20:07.992Z</time>
      </trkpt>
      <trkpt lat="28.057062" lon="-15.688936">
        <ele>1225.162</ele>
        <time>2024-04-23T12:20:31.992Z</time>
      </trkpt>
    </trkseg>
  </trk></gpx>