<?xml version="1.0" encoding="UTF-8"?>
<gpx creator="Wikiloc - https://www.wikiloc.com" version="1.1" xmlns="http://www.topografix.com/GPX/1/1" xmlns:xsi="http://www.w3.org/2001/XMLSchema-instance" xsi:schemaLocation="http://www.topografix.com/GPX/1/1 http://www.topografix.com/GPX/1/1/gpx.xsd">
  <metadata>
    <name>Wikiloc - Tubo de lava. Lagartario. Zona Arqueológica poblado de los J...</name>
    <link href="https://www.wikiloc.com/walking-trails/tubo-de-lava-lagartario-zona-arqueologica-poblado-de-los-juaclos-guinea-el-hierro-153165503">
      <text>Tubo de lava. Lagartario. Zona Arqueológica poblado de los J... on Wikiloc</text>
    </link>
    <time>2023-11-14T17:32:13Z</time>
  </metadata>
  <trk>
    <name>Tubo de lava. Lagartario. Zona Arqueológica poblado de los J... - Wikiloc</name>
    <cmt></cmt>
    <desc></desc>
    <trkseg>
      <trkpt lat="27.774387" lon="-17.998962">
        <ele>92.923</ele>
        <time>2023-11-14T16:00:45Z</time>
      </trkpt>
      <trkpt lat="27.774500" lon="-17.999020">
        <ele>92.983</ele>
        <time>2023-11-14T16:00:53Z</time>
      </trkpt>
      <trkpt lat="27.774467" lon="-17.999072">
        <ele>92.911</ele>
        <time>2023-11-14T16:01:24Z</time>
      </trkpt>
      <trkpt lat="27.774415" lon="-17.999058">
        <ele>92.109</ele>
        <time>2023-11-14T16:01:29Z</time>
      </trkpt>
      <trkpt lat="27.774379" lon="-17.999013">
        <ele>92.223</ele>
        <time>2023-11-14T16:01:45Z</time>
      </trkpt>
      <trkpt lat="27.774336" lon="-17.998981">
        <ele>92.067</ele>
        <time>2023-11-14T16:01:51Z</time>
      </trkpt>
      <trkpt lat="27.774364" lon="-17.999022">
        <ele>91.055</ele>
        <time>2023-11-14T16:02:17Z</time>
      </trkpt>
      <trkpt lat="27.774419" lon="-17.999039">
        <ele>90.893</ele>
        <time>2023-11-14T16:02:21Z</time>
      </trkpt>
      <trkpt lat="27.774459" lon="-17.998997">
        <ele>88.768</ele>
        <time>2023-11-14T16:02:30Z</time>
      </trkpt>
      <trkpt lat="27.774495" lon="-17.999031">
        <ele>86.087</ele>
        <time>2023-11-14T16:02:44Z</time>
      </trkpt>
      <trkpt lat="27.774502" lon="-17.999083">
        <ele>85.287</ele>
        <time>2023-11-14T16:02:51Z</time>
      </trkpt>
      <trkpt lat="27.774490" lon="-17.999136">
        <ele>85.062</ele>
        <time>2023-11-14T16:02:57Z</time>
      </trkpt>
      <trkpt lat="27.774491" lon="-17.999190">
        <ele>84.635</ele>
        <time>2023-11-14T16:03:01Z</time>
      </trkpt>
      <trkpt lat="27.774513" lon="-17.999247">
        <ele>84.338</ele>
        <time>2023-11-14T16:03:05Z</time>
      </trkpt>
      <trkpt lat="27.774547" lon="-17.999291">
        <ele>84.270</ele>
        <time>2023-11-14T16:03:09Z</time>
      </trkpt>
      <trkpt lat="27.774590" lon="-17.999269">
        <ele>84.217</ele>
        <time>2023-11-14T16:03:13Z</time>
      </trkpt>
      <trkpt lat="27.774569" lon="-17.999222">
        <ele>83.509</ele>
        <time>2023-11-14T16:03:24Z</time>
      </trkpt>
      <trkpt lat="27.774526" lon="-17.999199">
        <ele>83.594</ele>
        <time>2023-11-14T16:03:29Z</time>
      </trkpt>
      <trkpt lat="27.774495" lon="-17.999155">
        <ele>83.498</ele>
        <time>2023-11-14T16:03:51Z</time>
      </trkpt>
      <trkpt lat="27.774453" lon="-17.999125">
        <ele>83.376</ele>
        <time>2023-11-14T16:03:55Z</time>
      </trkpt>
      <trkpt lat="27.774430" lon="-17.999079">
        <ele>83.584</ele>
        <time>2023-11-14T16:04:01Z</time>
      </trkpt>
      <trkpt lat="27.774450" lon="-17.999028">
        <ele>83.679</ele>
        <time>2023-11-14T16:04:08Z</time>
      </trkpt>
      <trkpt lat="27.774496" lon="-17.999046">
        <ele>83.478</ele>
        <time>2023-11-14T16:09:13Z</time>
      </trkpt>
      <trkpt lat="27.774541" lon="-17.999064">
        <ele>83.548</ele>
        <time>2023-11-14T16:09:25Z</time>
      </trkpt>
      <trkpt lat="27.774552" lon="-17.999014">
        <ele>83.483</ele>
        <time>2023-11-14T16:09:34Z</time>
      </trkpt>
      <trkpt lat="27.774536" lon="-17.998955">
        <ele>82.636</ele>
        <time>2023-11-14T16:09:46Z</time>
      </trkpt>
      <trkpt lat="27.774491" lon="-17.998963">
        <ele>80.988</ele>
        <time>2023-11-14T16:10:01Z</time>
      </trkpt>
      <trkpt lat="27.774232" lon="-17.998445">
        <ele>80.324</ele>
        <time>2023-11-14T16:28:48Z</time>
      </trkpt>
      <trkpt lat="27.774196" lon="-17.998331">
        <ele>66.226</ele>
        <time>2023-11-14T16:28:52Z</time>
      </trkpt>
      <trkpt lat="27.774588" lon="-17.998531">
        <ele>57.709</ele>
        <time>2023-11-14T16:29:38Z</time>
      </trkpt>
      <trkpt lat="27.774507" lon="-17.998581">
        <ele>38.789</ele>
        <time>2023-11-14T16:29:41Z</time>
      </trkpt>
      <trkpt lat="27.774507" lon="-17.998643">
        <ele>49.853</ele>
        <time>2023-11-14T16:29:50Z</time>
      </trkpt>
      <trkpt lat="27.774537" lon="-17.998689">
        <ele>53.481</ele>
        <time>2023-11-14T16:29:53Z</time>
      </trkpt>
      <trkpt lat="27.774562" lon="-17.998733">
        <ele>60.889</ele>
        <time>2023-11-14T16:29:58Z</time>
      </trkpt>
      <trkpt lat="27.774602" lon="-17.998703">
        <ele>76.784</ele>
        <time>2023-11-14T16:30:07Z</time>
      </trkpt>
      <trkpt lat="27.774639" lon="-17.998732">
        <ele>81.213</ele>
        <time>2023-11-14T16:30:17Z</time>
      </trkpt>
      <trkpt lat="27.774615" lon="-17.998776">
        <ele>81.363</ele>
        <time>2023-11-14T16:30:34Z</time>
      </trkpt>
      <trkpt lat="27.774563" lon="-17.998773">
        <ele>81.618</ele>
        <time>2023-11-14T16:30:54Z</time>
      </trkpt>
      <trkpt lat="27.774517" lon="-17.998770">
        <ele>82.691</ele>
        <time>2023-11-14T16:31:23Z</time>
      </trkpt>
      <trkpt lat="27.774468" lon="-17.998762">
        <ele>82.791</ele>
        <time>2023-11-14T16:31:31Z</time>
      </trkpt>
      <trkpt lat="27.774423" lon="-17.998759">
        <ele>82.781</ele>
        <time>2023-11-14T16:31:36Z</time>
      </trkpt>
      <trkpt lat="27.774385" lon="-17.998732">
        <ele>82.619</ele>
        <time>2023-11-14T16:31:41Z</time>
      </trkpt>
      <trkpt lat="27.774343" lon="-17.998701">
        <ele>82.709</ele>
        <time>2023-11-14T16:31:47Z</time>
      </trkpt>
      <trkpt lat="27.774297" lon="-17.998707">
        <ele>82.960</ele>
        <time>2023-11-14T16:31:52Z</time>
      </trkpt>
      <trkpt lat="27.774255" lon="-17.998676">
        <ele>83.364</ele>
        <time>2023-11-14T16:32:01Z</time>
      </trkpt>
      <trkpt lat="27.774208" lon="-17.998693">
        <ele>83.672</ele>
        <time>2023-11-14T16:32:06Z</time>
      </trkpt>
      <trkpt lat="27.774165" lon="-17.998721">
        <ele>83.980</ele>
        <time>2023-11-14T16:32:10Z</time>
      </trkpt>
      <trkpt lat="27.774120" lon="-17.998735">
        <ele>85.215</ele>
        <time>2023-11-14T16:32:50Z</time>
      </trkpt>
      <trkpt lat="27.774145" lon="-17.998689">
        <ele>84.784</ele>
        <time>2023-11-14T16:33:45Z</time>
      </trkpt>
      <trkpt lat="27.774097" lon="-17.998666">
        <ele>85.054</ele>
        <time>2023-11-14T16:34:37Z</time>
      </trkpt>
      <trkpt lat="27.774137" lon="-17.998634">
        <ele>87.279</ele>
        <time>2023-11-14T16:46:47Z</time>
      </trkpt>
      <trkpt lat="27.774093" lon="-17.998658">
        <ele>87.352</ele>
        <time>2023-11-14T16:47:06Z</time>
      </trkpt>
      <trkpt lat="27.774091" lon="-17.998597">
        <ele>85.343</ele>
        <time>2023-11-14T16:47:48Z</time>
      </trkpt>
      <trkpt lat="27.774122" lon="-17.998635">
        <ele>85.564</ele>
        <time>2023-11-14T16:47:55Z</time>
      </trkpt>
      <trkpt lat="27.774161" lon="-17.998607">
        <ele>82.810</ele>
        <time>2023-11-14T16:49:05Z</time>
      </trkpt>
      <trkpt lat="27.774202" lon="-17.998584">
        <ele>82.209</ele>
        <time>2023-11-14T16:49:09Z</time>
      </trkpt>
      <trkpt lat="27.774221" lon="-17.998536">
        <ele>82.195</ele>
        <time>2023-11-14T16:49:19Z</time>
      </trkpt>
      <trkpt lat="27.774213" lon="-17.998594">
        <ele>84.179</ele>
        <time>2023-11-14T16:49:25Z</time>
      </trkpt>
      <trkpt lat="27.774213" lon="-17.998645">
        <ele>85.647</ele>
        <time>2023-11-14T16:49:28Z</time>
      </trkpt>
      <trkpt lat="27.774215" lon="-17.998588">
        <ele>86.695</ele>
        <time>2023-11-14T16:49:36Z</time>
      </trkpt>
      <trkpt lat="27.774209" lon="-17.998537">
        <ele>87.160</ele>
        <time>2023-11-14T16:49:38Z</time>
      </trkpt>
      <trkpt lat="27.774179" lon="-17.998605">
        <ele>86.439</ele>
        <time>2023-11-14T16:50:54Z</time>
      </trkpt>
      <trkpt lat="27.774167" lon="-17.998656">
        <ele>86.289</ele>
        <time>2023-11-14T16:50:58Z</time>
      </trkpt>
      <trkpt lat="27.774129" lon="-17.998625">
        <ele>86.494</ele>
        <time>2023-11-14T16:51:13Z</time>
      </trkpt>
      <trkpt lat="27.774128" lon="-17.998702">
        <ele>87.347</ele>
        <time>2023-11-14T16:51:43Z</time>
      </trkpt>
      <trkpt lat="27.774120" lon="-17.998753">
        <ele>87.343</ele>
        <time>2023-11-14T16:51:48Z</time>
      </trkpt>
      <trkpt lat="27.774090" lon="-17.998689">
        <ele>86.564</ele>
        <time>2023-11-14T16:52:02Z</time>
      </trkpt>
      <trkpt lat="27.774114" lon="-17.998645">
        <ele>87.010</ele>
        <time>2023-11-14T16:52:38Z</time>
      </trkpt>
      <trkpt lat="27.774155" lon="-17.998612">
        <ele>87.209</ele>
        <time>2023-11-14T16:52:43Z</time>
      </trkpt>
      <trkpt lat="27.774153" lon="-17.998540">
        <ele>87.925</ele>
        <time>2023-11-14T16:52:56Z</time>
      </trkpt>
      <trkpt lat="27.774141" lon="-17.998597">
        <ele>85.499</ele>
        <time>2023-11-14T16:56:45Z</time>
      </trkpt>
      <trkpt lat="27.774114" lon="-17.998647">
        <ele>85.357</ele>
        <time>2023-11-14T16:56:53Z</time>
      </trkpt>
      <trkpt lat="27.774342" lon="-17.998665">
        <ele>79.775</ele>
        <time>2023-11-14T17:00:05Z</time>
      </trkpt>
      <trkpt lat="27.774099" lon="-17.998648">
        <ele>83.480</ele>
        <time>2023-11-14T17:05:31Z</time>
      </trkpt>
      <trkpt lat="27.774099" lon="-17.998708">
        <ele>79.979</ele>
        <time>2023-11-14T17:07:42Z</time>
      </trkpt>
      <trkpt lat="27.774104" lon="-17.998759">
        <ele>79.969</ele>
        <time>2023-11-14T17:07:48Z</time>
      </trkpt>
      <trkpt lat="27.774118" lon="-17.998815">
        <ele>79.524</ele>
        <time>2023-11-14T17:07:53Z</time>
      </trkpt>
      <trkpt lat="27.774146" lon="-17.998864">
        <ele>76.767</ele>
        <time>2023-11-14T17:07:58Z</time>
      </trkpt>
      <trkpt lat="27.774167" lon="-17.998915">
        <ele>76.849</ele>
        <time>2023-11-14T17:08:06Z</time>
      </trkpt>
      <trkpt lat="27.774140" lon="-17.998960">
        <ele>76.602</ele>
        <time>2023-11-14T17:08:25Z</time>
      </trkpt>
      <trkpt lat="27.774106" lon="-17.998995">
        <ele>76.722</ele>
        <time>2023-11-14T17:08:30Z</time>
      </trkpt>
      <trkpt lat="27.774082" lon="-17.999046">
        <ele>77.009</ele>
        <time>2023-11-14T17:08:36Z</time>
      </trkpt>
      <trkpt lat="27.774049" lon="-17.999083">
        <ele>77.015</ele>
        <time>2023-11-14T17:08:41Z</time>
      </trkpt>
      <trkpt lat="27.774029" lon="-17.999130">
        <ele>79.699</ele>
        <time>2023-11-14T17:08:46Z</time>
      </trkpt>
      <trkpt lat="27.773995" lon="-17.999178">
        <ele>81.397</ele>
        <time>2023-11-14T17:08:55Z</time>
      </trkpt>
      <trkpt lat="27.773947" lon="-17.999161">
        <ele>82.095</ele>
        <time>2023-11-14T17:09:07Z</time>
      </trkpt>
      <trkpt lat="27.773903" lon="-17.999178">
        <ele>83.190</ele>
        <time>2023-11-14T17:09:20Z</time>
      </trkpt>
      <trkpt lat="27.773860" lon="-17.999157">
        <ele>84.369</ele>
        <time>2023-11-14T17:09:25Z</time>
      </trkpt>
      <trkpt lat="27.773857" lon="-17.999099">
        <ele>85.789</ele>
        <time>2023-11-14T17:09:35Z</time>
      </trkpt>
      <trkpt lat="27.773847" lon="-17.999151">
        <ele>86.594</ele>
        <time>2023-11-14T17:09:51Z</time>
      </trkpt>
      <trkpt lat="27.773896" lon="-17.999153">
        <ele>86.527</ele>
        <time>2023-11-14T17:10:14Z</time>
      </trkpt>
      <trkpt lat="27.773931" lon="-17.999107">
        <ele>85.911</ele>
        <time>2023-11-14T17:10:19Z</time>
      </trkpt>
      <trkpt lat="27.773973" lon="-17.999081">
        <ele>83.821</ele>
        <time>2023-11-14T17:10:26Z</time>
      </trkpt>
      <trkpt lat="27.773928" lon="-17.999114">
        <ele>81.803</ele>
        <time>2023-11-14T17:11:07Z</time>
      </trkpt>
      <trkpt lat="27.773930" lon="-17.999167">
        <ele>81.809</ele>
        <time>2023-11-14T17:11:11Z</time>
      </trkpt>
      <trkpt lat="27.773966" lon="-17.999206">
        <ele>81.842</ele>
        <time>2023-11-14T17:11:18Z</time>
      </trkpt>
      <trkpt lat="27.773920" lon="-17.999204">
        <ele>83.436</ele>
        <time>2023-11-14T17:11:28Z</time>
      </trkpt>
      <trkpt lat="27.773884" lon="-17.999235">
        <ele>84.044</ele>
        <time>2023-11-14T17:11:38Z</time>
      </trkpt>
      <trkpt lat="27.773827" lon="-17.999229">
        <ele>85.182</ele>
        <time>2023-11-14T17:12:55Z</time>
      </trkpt>
      <trkpt lat="27.773872" lon="-17.999201">
        <ele>85.647</ele>
        <time>2023-11-14T17:13:04Z</time>
      </trkpt>
      <trkpt lat="27.773894" lon="-17.999251">
        <ele>85.746</ele>
        <time>2023-11-14T17:13:08Z</time>
      </trkpt>
      <trkpt lat="27.773871" lon="-17.999308">
        <ele>86.896</ele>
        <time>2023-11-14T17:13:12Z</time>
      </trkpt>
      <trkpt lat="27.773834" lon="-17.999270">
        <ele>90.331</ele>
        <time>2023-11-14T17:13:35Z</time>
      </trkpt>
      <trkpt lat="27.773793" lon="-17.999303">
        <ele>90.324</ele>
        <time>2023-11-14T17:13:44Z</time>
      </trkpt>
      <trkpt lat="27.773748" lon="-17.999309">
        <ele>85.759</ele>
        <time>2023-11-14T17:14:31Z</time>
      </trkpt>
      <trkpt lat="27.773790" lon="-17.999274">
        <ele>85.303</ele>
        <time>2023-11-14T17:14:46Z</time>
      </trkpt>
      <trkpt lat="27.773831" lon="-17.999246">
        <ele>85.323</ele>
        <time>2023-11-14T17:14:51Z</time>
      </trkpt>
      <trkpt lat="27.773860" lon="-17.999294">
        <ele>84.909</ele>
        <time>2023-11-14T17:15:09Z</time>
      </trkpt>
      <trkpt lat="27.773869" lon="-17.999347">
        <ele>85.156</ele>
        <time>2023-11-14T17:15:15Z</time>
      </trkpt>
      <trkpt lat="27.773844" lon="-17.999399">
        <ele>84.620</ele>
        <time>2023-11-14T17:15:21Z</time>
      </trkpt>
      <trkpt lat="27.773805" lon="-17.999439">
        <ele>84.698</ele>
        <time>2023-11-14T17:15:26Z</time>
      </trkpt>
      <trkpt lat="27.773772" lon="-17.999403">
        <ele>82.896</ele>
        <time>2023-11-14T17:15:36Z</time>
      </trkpt>
      <trkpt lat="27.773728" lon="-17.999386">
        <ele>82.291</ele>
        <time>2023-11-14T17:15:43Z</time>
      </trkpt>
      <trkpt lat="27.773758" lon="-17.999427">
        <ele>85.230</ele>
        <time>2023-11-14T17:16:25Z</time>
      </trkpt>
      <trkpt lat="27.773756" lon="-17.999368">
        <ele>86.010</ele>
        <time>2023-11-14T17:16:37Z</time>
      </trkpt>
      <trkpt lat="27.773781" lon="-17.999413">
        <ele>85.875</ele>
        <time>2023-11-14T17:16:52Z</time>
      </trkpt>
      <trkpt lat="27.773780" lon="-17.999470">
        <ele>84.788</ele>
        <time>2023-11-14T17:17:03Z</time>
      </trkpt>
      <trkpt lat="27.773743" lon="-17.999515">
        <ele>82.386</ele>
        <time>2023-11-14T17:17:11Z</time>
      </trkpt>
      <trkpt lat="27.773695" lon="-17.999506">
        <ele>79.460</ele>
        <time>2023-11-14T17:17:33Z</time>
      </trkpt>
      <trkpt lat="27.773645" lon="-17.999491">
        <ele>79.726</ele>
        <time>2023-11-14T17:17:53Z</time>
      </trkpt>
      <trkpt lat="27.773678" lon="-17.999533">
        <ele>80.909</ele>
        <time>2023-11-14T17:18:07Z</time>
      </trkpt>
      <trkpt lat="27.773732" lon="-17.999550">
        <ele>81.199</ele>
        <time>2023-11-14T17:18:15Z</time>
      </trkpt>
      <trkpt lat="27.773719" lon="-17.999612">
        <ele>81.443</ele>
        <time>2023-11-14T17:18:22Z</time>
      </trkpt>
      <trkpt lat="27.773687" lon="-17.999649">
        <ele>81.361</ele>
        <time>2023-11-14T17:18:26Z</time>
      </trkpt>
      <trkpt lat="27.773637" lon="-17.999670">
        <ele>81.859</ele>
        <time>2023-11-14T17:18:40Z</time>
      </trkpt>
      <trkpt lat="27.773588" lon="-17.999653">
        <ele>84.644</ele>
        <time>2023-11-14T17:19:00Z</time>
      </trkpt>
      <trkpt lat="27.773561" lon="-17.999610">
        <ele>85.173</ele>
        <time>2023-11-14T17:19:04Z</time>
      </trkpt>
      <trkpt lat="27.773568" lon="-17.999559">
        <ele>85.393</ele>
        <time>2023-11-14T17:19:12Z</time>
      </trkpt>
      <trkpt lat="27.773562" lon="-17.999501">
        <ele>85.688</ele>
        <time>2023-11-14T17:19:19Z</time>
      </trkpt>
      <trkpt lat="27.773567" lon="-17.999567">
        <ele>84.031</ele>
        <time>2023-11-14T17:19:38Z</time>
      </trkpt>
      <trkpt lat="27.773548" lon="-17.999616">
        <ele>83.797</ele>
        <time>2023-11-14T17:19:43Z</time>
      </trkpt>
      <trkpt lat="27.773506" lon="-17.999580">
        <ele>83.223</ele>
        <time>2023-11-14T17:19:48Z</time>
      </trkpt>
      <trkpt lat="27.773502" lon="-17.999522">
        <ele>83.725</ele>
        <time>2023-11-14T17:19:53Z</time>
      </trkpt>
      <trkpt lat="27.773522" lon="-17.999476">
        <ele>87.409</ele>
        <time>2023-11-14T17:19:59Z</time>
      </trkpt>
      <trkpt lat="27.773504" lon="-17.999428">
        <ele>88.210</ele>
        <time>2023-11-14T17:20:12Z</time>
      </trkpt>
      <trkpt lat="27.773447" lon="-17.999431">
        <ele>88.664</ele>
        <time>2023-11-14T17:20:17Z</time>
      </trkpt>
      <trkpt lat="27.773404" lon="-17.999457">
        <ele>89.362</ele>
        <time>2023-11-14T17:20:35Z</time>
      </trkpt>
      <trkpt lat="27.773352" lon="-17.999466">
        <ele>89.660</ele>
        <time>2023-11-14T17:20:42Z</time>
      </trkpt>
      <trkpt lat="27.773400" lon="-17.999448">
        <ele>93.065</ele>
        <time>2023-11-14T17:21:02Z</time>
      </trkpt>
      <trkpt lat="27.773452" lon="-17.999441">
        <ele>93.334</ele>
        <time>2023-11-14T17:21:05Z</time>
      </trkpt>
      <trkpt lat="27.773497" lon="-17.999434">
        <ele>93.254</ele>
        <time>2023-11-14T17:21:09Z</time>
      </trkpt>
      <trkpt lat="27.773529" lon="-17.999395">
        <ele>92.719</ele>
        <time>2023-11-14T17:21:13Z</time>
      </trkpt>
      <trkpt lat="27.773516" lon="-17.999344">
        <ele>89.372</ele>
        <time>2023-11-14T17:21:16Z</time>
      </trkpt>
      <trkpt lat="27.773487" lon="-17.999290">
        <ele>89.014</ele>
        <time>2023-11-14T17:21:20Z</time>
      </trkpt>
      <trkpt lat="27.773461" lon="-17.999247">
        <ele>88.654</ele>
        <time>2023-11-14T17:21:25Z</time>
      </trkpt>
      <trkpt lat="27.773433" lon="-17.999194">
        <ele>88.209</ele>
        <time>2023-11-14T17:21:32Z</time>
      </trkpt>
      <trkpt lat="27.773436" lon="-17.999139">
        <ele>88.409</ele>
        <time>2023-11-14T17:21:41Z</time>
      </trkpt>
      <trkpt lat="27.773478" lon="-17.999108">
        <ele>88.572</ele>
        <time>2023-11-14T17:21:46Z</time>
      </trkpt>
      <trkpt lat="27.773437" lon="-17.999133">
        <ele>89.236</ele>
        <time>2023-11-14T17:21:56Z</time>
      </trkpt>
      <trkpt lat="27.773458" lon="-17.999071">
        <ele>89.994</ele>
        <time>2023-11-14T17:21:57Z</time>
      </trkpt>
      <trkpt lat="27.773453" lon="-17.999134">
        <ele>90.322</ele>
        <time>2023-11-14T17:22:00Z</time>
      </trkpt>
      <trkpt lat="27.773415" lon="-17.999180">
        <ele>93.197</ele>
        <time>2023-11-14T17:22:13Z</time>
      </trkpt>
      <trkpt lat="27.773429" lon="-17.999232">
        <ele>93.496</ele>
        <time>2023-11-14T17:22:17Z</time>
      </trkpt>
      <trkpt lat="27.773468" lon="-17.999204">
        <ele>93.166</ele>
        <time>2023-11-14T17:22:20Z</time>
      </trkpt>
      <trkpt lat="27.773500" lon="-17.999157">
        <ele>92.981</ele>
        <time>2023-11-14T17:22:26Z</time>
      </trkpt>
      <trkpt lat="27.773456" lon="-17.999185">
        <ele>88.634</ele>
        <time>2023-11-14T17:23:06Z</time>
      </trkpt>
      <trkpt lat="27.773461" lon="-17.999246">
        <ele>88.332</ele>
        <time>2023-11-14T17:23:11Z</time>
      </trkpt>
      <trkpt lat="27.773505" lon="-17.999228">
        <ele>91.392</ele>
        <time>2023-11-14T17:23:17Z</time>
      </trkpt>
      <trkpt lat="27.773544" lon="-17.999179">
        <ele>92.911</ele>
        <time>2023-11-14T17:23:26Z</time>
      </trkpt>
      <trkpt lat="27.773489" lon="-17.999238">
        <ele>92.309</ele>
        <time>2023-11-14T17:23:56Z</time>
      </trkpt>
      <trkpt lat="27.773449" lon="-17.999279">
        <ele>93.254</ele>
        <time>2023-11-14T17:24:00Z</time>
      </trkpt>
      <trkpt lat="27.773495" lon="-17.999285">
        <ele>94.638</ele>
        <time>2023-11-14T17:24:05Z</time>
      </trkpt>
      <trkpt lat="27.773523" lon="-17.999241">
        <ele>95.796</ele>
        <time>2023-11-14T17:24:08Z</time>
      </trkpt>
      <trkpt lat="27.773557" lon="-17.999206">
        <ele>94.614</ele>
        <time>2023-11-14T17:24:12Z</time>
      </trkpt>
      <trkpt lat="27.773597" lon="-17.999173">
        <ele>93.119</ele>
        <time>2023-11-14T17:24:16Z</time>
      </trkpt>
      <trkpt lat="27.773643" lon="-17.999139">
        <ele>92.668</ele>
        <time>2023-11-14T17:24:45Z</time>
      </trkpt>
      <trkpt lat="27.773679" lon="-17.999177">
        <ele>92.378</ele>
        <time>2023-11-14T17:24:54Z</time>
      </trkpt>
      <trkpt lat="27.773717" lon="-17.999151">
        <ele>92.373</ele>
        <time>2023-11-14T17:24:58Z</time>
      </trkpt>
      <trkpt lat="27.773705" lon="-17.999095">
        <ele>92.256</ele>
        <time>2023-11-14T17:25:04Z</time>
      </trkpt>
      <trkpt lat="27.773764" lon="-17.999158">
        <ele>91.087</ele>
        <time>2023-11-14T17:25:35Z</time>
      </trkpt>
      <trkpt lat="27.773717" lon="-17.999176">
        <ele>91.042</ele>
        <time>2023-11-14T17:25:37Z</time>
      </trkpt>
      <trkpt lat="27.773700" lon="-17.999126">
        <ele>91.026</ele>
        <time>2023-11-14T17:25:42Z</time>
      </trkpt>
      <trkpt lat="27.773730" lon="-17.999082">
        <ele>91.709</ele>
        <time>2023-11-14T17:25:51Z</time>
      </trkpt>
      <trkpt lat="27.773703" lon="-17.999030">
        <ele>93.119</ele>
        <time>2023-11-14T17:25:55Z</time>
      </trkpt>
      <trkpt lat="27.773677" lon="-17.998988">
        <ele>93.953</ele>
        <time>2023-11-14T17:25:58Z</time>
      </trkpt>
      <trkpt lat="27.773685" lon="-17.998932">
        <ele>94.041</ele>
        <time>2023-11-14T17:26:03Z</time>
      </trkpt>
      <trkpt lat="27.773700" lon="-17.998882">
        <ele>94.019</ele>
        <time>2023-11-14T17:26:07Z</time>
      </trkpt>
      <trkpt lat="27.773706" lon="-17.998828">
        <ele>94.044</ele>
        <time>2023-11-14T17:26:13Z</time>
      </trkpt>
      <trkpt lat="27.773751" lon="-17.998810">
        <ele>94.353</ele>
        <time>2023-11-14T17:26:22Z</time>
      </trkpt>
      <trkpt lat="27.773772" lon="-17.998761">
        <ele>94.323</ele>
        <time>2023-11-14T17:26:25Z</time>
      </trkpt>
      <trkpt lat="27.773796" lon="-17.998715">
        <ele>94.688</ele>
        <time>2023-11-14T17:26:28Z</time>
      </trkpt>
      <trkpt lat="27.773836" lon="-17.998776">
        <ele>95.181</ele>
        <time>2023-11-14T17:26:30Z</time>
      </trkpt>
      <trkpt lat="27.773878" lon="-17.998798">
        <ele>95.119</ele>
        <time>2023-11-14T17:26:34Z</time>
      </trkpt>
      <trkpt lat="27.773930" lon="-17.998812">
        <ele>93.809</ele>
        <time>2023-11-14T17:26:38Z</time>
      </trkpt>
      <trkpt lat="27.773981" lon="-17.998806">
        <ele>91.219</ele>
        <time>2023-11-14T17:26:42Z</time>
      </trkpt>
      <trkpt lat="27.774030" lon="-17.998815">
        <ele>90.409</ele>
        <time>2023-11-14T17:26:47Z</time>
      </trkpt>
      <trkpt lat="27.774081" lon="-17.998833">
        <ele>90.312</ele>
        <time>2023-11-14T17:26:52Z</time>
      </trkpt>
      <trkpt lat="27.774114" lon="-17.998879">
        <ele>89.866</ele>
        <time>2023-11-14T17:26:57Z</time>
      </trkpt>
      <trkpt lat="27.774143" lon="-17.998933">
        <ele>87.984</ele>
        <time>2023-11-14T17:27:02Z</time>
      </trkpt>
      <trkpt lat="27.774180" lon="-17.998967">
        <ele>86.392</ele>
        <time>2023-11-14T17:27:07Z</time>
      </trkpt>
      <trkpt lat="27.774225" lon="-17.998944">
        <ele>85.367</ele>
        <time>2023-11-14T17:27:11Z</time>
      </trkpt>
      <trkpt lat="27.774267" lon="-17.998924">
        <ele>85.276</ele>
        <time>2023-11-14T17:27:17Z</time>
      </trkpt>
      <trkpt lat="27.774310" lon="-17.998949">
        <ele>85.176</ele>
        <time>2023-11-14T17:27:23Z</time>
      </trkpt>
      <trkpt lat="27.774326" lon="-17.998997">
        <ele>84.681</ele>
        <time>2023-11-14T17:27:28Z</time>
      </trkpt>
      <trkpt lat="27.774338" lon="-17.999050">
        <ele>84.454</ele>
        <time>2023-11-14T17:27:34Z</time>
      </trkpt>
      <trkpt lat="27.774363" lon="-17.999101">
        <ele>82.399</ele>
        <time>2023-11-14T17:27:40Z</time>
      </trkpt>
      <trkpt lat="27.774386" lon="-17.999145">
        <ele>79.507</ele>
        <time>2023-11-14T17:27:46Z</time>
      </trkpt>
      <trkpt lat="27.774421" lon="-17.999186">
        <ele>79.027</ele>
        <time>2023-11-14T17:27:52Z</time>
      </trkpt>
      <trkpt lat="27.774464" lon="-17.999213">
        <ele>78.909</ele>
        <time>2023-11-14T17:27:59Z</time>
      </trkpt>
      <trkpt lat="27.774507" lon="-17.999255">
        <ele>78.820</ele>
        <time>2023-11-14T17:28:05Z</time>
      </trkpt>
      <trkpt lat="27.774560" lon="-17.999244">
        <ele>78.894</ele>
        <time>2023-11-14T17:28:09Z</time>
      </trkpt>
      <trkpt lat="27.774613" lon="-17.999238">
        <ele>78.832</ele>
        <time>2023-11-14T17:28:12Z</time>
      </trkpt>
      <trkpt lat="27.774668" lon="-17.999230">
        <ele>78.910</ele>
        <time>2023-11-14T17:28:16Z</time>
      </trkpt>
      <trkpt lat="27.774709" lon="-17.999208">
        <ele>79.215</ele>
        <time>2023-11-14T17:28:19Z</time>
      </trkpt>
      <trkpt lat="27.774742" lon="-17.999171">
        <ele>81.984</ele>
        <time>2023-11-14T17:28:24Z</time>
      </trkpt>
      <trkpt lat="27.774760" lon="-17.999123">
        <ele>81.934</ele>
        <time>2023-11-14T17:28:28Z</time>
      </trkpt>
      <trkpt lat="27.774728" lon="-17.999077">
        <ele>82.229</ele>
        <time>2023-11-14T17:28:32Z</time>
      </trkpt>
      <trkpt lat="27.774702" lon="-17.999027">
        <ele>82.152</ele>
        <time>2023-11-14T17:28:37Z</time>
      </trkpt>
      <trkpt lat="27.774692" lon="-17.999082">
        <ele>82.075</ele>
        <time>2023-11-14T17:28:39Z</time>
      </trkpt>
      <trkpt lat="27.774680" lon="-17.999011">
        <ele>78.428</ele>
        <time>2023-11-14T17:29:44Z</time>
      </trkpt>
      <trkpt lat="27.774702" lon="-17.999085">
        <ele>77.420</ele>
        <time>2023-11-14T17:29:48Z</time>
      </trkpt>
      <trkpt lat="27.774721" lon="-17.999151">
        <ele>77.409</ele>
        <time>2023-11-14T17:29:50Z</time>
      </trkpt>
      <trkpt lat="27.774675" lon="-17.999161">
        <ele>81.728</ele>
        <time>2023-11-14T17:29:57Z</time>
      </trkpt>
      <trkpt lat="27.774640" lon="-17.999121">
        <ele>82.032</ele>
        <time>2023-11-14T17:30:01Z</time>
      </trkpt>
      <trkpt lat="27.774608" lon="-17.999076">
        <ele>82.020</ele>
        <time>2023-11-14T17:30:06Z</time>
      </trkpt>
      <trkpt lat="27.774560" lon="-17.999062">
        <ele>82.518</ele>
        <time>2023-11-14T17:30:11Z</time>
      </trkpt>
      <trkpt lat="27.774520" lon="-17.999038">
        <ele>82.733</ele>
        <time>2023-11-14T17:30:15Z</time>
      </trkpt>
      <trkpt lat="27.774464" lon="-17.999041">
        <ele>83.232</ele>
        <time>2023-11-14T17:30:20Z</time>
      </trkpt>
      <trkpt lat="27.774415" lon="-17.999042">
        <ele>83.392</ele>
        <time>2023-11-14T17:30:26Z</time>
      </trkpt>
      <trkpt lat="27.774414" lon="-17.999094">
        <ele>84.727</ele>
        <time>2023-11-14T17:30:38Z</time>
      </trkpt>
      <trkpt lat="27.774437" lon="-17.999034">
        <ele>81.930</ele>
        <time>2023-11-14T17:32:13Z</time>
      </trkpt>
    </trkseg>
  </trk></gpx>