<?xml version="1.0" encoding="UTF-8"?>
<gpx version="1.1" creator="Aventuras en Cada Paso" xmlns="http://www.topografix.com/GPX/1/1">
  <metadata>
    <name>Tazacorte – Roque de los Muchachos</name>
    <desc>Más de 2.400 m de ascenso continuo desde el mar hasta la cima de La Palma (2.423 m). Una de las rutas más duras de todo el archipiélago.</desc>
    <author><name>Aventuras en Cada Paso</name></author>
    <time>2026-07-08T08:12:58.183Z</time>
    <keywords>La Palma, Senderismo, Extrema, senderismo Canarias</keywords>
  </metadata>
  <wpt lat="28.6401" lon="-17.9356">
    <name>Tazacorte – Roque de los Muchachos</name>
    <desc>Más de 2.400 m de ascenso continuo desde el mar hasta la cima de La Palma (2.423 m). Una de las rutas más duras de todo el archipiélago. | Isla: La Palma | Tipo: Senderismo | Dificultad: Extrema | Distancia: 28km | Duración: Día completo</desc>
    <type>Senderismo</type>
    <extensions>
      <isla>La Palma</isla>
      <dificultad>Extrema</dificultad>
      <distancia>28</distancia>
      <duracion>Día completo</duracion>
    </extensions>
  </wpt>
</gpx>