<?xml version="1.0" encoding="UTF-8"?>
<gpx version="1.1" creator="Aventuras en Cada Paso" xmlns="http://www.topografix.com/GPX/1/1">
  <metadata>
    <name>Ascensión al Teide – Montaña Blanca (Sendero 7)</name>
    <desc>La ruta más icónica de España. Desde Montaña Blanca (2.300 m) hasta La Rambleta (3.555 m). Requiere permiso para subir los últimos 200 m hasta la cima.</desc>
    <author><name>Aventuras en Cada Paso</name></author>
    <time>2026-07-08T08:12:58.137Z</time>
    <keywords>Tenerife, Senderismo, Difícil, senderismo Canarias</keywords>
  </metadata>
  <wpt lat="28.2743" lon="-16.6426">
    <name>Ascensión al Teide – Montaña Blanca (Sendero 7)</name>
    <desc>La ruta más icónica de España. Desde Montaña Blanca (2.300 m) hasta La Rambleta (3.555 m). Requiere permiso para subir los últimos 200 m hasta la cima. | Isla: Tenerife | Tipo: Senderismo | Dificultad: Difícil | Distancia: 18km | Duración: Día completo</desc>
    <type>Senderismo</type>
    <extensions>
      <isla>Tenerife</isla>
      <dificultad>Difícil</dificultad>
      <distancia>18</distancia>
      <duracion>Día completo</duracion>
    </extensions>
  </wpt>
</gpx>