<?xml version="1.0" encoding="UTF-8"?>
<gpx version="1.1" creator="Aventuras en Cada Paso" xmlns="http://www.topografix.com/GPX/1/1">
  <metadata>
    <name>Erjos – Circular Parque Rural de Teno</name>
    <desc>Agradable circular por el Parque Rural de Teno con dos paisajes distintos: bosque húmedo y zona más árida. Cruz de Gala con vistas panorámicas.</desc>
    <author><name>Aventuras en Cada Paso</name></author>
    <time>2026-07-08T08:12:58.158Z</time>
    <keywords>Tenerife, Senderismo, Media, senderismo Canarias</keywords>
  </metadata>
  <wpt lat="28.3467" lon="-16.8028">
    <name>Erjos – Circular Parque Rural de Teno</name>
    <desc>Agradable circular por el Parque Rural de Teno con dos paisajes distintos: bosque húmedo y zona más árida. Cruz de Gala con vistas panorámicas. | Isla: Tenerife | Tipo: Senderismo | Dificultad: Media | Distancia: 8km | Duración: 2-4 horas</desc>
    <type>Senderismo</type>
    <extensions>
      <isla>Tenerife</isla>
      <dificultad>Media</dificultad>
      <distancia>8</distancia>
      <duracion>2-4 horas</duracion>
    </extensions>
  </wpt>
</gpx>