<?xml version="1.0" encoding="UTF-8"?>
<gpx version="1.1" creator="Aventuras en Cada Paso" xmlns="http://www.topografix.com/GPX/1/1">
  <metadata>
    <name>Teno – Monte del Agua – Risco Verde</name>
    <desc>Laurisilva del Monte del Agua hasta los miradores únicos del Risco Verde. Vistas a Masca, Santiago del Teide y el Teide al fondo.</desc>
    <author><name>Aventuras en Cada Paso</name></author>
    <time>2026-07-08T08:12:58.158Z</time>
    <keywords>Tenerife, Senderismo, Difícil, senderismo Canarias</keywords>
  </metadata>
  <wpt lat="28.3619" lon="-16.8533">
    <name>Teno – Monte del Agua – Risco Verde</name>
    <desc>Laurisilva del Monte del Agua hasta los miradores únicos del Risco Verde. Vistas a Masca, Santiago del Teide y el Teide al fondo. | Isla: Tenerife | Tipo: Senderismo | Dificultad: Difícil | Distancia: 14km | Duración: 4-8 horas</desc>
    <type>Senderismo</type>
    <extensions>
      <isla>Tenerife</isla>
      <dificultad>Difícil</dificultad>
      <distancia>14</distancia>
      <duracion>4-8 horas</duracion>
    </extensions>
  </wpt>
</gpx>