<?xml version="1.0" encoding="UTF-8"?>
<gpx version="1.1" creator="Aventuras en Cada Paso" xmlns="http://www.topografix.com/GPX/1/1">
  <metadata>
    <name>Valle de El Palmar – Teno Alto</name>
    <desc>Circular por el Valle de El Palmar hasta Teno Alto por bosque de brezos y laurisilva única en altura. Vistas excepcionales al norte de la isla.</desc>
    <author><name>Aventuras en Cada Paso</name></author>
    <time>2026-07-08T08:12:58.158Z</time>
    <keywords>Tenerife, Senderismo, Media, senderismo Canarias</keywords>
  </metadata>
  <wpt lat="28.3658" lon="-16.825">
    <name>Valle de El Palmar – Teno Alto</name>
    <desc>Circular por el Valle de El Palmar hasta Teno Alto por bosque de brezos y laurisilva única en altura. Vistas excepcionales al norte de la isla. | Isla: Tenerife | Tipo: Senderismo | Dificultad: Media | Distancia: 11km | Duración: 4-8 horas</desc>
    <type>Senderismo</type>
    <extensions>
      <isla>Tenerife</isla>
      <dificultad>Media</dificultad>
      <distancia>11</distancia>
      <duracion>4-8 horas</duracion>
    </extensions>
  </wpt>
</gpx>