<?xml version="1.0" encoding="UTF-8"?>
<gpx version="1.1" creator="Aventuras en Cada Paso" xmlns="http://www.topografix.com/GPX/1/1">
  <metadata>
    <name>Tiñor – Circular por Los Alisios</name>
    <desc>Circular por el bosque de Los Alisios desde Tiñor. Laurisilva húmeda y bosque de hayas con los garoeos, árboles que capturan agua de las nubes.</desc>
    <author><name>Aventuras en Cada Paso</name></author>
    <time>2026-07-08T08:12:58.204Z</time>
    <keywords>El Hierro, Senderismo, Media, senderismo Canarias</keywords>
  </metadata>
  <wpt lat="27.7903" lon="-17.9503">
    <name>Tiñor – Circular por Los Alisios</name>
    <desc>Circular por el bosque de Los Alisios desde Tiñor. Laurisilva húmeda y bosque de hayas con los garoeos, árboles que capturan agua de las nubes. | Isla: El Hierro | Tipo: Senderismo | Dificultad: Media | Distancia: 7km | Duración: 2-4 horas</desc>
    <type>Senderismo</type>
    <extensions>
      <isla>El Hierro</isla>
      <dificultad>Media</dificultad>
      <distancia>7</distancia>
      <duracion>2-4 horas</duracion>
    </extensions>
  </wpt>
</gpx>