<?xml version="1.0" encoding="UTF-8"?>
<gpx version="1.1" creator="Aventuras en Cada Paso" xmlns="http://www.topografix.com/GPX/1/1">
  <metadata>
    <name>El Golfo – Ruta del Litoral</name>
    <desc>Sendero lineal desde El Golfo hasta la Playa del Paso por la costa de lava solidificada. Ruta guiada oficial del PN de Timanfaya (miércoles).</desc>
    <author><name>Aventuras en Cada Paso</name></author>
    <time>2026-07-08T08:12:58.168Z</time>
    <keywords>Lanzarote, Senderismo, Fácil, senderismo Canarias</keywords>
  </metadata>
  <wpt lat="29.0433" lon="-13.8294">
    <name>El Golfo – Ruta del Litoral</name>
    <desc>Sendero lineal desde El Golfo hasta la Playa del Paso por la costa de lava solidificada. Ruta guiada oficial del PN de Timanfaya (miércoles). | Isla: Lanzarote | Tipo: Senderismo | Dificultad: Fácil | Distancia: 3km | Duración: Menos de 2h</desc>
    <type>Senderismo</type>
    <extensions>
      <isla>Lanzarote</isla>
      <dificultad>Fácil</dificultad>
      <distancia>3</distancia>
      <duracion>Menos de 2h</duracion>
    </extensions>
  </wpt>
</gpx>