<?xml version="1.0" encoding="UTF-8"?>
<gpx version="1.1" creator="Aventuras en Cada Paso" xmlns="http://www.topografix.com/GPX/1/1">
  <metadata>
    <name>Tindaya – Vallebrón – Tefía (PR FV 9)</name>
    <desc>Larga circular desde Tindaya pasando por Vallebrón y Tefía. Montaña de Tindaya, Ermita de San Juan, Montaña de la Muda y vistas al norte de la isla.</desc>
    <author><name>Aventuras en Cada Paso</name></author>
    <time>2026-07-08T08:12:58.180Z</time>
    <keywords>Fuerteventura, Senderismo, Difícil, senderismo Canarias</keywords>
  </metadata>
  <wpt lat="28.575" lon="-13.9917">
    <name>Tindaya – Vallebrón – Tefía (PR FV 9)</name>
    <desc>Larga circular desde Tindaya pasando por Vallebrón y Tefía. Montaña de Tindaya, Ermita de San Juan, Montaña de la Muda y vistas al norte de la isla. | Isla: Fuerteventura | Tipo: Senderismo | Dificultad: Difícil | Distancia: 16km | Duración: 4-8 horas</desc>
    <type>Senderismo</type>
    <extensions>
      <isla>Fuerteventura</isla>
      <dificultad>Difícil</dificultad>
      <distancia>16</distancia>
      <duracion>4-8 horas</duracion>
    </extensions>
  </wpt>
</gpx>