<?xml version="1.0" encoding="UTF-8"?>
<gpx version="1.1" creator="Aventuras en Cada Paso" xmlns="http://www.topografix.com/GPX/1/1">
  <metadata>
    <name>Montaña de Tindaya</name>
    <desc>Ascenso a la montaña sagrada de los majos con grabados podomorlos únicos. Vistas al norte de la isla. Lugar de alto valor arqueológico y espiritual.</desc>
    <author><name>Aventuras en Cada Paso</name></author>
    <time>2026-07-08T08:12:58.177Z</time>
    <keywords>Fuerteventura, Senderismo, Media, senderismo Canarias</keywords>
  </metadata>
  <wpt lat="28.5919" lon="-13.9969">
    <name>Montaña de Tindaya</name>
    <desc>Ascenso a la montaña sagrada de los majos con grabados podomorlos únicos. Vistas al norte de la isla. Lugar de alto valor arqueológico y espiritual. | Isla: Fuerteventura | Tipo: Senderismo | Dificultad: Media | Distancia: 5km | Duración: 2-4 horas</desc>
    <type>Senderismo</type>
    <extensions>
      <isla>Fuerteventura</isla>
      <dificultad>Media</dificultad>
      <distancia>5</distancia>
      <duracion>2-4 horas</duracion>
    </extensions>
  </wpt>
</gpx>