<?xml version="1.0" encoding="UTF-8"?>
<gpx creator="Wikiloc - https://www.wikiloc.com" version="1.1" xmlns="http://www.topografix.com/GPX/1/1" xmlns:xsi="http://www.w3.org/2001/XMLSchema-instance" xsi:schemaLocation="http://www.topografix.com/GPX/1/1 http://www.topografix.com/GPX/1/1/gpx.xsd">
  <metadata>
    <name>Wikiloc - Circular Ruta del Agua: Los Dornajos, Árbol Garoé y Charca d...</name>
    <link href="https://www.wikiloc.com/hiking-trails/circular-ruta-del-agua-los-dornajos-arbol-garoe-y-charca-de-tesfirabe-desde-tinor-189180430">
      <text>Circular Ruta del Agua: Los Dornajos, Árbol Garoé y Charca d... on Wikiloc</text>
    </link>
    <time>2024-10-22T12:54:45.033Z</time>
  </metadata>
  <trk>
    <name>Circular Ruta del Agua: Los Dornajos, Árbol Garoé y Charca d... - Wikiloc</name>
    <cmt></cmt>
    <desc></desc>
    <trkseg>
      <trkpt lat="27.789513" lon="-17.933819">
        <ele>933.034</ele>
        <time>2024-10-22T10:57:25.996Z</time>
      </trkpt>
      <trkpt lat="27.789319" lon="-17.933984">
        <ele>933.355</ele>
        <time>2024-10-22T10:58:42.033Z</time>
      </trkpt>
      <trkpt lat="27.788596" lon="-17.933711">
        <ele>938.510</ele>
        <time>2024-10-22T11:00:12.033Z</time>
      </trkpt>
      <trkpt lat="27.788058" lon="-17.933731">
        <ele>938.409</ele>
        <time>2024-10-22T11:00:46.033Z</time>
      </trkpt>
      <trkpt lat="27.787908" lon="-17.933953">
        <ele>938.444</ele>
        <time>2024-10-22T11:01:03.033Z</time>
      </trkpt>
      <trkpt lat="27.787429" lon="-17.934301">
        <ele>949.081</ele>
        <time>2024-10-22T11:01:53.033Z</time>
      </trkpt>
      <trkpt lat="27.786869" lon="-17.935123">
        <ele>971.392</ele>
        <time>2024-10-22T11:03:10.033Z</time>
      </trkpt>
      <trkpt lat="27.786457" lon="-17.935564">
        <ele>983.554</ele>
        <time>2024-10-22T11:03:57.033Z</time>
      </trkpt>
      <trkpt lat="27.786109" lon="-17.936487">
        <ele>998.151</ele>
        <time>2024-10-22T11:05:05.033Z</time>
      </trkpt>
      <trkpt lat="27.785655" lon="-17.937075">
        <ele>1009.573</ele>
        <time>2024-10-22T11:05:58.033Z</time>
      </trkpt>
      <trkpt lat="27.785591" lon="-17.937517">
        <ele>1014.927</ele>
        <time>2024-10-22T11:06:33.033Z</time>
      </trkpt>
      <trkpt lat="27.785327" lon="-17.937909">
        <ele>1019.246</ele>
        <time>2024-10-22T11:07:04.033Z</time>
      </trkpt>
      <trkpt lat="27.785194" lon="-17.938354">
        <ele>1022.833</ele>
        <time>2024-10-22T11:07:32.033Z</time>
      </trkpt>
      <trkpt lat="27.785142" lon="-17.939776">
        <ele>1027.626</ele>
        <time>2024-10-22T11:08:57.033Z</time>
      </trkpt>
      <trkpt lat="27.784956" lon="-17.940298">
        <ele>1034.747</ele>
        <time>2024-10-22T11:09:32.033Z</time>
      </trkpt>
      <trkpt lat="27.785044" lon="-17.941118">
        <ele>1048.211</ele>
        <time>2024-10-22T11:10:27.033Z</time>
      </trkpt>
      <trkpt lat="27.784790" lon="-17.941619">
        <ele>1054.709</ele>
        <time>2024-10-22T11:11:03.033Z</time>
      </trkpt>
      <trkpt lat="27.784804" lon="-17.942417">
        <ele>1051.133</ele>
        <time>2024-10-22T11:11:49.033Z</time>
      </trkpt>
      <trkpt lat="27.784457" lon="-17.943229">
        <ele>1044.630</ele>
        <time>2024-10-22T11:12:38.033Z</time>
      </trkpt>
      <trkpt lat="27.784112" lon="-17.943714">
        <ele>1046.691</ele>
        <time>2024-10-22T11:13:12.033Z</time>
      </trkpt>
      <trkpt lat="27.783936" lon="-17.944630">
        <ele>1045.923</ele>
        <time>2024-10-22T11:14:04.033Z</time>
      </trkpt>
      <trkpt lat="27.783888" lon="-17.945053">
        <ele>1046.490</ele>
        <time>2024-10-22T11:14:28.033Z</time>
      </trkpt>
      <trkpt lat="27.784024" lon="-17.946293">
        <ele>1044.722</ele>
        <time>2024-10-22T11:15:37.033Z</time>
      </trkpt>
      <trkpt lat="27.783639" lon="-17.946905">
        <ele>1048.126</ele>
        <time>2024-10-22T11:16:16.033Z</time>
      </trkpt>
      <trkpt lat="27.783069" lon="-17.947447">
        <ele>1050.355</ele>
        <time>2024-10-22T11:17:01.033Z</time>
      </trkpt>
      <trkpt lat="27.782979" lon="-17.947794">
        <ele>1048.572</ele>
        <time>2024-10-22T11:17:25.033Z</time>
      </trkpt>
      <trkpt lat="27.783049" lon="-17.947977">
        <ele>1045.426</ele>
        <time>2024-10-22T11:17:38.033Z</time>
      </trkpt>
      <trkpt lat="27.783288" lon="-17.947700">
        <ele>1051.947</ele>
        <time>2024-10-22T11:18:01.033Z</time>
      </trkpt>
      <trkpt lat="27.784310" lon="-17.947277">
        <ele>1078.611</ele>
        <time>2024-10-22T11:19:21.033Z</time>
      </trkpt>
      <trkpt lat="27.785021" lon="-17.946366">
        <ele>1095.009</ele>
        <time>2024-10-22T11:20:40.033Z</time>
      </trkpt>
      <trkpt lat="27.785912" lon="-17.945504">
        <ele>1103.493</ele>
        <time>2024-10-22T11:21:56.033Z</time>
      </trkpt>
      <trkpt lat="27.787212" lon="-17.945015">
        <ele>1109.980</ele>
        <time>2024-10-22T11:23:28.033Z</time>
      </trkpt>
      <trkpt lat="27.788409" lon="-17.944104">
        <ele>1119.021</ele>
        <time>2024-10-22T11:25:05.033Z</time>
      </trkpt>
      <trkpt lat="27.789279" lon="-17.943718">
        <ele>1128.033</ele>
        <time>2024-10-22T11:26:08.033Z</time>
      </trkpt>
      <trkpt lat="27.790118" lon="-17.942994">
        <ele>1109.580</ele>
        <time>2024-10-22T11:27:13.033Z</time>
      </trkpt>
      <trkpt lat="27.791412" lon="-17.942280">
        <ele>1115.562</ele>
        <time>2024-10-22T11:28:43.033Z</time>
      </trkpt>
      <trkpt lat="27.792269" lon="-17.941912">
        <ele>1108.796</ele>
        <time>2024-10-22T11:29:41.033Z</time>
      </trkpt>
      <trkpt lat="27.792649" lon="-17.942010">
        <ele>1104.545</ele>
        <time>2024-10-22T11:30:06.033Z</time>
      </trkpt>
      <trkpt lat="27.793349" lon="-17.941938">
        <ele>1086.672</ele>
        <time>2024-10-22T11:30:51.033Z</time>
      </trkpt>
      <trkpt lat="27.794194" lon="-17.942133">
        <ele>1068.977</ele>
        <time>2024-10-22T11:31:43.033Z</time>
      </trkpt>
      <trkpt lat="27.794516" lon="-17.942284">
        <ele>1062.361</ele>
        <time>2024-10-22T11:32:05.033Z</time>
      </trkpt>
      <trkpt lat="27.794994" lon="-17.942168">
        <ele>1052.727</ele>
        <time>2024-10-22T11:32:35.033Z</time>
      </trkpt>
      <trkpt lat="27.795327" lon="-17.942537">
        <ele>1042.509</ele>
        <time>2024-10-22T11:33:05.033Z</time>
      </trkpt>
      <trkpt lat="27.795651" lon="-17.942593">
        <ele>1035.858</ele>
        <time>2024-10-22T11:33:26.033Z</time>
      </trkpt>
      <trkpt lat="27.795999" lon="-17.942777">
        <ele>1029.995</ele>
        <time>2024-10-22T11:33:54.033Z</time>
      </trkpt>
      <trkpt lat="27.796038" lon="-17.942671">
        <ele>1030.716</ele>
        <time>2024-10-22T11:34:29.033Z</time>
      </trkpt>
      <trkpt lat="27.796031" lon="-17.942894">
        <ele>1032.438</ele>
        <time>2024-10-22T11:36:18.033Z</time>
      </trkpt>
      <trkpt lat="27.796325" lon="-17.943293">
        <ele>1020.755</ele>
        <time>2024-10-22T11:37:13.033Z</time>
      </trkpt>
      <trkpt lat="27.796574" lon="-17.943384">
        <ele>1020.457</ele>
        <time>2024-10-22T11:37:30.033Z</time>
      </trkpt>
      <trkpt lat="27.796803" lon="-17.943595">
        <ele>1016.441</ele>
        <time>2024-10-22T11:37:49.033Z</time>
      </trkpt>
      <trkpt lat="27.798061" lon="-17.943642">
        <ele>1006.110</ele>
        <time>2024-10-22T11:39:08.033Z</time>
      </trkpt>
      <trkpt lat="27.798891" lon="-17.943829">
        <ele>1002.657</ele>
        <time>2024-10-22T11:40:02.033Z</time>
      </trkpt>
      <trkpt lat="27.799930" lon="-17.943751">
        <ele>994.898</ele>
        <time>2024-10-22T11:41:08.033Z</time>
      </trkpt>
      <trkpt lat="27.799999" lon="-17.943883">
        <ele>991.315</ele>
        <time>2024-10-22T11:41:17.033Z</time>
      </trkpt>
      <trkpt lat="27.799930" lon="-17.944242">
        <ele>986.926</ele>
        <time>2024-10-22T11:41:41.033Z</time>
      </trkpt>
      <trkpt lat="27.800290" lon="-17.944442">
        <ele>985.509</ele>
        <time>2024-10-22T11:42:08.033Z</time>
      </trkpt>
      <trkpt lat="27.800120" lon="-17.944247">
        <ele>986.140</ele>
        <time>2024-10-22T11:42:34.033Z</time>
      </trkpt>
      <trkpt lat="27.800374" lon="-17.943607">
        <ele>978.867</ele>
        <time>2024-10-22T11:43:20.033Z</time>
      </trkpt>
      <trkpt lat="27.800321" lon="-17.943442">
        <ele>977.398</ele>
        <time>2024-10-22T11:43:31.033Z</time>
      </trkpt>
      <trkpt lat="27.800045" lon="-17.943204">
        <ele>974.580</ele>
        <time>2024-10-22T11:43:55.033Z</time>
      </trkpt>
      <trkpt lat="27.799850" lon="-17.942883">
        <ele>973.027</ele>
        <time>2024-10-22T11:44:19.033Z</time>
      </trkpt>
      <trkpt lat="27.799391" lon="-17.942585">
        <ele>967.319</ele>
        <time>2024-10-22T11:44:52.033Z</time>
      </trkpt>
      <trkpt lat="27.799374" lon="-17.942468">
        <ele>965.563</ele>
        <time>2024-10-22T11:45:01.033Z</time>
      </trkpt>
      <trkpt lat="27.799749" lon="-17.942066">
        <ele>964.482</ele>
        <time>2024-10-22T11:45:47.033Z</time>
      </trkpt>
      <trkpt lat="27.799606" lon="-17.941575">
        <ele>973.849</ele>
        <time>2024-10-22T11:46:29.033Z</time>
      </trkpt>
      <trkpt lat="27.799724" lon="-17.941464">
        <ele>975.839</ele>
        <time>2024-10-22T11:46:40.033Z</time>
      </trkpt>
      <trkpt lat="27.800131" lon="-17.941358">
        <ele>972.201</ele>
        <time>2024-10-22T11:47:10.033Z</time>
      </trkpt>
      <trkpt lat="27.800250" lon="-17.941193">
        <ele>972.321</ele>
        <time>2024-10-22T11:47:22.033Z</time>
      </trkpt>
      <trkpt lat="27.800061" lon="-17.940477">
        <ele>961.209</ele>
        <time>2024-10-22T11:48:11.033Z</time>
      </trkpt>
      <trkpt lat="27.800124" lon="-17.940324">
        <ele>962.064</ele>
        <time>2024-10-22T11:48:21.033Z</time>
      </trkpt>
      <trkpt lat="27.800819" lon="-17.940338">
        <ele>962.421</ele>
        <time>2024-10-22T11:49:13.033Z</time>
      </trkpt>
      <trkpt lat="27.801079" lon="-17.940253">
        <ele>966.532</ele>
        <time>2024-10-22T11:49:33.033Z</time>
      </trkpt>
      <trkpt lat="27.801212" lon="-17.940080">
        <ele>971.174</ele>
        <time>2024-10-22T11:49:49.033Z</time>
      </trkpt>
      <trkpt lat="27.801102" lon="-17.939501">
        <ele>983.741</ele>
        <time>2024-10-22T11:51:50.033Z</time>
      </trkpt>
      <trkpt lat="27.800704" lon="-17.939036">
        <ele>990.853</ele>
        <time>2024-10-22T11:53:03.033Z</time>
      </trkpt>
      <trkpt lat="27.800521" lon="-17.939023">
        <ele>990.567</ele>
        <time>2024-10-22T11:53:25.033Z</time>
      </trkpt>
      <trkpt lat="27.800930" lon="-17.938952">
        <ele>996.426</ele>
        <time>2024-10-22T11:54:41.033Z</time>
      </trkpt>
      <trkpt lat="27.800971" lon="-17.938690">
        <ele>984.963</ele>
        <time>2024-10-22T11:55:07.033Z</time>
      </trkpt>
      <trkpt lat="27.801158" lon="-17.938513">
        <ele>987.932</ele>
        <time>2024-10-22T11:55:24.033Z</time>
      </trkpt>
      <trkpt lat="27.801196" lon="-17.938292">
        <ele>986.092</ele>
        <time>2024-10-22T11:55:39.033Z</time>
      </trkpt>
      <trkpt lat="27.801501" lon="-17.938113">
        <ele>984.211</ele>
        <time>2024-10-22T11:56:07.033Z</time>
      </trkpt>
      <trkpt lat="27.801544" lon="-17.937884">
        <ele>985.709</ele>
        <time>2024-10-22T11:56:23.033Z</time>
      </trkpt>
      <trkpt lat="27.801476" lon="-17.937605">
        <ele>988.854</ele>
        <time>2024-10-22T11:56:44.033Z</time>
      </trkpt>
      <trkpt lat="27.801558" lon="-17.937333">
        <ele>990.431</ele>
        <time>2024-10-22T11:59:00.033Z</time>
      </trkpt>
      <trkpt lat="27.801883" lon="-17.936927">
        <ele>977.472</ele>
        <time>2024-10-22T12:01:31.033Z</time>
      </trkpt>
      <trkpt lat="27.802148" lon="-17.936768">
        <ele>976.824</ele>
        <time>2024-10-22T12:02:09.033Z</time>
      </trkpt>
      <trkpt lat="27.802291" lon="-17.936365">
        <ele>981.291</ele>
        <time>2024-10-22T12:03:08.033Z</time>
      </trkpt>
      <trkpt lat="27.802540" lon="-17.935997">
        <ele>981.143</ele>
        <time>2024-10-22T12:03:50.033Z</time>
      </trkpt>
      <trkpt lat="27.802619" lon="-17.935596">
        <ele>981.257</ele>
        <time>2024-10-22T12:04:34.033Z</time>
      </trkpt>
      <trkpt lat="27.802798" lon="-17.935246">
        <ele>971.746</ele>
        <time>2024-10-22T12:05:06.033Z</time>
      </trkpt>
      <trkpt lat="27.803350" lon="-17.934674">
        <ele>973.283</ele>
        <time>2024-10-22T12:06:02.033Z</time>
      </trkpt>
      <trkpt lat="27.803402" lon="-17.934326">
        <ele>972.028</ele>
        <time>2024-10-22T12:06:23.033Z</time>
      </trkpt>
      <trkpt lat="27.803199" lon="-17.933914">
        <ele>969.089</ele>
        <time>2024-10-22T12:06:59.033Z</time>
      </trkpt>
      <trkpt lat="27.803631" lon="-17.933297">
        <ele>955.217</ele>
        <time>2024-10-22T12:08:02.033Z</time>
      </trkpt>
      <trkpt lat="27.803739" lon="-17.933291">
        <ele>954.409</ele>
        <time>2024-10-22T12:08:11.033Z</time>
      </trkpt>
      <trkpt lat="27.803823" lon="-17.933178">
        <ele>950.243</ele>
        <time>2024-10-22T12:08:22.033Z</time>
      </trkpt>
      <trkpt lat="27.803907" lon="-17.933320">
        <ele>944.410</ele>
        <time>2024-10-22T12:08:37.033Z</time>
      </trkpt>
      <trkpt lat="27.804091" lon="-17.933109">
        <ele>938.141</ele>
        <time>2024-10-22T12:08:56.033Z</time>
      </trkpt>
      <trkpt lat="27.804245" lon="-17.933256">
        <ele>932.473</ele>
        <time>2024-10-22T12:09:10.033Z</time>
      </trkpt>
      <trkpt lat="27.804346" lon="-17.933072">
        <ele>927.820</ele>
        <time>2024-10-22T12:09:25.033Z</time>
      </trkpt>
      <trkpt lat="27.804496" lon="-17.933199">
        <ele>923.862</ele>
        <time>2024-10-22T12:09:42.033Z</time>
      </trkpt>
      <trkpt lat="27.804561" lon="-17.933009">
        <ele>919.126</ele>
        <time>2024-10-22T12:09:56.033Z</time>
      </trkpt>
      <trkpt lat="27.804659" lon="-17.932989">
        <ele>918.555</ele>
        <time>2024-10-22T12:10:05.033Z</time>
      </trkpt>
      <trkpt lat="27.804818" lon="-17.933198">
        <ele>909.462</ele>
        <time>2024-10-22T12:10:25.033Z</time>
      </trkpt>
      <trkpt lat="27.804997" lon="-17.933168">
        <ele>905.382</ele>
        <time>2024-10-22T12:10:41.033Z</time>
      </trkpt>
      <trkpt lat="27.805103" lon="-17.932402">
        <ele>900.743</ele>
        <time>2024-10-22T12:11:31.033Z</time>
      </trkpt>
      <trkpt lat="27.804611" lon="-17.931867">
        <ele>886.917</ele>
        <time>2024-10-22T12:12:22.033Z</time>
      </trkpt>
      <trkpt lat="27.804868" lon="-17.931663">
        <ele>882.209</ele>
        <time>2024-10-22T12:12:53.033Z</time>
      </trkpt>
      <trkpt lat="27.805204" lon="-17.930939">
        <ele>874.719</ele>
        <time>2024-10-22T12:13:44.033Z</time>
      </trkpt>
      <trkpt lat="27.805575" lon="-17.930543">
        <ele>868.046</ele>
        <time>2024-10-22T12:14:17.033Z</time>
      </trkpt>
      <trkpt lat="27.806210" lon="-17.929455">
        <ele>854.147</ele>
        <time>2024-10-22T12:15:33.033Z</time>
      </trkpt>
      <trkpt lat="27.806084" lon="-17.929289">
        <ele>851.949</ele>
        <time>2024-10-22T12:15:48.033Z</time>
      </trkpt>
      <trkpt lat="27.805679" lon="-17.929285">
        <ele>848.826</ele>
        <time>2024-10-22T12:16:13.033Z</time>
      </trkpt>
      <trkpt lat="27.806129" lon="-17.928609">
        <ele>831.328</ele>
        <time>2024-10-22T12:17:03.033Z</time>
      </trkpt>
      <trkpt lat="27.806279" lon="-17.928011">
        <ele>826.032</ele>
        <time>2024-10-22T12:17:40.033Z</time>
      </trkpt>
      <trkpt lat="27.806248" lon="-17.927722">
        <ele>826.961</ele>
        <time>2024-10-22T12:17:59.033Z</time>
      </trkpt>
      <trkpt lat="27.806120" lon="-17.927548">
        <ele>830.768</ele>
        <time>2024-10-22T12:18:12.033Z</time>
      </trkpt>
      <trkpt lat="27.805692" lon="-17.927449">
        <ele>828.929</ele>
        <time>2024-10-22T12:18:39.033Z</time>
      </trkpt>
      <trkpt lat="27.805637" lon="-17.927366">
        <ele>826.900</ele>
        <time>2024-10-22T12:18:45.033Z</time>
      </trkpt>
      <trkpt lat="27.805822" lon="-17.926224">
        <ele>822.020</ele>
        <time>2024-10-22T12:19:54.033Z</time>
      </trkpt>
      <trkpt lat="27.805841" lon="-17.925556">
        <ele>821.809</ele>
        <time>2024-10-22T12:20:33.033Z</time>
      </trkpt>
      <trkpt lat="27.805608" lon="-17.925058">
        <ele>816.673</ele>
        <time>2024-10-22T12:21:03.033Z</time>
      </trkpt>
      <trkpt lat="27.805065" lon="-17.924316">
        <ele>802.460</ele>
        <time>2024-10-22T12:21:56.033Z</time>
      </trkpt>
      <trkpt lat="27.804819" lon="-17.923732">
        <ele>798.831</ele>
        <time>2024-10-22T12:22:34.033Z</time>
      </trkpt>
      <trkpt lat="27.804710" lon="-17.923235">
        <ele>796.713</ele>
        <time>2024-10-22T12:23:06.033Z</time>
      </trkpt>
      <trkpt lat="27.804306" lon="-17.922877">
        <ele>798.220</ele>
        <time>2024-10-22T12:23:40.033Z</time>
      </trkpt>
      <trkpt lat="27.803886" lon="-17.922951">
        <ele>800.082</ele>
        <time>2024-10-22T12:24:06.033Z</time>
      </trkpt>
      <trkpt lat="27.803457" lon="-17.923485">
        <ele>800.226</ele>
        <time>2024-10-22T12:24:46.033Z</time>
      </trkpt>
      <trkpt lat="27.802978" lon="-17.923721">
        <ele>805.575</ele>
        <time>2024-10-22T12:25:19.033Z</time>
      </trkpt>
      <trkpt lat="27.802606" lon="-17.924193">
        <ele>799.792</ele>
        <time>2024-10-22T12:25:56.033Z</time>
      </trkpt>
      <trkpt lat="27.802474" lon="-17.924123">
        <ele>798.524</ele>
        <time>2024-10-22T12:26:06.033Z</time>
      </trkpt>
      <trkpt lat="27.802264" lon="-17.923591">
        <ele>798.204</ele>
        <time>2024-10-22T12:26:40.033Z</time>
      </trkpt>
      <trkpt lat="27.802152" lon="-17.923491">
        <ele>798.414</ele>
        <time>2024-10-22T12:26:49.033Z</time>
      </trkpt>
      <trkpt lat="27.801800" lon="-17.923471">
        <ele>796.109</ele>
        <time>2024-10-22T12:27:11.033Z</time>
      </trkpt>
      <trkpt lat="27.801561" lon="-17.923836">
        <ele>790.923</ele>
        <time>2024-10-22T12:27:37.033Z</time>
      </trkpt>
      <trkpt lat="27.801426" lon="-17.923899">
        <ele>789.840</ele>
        <time>2024-10-22T12:27:46.033Z</time>
      </trkpt>
      <trkpt lat="27.801074" lon="-17.923412">
        <ele>794.181</ele>
        <time>2024-10-22T12:28:27.033Z</time>
      </trkpt>
      <trkpt lat="27.800793" lon="-17.923302">
        <ele>793.893</ele>
        <time>2024-10-22T12:28:45.033Z</time>
      </trkpt>
      <trkpt lat="27.800300" lon="-17.923688">
        <ele>791.370</ele>
        <time>2024-10-22T12:29:22.033Z</time>
      </trkpt>
      <trkpt lat="27.800007" lon="-17.923631">
        <ele>793.132</ele>
        <time>2024-10-22T12:29:43.033Z</time>
      </trkpt>
      <trkpt lat="27.799684" lon="-17.923888">
        <ele>792.776</ele>
        <time>2024-10-22T12:30:08.033Z</time>
      </trkpt>
      <trkpt lat="27.799445" lon="-17.923754">
        <ele>791.135</ele>
        <time>2024-10-22T12:30:40.033Z</time>
      </trkpt>
      <trkpt lat="27.798951" lon="-17.924036">
        <ele>795.642</ele>
        <time>2024-10-22T12:31:39.033Z</time>
      </trkpt>
      <trkpt lat="27.798750" lon="-17.924257">
        <ele>802.371</ele>
        <time>2024-10-22T12:32:08.033Z</time>
      </trkpt>
      <trkpt lat="27.798356" lon="-17.924245">
        <ele>814.541</ele>
        <time>2024-10-22T12:32:45.033Z</time>
      </trkpt>
      <trkpt lat="27.797279" lon="-17.925020">
        <ele>828.315</ele>
        <time>2024-10-22T12:34:16.033Z</time>
      </trkpt>
      <trkpt lat="27.797080" lon="-17.925044">
        <ele>830.809</ele>
        <time>2024-10-22T12:34:30.033Z</time>
      </trkpt>
      <trkpt lat="27.797190" lon="-17.924787">
        <ele>830.638</ele>
        <time>2024-10-22T12:34:49.033Z</time>
      </trkpt>
      <trkpt lat="27.797549" lon="-17.924384">
        <ele>831.295</ele>
        <time>2024-10-22T12:35:38.033Z</time>
      </trkpt>
      <trkpt lat="27.797361" lon="-17.924644">
        <ele>833.926</ele>
        <time>2024-10-22T12:36:08.033Z</time>
      </trkpt>
      <trkpt lat="27.797075" lon="-17.924739">
        <ele>833.558</ele>
        <time>2024-10-22T12:36:28.033Z</time>
      </trkpt>
      <trkpt lat="27.797231" lon="-17.924729">
        <ele>835.725</ele>
        <time>2024-10-22T12:36:51.033Z</time>
      </trkpt>
      <trkpt lat="27.797243" lon="-17.924786">
        <ele>833.437</ele>
        <time>2024-10-22T12:36:55.033Z</time>
      </trkpt>
      <trkpt lat="27.797041" lon="-17.925027">
        <ele>830.821</ele>
        <time>2024-10-22T12:37:14.033Z</time>
      </trkpt>
      <trkpt lat="27.797267" lon="-17.925085">
        <ele>825.920</ele>
        <time>2024-10-22T12:37:31.033Z</time>
      </trkpt>
      <trkpt lat="27.797557" lon="-17.925905">
        <ele>837.957</ele>
        <time>2024-10-22T12:38:56.033Z</time>
      </trkpt>
      <trkpt lat="27.797702" lon="-17.925629">
        <ele>851.791</ele>
        <time>2024-10-22T12:39:25.033Z</time>
      </trkpt>
      <trkpt lat="27.797656" lon="-17.926184">
        <ele>860.181</ele>
        <time>2024-10-22T12:40:08.033Z</time>
      </trkpt>
      <trkpt lat="27.797513" lon="-17.926197">
        <ele>865.019</ele>
        <time>2024-10-22T12:40:20.033Z</time>
      </trkpt>
      <trkpt lat="27.797199" lon="-17.925918">
        <ele>871.509</ele>
        <time>2024-10-22T12:40:52.033Z</time>
      </trkpt>
      <trkpt lat="27.796981" lon="-17.926031">
        <ele>876.830</ele>
        <time>2024-10-22T12:41:08.033Z</time>
      </trkpt>
      <trkpt lat="27.796657" lon="-17.926489">
        <ele>875.147</ele>
        <time>2024-10-22T12:41:45.033Z</time>
      </trkpt>
      <trkpt lat="27.796548" lon="-17.926517">
        <ele>875.598</ele>
        <time>2024-10-22T12:41:53.033Z</time>
      </trkpt>
      <trkpt lat="27.796160" lon="-17.926360">
        <ele>878.310</ele>
        <time>2024-10-22T12:42:25.033Z</time>
      </trkpt>
      <trkpt lat="27.795727" lon="-17.926722">
        <ele>875.187</ele>
        <time>2024-10-22T12:43:00.033Z</time>
      </trkpt>
      <trkpt lat="27.795329" lon="-17.926800">
        <ele>879.159</ele>
        <time>2024-10-22T12:43:30.033Z</time>
      </trkpt>
      <trkpt lat="27.794826" lon="-17.927337">
        <ele>879.943</ele>
        <time>2024-10-22T12:44:21.033Z</time>
      </trkpt>
      <trkpt lat="27.794666" lon="-17.927823">
        <ele>874.542</ele>
        <time>2024-10-22T12:44:53.033Z</time>
      </trkpt>
      <trkpt lat="27.794116" lon="-17.928033">
        <ele>885.249</ele>
        <time>2024-10-22T12:45:36.033Z</time>
      </trkpt>
      <trkpt lat="27.794069" lon="-17.928518">
        <ele>881.735</ele>
        <time>2024-10-22T12:46:07.033Z</time>
      </trkpt>
      <trkpt lat="27.793768" lon="-17.928691">
        <ele>884.086</ele>
        <time>2024-10-22T12:46:30.033Z</time>
      </trkpt>
      <trkpt lat="27.793575" lon="-17.929060">
        <ele>887.814</ele>
        <time>2024-10-22T12:46:58.033Z</time>
      </trkpt>
      <trkpt lat="27.793267" lon="-17.929139">
        <ele>890.909</ele>
        <time>2024-10-22T12:47:20.033Z</time>
      </trkpt>
      <trkpt lat="27.793101" lon="-17.929601">
        <ele>891.594</ele>
        <time>2024-10-22T12:47:49.033Z</time>
      </trkpt>
      <trkpt lat="27.792741" lon="-17.929436">
        <ele>898.891</ele>
        <time>2024-10-22T12:48:26.033Z</time>
      </trkpt>
      <trkpt lat="27.791895" lon="-17.929956">
        <ele>901.492</ele>
        <time>2024-10-22T12:49:31.033Z</time>
      </trkpt>
      <trkpt lat="27.791437" lon="-17.930144">
        <ele>908.094</ele>
        <time>2024-10-22T12:50:05.033Z</time>
      </trkpt>
      <trkpt lat="27.791120" lon="-17.930537">
        <ele>909.691</ele>
        <time>2024-10-22T12:50:41.033Z</time>
      </trkpt>
      <trkpt lat="27.790497" lon="-17.931594">
        <ele>919.483</ele>
        <time>2024-10-22T12:52:09.033Z</time>
      </trkpt>
      <trkpt lat="27.790095" lon="-17.931972">
        <ele>923.927</ele>
        <time>2024-10-22T12:52:45.033Z</time>
      </trkpt>
      <trkpt lat="27.789626" lon="-17.932831">
        <ele>923.016</ele>
        <time>2024-10-22T12:53:44.033Z</time>
      </trkpt>
      <trkpt lat="27.789560" lon="-17.933792">
        <ele>929.393</ele>
        <time>2024-10-22T12:54:45.033Z</time>
      </trkpt>
    </trkseg>
  </trk></gpx>