<?xml version="1.0" encoding="UTF-8"?>
<gpx creator="Wikiloc - https://www.wikiloc.com" version="1.1" xmlns="http://www.topografix.com/GPX/1/1" xmlns:xsi="http://www.w3.org/2001/XMLSchema-instance" xsi:schemaLocation="http://www.topografix.com/GPX/1/1 http://www.topografix.com/GPX/1/1/gpx.xsd">
  <metadata>
    <name>Wikiloc - Lanzarote Norte 4 : Haria Malpaso Aganada Tenesia</name>
    <link href="https://www.wikiloc.com/hiking-trails/lanzarote-norte-4-haria-malpaso-aganada-tenesia-35017157">
      <text>Lanzarote Norte 4 : Haria Malpaso Aganada Tenesia - Wikiloc on Wikiloc</text>
    </link>
    <time>2019-02-09T14:57:37Z</time>
  </metadata>
  <trk>
    <name>Lanzarote Norte 4 : Haria Malpaso Aganada Tenesia - Wikiloc</name>
    <cmt></cmt>
    <desc></desc>
    <trkseg>
      <trkpt lat="29.147300" lon="-13.499007">
        <ele>206.867</ele>
        <time>2019-02-09T10:48:47Z</time>
      </trkpt>
      <trkpt lat="29.146754" lon="-13.498449">
        <ele>289.081</ele>
        <time>2019-02-09T10:51:50Z</time>
      </trkpt>
      <trkpt lat="29.146498" lon="-13.499571">
        <ele>290.919</ele>
        <time>2019-02-09T10:53:39Z</time>
      </trkpt>
      <trkpt lat="29.146093" lon="-13.499892">
        <ele>289.908</ele>
        <time>2019-02-09T10:54:32Z</time>
      </trkpt>
      <trkpt lat="29.145744" lon="-13.501217">
        <ele>291.949</ele>
        <time>2019-02-09T10:56:57Z</time>
      </trkpt>
      <trkpt lat="29.145395" lon="-13.501231">
        <ele>292.891</ele>
        <time>2019-02-09T10:58:28Z</time>
      </trkpt>
      <trkpt lat="29.145539" lon="-13.501277">
        <ele>291.966</ele>
        <time>2019-02-09T10:59:07Z</time>
      </trkpt>
      <trkpt lat="29.145585" lon="-13.501186">
        <ele>290.977</ele>
        <time>2019-02-09T10:59:27Z</time>
      </trkpt>
      <trkpt lat="29.145832" lon="-13.501537">
        <ele>292.393</ele>
        <time>2019-02-09T11:00:15Z</time>
      </trkpt>
      <trkpt lat="29.145573" lon="-13.502396">
        <ele>295.787</ele>
        <time>2019-02-09T11:01:35Z</time>
      </trkpt>
      <trkpt lat="29.145518" lon="-13.502141">
        <ele>295.261</ele>
        <time>2019-02-09T11:02:05Z</time>
      </trkpt>
      <trkpt lat="29.144619" lon="-13.502134">
        <ele>298.133</ele>
        <time>2019-02-09T11:03:35Z</time>
      </trkpt>
      <trkpt lat="29.144161" lon="-13.502351">
        <ele>300.012</ele>
        <time>2019-02-09T11:04:13Z</time>
      </trkpt>
      <trkpt lat="29.142505" lon="-13.504065">
        <ele>308.232</ele>
        <time>2019-02-09T11:07:19Z</time>
      </trkpt>
      <trkpt lat="29.141537" lon="-13.505268">
        <ele>316.805</ele>
        <time>2019-02-09T11:09:41Z</time>
      </trkpt>
      <trkpt lat="29.141425" lon="-13.505222">
        <ele>317.808</ele>
        <time>2019-02-09T11:10:18Z</time>
      </trkpt>
      <trkpt lat="29.141460" lon="-13.505301">
        <ele>317.814</ele>
        <time>2019-02-09T11:10:46Z</time>
      </trkpt>
      <trkpt lat="29.140880" lon="-13.504503">
        <ele>316.816</ele>
        <time>2019-02-09T11:12:13Z</time>
      </trkpt>
      <trkpt lat="29.140375" lon="-13.504126">
        <ele>315.451</ele>
        <time>2019-02-09T11:13:07Z</time>
      </trkpt>
      <trkpt lat="29.139471" lon="-13.504591">
        <ele>320.282</ele>
        <time>2019-02-09T11:14:39Z</time>
      </trkpt>
      <trkpt lat="29.138740" lon="-13.505668">
        <ele>326.978</ele>
        <time>2019-02-09T11:16:28Z</time>
      </trkpt>
      <trkpt lat="29.138088" lon="-13.506196">
        <ele>331.392</ele>
        <time>2019-02-09T11:17:44Z</time>
      </trkpt>
      <trkpt lat="29.137772" lon="-13.506837">
        <ele>335.136</ele>
        <time>2019-02-09T11:18:52Z</time>
      </trkpt>
      <trkpt lat="29.136521" lon="-13.508130">
        <ele>351.928</ele>
        <time>2019-02-09T11:22:10Z</time>
      </trkpt>
      <trkpt lat="29.136038" lon="-13.509280">
        <ele>369.761</ele>
        <time>2019-02-09T11:24:42Z</time>
      </trkpt>
      <trkpt lat="29.135157" lon="-13.510186">
        <ele>388.021</ele>
        <time>2019-02-09T11:27:46Z</time>
      </trkpt>
      <trkpt lat="29.135039" lon="-13.511779">
        <ele>387.513</ele>
        <time>2019-02-09T11:33:17Z</time>
      </trkpt>
      <trkpt lat="29.135352" lon="-13.511940">
        <ele>382.208</ele>
        <time>2019-02-09T11:35:36Z</time>
      </trkpt>
      <trkpt lat="29.135522" lon="-13.512420">
        <ele>374.079</ele>
        <time>2019-02-09T11:38:01Z</time>
      </trkpt>
      <trkpt lat="29.135159" lon="-13.512654">
        <ele>376.061</ele>
        <time>2019-02-09T11:38:43Z</time>
      </trkpt>
      <trkpt lat="29.134518" lon="-13.513602">
        <ele>384.626</ele>
        <time>2019-02-09T11:41:02Z</time>
      </trkpt>
      <trkpt lat="29.134326" lon="-13.514605">
        <ele>393.837</ele>
        <time>2019-02-09T11:43:18Z</time>
      </trkpt>
      <trkpt lat="29.133956" lon="-13.515196">
        <ele>401.093</ele>
        <time>2019-02-09T11:45:13Z</time>
      </trkpt>
      <trkpt lat="29.134210" lon="-13.515537">
        <ele>405.317</ele>
        <time>2019-02-09T11:46:16Z</time>
      </trkpt>
      <trkpt lat="29.134199" lon="-13.515766">
        <ele>408.761</ele>
        <time>2019-02-09T11:46:59Z</time>
      </trkpt>
      <trkpt lat="29.133656" lon="-13.516739">
        <ele>420.793</ele>
        <time>2019-02-09T11:49:12Z</time>
      </trkpt>
      <trkpt lat="29.133162" lon="-13.517226">
        <ele>428.872</ele>
        <time>2019-02-09T11:50:24Z</time>
      </trkpt>
      <trkpt lat="29.132438" lon="-13.519193">
        <ele>467.813</ele>
        <time>2019-02-09T11:57:05Z</time>
      </trkpt>
      <trkpt lat="29.132117" lon="-13.519419">
        <ele>474.014</ele>
        <time>2019-02-09T12:00:30Z</time>
      </trkpt>
      <trkpt lat="29.131767" lon="-13.519364">
        <ele>486.508</ele>
        <time>2019-02-09T12:02:13Z</time>
      </trkpt>
      <trkpt lat="29.131795" lon="-13.519236">
        <ele>489.490</ele>
        <time>2019-02-09T12:02:39Z</time>
      </trkpt>
      <trkpt lat="29.131014" lon="-13.519447">
        <ele>513.092</ele>
        <time>2019-02-09T12:06:06Z</time>
      </trkpt>
      <trkpt lat="29.130502" lon="-13.520079">
        <ele>529.867</ele>
        <time>2019-02-09T12:08:45Z</time>
      </trkpt>
      <trkpt lat="29.130003" lon="-13.520327">
        <ele>546.158</ele>
        <time>2019-02-09T12:11:29Z</time>
      </trkpt>
      <trkpt lat="29.129955" lon="-13.520233">
        <ele>548.564</ele>
        <time>2019-02-09T12:11:50Z</time>
      </trkpt>
      <trkpt lat="29.129235" lon="-13.520828">
        <ele>562.948</ele>
        <time>2019-02-09T12:14:39Z</time>
      </trkpt>
      <trkpt lat="29.128653" lon="-13.520749">
        <ele>577.452</ele>
        <time>2019-02-09T12:16:39Z</time>
      </trkpt>
      <trkpt lat="29.128156" lon="-13.521631">
        <ele>587.034</ele>
        <time>2019-02-09T12:18:46Z</time>
      </trkpt>
      <trkpt lat="29.127982" lon="-13.522916">
        <ele>584.142</ele>
        <time>2019-02-09T12:22:08Z</time>
      </trkpt>
      <trkpt lat="29.128061" lon="-13.523436">
        <ele>590.822</ele>
        <time>2019-02-09T12:23:46Z</time>
      </trkpt>
      <trkpt lat="29.128972" lon="-13.523495">
        <ele>587.914</ele>
        <time>2019-02-09T12:28:38Z</time>
      </trkpt>
      <trkpt lat="29.129485" lon="-13.523062">
        <ele>582.708</ele>
        <time>2019-02-09T12:30:09Z</time>
      </trkpt>
      <trkpt lat="29.130335" lon="-13.521573">
        <ele>577.457</ele>
        <time>2019-02-09T12:32:37Z</time>
      </trkpt>
      <trkpt lat="29.131380" lon="-13.521149">
        <ele>580.229</ele>
        <time>2019-02-09T12:34:30Z</time>
      </trkpt>
      <trkpt lat="29.131633" lon="-13.521126">
        <ele>579.894</ele>
        <time>2019-02-09T12:34:54Z</time>
      </trkpt>
      <trkpt lat="29.131978" lon="-13.521333">
        <ele>579.855</ele>
        <time>2019-02-09T12:36:10Z</time>
      </trkpt>
      <trkpt lat="29.132402" lon="-13.521879">
        <ele>581.251</ele>
        <time>2019-02-09T12:37:11Z</time>
      </trkpt>
      <trkpt lat="29.132815" lon="-13.521917">
        <ele>582.225</ele>
        <time>2019-02-09T12:37:48Z</time>
      </trkpt>
      <trkpt lat="29.133842" lon="-13.521612">
        <ele>581.219</ele>
        <time>2019-02-09T12:39:28Z</time>
      </trkpt>
      <trkpt lat="29.134324" lon="-13.521019">
        <ele>579.391</ele>
        <time>2019-02-09T12:40:35Z</time>
      </trkpt>
      <trkpt lat="29.134606" lon="-13.521558">
        <ele>588.979</ele>
        <time>2019-02-09T12:41:48Z</time>
      </trkpt>
      <trkpt lat="29.134730" lon="-13.522429">
        <ele>598.005</ele>
        <time>2019-02-09T12:43:12Z</time>
      </trkpt>
      <trkpt lat="29.135122" lon="-13.522776">
        <ele>600.025</ele>
        <time>2019-02-09T12:44:03Z</time>
      </trkpt>
      <trkpt lat="29.135266" lon="-13.522787">
        <ele>597.108</ele>
        <time>2019-02-09T12:46:07Z</time>
      </trkpt>
      <trkpt lat="29.135346" lon="-13.522557">
        <ele>598.540</ele>
        <time>2019-02-09T12:46:59Z</time>
      </trkpt>
      <trkpt lat="29.135724" lon="-13.522286">
        <ele>592.312</ele>
        <time>2019-02-09T12:47:41Z</time>
      </trkpt>
      <trkpt lat="29.136151" lon="-13.522234">
        <ele>590.367</ele>
        <time>2019-02-09T12:48:48Z</time>
      </trkpt>
      <trkpt lat="29.136562" lon="-13.522013">
        <ele>589.998</ele>
        <time>2019-02-09T12:49:23Z</time>
      </trkpt>
      <trkpt lat="29.136779" lon="-13.521617">
        <ele>592.324</ele>
        <time>2019-02-09T12:49:58Z</time>
      </trkpt>
      <trkpt lat="29.136783" lon="-13.520885">
        <ele>596.138</ele>
        <time>2019-02-09T12:50:57Z</time>
      </trkpt>
      <trkpt lat="29.137460" lon="-13.520478">
        <ele>597.182</ele>
        <time>2019-02-09T12:52:04Z</time>
      </trkpt>
      <trkpt lat="29.137385" lon="-13.519958">
        <ele>595.624</ele>
        <time>2019-02-09T12:53:10Z</time>
      </trkpt>
      <trkpt lat="29.136954" lon="-13.519533">
        <ele>592.325</ele>
        <time>2019-02-09T12:53:59Z</time>
      </trkpt>
      <trkpt lat="29.136757" lon="-13.519152">
        <ele>589.926</ele>
        <time>2019-02-09T12:54:31Z</time>
      </trkpt>
      <trkpt lat="29.138239" lon="-13.518079">
        <ele>593.208</ele>
        <time>2019-02-09T12:58:15Z</time>
      </trkpt>
      <trkpt lat="29.138726" lon="-13.517961">
        <ele>592.308</ele>
        <time>2019-02-09T12:58:59Z</time>
      </trkpt>
      <trkpt lat="29.139144" lon="-13.517669">
        <ele>591.365</ele>
        <time>2019-02-09T13:06:35Z</time>
      </trkpt>
      <trkpt lat="29.139957" lon="-13.517358">
        <ele>586.567</ele>
        <time>2019-02-09T13:08:16Z</time>
      </trkpt>
      <trkpt lat="29.140914" lon="-13.517140">
        <ele>572.622</ele>
        <time>2019-02-09T13:11:19Z</time>
      </trkpt>
      <trkpt lat="29.140185" lon="-13.517289">
        <ele>584.133</ele>
        <time>2019-02-09T13:12:59Z</time>
      </trkpt>
      <trkpt lat="29.139337" lon="-13.516611">
        <ele>585.119</ele>
        <time>2019-02-09T13:14:45Z</time>
      </trkpt>
      <trkpt lat="29.139300" lon="-13.516445">
        <ele>583.623</ele>
        <time>2019-02-09T13:15:20Z</time>
      </trkpt>
      <trkpt lat="29.139331" lon="-13.516586">
        <ele>584.647</ele>
        <time>2019-02-09T13:15:45Z</time>
      </trkpt>
      <trkpt lat="29.138584" lon="-13.517028">
        <ele>586.559</ele>
        <time>2019-02-09T13:17:07Z</time>
      </trkpt>
      <trkpt lat="29.137786" lon="-13.517310">
        <ele>589.453</ele>
        <time>2019-02-09T13:18:35Z</time>
      </trkpt>
      <trkpt lat="29.137644" lon="-13.517615">
        <ele>590.304</ele>
        <time>2019-02-09T13:19:09Z</time>
      </trkpt>
      <trkpt lat="29.136939" lon="-13.518329">
        <ele>587.514</ele>
        <time>2019-02-09T13:21:05Z</time>
      </trkpt>
      <trkpt lat="29.136820" lon="-13.518247">
        <ele>583.608</ele>
        <time>2019-02-09T13:21:33Z</time>
      </trkpt>
      <trkpt lat="29.136946" lon="-13.517839">
        <ele>569.218</ele>
        <time>2019-02-09T13:23:47Z</time>
      </trkpt>
      <trkpt lat="29.136835" lon="-13.517986">
        <ele>567.340</ele>
        <time>2019-02-09T13:25:03Z</time>
      </trkpt>
      <trkpt lat="29.136853" lon="-13.517862">
        <ele>563.985</ele>
        <time>2019-02-09T13:25:34Z</time>
      </trkpt>
      <trkpt lat="29.136639" lon="-13.517957">
        <ele>554.826</ele>
        <time>2019-02-09T13:26:56Z</time>
      </trkpt>
      <trkpt lat="29.136794" lon="-13.517711">
        <ele>550.432</ele>
        <time>2019-02-09T13:27:41Z</time>
      </trkpt>
      <trkpt lat="29.136517" lon="-13.517925">
        <ele>545.626</ele>
        <time>2019-02-09T13:28:32Z</time>
      </trkpt>
      <trkpt lat="29.136588" lon="-13.517452">
        <ele>527.450</ele>
        <time>2019-02-09T13:30:48Z</time>
      </trkpt>
      <trkpt lat="29.136479" lon="-13.517460">
        <ele>524.572</ele>
        <time>2019-02-09T13:31:17Z</time>
      </trkpt>
      <trkpt lat="29.136504" lon="-13.517343">
        <ele>518.779</ele>
        <time>2019-02-09T13:32:06Z</time>
      </trkpt>
      <trkpt lat="29.136276" lon="-13.517484">
        <ele>514.905</ele>
        <time>2019-02-09T13:32:52Z</time>
      </trkpt>
      <trkpt lat="29.136344" lon="-13.517084">
        <ele>503.825</ele>
        <time>2019-02-09T13:34:18Z</time>
      </trkpt>
      <trkpt lat="29.135948" lon="-13.517527">
        <ele>503.808</ele>
        <time>2019-02-09T13:36:14Z</time>
      </trkpt>
      <trkpt lat="29.135814" lon="-13.517489">
        <ele>500.090</ele>
        <time>2019-02-09T13:36:56Z</time>
      </trkpt>
      <trkpt lat="29.135822" lon="-13.517250">
        <ele>489.462</ele>
        <time>2019-02-09T13:38:32Z</time>
      </trkpt>
      <trkpt lat="29.135686" lon="-13.517279">
        <ele>487.047</ele>
        <time>2019-02-09T13:39:01Z</time>
      </trkpt>
      <trkpt lat="29.135723" lon="-13.517044">
        <ele>479.378</ele>
        <time>2019-02-09T13:40:09Z</time>
      </trkpt>
      <trkpt lat="29.135541" lon="-13.517088">
        <ele>476.484</ele>
        <time>2019-02-09T13:40:38Z</time>
      </trkpt>
      <trkpt lat="29.135765" lon="-13.516470">
        <ele>465.958</ele>
        <time>2019-02-09T13:43:15Z</time>
      </trkpt>
      <trkpt lat="29.136462" lon="-13.515697">
        <ele>458.692</ele>
        <time>2019-02-09T13:44:50Z</time>
      </trkpt>
      <trkpt lat="29.136288" lon="-13.515841">
        <ele>457.294</ele>
        <time>2019-02-09T13:45:10Z</time>
      </trkpt>
      <trkpt lat="29.136467" lon="-13.515491">
        <ele>450.528</ele>
        <time>2019-02-09T13:46:05Z</time>
      </trkpt>
      <trkpt lat="29.136252" lon="-13.515528">
        <ele>445.789</ele>
        <time>2019-02-09T13:46:54Z</time>
      </trkpt>
      <trkpt lat="29.136317" lon="-13.515447">
        <ele>445.717</ele>
        <time>2019-02-09T13:47:14Z</time>
      </trkpt>
      <trkpt lat="29.137845" lon="-13.514239">
        <ele>438.008</ele>
        <time>2019-02-09T13:50:12Z</time>
      </trkpt>
      <trkpt lat="29.139425" lon="-13.512164">
        <ele>423.655</ele>
        <time>2019-02-09T13:53:57Z</time>
      </trkpt>
      <trkpt lat="29.139923" lon="-13.511821">
        <ele>419.247</ele>
        <time>2019-02-09T13:54:49Z</time>
      </trkpt>
      <trkpt lat="29.140289" lon="-13.511994">
        <ele>418.312</ele>
        <time>2019-02-09T13:55:21Z</time>
      </trkpt>
      <trkpt lat="29.141275" lon="-13.512902">
        <ele>410.643</ele>
        <time>2019-02-09T13:57:19Z</time>
      </trkpt>
      <trkpt lat="29.142714" lon="-13.514867">
        <ele>415.499</ele>
        <time>2019-02-09T14:00:28Z</time>
      </trkpt>
      <trkpt lat="29.143209" lon="-13.515341">
        <ele>413.593</ele>
        <time>2019-02-09T14:01:18Z</time>
      </trkpt>
      <trkpt lat="29.143758" lon="-13.516608">
        <ele>415.477</ele>
        <time>2019-02-09T14:03:13Z</time>
      </trkpt>
      <trkpt lat="29.144327" lon="-13.517504">
        <ele>409.619</ele>
        <time>2019-02-09T14:04:31Z</time>
      </trkpt>
      <trkpt lat="29.144766" lon="-13.519183">
        <ele>405.868</ele>
        <time>2019-02-09T14:07:38Z</time>
      </trkpt>
      <trkpt lat="29.144780" lon="-13.519061">
        <ele>404.842</ele>
        <time>2019-02-09T14:09:13Z</time>
      </trkpt>
      <trkpt lat="29.145155" lon="-13.519172">
        <ele>401.026</ele>
        <time>2019-02-09T14:09:43Z</time>
      </trkpt>
      <trkpt lat="29.145301" lon="-13.518975">
        <ele>398.108</ele>
        <time>2019-02-09T14:09:59Z</time>
      </trkpt>
      <trkpt lat="29.145615" lon="-13.517581">
        <ele>381.719</ele>
        <time>2019-02-09T14:11:36Z</time>
      </trkpt>
      <trkpt lat="29.145430" lon="-13.513777">
        <ele>354.321</ele>
        <time>2019-02-09T14:16:02Z</time>
      </trkpt>
      <trkpt lat="29.145225" lon="-13.512610">
        <ele>344.746</ele>
        <time>2019-02-09T14:19:31Z</time>
      </trkpt>
      <trkpt lat="29.144318" lon="-13.510105">
        <ele>327.947</ele>
        <time>2019-02-09T14:23:04Z</time>
      </trkpt>
      <trkpt lat="29.144086" lon="-13.509155">
        <ele>322.133</ele>
        <time>2019-02-09T14:24:15Z</time>
      </trkpt>
      <trkpt lat="29.143720" lon="-13.508431">
        <ele>318.887</ele>
        <time>2019-02-09T14:25:19Z</time>
      </trkpt>
      <trkpt lat="29.143685" lon="-13.507968">
        <ele>317.341</ele>
        <time>2019-02-09T14:25:59Z</time>
      </trkpt>
      <trkpt lat="29.143831" lon="-13.506763">
        <ele>312.533</ele>
        <time>2019-02-09T14:27:32Z</time>
      </trkpt>
      <trkpt lat="29.143778" lon="-13.506337">
        <ele>310.147</ele>
        <time>2019-02-09T14:28:04Z</time>
      </trkpt>
      <trkpt lat="29.144234" lon="-13.505701">
        <ele>304.829</ele>
        <time>2019-02-09T14:29:11Z</time>
      </trkpt>
      <trkpt lat="29.144133" lon="-13.505366">
        <ele>304.321</ele>
        <time>2019-02-09T14:29:47Z</time>
      </trkpt>
      <trkpt lat="29.145243" lon="-13.503121">
        <ele>298.608</ele>
        <time>2019-02-09T14:33:06Z</time>
      </trkpt>
      <trkpt lat="29.143937" lon="-13.502568">
        <ele>300.097</ele>
        <time>2019-02-09T14:35:13Z</time>
      </trkpt>
      <trkpt lat="29.143145" lon="-13.502458">
        <ele>302.439</ele>
        <time>2019-02-09T14:36:33Z</time>
      </trkpt>
      <trkpt lat="29.142533" lon="-13.502938">
        <ele>305.354</ele>
        <time>2019-02-09T14:37:43Z</time>
      </trkpt>
      <trkpt lat="29.141583" lon="-13.503403">
        <ele>308.735</ele>
        <time>2019-02-09T14:39:24Z</time>
      </trkpt>
      <trkpt lat="29.141430" lon="-13.503595">
        <ele>309.641</ele>
        <time>2019-02-09T14:39:42Z</time>
      </trkpt>
      <trkpt lat="29.141457" lon="-13.503871">
        <ele>310.125</ele>
        <time>2019-02-09T14:40:11Z</time>
      </trkpt>
      <trkpt lat="29.141310" lon="-13.503921">
        <ele>310.669</ele>
        <time>2019-02-09T14:41:46Z</time>
      </trkpt>
      <trkpt lat="29.141754" lon="-13.503687">
        <ele>309.261</ele>
        <time>2019-02-09T14:45:27Z</time>
      </trkpt>
      <trkpt lat="29.141659" lon="-13.503591">
        <ele>309.248</ele>
        <time>2019-02-09T14:46:02Z</time>
      </trkpt>
      <trkpt lat="29.141496" lon="-13.503714">
        <ele>309.661</ele>
        <time>2019-02-09T14:46:20Z</time>
      </trkpt>
      <trkpt lat="29.141432" lon="-13.503558">
        <ele>309.617</ele>
        <time>2019-02-09T14:46:36Z</time>
      </trkpt>
      <trkpt lat="29.141531" lon="-13.503452">
        <ele>308.708</ele>
        <time>2019-02-09T14:46:52Z</time>
      </trkpt>
      <trkpt lat="29.142815" lon="-13.502758">
        <ele>303.487</ele>
        <time>2019-02-09T14:48:57Z</time>
      </trkpt>
      <trkpt lat="29.143937" lon="-13.501711">
        <ele>298.619</ele>
        <time>2019-02-09T14:51:14Z</time>
      </trkpt>
      <trkpt lat="29.144686" lon="-13.501208">
        <ele>295.734</ele>
        <time>2019-02-09T14:52:26Z</time>
      </trkpt>
      <trkpt lat="29.144846" lon="-13.500803">
        <ele>294.335</ele>
        <time>2019-02-09T14:52:58Z</time>
      </trkpt>
      <trkpt lat="29.145608" lon="-13.500424">
        <ele>289.481</ele>
        <time>2019-02-09T14:54:12Z</time>
      </trkpt>
      <trkpt lat="29.145864" lon="-13.500432">
        <ele>289.935</ele>
        <time>2019-02-09T14:54:30Z</time>
      </trkpt>
      <trkpt lat="29.146028" lon="-13.500029">
        <ele>289.079</ele>
        <time>2019-02-09T14:55:09Z</time>
      </trkpt>
      <trkpt lat="29.146460" lon="-13.499601">
        <ele>290.471</ele>
        <time>2019-02-09T14:56:18Z</time>
      </trkpt>
      <trkpt lat="29.146644" lon="-13.498574">
        <ele>288.083</ele>
        <time>2019-02-09T14:57:37Z</time>
      </trkpt>
    </trkseg>
  </trk></gpx>