<?xml version="1.0" encoding="UTF-8"?>
<gpx creator="Wikiloc - https://www.wikiloc.com" version="1.1" xmlns="http://www.topografix.com/GPX/1/1" xmlns:xsi="http://www.w3.org/2001/XMLSchema-instance" xsi:schemaLocation="http://www.topografix.com/GPX/1/1 http://www.topografix.com/GPX/1/1/gpx.xsd">
  <metadata>
    <name>Wikiloc - Ruta Valle de Agaete - Hornillo - Barranco del Sao</name>
    <link href="https://www.wikiloc.com/hiking-trails/ruta-valle-de-agaete-hornillo-barranco-del-sao-208619886">
      <text>Ruta Valle de Agaete - Hornillo - Barranco del Sao - Wikiloc on Wikiloc</text>
    </link>
    <time>2025-04-12T15:47:10.999Z</time>
  </metadata>
  <trk>
    <name>Ruta Valle de Agaete - Hornillo - Barranco del Sao - Wikiloc</name>
    <cmt></cmt>
    <desc></desc>
    <trkseg>
      <trkpt lat="28.080750" lon="-15.671823">
        <ele>238.127</ele>
        <time>2025-04-12T09:03:10Z</time>
      </trkpt>
      <trkpt lat="28.080380" lon="-15.671272">
        <ele>240.268</ele>
        <time>2025-04-12T09:05:29Z</time>
      </trkpt>
      <trkpt lat="28.078583" lon="-15.671435">
        <ele>255.914</ele>
        <time>2025-04-12T09:10:25.999Z</time>
      </trkpt>
      <trkpt lat="28.078285" lon="-15.671325">
        <ele>261.209</ele>
        <time>2025-04-12T09:10:52.999Z</time>
      </trkpt>
      <trkpt lat="28.077124" lon="-15.671437">
        <ele>281.384</ele>
        <time>2025-04-12T09:12:43.999Z</time>
      </trkpt>
      <trkpt lat="28.077313" lon="-15.671652">
        <ele>292.372</ele>
        <time>2025-04-12T09:15:00.999Z</time>
      </trkpt>
      <trkpt lat="28.077062" lon="-15.671910">
        <ele>299.790</ele>
        <time>2025-04-12T09:15:35.999Z</time>
      </trkpt>
      <trkpt lat="28.077043" lon="-15.671702">
        <ele>303.968</ele>
        <time>2025-04-12T09:16:10.999Z</time>
      </trkpt>
      <trkpt lat="28.076869" lon="-15.671812">
        <ele>306.823</ele>
        <time>2025-04-12T09:16:40.999Z</time>
      </trkpt>
      <trkpt lat="28.076599" lon="-15.671727">
        <ele>319.761</ele>
        <time>2025-04-12T09:17:45.999Z</time>
      </trkpt>
      <trkpt lat="28.076435" lon="-15.671539">
        <ele>320.580</ele>
        <time>2025-04-12T09:18:32.999Z</time>
      </trkpt>
      <trkpt lat="28.076145" lon="-15.671540">
        <ele>321.650</ele>
        <time>2025-04-12T09:19:29.999Z</time>
      </trkpt>
      <trkpt lat="28.076278" lon="-15.671668">
        <ele>332.828</ele>
        <time>2025-04-12T09:20:10.999Z</time>
      </trkpt>
      <trkpt lat="28.076211" lon="-15.671803">
        <ele>337.472</ele>
        <time>2025-04-12T09:24:04.999Z</time>
      </trkpt>
      <trkpt lat="28.075235" lon="-15.672569">
        <ele>362.313</ele>
        <time>2025-04-12T09:27:35Z</time>
      </trkpt>
      <trkpt lat="28.074610" lon="-15.673321">
        <ele>372.514</ele>
        <time>2025-04-12T09:29:10Z</time>
      </trkpt>
      <trkpt lat="28.074278" lon="-15.673476">
        <ele>372.609</ele>
        <time>2025-04-12T09:29:41Z</time>
      </trkpt>
      <trkpt lat="28.074171" lon="-15.673673">
        <ele>376.019</ele>
        <time>2025-04-12T09:30:02Z</time>
      </trkpt>
      <trkpt lat="28.074179" lon="-15.673973">
        <ele>377.017</ele>
        <time>2025-04-12T09:30:24Z</time>
      </trkpt>
      <trkpt lat="28.073741" lon="-15.674588">
        <ele>379.625</ele>
        <time>2025-04-12T09:32:14Z</time>
      </trkpt>
      <trkpt lat="28.073872" lon="-15.674811">
        <ele>382.323</ele>
        <time>2025-04-12T09:33:20Z</time>
      </trkpt>
      <trkpt lat="28.073652" lon="-15.674858">
        <ele>384.478</ele>
        <time>2025-04-12T09:33:55Z</time>
      </trkpt>
      <trkpt lat="28.073506" lon="-15.675621">
        <ele>396.066</ele>
        <time>2025-04-12T09:35:28Z</time>
      </trkpt>
      <trkpt lat="28.073167" lon="-15.676187">
        <ele>404.485</ele>
        <time>2025-04-12T09:36:44Z</time>
      </trkpt>
      <trkpt lat="28.073076" lon="-15.676140">
        <ele>402.065</ele>
        <time>2025-04-12T09:37:15Z</time>
      </trkpt>
      <trkpt lat="28.072958" lon="-15.676248">
        <ele>400.853</ele>
        <time>2025-04-12T09:37:40Z</time>
      </trkpt>
      <trkpt lat="28.073042" lon="-15.676363">
        <ele>411.771</ele>
        <time>2025-04-12T09:39:14Z</time>
      </trkpt>
      <trkpt lat="28.072279" lon="-15.676358">
        <ele>435.041</ele>
        <time>2025-04-12T09:41:53Z</time>
      </trkpt>
      <trkpt lat="28.072701" lon="-15.676588">
        <ele>448.315</ele>
        <time>2025-04-12T09:45:19.999Z</time>
      </trkpt>
      <trkpt lat="28.072982" lon="-15.676883">
        <ele>456.109</ele>
        <time>2025-04-12T09:46:13.999Z</time>
      </trkpt>
      <trkpt lat="28.073219" lon="-15.676860">
        <ele>462.279</ele>
        <time>2025-04-12T09:46:39.999Z</time>
      </trkpt>
      <trkpt lat="28.073527" lon="-15.677083">
        <ele>470.457</ele>
        <time>2025-04-12T09:47:44.999Z</time>
      </trkpt>
      <trkpt lat="28.074379" lon="-15.677050">
        <ele>495.935</ele>
        <time>2025-04-12T09:49:41.999Z</time>
      </trkpt>
      <trkpt lat="28.074693" lon="-15.677274">
        <ele>508.773</ele>
        <time>2025-04-12T09:50:39.999Z</time>
      </trkpt>
      <trkpt lat="28.075067" lon="-15.677172">
        <ele>517.668</ele>
        <time>2025-04-12T09:51:26.999Z</time>
      </trkpt>
      <trkpt lat="28.075180" lon="-15.677471">
        <ele>521.316</ele>
        <time>2025-04-12T09:55:05.999Z</time>
      </trkpt>
      <trkpt lat="28.074949" lon="-15.677474">
        <ele>534.645</ele>
        <time>2025-04-12T09:56:20.999Z</time>
      </trkpt>
      <trkpt lat="28.075034" lon="-15.677566">
        <ele>539.955</ele>
        <time>2025-04-12T09:56:44.999Z</time>
      </trkpt>
      <trkpt lat="28.074880" lon="-15.677670">
        <ele>551.373</ele>
        <time>2025-04-12T09:58:36.999Z</time>
      </trkpt>
      <trkpt lat="28.075011" lon="-15.677727">
        <ele>559.173</ele>
        <time>2025-04-12T10:00:02.999Z</time>
      </trkpt>
      <trkpt lat="28.074991" lon="-15.677987">
        <ele>558.585</ele>
        <time>2025-04-12T10:00:31.999Z</time>
      </trkpt>
      <trkpt lat="28.074893" lon="-15.677985">
        <ele>561.913</ele>
        <time>2025-04-12T10:00:53.999Z</time>
      </trkpt>
      <trkpt lat="28.074888" lon="-15.678074">
        <ele>577.709</ele>
        <time>2025-04-12T10:02:05.999Z</time>
      </trkpt>
      <trkpt lat="28.074831" lon="-15.677984">
        <ele>578.559</ele>
        <time>2025-04-12T10:02:18.999Z</time>
      </trkpt>
      <trkpt lat="28.074859" lon="-15.678208">
        <ele>580.327</ele>
        <time>2025-04-12T10:02:49.999Z</time>
      </trkpt>
      <trkpt lat="28.074607" lon="-15.678418">
        <ele>599.465</ele>
        <time>2025-04-12T10:04:37Z</time>
      </trkpt>
      <trkpt lat="28.074648" lon="-15.678556">
        <ele>607.153</ele>
        <time>2025-04-12T10:05:08Z</time>
      </trkpt>
      <trkpt lat="28.074473" lon="-15.678489">
        <ele>604.018</ele>
        <time>2025-04-12T10:05:24Z</time>
      </trkpt>
      <trkpt lat="28.074432" lon="-15.678860">
        <ele>597.186</ele>
        <time>2025-04-12T10:06:48Z</time>
      </trkpt>
      <trkpt lat="28.074410" lon="-15.678691">
        <ele>602.435</ele>
        <time>2025-04-12T10:06:53Z</time>
      </trkpt>
      <trkpt lat="28.074102" lon="-15.678798">
        <ele>620.365</ele>
        <time>2025-04-12T10:07:39Z</time>
      </trkpt>
      <trkpt lat="28.074035" lon="-15.679171">
        <ele>629.883</ele>
        <time>2025-04-12T10:09:01Z</time>
      </trkpt>
      <trkpt lat="28.074134" lon="-15.679172">
        <ele>635.331</ele>
        <time>2025-04-12T10:09:14Z</time>
      </trkpt>
      <trkpt lat="28.074127" lon="-15.679305">
        <ele>637.061</ele>
        <time>2025-04-12T10:09:46Z</time>
      </trkpt>
      <trkpt lat="28.074093" lon="-15.679208">
        <ele>653.307</ele>
        <time>2025-04-12T10:10:27Z</time>
      </trkpt>
      <trkpt lat="28.074056" lon="-15.679289">
        <ele>652.609</ele>
        <time>2025-04-12T10:10:40Z</time>
      </trkpt>
      <trkpt lat="28.074323" lon="-15.679332">
        <ele>661.835</ele>
        <time>2025-04-12T10:11:36Z</time>
      </trkpt>
      <trkpt lat="28.074106" lon="-15.679977">
        <ele>674.483</ele>
        <time>2025-04-12T10:13:06Z</time>
      </trkpt>
      <trkpt lat="28.074601" lon="-15.679495">
        <ele>689.681</ele>
        <time>2025-04-12T10:15:26Z</time>
      </trkpt>
      <trkpt lat="28.074203" lon="-15.679950">
        <ele>676.179</ele>
        <time>2025-04-12T10:16:34Z</time>
      </trkpt>
      <trkpt lat="28.073951" lon="-15.680054">
        <ele>677.894</ele>
        <time>2025-04-12T10:18:54Z</time>
      </trkpt>
      <trkpt lat="28.073740" lon="-15.679901">
        <ele>683.942</ele>
        <time>2025-04-12T10:19:30Z</time>
      </trkpt>
      <trkpt lat="28.073535" lon="-15.680248">
        <ele>691.391</ele>
        <time>2025-04-12T10:20:25Z</time>
      </trkpt>
      <trkpt lat="28.073296" lon="-15.680406">
        <ele>703.221</ele>
        <time>2025-04-12T10:21:57Z</time>
      </trkpt>
      <trkpt lat="28.073234" lon="-15.680615">
        <ele>709.449</ele>
        <time>2025-04-12T10:22:21.999Z</time>
      </trkpt>
      <trkpt lat="28.073125" lon="-15.680395">
        <ele>713.655</ele>
        <time>2025-04-12T10:22:51.999Z</time>
      </trkpt>
      <trkpt lat="28.073056" lon="-15.680478">
        <ele>714.307</ele>
        <time>2025-04-12T10:23:07.999Z</time>
      </trkpt>
      <trkpt lat="28.072983" lon="-15.681160">
        <ele>730.217</ele>
        <time>2025-04-12T10:25:00.999Z</time>
      </trkpt>
      <trkpt lat="28.072872" lon="-15.681232">
        <ele>734.409</ele>
        <time>2025-04-12T10:25:36.999Z</time>
      </trkpt>
      <trkpt lat="28.073013" lon="-15.681571">
        <ele>749.157</ele>
        <time>2025-04-12T10:26:31.999Z</time>
      </trkpt>
      <trkpt lat="28.072795" lon="-15.682350">
        <ele>763.435</ele>
        <time>2025-04-12T10:28:59.999Z</time>
      </trkpt>
      <trkpt lat="28.072545" lon="-15.682712">
        <ele>766.883</ele>
        <time>2025-04-12T10:30:08.999Z</time>
      </trkpt>
      <trkpt lat="28.072524" lon="-15.682986">
        <ele>777.891</ele>
        <time>2025-04-12T10:32:01.999Z</time>
      </trkpt>
      <trkpt lat="28.072956" lon="-15.683495">
        <ele>784.466</ele>
        <time>2025-04-12T10:33:45.999Z</time>
      </trkpt>
      <trkpt lat="28.072785" lon="-15.683568">
        <ele>790.574</ele>
        <time>2025-04-12T10:34:31.999Z</time>
      </trkpt>
      <trkpt lat="28.072432" lon="-15.683397">
        <ele>802.393</ele>
        <time>2025-04-12T10:35:33.999Z</time>
      </trkpt>
      <trkpt lat="28.072197" lon="-15.683472">
        <ele>816.133</ele>
        <time>2025-04-12T10:36:37.999Z</time>
      </trkpt>
      <trkpt lat="28.072168" lon="-15.683576">
        <ele>816.521</ele>
        <time>2025-04-12T10:36:51.999Z</time>
      </trkpt>
      <trkpt lat="28.072274" lon="-15.683668">
        <ele>822.592</ele>
        <time>2025-04-12T10:37:18.999Z</time>
      </trkpt>
      <trkpt lat="28.072232" lon="-15.683767">
        <ele>824.673</ele>
        <time>2025-04-12T10:37:29.999Z</time>
      </trkpt>
      <trkpt lat="28.072662" lon="-15.684113">
        <ele>847.220</ele>
        <time>2025-04-12T10:40:11.999Z</time>
      </trkpt>
      <trkpt lat="28.072794" lon="-15.684404">
        <ele>850.509</ele>
        <time>2025-04-12T10:41:19Z</time>
      </trkpt>
      <trkpt lat="28.072636" lon="-15.685027">
        <ele>858.161</ele>
        <time>2025-04-12T10:42:55Z</time>
      </trkpt>
      <trkpt lat="28.072761" lon="-15.685412">
        <ele>865.339</ele>
        <time>2025-04-12T10:43:44Z</time>
      </trkpt>
      <trkpt lat="28.073343" lon="-15.686042">
        <ele>888.477</ele>
        <time>2025-04-12T10:45:40Z</time>
      </trkpt>
      <trkpt lat="28.073289" lon="-15.686263">
        <ele>890.155</ele>
        <time>2025-04-12T10:47:00Z</time>
      </trkpt>
      <trkpt lat="28.073391" lon="-15.686178">
        <ele>894.220</ele>
        <time>2025-04-12T10:47:56Z</time>
      </trkpt>
      <trkpt lat="28.073755" lon="-15.686715">
        <ele>907.188</ele>
        <time>2025-04-12T10:49:47Z</time>
      </trkpt>
      <trkpt lat="28.073412" lon="-15.686524">
        <ele>919.627</ele>
        <time>2025-04-12T10:50:48Z</time>
      </trkpt>
      <trkpt lat="28.073346" lon="-15.686600">
        <ele>924.237</ele>
        <time>2025-04-12T10:51:02Z</time>
      </trkpt>
      <trkpt lat="28.073291" lon="-15.686449">
        <ele>931.665</ele>
        <time>2025-04-12T10:51:24Z</time>
      </trkpt>
      <trkpt lat="28.073340" lon="-15.686668">
        <ele>936.993</ele>
        <time>2025-04-12T10:52:44Z</time>
      </trkpt>
      <trkpt lat="28.073308" lon="-15.686516">
        <ele>943.965</ele>
        <time>2025-04-12T10:55:11Z</time>
      </trkpt>
      <trkpt lat="28.073085" lon="-15.686370">
        <ele>942.021</ele>
        <time>2025-04-12T10:55:46Z</time>
      </trkpt>
      <trkpt lat="28.072948" lon="-15.686398">
        <ele>945.409</ele>
        <time>2025-04-12T10:56:07Z</time>
      </trkpt>
      <trkpt lat="28.072966" lon="-15.686502">
        <ele>951.561</ele>
        <time>2025-04-12T10:56:33Z</time>
      </trkpt>
      <trkpt lat="28.072524" lon="-15.686460">
        <ele>963.929</ele>
        <time>2025-04-12T10:58:52Z</time>
      </trkpt>
      <trkpt lat="28.072534" lon="-15.686547">
        <ele>971.337</ele>
        <time>2025-04-12T10:59:23.999Z</time>
      </trkpt>
      <trkpt lat="28.071873" lon="-15.686035">
        <ele>995.525</ele>
        <time>2025-04-12T11:01:44.999Z</time>
      </trkpt>
      <trkpt lat="28.071235" lon="-15.685919">
        <ele>1020.890</ele>
        <time>2025-04-12T11:05:09.999Z</time>
      </trkpt>
      <trkpt lat="28.071353" lon="-15.686170">
        <ele>1032.458</ele>
        <time>2025-04-12T11:05:55.999Z</time>
      </trkpt>
      <trkpt lat="28.070930" lon="-15.686022">
        <ele>1041.747</ele>
        <time>2025-04-12T11:07:03.999Z</time>
      </trkpt>
      <trkpt lat="28.071151" lon="-15.686364">
        <ele>1050.677</ele>
        <time>2025-04-12T11:07:50.999Z</time>
      </trkpt>
      <trkpt lat="28.070859" lon="-15.686514">
        <ele>1067.975</ele>
        <time>2025-04-12T11:10:17.999Z</time>
      </trkpt>
      <trkpt lat="28.070653" lon="-15.686264">
        <ele>1070.223</ele>
        <time>2025-04-12T11:11:40.999Z</time>
      </trkpt>
      <trkpt lat="28.070541" lon="-15.686352">
        <ele>1067.783</ele>
        <time>2025-04-12T11:12:14.999Z</time>
      </trkpt>
      <trkpt lat="28.069408" lon="-15.686316">
        <ele>1069.011</ele>
        <time>2025-04-12T11:16:32.999Z</time>
      </trkpt>
      <trkpt lat="28.068862" lon="-15.686452">
        <ele>1072.009</ele>
        <time>2025-04-12T11:17:19.999Z</time>
      </trkpt>
      <trkpt lat="28.068246" lon="-15.686358">
        <ele>1069.774</ele>
        <time>2025-04-12T11:18:28Z</time>
      </trkpt>
      <trkpt lat="28.067991" lon="-15.686209">
        <ele>1069.442</ele>
        <time>2025-04-12T11:18:52Z</time>
      </trkpt>
      <trkpt lat="28.067303" lon="-15.685408">
        <ele>1080.390</ele>
        <time>2025-04-12T11:21:17Z</time>
      </trkpt>
      <trkpt lat="28.067092" lon="-15.684936">
        <ele>1086.188</ele>
        <time>2025-04-12T11:21:57Z</time>
      </trkpt>
      <trkpt lat="28.067028" lon="-15.684424">
        <ele>1093.153</ele>
        <time>2025-04-12T11:22:53Z</time>
      </trkpt>
      <trkpt lat="28.066875" lon="-15.684272">
        <ele>1091.411</ele>
        <time>2025-04-12T11:23:12Z</time>
      </trkpt>
      <trkpt lat="28.066109" lon="-15.684126">
        <ele>1096.750</ele>
        <time>2025-04-12T11:24:13Z</time>
      </trkpt>
      <trkpt lat="28.065797" lon="-15.684275">
        <ele>1097.520</ele>
        <time>2025-04-12T11:25:26Z</time>
      </trkpt>
      <trkpt lat="28.064983" lon="-15.684186">
        <ele>1105.668</ele>
        <time>2025-04-12T11:26:39Z</time>
      </trkpt>
      <trkpt lat="28.064707" lon="-15.684040">
        <ele>1112.999</ele>
        <time>2025-04-12T11:27:59Z</time>
      </trkpt>
      <trkpt lat="28.064780" lon="-15.683902">
        <ele>1121.107</ele>
        <time>2025-04-12T11:29:50Z</time>
      </trkpt>
      <trkpt lat="28.064521" lon="-15.683546">
        <ele>1123.027</ele>
        <time>2025-04-12T11:30:23Z</time>
      </trkpt>
      <trkpt lat="28.063828" lon="-15.683182">
        <ele>1117.509</ele>
        <time>2025-04-12T11:31:37Z</time>
      </trkpt>
      <trkpt lat="28.062601" lon="-15.683563">
        <ele>1126.461</ele>
        <time>2025-04-12T11:33:14Z</time>
      </trkpt>
      <trkpt lat="28.061996" lon="-15.683630">
        <ele>1132.899</ele>
        <time>2025-04-12T11:34:12Z</time>
      </trkpt>
      <trkpt lat="28.062174" lon="-15.683501">
        <ele>1133.777</ele>
        <time>2025-04-12T11:34:50Z</time>
      </trkpt>
      <trkpt lat="28.062414" lon="-15.683505">
        <ele>1128.115</ele>
        <time>2025-04-12T11:35:28.999Z</time>
      </trkpt>
      <trkpt lat="28.062060" lon="-15.683311">
        <ele>1139.810</ele>
        <time>2025-04-12T11:37:14.999Z</time>
      </trkpt>
      <trkpt lat="28.061757" lon="-15.682889">
        <ele>1143.638</ele>
        <time>2025-04-12T11:38:28.999Z</time>
      </trkpt>
      <trkpt lat="28.061914" lon="-15.681777">
        <ele>1140.087</ele>
        <time>2025-04-12T11:40:12.999Z</time>
      </trkpt>
      <trkpt lat="28.062125" lon="-15.681235">
        <ele>1145.077</ele>
        <time>2025-04-12T11:41:00.999Z</time>
      </trkpt>
      <trkpt lat="28.062318" lon="-15.681049">
        <ele>1146.825</ele>
        <time>2025-04-12T11:41:21.999Z</time>
      </trkpt>
      <trkpt lat="28.063229" lon="-15.681054">
        <ele>1147.067</ele>
        <time>2025-04-12T11:42:58.999Z</time>
      </trkpt>
      <trkpt lat="28.062034" lon="-15.680562">
        <ele>1153.581</ele>
        <time>2025-04-12T11:45:06.999Z</time>
      </trkpt>
      <trkpt lat="28.061283" lon="-15.680447">
        <ele>1168.419</ele>
        <time>2025-04-12T11:46:57.999Z</time>
      </trkpt>
      <trkpt lat="28.060657" lon="-15.679430">
        <ele>1182.509</ele>
        <time>2025-04-12T11:49:29.999Z</time>
      </trkpt>
      <trkpt lat="28.059767" lon="-15.679703">
        <ele>1194.878</ele>
        <time>2025-04-12T11:50:55.999Z</time>
      </trkpt>
      <trkpt lat="28.058849" lon="-15.680345">
        <ele>1201.096</ele>
        <time>2025-04-12T11:53:24Z</time>
      </trkpt>
      <trkpt lat="28.058714" lon="-15.680261">
        <ele>1203.814</ele>
        <time>2025-04-12T11:53:40Z</time>
      </trkpt>
      <trkpt lat="28.058744" lon="-15.679909">
        <ele>1209.522</ele>
        <time>2025-04-12T11:54:10Z</time>
      </trkpt>
      <trkpt lat="28.058878" lon="-15.679694">
        <ele>1210.467</ele>
        <time>2025-04-12T11:54:47Z</time>
      </trkpt>
      <trkpt lat="28.058819" lon="-15.679575">
        <ele>1212.455</ele>
        <time>2025-04-12T11:55:07Z</time>
      </trkpt>
      <trkpt lat="28.058944" lon="-15.679363">
        <ele>1216.354</ele>
        <time>2025-04-12T11:55:28Z</time>
      </trkpt>
      <trkpt lat="28.058837" lon="-15.678482">
        <ele>1232.464</ele>
        <time>2025-04-12T11:59:00Z</time>
      </trkpt>
      <trkpt lat="28.059233" lon="-15.678144">
        <ele>1228.822</ele>
        <time>2025-04-12T12:00:08Z</time>
      </trkpt>
      <trkpt lat="28.059031" lon="-15.678080">
        <ele>1221.185</ele>
        <time>2025-04-12T12:00:37Z</time>
      </trkpt>
      <trkpt lat="28.059244" lon="-15.677791">
        <ele>1234.389</ele>
        <time>2025-04-12T12:01:31Z</time>
      </trkpt>
      <trkpt lat="28.059141" lon="-15.677902">
        <ele>1240.117</ele>
        <time>2025-04-12T12:02:14Z</time>
      </trkpt>
      <trkpt lat="28.059236" lon="-15.677748">
        <ele>1242.309</ele>
        <time>2025-04-12T12:02:33Z</time>
      </trkpt>
      <trkpt lat="28.059104" lon="-15.677765">
        <ele>1250.320</ele>
        <time>2025-04-12T12:02:51Z</time>
      </trkpt>
      <trkpt lat="28.059130" lon="-15.677653">
        <ele>1249.338</ele>
        <time>2025-04-12T12:03:05Z</time>
      </trkpt>
      <trkpt lat="28.059495" lon="-15.677074">
        <ele>1254.926</ele>
        <time>2025-04-12T12:04:07Z</time>
      </trkpt>
      <trkpt lat="28.059752" lon="-15.676357">
        <ele>1257.354</ele>
        <time>2025-04-12T12:05:30Z</time>
      </trkpt>
      <trkpt lat="28.059470" lon="-15.675826">
        <ele>1248.289</ele>
        <time>2025-04-12T12:07:15Z</time>
      </trkpt>
      <trkpt lat="28.059366" lon="-15.674644">
        <ele>1252.927</ele>
        <time>2025-04-12T12:08:54Z</time>
      </trkpt>
      <trkpt lat="28.059222" lon="-15.674594">
        <ele>1252.836</ele>
        <time>2025-04-12T12:09:12Z</time>
      </trkpt>
      <trkpt lat="28.058818" lon="-15.674022">
        <ele>1261.566</ele>
        <time>2025-04-12T12:10:04Z</time>
      </trkpt>
      <trkpt lat="28.058593" lon="-15.674011">
        <ele>1259.294</ele>
        <time>2025-04-12T12:10:30Z</time>
      </trkpt>
      <trkpt lat="28.057660" lon="-15.674787">
        <ele>1242.531</ele>
        <time>2025-04-12T12:12:20.999Z</time>
      </trkpt>
      <trkpt lat="28.057301" lon="-15.674713">
        <ele>1244.961</ele>
        <time>2025-04-12T12:12:56.999Z</time>
      </trkpt>
      <trkpt lat="28.057038" lon="-15.674857">
        <ele>1244.407</ele>
        <time>2025-04-12T12:13:40.999Z</time>
      </trkpt>
      <trkpt lat="28.057228" lon="-15.674502">
        <ele>1235.609</ele>
        <time>2025-04-12T12:14:30.999Z</time>
      </trkpt>
      <trkpt lat="28.057084" lon="-15.674492">
        <ele>1233.595</ele>
        <time>2025-04-12T12:14:54.999Z</time>
      </trkpt>
      <trkpt lat="28.056263" lon="-15.675162">
        <ele>1216.163</ele>
        <time>2025-04-12T12:16:51.999Z</time>
      </trkpt>
      <trkpt lat="28.055485" lon="-15.675593">
        <ele>1198.391</ele>
        <time>2025-04-12T12:18:29.999Z</time>
      </trkpt>
      <trkpt lat="28.055231" lon="-15.675882">
        <ele>1193.249</ele>
        <time>2025-04-12T12:19:00.999Z</time>
      </trkpt>
      <trkpt lat="28.054912" lon="-15.675948">
        <ele>1189.224</ele>
        <time>2025-04-12T12:19:32.999Z</time>
      </trkpt>
      <trkpt lat="28.054620" lon="-15.675913">
        <ele>1182.142</ele>
        <time>2025-04-12T12:20:02.999Z</time>
      </trkpt>
      <trkpt lat="28.054218" lon="-15.675207">
        <ele>1169.211</ele>
        <time>2025-04-12T12:21:25.999Z</time>
      </trkpt>
      <trkpt lat="28.053541" lon="-15.674793">
        <ele>1157.511</ele>
        <time>2025-04-12T12:22:42.999Z</time>
      </trkpt>
      <trkpt lat="28.053453" lon="-15.674888">
        <ele>1151.279</ele>
        <time>2025-04-12T12:22:59.999Z</time>
      </trkpt>
      <trkpt lat="28.053751" lon="-15.675481">
        <ele>1132.841</ele>
        <time>2025-04-12T12:24:10.999Z</time>
      </trkpt>
      <trkpt lat="28.053723" lon="-15.675931">
        <ele>1125.081</ele>
        <time>2025-04-12T12:24:53.999Z</time>
      </trkpt>
      <trkpt lat="28.053657" lon="-15.675609">
        <ele>1130.209</ele>
        <time>2025-04-12T12:25:28.999Z</time>
      </trkpt>
      <trkpt lat="28.053257" lon="-15.675336">
        <ele>1129.109</ele>
        <time>2025-04-12T12:26:15.999Z</time>
      </trkpt>
      <trkpt lat="28.053234" lon="-15.675555">
        <ele>1118.756</ele>
        <time>2025-04-12T12:26:57.999Z</time>
      </trkpt>
      <trkpt lat="28.052792" lon="-15.675433">
        <ele>1121.794</ele>
        <time>2025-04-12T12:27:38.999Z</time>
      </trkpt>
      <trkpt lat="28.052682" lon="-15.675638">
        <ele>1115.872</ele>
        <time>2025-04-12T12:27:56.999Z</time>
      </trkpt>
      <trkpt lat="28.052695" lon="-15.675300">
        <ele>1110.820</ele>
        <time>2025-04-12T12:28:23.999Z</time>
      </trkpt>
      <trkpt lat="28.052573" lon="-15.675504">
        <ele>1106.495</ele>
        <time>2025-04-12T12:28:56Z</time>
      </trkpt>
      <trkpt lat="28.052120" lon="-15.675526">
        <ele>1097.463</ele>
        <time>2025-04-12T12:29:44Z</time>
      </trkpt>
      <trkpt lat="28.051630" lon="-15.675103">
        <ele>1093.342</ele>
        <time>2025-04-12T12:30:31Z</time>
      </trkpt>
      <trkpt lat="28.051251" lon="-15.675225">
        <ele>1083.992</ele>
        <time>2025-04-12T12:31:19Z</time>
      </trkpt>
      <trkpt lat="28.051077" lon="-15.675104">
        <ele>1078.420</ele>
        <time>2025-04-12T12:31:39Z</time>
      </trkpt>
      <trkpt lat="28.050764" lon="-15.675133">
        <ele>1079.276</ele>
        <time>2025-04-12T12:32:03Z</time>
      </trkpt>
      <trkpt lat="28.050092" lon="-15.674721">
        <ele>1056.490</ele>
        <time>2025-04-12T12:34:58Z</time>
      </trkpt>
      <trkpt lat="28.050171" lon="-15.674665">
        <ele>1062.419</ele>
        <time>2025-04-12T12:51:47.999Z</time>
      </trkpt>
      <trkpt lat="28.050251" lon="-15.674764">
        <ele>1058.809</ele>
        <time>2025-04-12T12:55:55.999Z</time>
      </trkpt>
      <trkpt lat="28.050684" lon="-15.674823">
        <ele>1050.779</ele>
        <time>2025-04-12T12:57:30.999Z</time>
      </trkpt>
      <trkpt lat="28.050989" lon="-15.674659">
        <ele>1046.667</ele>
        <time>2025-04-12T12:59:15.999Z</time>
      </trkpt>
      <trkpt lat="28.051223" lon="-15.674659">
        <ele>1037.335</ele>
        <time>2025-04-12T12:59:46.999Z</time>
      </trkpt>
      <trkpt lat="28.051749" lon="-15.674359">
        <ele>1031.853</ele>
        <time>2025-04-12T13:00:48.999Z</time>
      </trkpt>
      <trkpt lat="28.051476" lon="-15.674028">
        <ele>1036.498</ele>
        <time>2025-04-12T13:01:21.999Z</time>
      </trkpt>
      <trkpt lat="28.051476" lon="-15.673793">
        <ele>1035.516</ele>
        <time>2025-04-12T13:02:10.999Z</time>
      </trkpt>
      <trkpt lat="28.051285" lon="-15.673459">
        <ele>1022.145</ele>
        <time>2025-04-12T13:02:47.999Z</time>
      </trkpt>
      <trkpt lat="28.051253" lon="-15.673251">
        <ele>1016.885</ele>
        <time>2025-04-12T13:03:10.999Z</time>
      </trkpt>
      <trkpt lat="28.051372" lon="-15.673061">
        <ele>1019.363</ele>
        <time>2025-04-12T13:03:40.999Z</time>
      </trkpt>
      <trkpt lat="28.050940" lon="-15.673033">
        <ele>1013.885</ele>
        <time>2025-04-12T13:04:47Z</time>
      </trkpt>
      <trkpt lat="28.051343" lon="-15.672714">
        <ele>1001.889</ele>
        <time>2025-04-12T13:06:04Z</time>
      </trkpt>
      <trkpt lat="28.050670" lon="-15.672703">
        <ele>996.617</ele>
        <time>2025-04-12T13:07:13Z</time>
      </trkpt>
      <trkpt lat="28.051061" lon="-15.672466">
        <ele>986.509</ele>
        <time>2025-04-12T13:08:01Z</time>
      </trkpt>
      <trkpt lat="28.050975" lon="-15.671994">
        <ele>977.620</ele>
        <time>2025-04-12T13:09:04Z</time>
      </trkpt>
      <trkpt lat="28.050847" lon="-15.672070">
        <ele>970.778</ele>
        <time>2025-04-12T13:09:23Z</time>
      </trkpt>
      <trkpt lat="28.050951" lon="-15.671765">
        <ele>961.236</ele>
        <time>2025-04-12T13:10:11Z</time>
      </trkpt>
      <trkpt lat="28.050413" lon="-15.671542">
        <ele>942.494</ele>
        <time>2025-04-12T13:11:37Z</time>
      </trkpt>
      <trkpt lat="28.050136" lon="-15.671595">
        <ele>936.339</ele>
        <time>2025-04-12T13:12:09Z</time>
      </trkpt>
      <trkpt lat="28.050219" lon="-15.671730">
        <ele>923.037</ele>
        <time>2025-04-12T13:12:48Z</time>
      </trkpt>
      <trkpt lat="28.049979" lon="-15.671706">
        <ele>910.026</ele>
        <time>2025-04-12T13:13:55Z</time>
      </trkpt>
      <trkpt lat="28.048880" lon="-15.670909">
        <ele>894.346</ele>
        <time>2025-04-12T13:16:46Z</time>
      </trkpt>
      <trkpt lat="28.048817" lon="-15.670647">
        <ele>892.514</ele>
        <time>2025-04-12T13:18:18Z</time>
      </trkpt>
      <trkpt lat="28.049437" lon="-15.669927">
        <ele>874.998</ele>
        <time>2025-04-12T13:20:48Z</time>
      </trkpt>
      <trkpt lat="28.049386" lon="-15.669020">
        <ele>878.915</ele>
        <time>2025-04-12T13:23:11.999Z</time>
      </trkpt>
      <trkpt lat="28.049538" lon="-15.668519">
        <ele>878.126</ele>
        <time>2025-04-12T13:23:47.999Z</time>
      </trkpt>
      <trkpt lat="28.049296" lon="-15.667991">
        <ele>880.109</ele>
        <time>2025-04-12T13:24:33.999Z</time>
      </trkpt>
      <trkpt lat="28.049403" lon="-15.667745">
        <ele>878.841</ele>
        <time>2025-04-12T13:25:15.999Z</time>
      </trkpt>
      <trkpt lat="28.049359" lon="-15.667134">
        <ele>875.649</ele>
        <time>2025-04-12T13:25:54.999Z</time>
      </trkpt>
      <trkpt lat="28.049506" lon="-15.666899">
        <ele>881.537</ele>
        <time>2025-04-12T13:26:15.999Z</time>
      </trkpt>
      <trkpt lat="28.049892" lon="-15.666771">
        <ele>892.865</ele>
        <time>2025-04-12T13:26:46.999Z</time>
      </trkpt>
      <trkpt lat="28.049750" lon="-15.665927">
        <ele>904.020</ele>
        <time>2025-04-12T13:28:23.999Z</time>
      </trkpt>
      <trkpt lat="28.050527" lon="-15.665288">
        <ele>890.358</ele>
        <time>2025-04-12T13:30:57.999Z</time>
      </trkpt>
      <trkpt lat="28.050714" lon="-15.664737">
        <ele>884.877</ele>
        <time>2025-04-12T13:31:32.999Z</time>
      </trkpt>
      <trkpt lat="28.050942" lon="-15.664672">
        <ele>881.027</ele>
        <time>2025-04-12T13:31:56.999Z</time>
      </trkpt>
      <trkpt lat="28.051504" lon="-15.665079">
        <ele>874.055</ele>
        <time>2025-04-12T13:33:28.999Z</time>
      </trkpt>
      <trkpt lat="28.051801" lon="-15.665051">
        <ele>870.159</ele>
        <time>2025-04-12T13:34:10.999Z</time>
      </trkpt>
      <trkpt lat="28.052194" lon="-15.664416">
        <ele>860.703</ele>
        <time>2025-04-12T13:35:02.999Z</time>
      </trkpt>
      <trkpt lat="28.052381" lon="-15.664479">
        <ele>856.523</ele>
        <time>2025-04-12T13:35:16.999Z</time>
      </trkpt>
      <trkpt lat="28.052550" lon="-15.664776">
        <ele>854.909</ele>
        <time>2025-04-12T13:35:37.999Z</time>
      </trkpt>
      <trkpt lat="28.053026" lon="-15.664819">
        <ele>848.347</ele>
        <time>2025-04-12T13:36:11.999Z</time>
      </trkpt>
      <trkpt lat="28.052828" lon="-15.664275">
        <ele>842.335</ele>
        <time>2025-04-12T13:37:19.999Z</time>
      </trkpt>
      <trkpt lat="28.052406" lon="-15.663904">
        <ele>818.923</ele>
        <time>2025-04-12T13:38:01.999Z</time>
      </trkpt>
      <trkpt lat="28.052527" lon="-15.663495">
        <ele>810.181</ele>
        <time>2025-04-12T13:38:23.999Z</time>
      </trkpt>
      <trkpt lat="28.053015" lon="-15.663357">
        <ele>810.726</ele>
        <time>2025-04-12T13:39:03.999Z</time>
      </trkpt>
      <trkpt lat="28.053208" lon="-15.663035">
        <ele>799.984</ele>
        <time>2025-04-12T13:39:28.999Z</time>
      </trkpt>
      <trkpt lat="28.053521" lon="-15.662882">
        <ele>801.423</ele>
        <time>2025-04-12T13:40:01.999Z</time>
      </trkpt>
      <trkpt lat="28.053892" lon="-15.662257">
        <ele>790.523</ele>
        <time>2025-04-12T13:41:05Z</time>
      </trkpt>
      <trkpt lat="28.054071" lon="-15.662191">
        <ele>789.781</ele>
        <time>2025-04-12T13:41:24Z</time>
      </trkpt>
      <trkpt lat="28.054337" lon="-15.661855">
        <ele>794.051</ele>
        <time>2025-04-12T13:41:50Z</time>
      </trkpt>
      <trkpt lat="28.054651" lon="-15.661574">
        <ele>789.001</ele>
        <time>2025-04-12T13:42:26Z</time>
      </trkpt>
      <trkpt lat="28.055140" lon="-15.661425">
        <ele>796.611</ele>
        <time>2025-04-12T13:43:06Z</time>
      </trkpt>
      <trkpt lat="28.055622" lon="-15.660834">
        <ele>799.809</ele>
        <time>2025-04-12T13:44:05Z</time>
      </trkpt>
      <trkpt lat="28.055999" lon="-15.660838">
        <ele>796.957</ele>
        <time>2025-04-12T13:45:04Z</time>
      </trkpt>
      <trkpt lat="28.056103" lon="-15.660723">
        <ele>792.645</ele>
        <time>2025-04-12T13:46:11Z</time>
      </trkpt>
      <trkpt lat="28.056062" lon="-15.660625">
        <ele>793.613</ele>
        <time>2025-04-12T13:46:22Z</time>
      </trkpt>
      <trkpt lat="28.056300" lon="-15.660645">
        <ele>789.151</ele>
        <time>2025-04-12T13:47:01Z</time>
      </trkpt>
      <trkpt lat="28.056246" lon="-15.660841">
        <ele>781.336</ele>
        <time>2025-04-12T13:48:08Z</time>
      </trkpt>
      <trkpt lat="28.056529" lon="-15.660673">
        <ele>771.214</ele>
        <time>2025-04-12T13:49:15Z</time>
      </trkpt>
      <trkpt lat="28.056551" lon="-15.660879">
        <ele>768.573</ele>
        <time>2025-04-12T13:49:45Z</time>
      </trkpt>
      <trkpt lat="28.056368" lon="-15.661171">
        <ele>758.163</ele>
        <time>2025-04-12T13:50:35Z</time>
      </trkpt>
      <trkpt lat="28.056637" lon="-15.661098">
        <ele>746.511</ele>
        <time>2025-04-12T13:51:43Z</time>
      </trkpt>
      <trkpt lat="28.056825" lon="-15.660907">
        <ele>739.031</ele>
        <time>2025-04-12T13:53:02Z</time>
      </trkpt>
      <trkpt lat="28.057084" lon="-15.661145">
        <ele>732.661</ele>
        <time>2025-04-12T13:54:08Z</time>
      </trkpt>
      <trkpt lat="28.057132" lon="-15.660997">
        <ele>727.407</ele>
        <time>2025-04-12T13:54:37Z</time>
      </trkpt>
      <trkpt lat="28.057617" lon="-15.661162">
        <ele>704.409</ele>
        <time>2025-04-12T13:56:37Z</time>
      </trkpt>
      <trkpt lat="28.057549" lon="-15.660848">
        <ele>684.995</ele>
        <time>2025-04-12T13:57:55.999Z</time>
      </trkpt>
      <trkpt lat="28.058015" lon="-15.660598">
        <ele>675.713</ele>
        <time>2025-04-12T13:59:06.999Z</time>
      </trkpt>
      <trkpt lat="28.058140" lon="-15.660080">
        <ele>670.651</ele>
        <time>2025-04-12T14:00:29.999Z</time>
      </trkpt>
      <trkpt lat="28.058531" lon="-15.659830">
        <ele>676.999</ele>
        <time>2025-04-12T14:02:25.999Z</time>
      </trkpt>
      <trkpt lat="28.058883" lon="-15.659803">
        <ele>676.824</ele>
        <time>2025-04-12T14:03:02.999Z</time>
      </trkpt>
      <trkpt lat="28.058935" lon="-15.659717">
        <ele>684.592</ele>
        <time>2025-04-12T14:03:24.999Z</time>
      </trkpt>
      <trkpt lat="28.058933" lon="-15.659449">
        <ele>682.231</ele>
        <time>2025-04-12T14:04:09.999Z</time>
      </trkpt>
      <trkpt lat="28.058791" lon="-15.659350">
        <ele>672.171</ele>
        <time>2025-04-12T14:04:32.999Z</time>
      </trkpt>
      <trkpt lat="28.058756" lon="-15.659101">
        <ele>661.139</ele>
        <time>2025-04-12T14:05:09.999Z</time>
      </trkpt>
      <trkpt lat="28.059126" lon="-15.658567">
        <ele>657.913</ele>
        <time>2025-04-12T14:06:18.999Z</time>
      </trkpt>
      <trkpt lat="28.059324" lon="-15.658434">
        <ele>659.443</ele>
        <time>2025-04-12T14:07:01.999Z</time>
      </trkpt>
      <trkpt lat="28.059468" lon="-15.658546">
        <ele>658.607</ele>
        <time>2025-04-12T14:07:58.999Z</time>
      </trkpt>
      <trkpt lat="28.059517" lon="-15.658408">
        <ele>654.109</ele>
        <time>2025-04-12T14:08:54.999Z</time>
      </trkpt>
      <trkpt lat="28.059785" lon="-15.658381">
        <ele>642.063</ele>
        <time>2025-04-12T14:11:19.999Z</time>
      </trkpt>
      <trkpt lat="28.059875" lon="-15.658441">
        <ele>640.191</ele>
        <time>2025-04-12T14:11:25.999Z</time>
      </trkpt>
      <trkpt lat="28.059758" lon="-15.658431">
        <ele>626.629</ele>
        <time>2025-04-12T14:27:40Z</time>
      </trkpt>
      <trkpt lat="28.059715" lon="-15.658643">
        <ele>630.067</ele>
        <time>2025-04-12T14:28:15Z</time>
      </trkpt>
      <trkpt lat="28.059841" lon="-15.658590">
        <ele>624.542</ele>
        <time>2025-04-12T14:29:15Z</time>
      </trkpt>
      <trkpt lat="28.060258" lon="-15.658794">
        <ele>604.290</ele>
        <time>2025-04-12T14:31:13Z</time>
      </trkpt>
      <trkpt lat="28.060375" lon="-15.658742">
        <ele>597.739</ele>
        <time>2025-04-12T14:31:50Z</time>
      </trkpt>
      <trkpt lat="28.060467" lon="-15.658554">
        <ele>586.299</ele>
        <time>2025-04-12T14:32:51Z</time>
      </trkpt>
      <trkpt lat="28.060366" lon="-15.657713">
        <ele>564.697</ele>
        <time>2025-04-12T14:34:13.999Z</time>
      </trkpt>
      <trkpt lat="28.060411" lon="-15.657566">
        <ele>570.031</ele>
        <time>2025-04-12T14:34:55.999Z</time>
      </trkpt>
      <trkpt lat="28.060544" lon="-15.657530">
        <ele>572.861</ele>
        <time>2025-04-12T14:35:13.999Z</time>
      </trkpt>
      <trkpt lat="28.060979" lon="-15.657815">
        <ele>579.407</ele>
        <time>2025-04-12T14:36:14.999Z</time>
      </trkpt>
      <trkpt lat="28.061290" lon="-15.658374">
        <ele>579.809</ele>
        <time>2025-04-12T14:37:33.999Z</time>
      </trkpt>
      <trkpt lat="28.061276" lon="-15.658479">
        <ele>577.085</ele>
        <time>2025-04-12T14:37:47.999Z</time>
      </trkpt>
      <trkpt lat="28.061144" lon="-15.658511">
        <ele>571.853</ele>
        <time>2025-04-12T14:38:35.999Z</time>
      </trkpt>
      <trkpt lat="28.061300" lon="-15.658824">
        <ele>564.171</ele>
        <time>2025-04-12T14:39:36.999Z</time>
      </trkpt>
      <trkpt lat="28.061196" lon="-15.659338">
        <ele>552.549</ele>
        <time>2025-04-12T14:40:39.999Z</time>
      </trkpt>
      <trkpt lat="28.061723" lon="-15.659398">
        <ele>541.184</ele>
        <time>2025-04-12T14:41:52.999Z</time>
      </trkpt>
      <trkpt lat="28.062076" lon="-15.658967">
        <ele>522.882</ele>
        <time>2025-04-12T14:43:22.999Z</time>
      </trkpt>
      <trkpt lat="28.062311" lon="-15.659052">
        <ele>516.511</ele>
        <time>2025-04-12T14:44:58.999Z</time>
      </trkpt>
      <trkpt lat="28.063989" lon="-15.659019">
        <ele>498.221</ele>
        <time>2025-04-12T14:47:42.999Z</time>
      </trkpt>
      <trkpt lat="28.064423" lon="-15.658867">
        <ele>493.549</ele>
        <time>2025-04-12T14:48:12.999Z</time>
      </trkpt>
      <trkpt lat="28.065234" lon="-15.659409">
        <ele>498.954</ele>
        <time>2025-04-12T14:49:43.999Z</time>
      </trkpt>
      <trkpt lat="28.065695" lon="-15.660127">
        <ele>502.256</ele>
        <time>2025-04-12T14:51:10Z</time>
      </trkpt>
      <trkpt lat="28.066416" lon="-15.660407">
        <ele>525.011</ele>
        <time>2025-04-12T14:53:24Z</time>
      </trkpt>
      <trkpt lat="28.066614" lon="-15.660388">
        <ele>526.609</ele>
        <time>2025-04-12T14:53:43Z</time>
      </trkpt>
      <trkpt lat="28.067136" lon="-15.661139">
        <ele>541.247</ele>
        <time>2025-04-12T14:55:16Z</time>
      </trkpt>
      <trkpt lat="28.067671" lon="-15.661183">
        <ele>553.365</ele>
        <time>2025-04-12T14:56:28Z</time>
      </trkpt>
      <trkpt lat="28.067731" lon="-15.660573">
        <ele>551.143</ele>
        <time>2025-04-12T14:57:22Z</time>
      </trkpt>
      <trkpt lat="28.067610" lon="-15.659806">
        <ele>540.291</ele>
        <time>2025-04-12T14:58:34Z</time>
      </trkpt>
      <trkpt lat="28.067759" lon="-15.659920">
        <ele>532.526</ele>
        <time>2025-04-12T14:59:30Z</time>
      </trkpt>
      <trkpt lat="28.067799" lon="-15.659771">
        <ele>530.084</ele>
        <time>2025-04-12T14:59:54Z</time>
      </trkpt>
      <trkpt lat="28.067877" lon="-15.659830">
        <ele>526.783</ele>
        <time>2025-04-12T15:00:09Z</time>
      </trkpt>
      <trkpt lat="28.068130" lon="-15.659359">
        <ele>506.463</ele>
        <time>2025-04-12T15:02:07Z</time>
      </trkpt>
      <trkpt lat="28.068188" lon="-15.659551">
        <ele>496.391</ele>
        <time>2025-04-12T15:03:00Z</time>
      </trkpt>
      <trkpt lat="28.068091" lon="-15.659865">
        <ele>477.243</ele>
        <time>2025-04-12T15:05:12Z</time>
      </trkpt>
      <trkpt lat="28.068224" lon="-15.660275">
        <ele>473.764</ele>
        <time>2025-04-12T15:06:09Z</time>
      </trkpt>
      <trkpt lat="28.068293" lon="-15.660075">
        <ele>464.810</ele>
        <time>2025-04-12T15:07:20Z</time>
      </trkpt>
      <trkpt lat="28.068410" lon="-15.660118">
        <ele>455.309</ele>
        <time>2025-04-12T15:08:45.999Z</time>
      </trkpt>
      <trkpt lat="28.068468" lon="-15.659905">
        <ele>451.786</ele>
        <time>2025-04-12T15:09:34.999Z</time>
      </trkpt>
      <trkpt lat="28.068796" lon="-15.659721">
        <ele>439.684</ele>
        <time>2025-04-12T15:10:41.999Z</time>
      </trkpt>
      <trkpt lat="28.068899" lon="-15.660538">
        <ele>411.832</ele>
        <time>2025-04-12T15:13:13.999Z</time>
      </trkpt>
      <trkpt lat="28.068734" lon="-15.661277">
        <ele>399.210</ele>
        <time>2025-04-12T15:14:08.999Z</time>
      </trkpt>
      <trkpt lat="28.069267" lon="-15.662484">
        <ele>386.455</ele>
        <time>2025-04-12T15:16:51.999Z</time>
      </trkpt>
      <trkpt lat="28.069475" lon="-15.662519">
        <ele>375.883</ele>
        <time>2025-04-12T15:20:23.999Z</time>
      </trkpt>
      <trkpt lat="28.069536" lon="-15.662440">
        <ele>376.262</ele>
        <time>2025-04-12T15:20:32.999Z</time>
      </trkpt>
      <trkpt lat="28.069686" lon="-15.662554">
        <ele>368.542</ele>
        <time>2025-04-12T15:21:22.999Z</time>
      </trkpt>
      <trkpt lat="28.069958" lon="-15.662448">
        <ele>361.210</ele>
        <time>2025-04-12T15:22:07.999Z</time>
      </trkpt>
      <trkpt lat="28.070393" lon="-15.662730">
        <ele>343.813</ele>
        <time>2025-04-12T15:24:05.999Z</time>
      </trkpt>
      <trkpt lat="28.070822" lon="-15.663477">
        <ele>324.443</ele>
        <time>2025-04-12T15:26:00.999Z</time>
      </trkpt>
      <trkpt lat="28.071541" lon="-15.663498">
        <ele>324.207</ele>
        <time>2025-04-12T15:27:40Z</time>
      </trkpt>
      <trkpt lat="28.071819" lon="-15.663621">
        <ele>317.909</ele>
        <time>2025-04-12T15:28:07Z</time>
      </trkpt>
      <trkpt lat="28.072326" lon="-15.664621">
        <ele>303.453</ele>
        <time>2025-04-12T15:29:55Z</time>
      </trkpt>
      <trkpt lat="28.072895" lon="-15.665328">
        <ele>296.171</ele>
        <time>2025-04-12T15:31:16Z</time>
      </trkpt>
      <trkpt lat="28.073700" lon="-15.665422">
        <ele>294.159</ele>
        <time>2025-04-12T15:32:25Z</time>
      </trkpt>
      <trkpt lat="28.074611" lon="-15.666071">
        <ele>304.357</ele>
        <time>2025-04-12T15:33:46Z</time>
      </trkpt>
      <trkpt lat="28.075345" lon="-15.667056">
        <ele>294.812</ele>
        <time>2025-04-12T15:35:23Z</time>
      </trkpt>
      <trkpt lat="28.075841" lon="-15.667137">
        <ele>295.580</ele>
        <time>2025-04-12T15:35:58Z</time>
      </trkpt>
      <trkpt lat="28.076046" lon="-15.667320">
        <ele>296.479</ele>
        <time>2025-04-12T15:36:20Z</time>
      </trkpt>
      <trkpt lat="28.076139" lon="-15.668075">
        <ele>284.059</ele>
        <time>2025-04-12T15:38:00Z</time>
      </trkpt>
      <trkpt lat="28.076457" lon="-15.668521">
        <ele>277.517</ele>
        <time>2025-04-12T15:38:44Z</time>
      </trkpt>
      <trkpt lat="28.077231" lon="-15.669179">
        <ele>275.423</ele>
        <time>2025-04-12T15:40:02Z</time>
      </trkpt>
      <trkpt lat="28.078248" lon="-15.669632">
        <ele>250.983</ele>
        <time>2025-04-12T15:42:36Z</time>
      </trkpt>
      <trkpt lat="28.078488" lon="-15.669844">
        <ele>247.911</ele>
        <time>2025-04-12T15:43:17Z</time>
      </trkpt>
      <trkpt lat="28.078561" lon="-15.670050">
        <ele>245.309</ele>
        <time>2025-04-12T15:43:33Z</time>
      </trkpt>
      <trkpt lat="28.079043" lon="-15.670186">
        <ele>245.184</ele>
        <time>2025-04-12T15:44:22.999Z</time>
      </trkpt>
      <trkpt lat="28.079300" lon="-15.670464">
        <ele>241.722</ele>
        <time>2025-04-12T15:44:51.999Z</time>
      </trkpt>
      <trkpt lat="28.079697" lon="-15.670347">
        <ele>240.750</ele>
        <time>2025-04-12T15:45:24.999Z</time>
      </trkpt>
      <trkpt lat="28.080003" lon="-15.670446">
        <ele>237.378</ele>
        <time>2025-04-12T15:45:49.999Z</time>
      </trkpt>
      <trkpt lat="28.080215" lon="-15.671152">
        <ele>235.553</ele>
        <time>2025-04-12T15:46:42.999Z</time>
      </trkpt>
      <trkpt lat="28.080442" lon="-15.671166">
        <ele>235.381</ele>
        <time>2025-04-12T15:47:10.999Z</time>
      </trkpt>
    </trkseg>
  </trk></gpx>