<?xml version="1.0" encoding="UTF-8"?>
<gpx creator="Wikiloc - https://www.wikiloc.com" version="1.1" xmlns="http://www.topografix.com/GPX/1/1" xmlns:xsi="http://www.w3.org/2001/XMLSchema-instance" xsi:schemaLocation="http://www.topografix.com/GPX/1/1 http://www.topografix.com/GPX/1/1/gpx.xsd">
  <metadata>
    <name>Wikiloc - Vallehermoso - Hermigua</name>
    <link href="https://www.wikiloc.com/hiking-trails/vallehermoso-hermigua-134480557">
      <text>Vallehermoso - Hermigua - Wikiloc on Wikiloc</text>
    </link>
    <time>2023-05-11T16:44:33Z</time>
  </metadata>
  <trk>
    <name>Vallehermoso - Hermigua - Wikiloc</name>
    <cmt></cmt>
    <desc></desc>
    <trkseg>
      <trkpt lat="28.178508" lon="-17.265697">
        <ele>187.197</ele>
        <time>2023-05-11T10:27:10Z</time>
      </trkpt>
      <trkpt lat="28.178285" lon="-17.265424">
        <ele>187.123</ele>
        <time>2023-05-11T10:27:43Z</time>
      </trkpt>
      <trkpt lat="28.178595" lon="-17.264993">
        <ele>185.325</ele>
        <time>2023-05-11T10:28:30Z</time>
      </trkpt>
      <trkpt lat="28.178592" lon="-17.264724">
        <ele>184.209</ele>
        <time>2023-05-11T10:28:48Z</time>
      </trkpt>
      <trkpt lat="28.178469" lon="-17.264488">
        <ele>182.750</ele>
        <time>2023-05-11T10:29:20Z</time>
      </trkpt>
      <trkpt lat="28.178220" lon="-17.264611">
        <ele>180.822</ele>
        <time>2023-05-11T10:30:04Z</time>
      </trkpt>
      <trkpt lat="28.178079" lon="-17.264551">
        <ele>183.843</ele>
        <time>2023-05-11T10:30:19Z</time>
      </trkpt>
      <trkpt lat="28.178259" lon="-17.264519">
        <ele>185.923</ele>
        <time>2023-05-11T10:30:40Z</time>
      </trkpt>
      <trkpt lat="28.178206" lon="-17.264352">
        <ele>190.027</ele>
        <time>2023-05-11T10:31:37Z</time>
      </trkpt>
      <trkpt lat="28.177852" lon="-17.264151">
        <ele>200.219</ele>
        <time>2023-05-11T10:32:15Z</time>
      </trkpt>
      <trkpt lat="28.177882" lon="-17.263894">
        <ele>205.284</ele>
        <time>2023-05-11T10:32:37Z</time>
      </trkpt>
      <trkpt lat="28.177222" lon="-17.262711">
        <ele>227.664</ele>
        <time>2023-05-11T10:35:19Z</time>
      </trkpt>
      <trkpt lat="28.177966" lon="-17.263271">
        <ele>241.556</ele>
        <time>2023-05-11T10:36:58Z</time>
      </trkpt>
      <trkpt lat="28.178409" lon="-17.263275">
        <ele>253.471</ele>
        <time>2023-05-11T10:38:00Z</time>
      </trkpt>
      <trkpt lat="28.178529" lon="-17.262649">
        <ele>258.341</ele>
        <time>2023-05-11T10:39:05Z</time>
      </trkpt>
      <trkpt lat="28.178494" lon="-17.262055">
        <ele>268.415</ele>
        <time>2023-05-11T10:39:58Z</time>
      </trkpt>
      <trkpt lat="28.178335" lon="-17.261758">
        <ele>273.409</ele>
        <time>2023-05-11T10:40:22Z</time>
      </trkpt>
      <trkpt lat="28.178135" lon="-17.262555">
        <ele>285.828</ele>
        <time>2023-05-11T10:41:38Z</time>
      </trkpt>
      <trkpt lat="28.178215" lon="-17.262615">
        <ele>291.060</ele>
        <time>2023-05-11T10:42:21Z</time>
      </trkpt>
      <trkpt lat="28.178154" lon="-17.262346">
        <ele>291.341</ele>
        <time>2023-05-11T10:44:18Z</time>
      </trkpt>
      <trkpt lat="28.178339" lon="-17.262066">
        <ele>285.921</ele>
        <time>2023-05-11T10:44:36Z</time>
      </trkpt>
      <trkpt lat="28.178289" lon="-17.261465">
        <ele>280.865</ele>
        <time>2023-05-11T10:45:10Z</time>
      </trkpt>
      <trkpt lat="28.178442" lon="-17.261248">
        <ele>281.737</ele>
        <time>2023-05-11T10:45:31Z</time>
      </trkpt>
      <trkpt lat="28.178995" lon="-17.261605">
        <ele>295.452</ele>
        <time>2023-05-11T10:46:43Z</time>
      </trkpt>
      <trkpt lat="28.178617" lon="-17.260677">
        <ele>305.362</ele>
        <time>2023-05-11T10:48:07Z</time>
      </trkpt>
      <trkpt lat="28.178221" lon="-17.260498">
        <ele>315.674</ele>
        <time>2023-05-11T10:49:01Z</time>
      </trkpt>
      <trkpt lat="28.178171" lon="-17.259790">
        <ele>328.747</ele>
        <time>2023-05-11T10:50:21Z</time>
      </trkpt>
      <trkpt lat="28.178328" lon="-17.260003">
        <ele>337.829</ele>
        <time>2023-05-11T10:50:49Z</time>
      </trkpt>
      <trkpt lat="28.178864" lon="-17.260146">
        <ele>350.421</ele>
        <time>2023-05-11T10:52:00Z</time>
      </trkpt>
      <trkpt lat="28.178524" lon="-17.259475">
        <ele>362.209</ele>
        <time>2023-05-11T10:53:13Z</time>
      </trkpt>
      <trkpt lat="28.178665" lon="-17.259380">
        <ele>366.865</ele>
        <time>2023-05-11T10:53:37Z</time>
      </trkpt>
      <trkpt lat="28.179028" lon="-17.259585">
        <ele>378.347</ele>
        <time>2023-05-11T10:54:15Z</time>
      </trkpt>
      <trkpt lat="28.179101" lon="-17.259848">
        <ele>384.178</ele>
        <time>2023-05-11T10:54:38Z</time>
      </trkpt>
      <trkpt lat="28.179160" lon="-17.259577">
        <ele>388.378</ele>
        <time>2023-05-11T10:55:03Z</time>
      </trkpt>
      <trkpt lat="28.178994" lon="-17.259157">
        <ele>393.392</ele>
        <time>2023-05-11T10:55:43Z</time>
      </trkpt>
      <trkpt lat="28.179006" lon="-17.258530">
        <ele>408.144</ele>
        <time>2023-05-11T10:57:05Z</time>
      </trkpt>
      <trkpt lat="28.179093" lon="-17.258465">
        <ele>412.119</ele>
        <time>2023-05-11T10:57:20Z</time>
      </trkpt>
      <trkpt lat="28.179157" lon="-17.258567">
        <ele>417.419</ele>
        <time>2023-05-11T10:58:14Z</time>
      </trkpt>
      <trkpt lat="28.179338" lon="-17.257847">
        <ele>430.421</ele>
        <time>2023-05-11T10:59:32Z</time>
      </trkpt>
      <trkpt lat="28.179737" lon="-17.257595">
        <ele>440.837</ele>
        <time>2023-05-11T11:00:36Z</time>
      </trkpt>
      <trkpt lat="28.180021" lon="-17.257568">
        <ele>444.349</ele>
        <time>2023-05-11T11:01:06Z</time>
      </trkpt>
      <trkpt lat="28.180143" lon="-17.257325">
        <ele>447.913</ele>
        <time>2023-05-11T11:01:27Z</time>
      </trkpt>
      <trkpt lat="28.180817" lon="-17.256775">
        <ele>463.509</ele>
        <time>2023-05-11T11:02:46Z</time>
      </trkpt>
      <trkpt lat="28.180619" lon="-17.256830">
        <ele>463.434</ele>
        <time>2023-05-11T11:03:53Z</time>
      </trkpt>
      <trkpt lat="28.180414" lon="-17.257349">
        <ele>450.316</ele>
        <time>2023-05-11T11:04:02Z</time>
      </trkpt>
      <trkpt lat="28.180536" lon="-17.256880">
        <ele>446.487</ele>
        <time>2023-05-11T11:04:05Z</time>
      </trkpt>
      <trkpt lat="28.180460" lon="-17.256971">
        <ele>444.937</ele>
        <time>2023-05-11T11:04:11Z</time>
      </trkpt>
      <trkpt lat="28.180350" lon="-17.256900">
        <ele>446.711</ele>
        <time>2023-05-11T11:04:23Z</time>
      </trkpt>
      <trkpt lat="28.180321" lon="-17.256677">
        <ele>463.133</ele>
        <time>2023-05-11T11:04:32Z</time>
      </trkpt>
      <trkpt lat="28.180380" lon="-17.255826">
        <ele>470.688</ele>
        <time>2023-05-11T11:04:46Z</time>
      </trkpt>
      <trkpt lat="28.180526" lon="-17.255720">
        <ele>463.788</ele>
        <time>2023-05-11T11:04:51Z</time>
      </trkpt>
      <trkpt lat="28.180269" lon="-17.256193">
        <ele>481.530</ele>
        <time>2023-05-11T11:04:58Z</time>
      </trkpt>
      <trkpt lat="28.180099" lon="-17.257024">
        <ele>477.913</ele>
        <time>2023-05-11T11:05:38Z</time>
      </trkpt>
      <trkpt lat="28.180194" lon="-17.255809">
        <ele>495.143</ele>
        <time>2023-05-11T11:07:50Z</time>
      </trkpt>
      <trkpt lat="28.179785" lon="-17.255203">
        <ele>508.507</ele>
        <time>2023-05-11T11:12:14Z</time>
      </trkpt>
      <trkpt lat="28.179754" lon="-17.254973">
        <ele>512.109</ele>
        <time>2023-05-11T11:12:52Z</time>
      </trkpt>
      <trkpt lat="28.179410" lon="-17.254902">
        <ele>513.252</ele>
        <time>2023-05-11T11:13:05Z</time>
      </trkpt>
      <trkpt lat="28.179693" lon="-17.254815">
        <ele>509.124</ele>
        <time>2023-05-11T11:13:14Z</time>
      </trkpt>
      <trkpt lat="28.179824" lon="-17.254643">
        <ele>514.225</ele>
        <time>2023-05-11T11:13:33Z</time>
      </trkpt>
      <trkpt lat="28.179687" lon="-17.254535">
        <ele>515.245</ele>
        <time>2023-05-11T11:13:54Z</time>
      </trkpt>
      <trkpt lat="28.178968" lon="-17.254674">
        <ele>523.529</ele>
        <time>2023-05-11T11:14:17Z</time>
      </trkpt>
      <trkpt lat="28.179407" lon="-17.254445">
        <ele>523.551</ele>
        <time>2023-05-11T11:14:21Z</time>
      </trkpt>
      <trkpt lat="28.179487" lon="-17.254260">
        <ele>529.766</ele>
        <time>2023-05-11T11:14:28Z</time>
      </trkpt>
      <trkpt lat="28.179260" lon="-17.254353">
        <ele>522.896</ele>
        <time>2023-05-11T11:14:47Z</time>
      </trkpt>
      <trkpt lat="28.179020" lon="-17.254182">
        <ele>521.798</ele>
        <time>2023-05-11T11:15:01Z</time>
      </trkpt>
      <trkpt lat="28.179023" lon="-17.254309">
        <ele>513.499</ele>
        <time>2023-05-11T11:16:00Z</time>
      </trkpt>
      <trkpt lat="28.178933" lon="-17.254223">
        <ele>513.207</ele>
        <time>2023-05-11T11:16:07Z</time>
      </trkpt>
      <trkpt lat="28.178772" lon="-17.254312">
        <ele>517.027</ele>
        <time>2023-05-11T11:16:15Z</time>
      </trkpt>
      <trkpt lat="28.178385" lon="-17.255288">
        <ele>518.309</ele>
        <time>2023-05-11T11:16:43Z</time>
      </trkpt>
      <trkpt lat="28.178462" lon="-17.254074">
        <ele>518.860</ele>
        <time>2023-05-11T11:16:53Z</time>
      </trkpt>
      <trkpt lat="28.178093" lon="-17.253763">
        <ele>522.892</ele>
        <time>2023-05-11T11:18:56Z</time>
      </trkpt>
      <trkpt lat="28.177248" lon="-17.253596">
        <ele>536.583</ele>
        <time>2023-05-11T11:20:12Z</time>
      </trkpt>
      <trkpt lat="28.177075" lon="-17.253680">
        <ele>539.113</ele>
        <time>2023-05-11T11:20:25Z</time>
      </trkpt>
      <trkpt lat="28.176903" lon="-17.254025">
        <ele>546.657</ele>
        <time>2023-05-11T11:21:01Z</time>
      </trkpt>
      <trkpt lat="28.176566" lon="-17.253998">
        <ele>554.579</ele>
        <time>2023-05-11T11:21:58Z</time>
      </trkpt>
      <trkpt lat="28.176317" lon="-17.253766">
        <ele>562.794</ele>
        <time>2023-05-11T11:23:41Z</time>
      </trkpt>
      <trkpt lat="28.176213" lon="-17.252591">
        <ele>578.984</ele>
        <time>2023-05-11T11:25:49Z</time>
      </trkpt>
      <trkpt lat="28.175975" lon="-17.252094">
        <ele>591.126</ele>
        <time>2023-05-11T11:26:40Z</time>
      </trkpt>
      <trkpt lat="28.175900" lon="-17.252219">
        <ele>594.599</ele>
        <time>2023-05-11T11:26:58Z</time>
      </trkpt>
      <trkpt lat="28.175960" lon="-17.252099">
        <ele>597.707</ele>
        <time>2023-05-11T11:27:09Z</time>
      </trkpt>
      <trkpt lat="28.175784" lon="-17.251431">
        <ele>606.427</ele>
        <time>2023-05-11T11:28:00Z</time>
      </trkpt>
      <trkpt lat="28.175601" lon="-17.251357">
        <ele>607.509</ele>
        <time>2023-05-11T11:28:16Z</time>
      </trkpt>
      <trkpt lat="28.175171" lon="-17.251486">
        <ele>613.120</ele>
        <time>2023-05-11T11:29:15Z</time>
      </trkpt>
      <trkpt lat="28.175254" lon="-17.251134">
        <ele>616.972</ele>
        <time>2023-05-11T11:29:49Z</time>
      </trkpt>
      <trkpt lat="28.175074" lon="-17.250606">
        <ele>627.353</ele>
        <time>2023-05-11T11:30:35Z</time>
      </trkpt>
      <trkpt lat="28.173965" lon="-17.250739">
        <ele>633.823</ele>
        <time>2023-05-11T11:32:00Z</time>
      </trkpt>
      <trkpt lat="28.173532" lon="-17.250508">
        <ele>635.317</ele>
        <time>2023-05-11T11:32:39Z</time>
      </trkpt>
      <trkpt lat="28.173286" lon="-17.249991">
        <ele>642.519</ele>
        <time>2023-05-11T11:33:31Z</time>
      </trkpt>
      <trkpt lat="28.172672" lon="-17.249453">
        <ele>646.554</ele>
        <time>2023-05-11T11:34:42Z</time>
      </trkpt>
      <trkpt lat="28.172732" lon="-17.249073">
        <ele>654.744</ele>
        <time>2023-05-11T11:35:17Z</time>
      </trkpt>
      <trkpt lat="28.172643" lon="-17.248754">
        <ele>656.226</ele>
        <time>2023-05-11T11:35:47Z</time>
      </trkpt>
      <trkpt lat="28.172309" lon="-17.248495">
        <ele>657.085</ele>
        <time>2023-05-11T11:36:20Z</time>
      </trkpt>
      <trkpt lat="28.172154" lon="-17.248121">
        <ele>663.789</ele>
        <time>2023-05-11T11:37:11Z</time>
      </trkpt>
      <trkpt lat="28.171994" lon="-17.248142">
        <ele>664.917</ele>
        <time>2023-05-11T11:37:32Z</time>
      </trkpt>
      <trkpt lat="28.172127" lon="-17.247828">
        <ele>658.209</ele>
        <time>2023-05-11T11:37:53Z</time>
      </trkpt>
      <trkpt lat="28.171977" lon="-17.247261">
        <ele>668.549</ele>
        <time>2023-05-11T11:38:32Z</time>
      </trkpt>
      <trkpt lat="28.171672" lon="-17.246843">
        <ele>675.681</ele>
        <time>2023-05-11T11:39:43Z</time>
      </trkpt>
      <trkpt lat="28.172133" lon="-17.245820">
        <ele>683.042</ele>
        <time>2023-05-11T11:41:13Z</time>
      </trkpt>
      <trkpt lat="28.172089" lon="-17.245350">
        <ele>688.642</ele>
        <time>2023-05-11T11:45:15Z</time>
      </trkpt>
      <trkpt lat="28.171778" lon="-17.244930">
        <ele>695.966</ele>
        <time>2023-05-11T11:45:59Z</time>
      </trkpt>
      <trkpt lat="28.171529" lon="-17.244807">
        <ele>699.078</ele>
        <time>2023-05-11T11:46:23Z</time>
      </trkpt>
      <trkpt lat="28.171608" lon="-17.244726">
        <ele>700.423</ele>
        <time>2023-05-11T11:46:38Z</time>
      </trkpt>
      <trkpt lat="28.172044" lon="-17.244833">
        <ele>708.173</ele>
        <time>2023-05-11T11:47:12Z</time>
      </trkpt>
      <trkpt lat="28.172086" lon="-17.244535">
        <ele>711.075</ele>
        <time>2023-05-11T11:47:30Z</time>
      </trkpt>
      <trkpt lat="28.172462" lon="-17.243873">
        <ele>717.626</ele>
        <time>2023-05-11T11:48:19Z</time>
      </trkpt>
      <trkpt lat="28.172521" lon="-17.242913">
        <ele>728.747</ele>
        <time>2023-05-11T11:49:24Z</time>
      </trkpt>
      <trkpt lat="28.172836" lon="-17.242500">
        <ele>732.911</ele>
        <time>2023-05-11T11:50:00Z</time>
      </trkpt>
      <trkpt lat="28.172680" lon="-17.242272">
        <ele>736.909</ele>
        <time>2023-05-11T11:50:18Z</time>
      </trkpt>
      <trkpt lat="28.172746" lon="-17.241750">
        <ele>742.823</ele>
        <time>2023-05-11T11:50:51Z</time>
      </trkpt>
      <trkpt lat="28.172560" lon="-17.241562">
        <ele>745.775</ele>
        <time>2023-05-11T11:51:10Z</time>
      </trkpt>
      <trkpt lat="28.172609" lon="-17.240436">
        <ele>762.016</ele>
        <time>2023-05-11T11:53:40Z</time>
      </trkpt>
      <trkpt lat="28.172921" lon="-17.240384">
        <ele>765.386</ele>
        <time>2023-05-11T11:54:11Z</time>
      </trkpt>
      <trkpt lat="28.173641" lon="-17.239853">
        <ele>769.990</ele>
        <time>2023-05-11T11:55:18Z</time>
      </trkpt>
      <trkpt lat="28.173832" lon="-17.239474">
        <ele>769.062</ele>
        <time>2023-05-11T11:55:41Z</time>
      </trkpt>
      <trkpt lat="28.173913" lon="-17.238597">
        <ele>785.567</ele>
        <time>2023-05-11T11:56:55Z</time>
      </trkpt>
      <trkpt lat="28.174536" lon="-17.238348">
        <ele>790.037</ele>
        <time>2023-05-11T11:57:42Z</time>
      </trkpt>
      <trkpt lat="28.175547" lon="-17.238203">
        <ele>790.169</ele>
        <time>2023-05-11T11:58:48Z</time>
      </trkpt>
      <trkpt lat="28.176324" lon="-17.237649">
        <ele>785.395</ele>
        <time>2023-05-11T12:00:32Z</time>
      </trkpt>
      <trkpt lat="28.176699" lon="-17.237046">
        <ele>777.149</ele>
        <time>2023-05-11T12:01:18Z</time>
      </trkpt>
      <trkpt lat="28.176905" lon="-17.236899">
        <ele>775.423</ele>
        <time>2023-05-11T12:02:07Z</time>
      </trkpt>
      <trkpt lat="28.177066" lon="-17.236932">
        <ele>772.909</ele>
        <time>2023-05-11T12:02:21Z</time>
      </trkpt>
      <trkpt lat="28.177362" lon="-17.236563">
        <ele>773.740</ele>
        <time>2023-05-11T12:02:43Z</time>
      </trkpt>
      <trkpt lat="28.177442" lon="-17.236122">
        <ele>774.652</ele>
        <time>2023-05-11T12:03:17Z</time>
      </trkpt>
      <trkpt lat="28.177238" lon="-17.235485">
        <ele>773.423</ele>
        <time>2023-05-11T12:03:57Z</time>
      </trkpt>
      <trkpt lat="28.177441" lon="-17.234763">
        <ele>762.833</ele>
        <time>2023-05-11T12:04:45Z</time>
      </trkpt>
      <trkpt lat="28.177787" lon="-17.234543">
        <ele>756.867</ele>
        <time>2023-05-11T12:05:21Z</time>
      </trkpt>
      <trkpt lat="28.178009" lon="-17.234210">
        <ele>752.859</ele>
        <time>2023-05-11T12:05:45Z</time>
      </trkpt>
      <trkpt lat="28.177944" lon="-17.233551">
        <ele>746.644</ele>
        <time>2023-05-11T12:06:23Z</time>
      </trkpt>
      <trkpt lat="28.178171" lon="-17.232965">
        <ele>738.314</ele>
        <time>2023-05-11T12:07:10Z</time>
      </trkpt>
      <trkpt lat="28.178027" lon="-17.232182">
        <ele>724.476</ele>
        <time>2023-05-11T12:08:08Z</time>
      </trkpt>
      <trkpt lat="28.177785" lon="-17.231717">
        <ele>708.954</ele>
        <time>2023-05-11T12:09:17Z</time>
      </trkpt>
      <trkpt lat="28.177251" lon="-17.231156">
        <ele>696.756</ele>
        <time>2023-05-11T12:10:50Z</time>
      </trkpt>
      <trkpt lat="28.177383" lon="-17.230967">
        <ele>692.411</ele>
        <time>2023-05-11T12:11:08Z</time>
      </trkpt>
      <trkpt lat="28.177692" lon="-17.231132">
        <ele>687.609</ele>
        <time>2023-05-11T12:11:29Z</time>
      </trkpt>
      <trkpt lat="28.177783" lon="-17.231076">
        <ele>686.276</ele>
        <time>2023-05-11T12:11:45Z</time>
      </trkpt>
      <trkpt lat="28.177395" lon="-17.230571">
        <ele>677.148</ele>
        <time>2023-05-11T12:12:39Z</time>
      </trkpt>
      <trkpt lat="28.177516" lon="-17.230459">
        <ele>674.159</ele>
        <time>2023-05-11T12:12:53Z</time>
      </trkpt>
      <trkpt lat="28.177302" lon="-17.230306">
        <ele>666.329</ele>
        <time>2023-05-11T12:13:20Z</time>
      </trkpt>
      <trkpt lat="28.177576" lon="-17.230187">
        <ele>659.273</ele>
        <time>2023-05-11T12:13:42Z</time>
      </trkpt>
      <trkpt lat="28.177943" lon="-17.230214">
        <ele>655.985</ele>
        <time>2023-05-11T12:14:08Z</time>
      </trkpt>
      <trkpt lat="28.178121" lon="-17.229823">
        <ele>656.350</ele>
        <time>2023-05-11T12:14:33Z</time>
      </trkpt>
      <trkpt lat="28.179041" lon="-17.229447">
        <ele>654.910</ele>
        <time>2023-05-11T12:15:35Z</time>
      </trkpt>
      <trkpt lat="28.179270" lon="-17.229851">
        <ele>654.672</ele>
        <time>2023-05-11T12:16:05Z</time>
      </trkpt>
      <trkpt lat="28.179712" lon="-17.230041">
        <ele>656.752</ele>
        <time>2023-05-11T12:16:36Z</time>
      </trkpt>
      <trkpt lat="28.180198" lon="-17.230024">
        <ele>657.153</ele>
        <time>2023-05-11T12:17:06Z</time>
      </trkpt>
      <trkpt lat="28.180784" lon="-17.230473">
        <ele>651.408</ele>
        <time>2023-05-11T12:17:52Z</time>
      </trkpt>
      <trkpt lat="28.181207" lon="-17.229493">
        <ele>650.309</ele>
        <time>2023-05-11T12:19:06Z</time>
      </trkpt>
      <trkpt lat="28.180496" lon="-17.227778">
        <ele>652.416</ele>
        <time>2023-05-11T12:21:21Z</time>
      </trkpt>
      <trkpt lat="28.180272" lon="-17.227615">
        <ele>649.668</ele>
        <time>2023-05-11T12:22:08Z</time>
      </trkpt>
      <trkpt lat="28.180019" lon="-17.226792">
        <ele>669.599</ele>
        <time>2023-05-11T12:23:31Z</time>
      </trkpt>
      <trkpt lat="28.179393" lon="-17.226611">
        <ele>689.599</ele>
        <time>2023-05-11T12:24:55Z</time>
      </trkpt>
      <trkpt lat="28.178619" lon="-17.226749">
        <ele>689.343</ele>
        <time>2023-05-11T12:25:48Z</time>
      </trkpt>
      <trkpt lat="28.177726" lon="-17.226374">
        <ele>702.715</ele>
        <time>2023-05-11T12:27:00Z</time>
      </trkpt>
      <trkpt lat="28.177693" lon="-17.225988">
        <ele>710.270</ele>
        <time>2023-05-11T12:27:28Z</time>
      </trkpt>
      <trkpt lat="28.177707" lon="-17.226442">
        <ele>709.410</ele>
        <time>2023-05-11T12:28:41Z</time>
      </trkpt>
      <trkpt lat="28.177473" lon="-17.226391">
        <ele>711.042</ele>
        <time>2023-05-11T12:29:33Z</time>
      </trkpt>
      <trkpt lat="28.177209" lon="-17.226067">
        <ele>718.969</ele>
        <time>2023-05-11T12:30:27Z</time>
      </trkpt>
      <trkpt lat="28.177215" lon="-17.225800">
        <ele>733.204</ele>
        <time>2023-05-11T12:31:30Z</time>
      </trkpt>
      <trkpt lat="28.176467" lon="-17.224625">
        <ele>777.824</ele>
        <time>2023-05-11T12:35:10Z</time>
      </trkpt>
      <trkpt lat="28.176429" lon="-17.223696">
        <ele>782.609</ele>
        <time>2023-05-11T12:36:54Z</time>
      </trkpt>
      <trkpt lat="28.176580" lon="-17.223266">
        <ele>790.267</ele>
        <time>2023-05-11T12:38:40Z</time>
      </trkpt>
      <trkpt lat="28.176139" lon="-17.223037">
        <ele>788.549</ele>
        <time>2023-05-11T12:39:22Z</time>
      </trkpt>
      <trkpt lat="28.176017" lon="-17.222636">
        <ele>788.670</ele>
        <time>2023-05-11T12:39:43Z</time>
      </trkpt>
      <trkpt lat="28.176015" lon="-17.221925">
        <ele>790.790</ele>
        <time>2023-05-11T12:40:30Z</time>
      </trkpt>
      <trkpt lat="28.175454" lon="-17.221124">
        <ele>777.344</ele>
        <time>2023-05-11T12:41:55Z</time>
      </trkpt>
      <trkpt lat="28.174885" lon="-17.220786">
        <ele>757.826</ele>
        <time>2023-05-11T12:44:10Z</time>
      </trkpt>
      <trkpt lat="28.174745" lon="-17.220508">
        <ele>747.621</ele>
        <time>2023-05-11T12:44:51Z</time>
      </trkpt>
      <trkpt lat="28.174885" lon="-17.219953">
        <ele>736.821</ele>
        <time>2023-05-11T12:46:17Z</time>
      </trkpt>
      <trkpt lat="28.174773" lon="-17.219330">
        <ele>747.443</ele>
        <time>2023-05-11T12:47:18Z</time>
      </trkpt>
      <trkpt lat="28.175078" lon="-17.219121">
        <ele>753.225</ele>
        <time>2023-05-11T12:47:41Z</time>
      </trkpt>
      <trkpt lat="28.175187" lon="-17.218822">
        <ele>761.126</ele>
        <time>2023-05-11T12:48:14Z</time>
      </trkpt>
      <trkpt lat="28.174912" lon="-17.218136">
        <ele>759.808</ele>
        <time>2023-05-11T12:49:17Z</time>
      </trkpt>
      <trkpt lat="28.175578" lon="-17.217472">
        <ele>753.309</ele>
        <time>2023-05-11T12:50:22Z</time>
      </trkpt>
      <trkpt lat="28.176212" lon="-17.216230">
        <ele>750.693</ele>
        <time>2023-05-11T12:51:43Z</time>
      </trkpt>
      <trkpt lat="28.177221" lon="-17.215335">
        <ele>744.715</ele>
        <time>2023-05-11T12:53:53Z</time>
      </trkpt>
      <trkpt lat="28.177586" lon="-17.214626">
        <ele>746.786</ele>
        <time>2023-05-11T12:54:41Z</time>
      </trkpt>
      <trkpt lat="28.177931" lon="-17.214364">
        <ele>748.026</ele>
        <time>2023-05-11T12:55:36Z</time>
      </trkpt>
      <trkpt lat="28.178344" lon="-17.213208">
        <ele>749.210</ele>
        <time>2023-05-11T13:40:39Z</time>
      </trkpt>
      <trkpt lat="28.178275" lon="-17.212543">
        <ele>744.682</ele>
        <time>2023-05-11T13:41:34Z</time>
      </trkpt>
      <trkpt lat="28.178311" lon="-17.213285">
        <ele>739.797</ele>
        <time>2023-05-11T13:43:02Z</time>
      </trkpt>
      <trkpt lat="28.178529" lon="-17.212609">
        <ele>748.417</ele>
        <time>2023-05-11T13:45:12Z</time>
      </trkpt>
      <trkpt lat="28.178947" lon="-17.212411">
        <ele>750.989</ele>
        <time>2023-05-11T13:45:49Z</time>
      </trkpt>
      <trkpt lat="28.179409" lon="-17.211681">
        <ele>751.528</ele>
        <time>2023-05-11T13:47:04Z</time>
      </trkpt>
      <trkpt lat="28.179933" lon="-17.210215">
        <ele>743.389</ele>
        <time>2023-05-11T13:48:36Z</time>
      </trkpt>
      <trkpt lat="28.180464" lon="-17.210641">
        <ele>731.717</ele>
        <time>2023-05-11T13:49:26Z</time>
      </trkpt>
      <trkpt lat="28.180969" lon="-17.210672">
        <ele>729.809</ele>
        <time>2023-05-11T13:51:21Z</time>
      </trkpt>
      <trkpt lat="28.181222" lon="-17.210528">
        <ele>730.773</ele>
        <time>2023-05-11T13:51:40Z</time>
      </trkpt>
      <trkpt lat="28.182192" lon="-17.209294">
        <ele>706.485</ele>
        <time>2023-05-11T13:53:24Z</time>
      </trkpt>
      <trkpt lat="28.182651" lon="-17.208090">
        <ele>697.896</ele>
        <time>2023-05-11T13:54:40Z</time>
      </trkpt>
      <trkpt lat="28.183354" lon="-17.207602">
        <ele>699.646</ele>
        <time>2023-05-11T13:55:42Z</time>
      </trkpt>
      <trkpt lat="28.183587" lon="-17.207590">
        <ele>692.020</ele>
        <time>2023-05-11T13:56:19Z</time>
      </trkpt>
      <trkpt lat="28.183725" lon="-17.207412">
        <ele>695.982</ele>
        <time>2023-05-11T13:56:48Z</time>
      </trkpt>
      <trkpt lat="28.184008" lon="-17.206897">
        <ele>697.547</ele>
        <time>2023-05-11T13:58:30Z</time>
      </trkpt>
      <trkpt lat="28.184102" lon="-17.205985">
        <ele>688.137</ele>
        <time>2023-05-11T13:59:43Z</time>
      </trkpt>
      <trkpt lat="28.184305" lon="-17.205830">
        <ele>688.869</ele>
        <time>2023-05-11T14:00:02Z</time>
      </trkpt>
      <trkpt lat="28.184777" lon="-17.204788">
        <ele>680.519</ele>
        <time>2023-05-11T14:01:37Z</time>
      </trkpt>
      <trkpt lat="28.185143" lon="-17.204478">
        <ele>674.409</ele>
        <time>2023-05-11T14:02:21Z</time>
      </trkpt>
      <trkpt lat="28.186152" lon="-17.204021">
        <ele>657.719</ele>
        <time>2023-05-11T14:03:33Z</time>
      </trkpt>
      <trkpt lat="28.185710" lon="-17.204283">
        <ele>661.409</ele>
        <time>2023-05-11T14:04:27Z</time>
      </trkpt>
      <trkpt lat="28.186006" lon="-17.203643">
        <ele>652.762</ele>
        <time>2023-05-11T14:08:11Z</time>
      </trkpt>
      <trkpt lat="28.185911" lon="-17.203488">
        <ele>646.074</ele>
        <time>2023-05-11T14:08:29Z</time>
      </trkpt>
      <trkpt lat="28.185994" lon="-17.203177">
        <ele>648.795</ele>
        <time>2023-05-11T14:08:54Z</time>
      </trkpt>
      <trkpt lat="28.186087" lon="-17.203174">
        <ele>644.195</ele>
        <time>2023-05-11T14:09:39Z</time>
      </trkpt>
      <trkpt lat="28.185838" lon="-17.202610">
        <ele>640.769</ele>
        <time>2023-05-11T14:10:48Z</time>
      </trkpt>
      <trkpt lat="28.185947" lon="-17.202138">
        <ele>637.521</ele>
        <time>2023-05-11T14:11:17Z</time>
      </trkpt>
      <trkpt lat="28.185737" lon="-17.201619">
        <ele>630.886</ele>
        <time>2023-05-11T14:12:45Z</time>
      </trkpt>
      <trkpt lat="28.185951" lon="-17.201504">
        <ele>627.766</ele>
        <time>2023-05-11T14:13:08Z</time>
      </trkpt>
      <trkpt lat="28.185795" lon="-17.201202">
        <ele>625.848</ele>
        <time>2023-05-11T14:13:46Z</time>
      </trkpt>
      <trkpt lat="28.185965" lon="-17.201500">
        <ele>626.788</ele>
        <time>2023-05-11T14:14:12Z</time>
      </trkpt>
      <trkpt lat="28.185756" lon="-17.201145">
        <ele>626.024</ele>
        <time>2023-05-11T14:14:49Z</time>
      </trkpt>
      <trkpt lat="28.185842" lon="-17.201062">
        <ele>624.326</ele>
        <time>2023-05-11T14:15:03Z</time>
      </trkpt>
      <trkpt lat="28.185764" lon="-17.200926">
        <ele>621.909</ele>
        <time>2023-05-11T14:15:19Z</time>
      </trkpt>
      <trkpt lat="28.185958" lon="-17.200954">
        <ele>623.139</ele>
        <time>2023-05-11T14:15:59Z</time>
      </trkpt>
      <trkpt lat="28.185528" lon="-17.200802">
        <ele>620.961</ele>
        <time>2023-05-11T14:17:57Z</time>
      </trkpt>
      <trkpt lat="28.185509" lon="-17.200697">
        <ele>618.662</ele>
        <time>2023-05-11T14:18:11Z</time>
      </trkpt>
      <trkpt lat="28.185290" lon="-17.200888">
        <ele>611.742</ele>
        <time>2023-05-11T14:18:40Z</time>
      </trkpt>
      <trkpt lat="28.185196" lon="-17.200765">
        <ele>606.256</ele>
        <time>2023-05-11T14:19:25Z</time>
      </trkpt>
      <trkpt lat="28.185078" lon="-17.200856">
        <ele>599.818</ele>
        <time>2023-05-11T14:19:45Z</time>
      </trkpt>
      <trkpt lat="28.185085" lon="-17.200462">
        <ele>583.183</ele>
        <time>2023-05-11T14:21:07Z</time>
      </trkpt>
      <trkpt lat="28.184821" lon="-17.200602">
        <ele>577.833</ele>
        <time>2023-05-11T14:21:50Z</time>
      </trkpt>
      <trkpt lat="28.184990" lon="-17.200078">
        <ele>566.655</ele>
        <time>2023-05-11T14:22:59Z</time>
      </trkpt>
      <trkpt lat="28.184636" lon="-17.200524">
        <ele>557.531</ele>
        <time>2023-05-11T14:24:14Z</time>
      </trkpt>
      <trkpt lat="28.184563" lon="-17.200307">
        <ele>551.561</ele>
        <time>2023-05-11T14:25:02Z</time>
      </trkpt>
      <trkpt lat="28.184408" lon="-17.200425">
        <ele>545.107</ele>
        <time>2023-05-11T14:25:25Z</time>
      </trkpt>
      <trkpt lat="28.184408" lon="-17.200313">
        <ele>540.209</ele>
        <time>2023-05-11T14:25:57Z</time>
      </trkpt>
      <trkpt lat="28.183929" lon="-17.200315">
        <ele>528.214</ele>
        <time>2023-05-11T14:27:06Z</time>
      </trkpt>
      <trkpt lat="28.183829" lon="-17.199851">
        <ele>514.126</ele>
        <time>2023-05-11T14:28:17Z</time>
      </trkpt>
      <trkpt lat="28.184121" lon="-17.199434">
        <ele>501.767</ele>
        <time>2023-05-11T14:29:09Z</time>
      </trkpt>
      <trkpt lat="28.184484" lon="-17.199679">
        <ele>494.087</ele>
        <time>2023-05-11T14:29:53Z</time>
      </trkpt>
      <trkpt lat="28.184629" lon="-17.199657">
        <ele>492.311</ele>
        <time>2023-05-11T14:30:04Z</time>
      </trkpt>
      <trkpt lat="28.184742" lon="-17.199470">
        <ele>492.773</ele>
        <time>2023-05-11T14:30:19Z</time>
      </trkpt>
      <trkpt lat="28.184703" lon="-17.199176">
        <ele>495.778</ele>
        <time>2023-05-11T14:31:08Z</time>
      </trkpt>
      <trkpt lat="28.184794" lon="-17.199177">
        <ele>492.338</ele>
        <time>2023-05-11T14:31:18Z</time>
      </trkpt>
      <trkpt lat="28.184732" lon="-17.199318">
        <ele>492.450</ele>
        <time>2023-05-11T14:31:43Z</time>
      </trkpt>
      <trkpt lat="28.184834" lon="-17.199293">
        <ele>492.587</ele>
        <time>2023-05-11T14:32:02Z</time>
      </trkpt>
      <trkpt lat="28.185035" lon="-17.198914">
        <ele>503.542</ele>
        <time>2023-05-11T14:32:24Z</time>
      </trkpt>
      <trkpt lat="28.184781" lon="-17.199671">
        <ele>505.326</ele>
        <time>2023-05-11T14:33:09Z</time>
      </trkpt>
      <trkpt lat="28.184827" lon="-17.199474">
        <ele>504.409</ele>
        <time>2023-05-11T14:33:19Z</time>
      </trkpt>
      <trkpt lat="28.184975" lon="-17.199393">
        <ele>491.059</ele>
        <time>2023-05-11T14:33:30Z</time>
      </trkpt>
      <trkpt lat="28.185250" lon="-17.199588">
        <ele>488.191</ele>
        <time>2023-05-11T14:33:59Z</time>
      </trkpt>
      <trkpt lat="28.185458" lon="-17.199524">
        <ele>485.552</ele>
        <time>2023-05-11T14:34:31Z</time>
      </trkpt>
      <trkpt lat="28.185170" lon="-17.199294">
        <ele>468.692</ele>
        <time>2023-05-11T14:35:59Z</time>
      </trkpt>
      <trkpt lat="28.185350" lon="-17.199394">
        <ele>456.966</ele>
        <time>2023-05-11T14:36:28Z</time>
      </trkpt>
      <trkpt lat="28.185645" lon="-17.199287">
        <ele>447.838</ele>
        <time>2023-05-11T14:37:12Z</time>
      </trkpt>
      <trkpt lat="28.185935" lon="-17.199672">
        <ele>440.193</ele>
        <time>2023-05-11T14:38:46Z</time>
      </trkpt>
      <trkpt lat="28.186022" lon="-17.199714">
        <ele>435.643</ele>
        <time>2023-05-11T14:39:10Z</time>
      </trkpt>
      <trkpt lat="28.186134" lon="-17.199465">
        <ele>415.955</ele>
        <time>2023-05-11T14:40:31Z</time>
      </trkpt>
      <trkpt lat="28.186281" lon="-17.199803">
        <ele>400.395</ele>
        <time>2023-05-11T14:42:25Z</time>
      </trkpt>
      <trkpt lat="28.186596" lon="-17.199904">
        <ele>393.149</ele>
        <time>2023-05-11T14:43:10Z</time>
      </trkpt>
      <trkpt lat="28.186691" lon="-17.199827">
        <ele>390.023</ele>
        <time>2023-05-11T14:43:20Z</time>
      </trkpt>
      <trkpt lat="28.186565" lon="-17.199768">
        <ele>379.809</ele>
        <time>2023-05-11T14:43:50Z</time>
      </trkpt>
      <trkpt lat="28.186579" lon="-17.199582">
        <ele>366.570</ele>
        <time>2023-05-11T14:44:48Z</time>
      </trkpt>
      <trkpt lat="28.186848" lon="-17.199465">
        <ele>346.942</ele>
        <time>2023-05-11T14:46:31Z</time>
      </trkpt>
      <trkpt lat="28.186779" lon="-17.199298">
        <ele>332.833</ele>
        <time>2023-05-11T14:47:26Z</time>
      </trkpt>
      <trkpt lat="28.186911" lon="-17.198656">
        <ele>332.883</ele>
        <time>2023-05-11T14:48:11Z</time>
      </trkpt>
      <trkpt lat="28.186749" lon="-17.199491">
        <ele>314.867</ele>
        <time>2023-05-11T14:49:07Z</time>
      </trkpt>
      <trkpt lat="28.186854" lon="-17.199163">
        <ele>320.589</ele>
        <time>2023-05-11T14:52:13Z</time>
      </trkpt>
      <trkpt lat="28.186829" lon="-17.200293">
        <ele>324.684</ele>
        <time>2023-05-11T14:53:26Z</time>
      </trkpt>
      <trkpt lat="28.186180" lon="-17.199545">
        <ele>324.694</ele>
        <time>2023-05-11T14:54:01Z</time>
      </trkpt>
      <trkpt lat="28.186928" lon="-17.198979">
        <ele>309.966</ele>
        <time>2023-05-11T14:54:31Z</time>
      </trkpt>
      <trkpt lat="28.187111" lon="-17.197731">
        <ele>248.914</ele>
        <time>2023-05-11T14:58:41Z</time>
      </trkpt>
      <trkpt lat="28.187269" lon="-17.197580">
        <ele>240.854</ele>
        <time>2023-05-11T14:59:20Z</time>
      </trkpt>
      <trkpt lat="28.187215" lon="-17.197685">
        <ele>238.909</ele>
        <time>2023-05-11T14:59:29Z</time>
      </trkpt>
      <trkpt lat="28.187226" lon="-17.196995">
        <ele>231.109</ele>
        <time>2023-05-11T15:04:24Z</time>
      </trkpt>
      <trkpt lat="28.186999" lon="-17.197040">
        <ele>225.412</ele>
        <time>2023-05-11T15:05:27Z</time>
      </trkpt>
      <trkpt lat="28.186883" lon="-17.196939">
        <ele>225.524</ele>
        <time>2023-05-11T15:05:45Z</time>
      </trkpt>
      <trkpt lat="28.186958" lon="-17.196531">
        <ele>221.435</ele>
        <time>2023-05-11T15:06:26Z</time>
      </trkpt>
      <trkpt lat="28.186840" lon="-17.196409">
        <ele>207.365</ele>
        <time>2023-05-11T15:07:49Z</time>
      </trkpt>
      <trkpt lat="28.186822" lon="-17.195950">
        <ele>205.229</ele>
        <time>2023-05-11T15:08:42Z</time>
      </trkpt>
      <trkpt lat="28.187133" lon="-17.195652">
        <ele>202.261</ele>
        <time>2023-05-11T15:09:20Z</time>
      </trkpt>
      <trkpt lat="28.187284" lon="-17.195282">
        <ele>202.416</ele>
        <time>2023-05-11T15:09:45Z</time>
      </trkpt>
      <trkpt lat="28.187233" lon="-17.194931">
        <ele>203.126</ele>
        <time>2023-05-11T15:10:12Z</time>
      </trkpt>
      <trkpt lat="28.187640" lon="-17.194130">
        <ele>200.138</ele>
        <time>2023-05-11T15:11:37Z</time>
      </trkpt>
      <trkpt lat="28.188020" lon="-17.193808">
        <ele>197.258</ele>
        <time>2023-05-11T15:12:16Z</time>
      </trkpt>
      <trkpt lat="28.189070" lon="-17.193747">
        <ele>197.152</ele>
        <time>2023-05-11T15:20:21Z</time>
      </trkpt>
      <trkpt lat="28.188835" lon="-17.193975">
        <ele>206.517</ele>
        <time>2023-05-11T15:20:51Z</time>
      </trkpt>
      <trkpt lat="28.188602" lon="-17.193748">
        <ele>206.609</ele>
        <time>2023-05-11T15:21:17Z</time>
      </trkpt>
      <trkpt lat="28.188243" lon="-17.193835">
        <ele>199.686</ele>
        <time>2023-05-11T15:21:43Z</time>
      </trkpt>
      <trkpt lat="28.188179" lon="-17.193696">
        <ele>192.748</ele>
        <time>2023-05-11T15:22:10Z</time>
      </trkpt>
      <trkpt lat="28.188471" lon="-17.192366">
        <ele>184.959</ele>
        <time>2023-05-11T15:23:53Z</time>
      </trkpt>
      <trkpt lat="28.188614" lon="-17.192050">
        <ele>182.779</ele>
        <time>2023-05-11T15:24:35Z</time>
      </trkpt>
      <trkpt lat="28.189008" lon="-17.191784">
        <ele>174.723</ele>
        <time>2023-05-11T15:25:30Z</time>
      </trkpt>
      <trkpt lat="28.188912" lon="-17.191641">
        <ele>177.165</ele>
        <time>2023-05-11T15:26:17Z</time>
      </trkpt>
      <trkpt lat="28.188956" lon="-17.191219">
        <ele>169.430</ele>
        <time>2023-05-11T15:26:52Z</time>
      </trkpt>
      <trkpt lat="28.189221" lon="-17.190915">
        <ele>159.230</ele>
        <time>2023-05-11T15:27:59Z</time>
      </trkpt>
      <trkpt lat="28.188958" lon="-17.190781">
        <ele>153.112</ele>
        <time>2023-05-11T15:29:05Z</time>
      </trkpt>
      <trkpt lat="28.188829" lon="-17.190273">
        <ele>135.437</ele>
        <time>2023-05-11T15:30:54Z</time>
      </trkpt>
      <trkpt lat="28.188871" lon="-17.189994">
        <ele>133.249</ele>
        <time>2023-05-11T15:31:14Z</time>
      </trkpt>
      <trkpt lat="28.189056" lon="-17.189776">
        <ele>131.813</ele>
        <time>2023-05-11T15:32:09Z</time>
      </trkpt>
      <trkpt lat="28.188896" lon="-17.189735">
        <ele>132.409</ele>
        <time>2023-05-11T15:32:32Z</time>
      </trkpt>
      <trkpt lat="28.188988" lon="-17.189543">
        <ele>128.244</ele>
        <time>2023-05-11T15:33:49Z</time>
      </trkpt>
      <trkpt lat="28.188933" lon="-17.189111">
        <ele>116.266</ele>
        <time>2023-05-11T15:35:16Z</time>
      </trkpt>
      <trkpt lat="28.188493" lon="-17.188523">
        <ele>91.777</ele>
        <time>2023-05-11T15:38:23Z</time>
      </trkpt>
      <trkpt lat="28.188712" lon="-17.188813">
        <ele>91.097</ele>
        <time>2023-05-11T15:40:46Z</time>
      </trkpt>
      <trkpt lat="28.188666" lon="-17.188910">
        <ele>92.121</ele>
        <time>2023-05-11T15:41:16Z</time>
      </trkpt>
      <trkpt lat="28.188135" lon="-17.189218">
        <ele>85.823</ele>
        <time>2023-05-11T15:42:08Z</time>
      </trkpt>
      <trkpt lat="28.188188" lon="-17.188729">
        <ele>72.758</ele>
        <time>2023-05-11T15:44:07Z</time>
      </trkpt>
      <trkpt lat="28.187929" lon="-17.188734">
        <ele>58.428</ele>
        <time>2023-05-11T15:45:10Z</time>
      </trkpt>
      <trkpt lat="28.187720" lon="-17.188238">
        <ele>46.890</ele>
        <time>2023-05-11T15:47:34Z</time>
      </trkpt>
      <trkpt lat="28.187374" lon="-17.187974">
        <ele>53.444</ele>
        <time>2023-05-11T15:48:01Z</time>
      </trkpt>
      <trkpt lat="28.187119" lon="-17.187255">
        <ele>56.805</ele>
        <time>2023-05-11T15:50:35Z</time>
      </trkpt>
      <trkpt lat="28.187016" lon="-17.187337">
        <ele>67.715</ele>
        <time>2023-05-11T15:51:17Z</time>
      </trkpt>
      <trkpt lat="28.186874" lon="-17.187140">
        <ele>74.909</ele>
        <time>2023-05-11T15:51:43Z</time>
      </trkpt>
      <trkpt lat="28.186809" lon="-17.186142">
        <ele>61.935</ele>
        <time>2023-05-11T15:53:18Z</time>
      </trkpt>
      <trkpt lat="28.186454" lon="-17.186169">
        <ele>58.397</ele>
        <time>2023-05-11T15:54:13Z</time>
      </trkpt>
      <trkpt lat="28.186191" lon="-17.185836">
        <ele>56.268</ele>
        <time>2023-05-11T15:55:21Z</time>
      </trkpt>
      <trkpt lat="28.184914" lon="-17.185563">
        <ele>50.318</ele>
        <time>2023-05-11T15:57:04Z</time>
      </trkpt>
      <trkpt lat="28.184979" lon="-17.185486">
        <ele>45.872</ele>
        <time>2023-05-11T15:57:17Z</time>
      </trkpt>
      <trkpt lat="28.184893" lon="-17.185539">
        <ele>42.614</ele>
        <time>2023-05-11T15:57:26Z</time>
      </trkpt>
      <trkpt lat="28.184073" lon="-17.184989">
        <ele>37.249</ele>
        <time>2023-05-11T15:59:18Z</time>
      </trkpt>
      <trkpt lat="28.183229" lon="-17.185058">
        <ele>30.679</ele>
        <time>2023-05-11T16:01:35Z</time>
      </trkpt>
      <trkpt lat="28.180745" lon="-17.184278">
        <ele>10.341</ele>
        <time>2023-05-11T16:04:59Z</time>
      </trkpt>
      <trkpt lat="28.180253" lon="-17.183929">
        <ele>10.578</ele>
        <time>2023-05-11T16:05:39Z</time>
      </trkpt>
      <trkpt lat="28.179831" lon="-17.183141">
        <ele>9.733</ele>
        <time>2023-05-11T16:06:57Z</time>
      </trkpt>
      <trkpt lat="28.179176" lon="-17.183749">
        <ele>12.726</ele>
        <time>2023-05-11T16:09:10Z</time>
      </trkpt>
      <trkpt lat="28.178780" lon="-17.183647">
        <ele>22.009</ele>
        <time>2023-05-11T16:09:43Z</time>
      </trkpt>
      <trkpt lat="28.178309" lon="-17.183736">
        <ele>29.488</ele>
        <time>2023-05-11T16:11:14Z</time>
      </trkpt>
      <trkpt lat="28.177803" lon="-17.183381">
        <ele>37.830</ele>
        <time>2023-05-11T16:12:28Z</time>
      </trkpt>
      <trkpt lat="28.176933" lon="-17.184096">
        <ele>42.061</ele>
        <time>2023-05-11T16:13:53Z</time>
      </trkpt>
      <trkpt lat="28.175899" lon="-17.185401">
        <ele>58.671</ele>
        <time>2023-05-11T16:15:48Z</time>
      </trkpt>
      <trkpt lat="28.175255" lon="-17.185955">
        <ele>67.155</ele>
        <time>2023-05-11T16:16:47Z</time>
      </trkpt>
      <trkpt lat="28.174715" lon="-17.186633">
        <ele>73.687</ele>
        <time>2023-05-11T16:17:45Z</time>
      </trkpt>
      <trkpt lat="28.174199" lon="-17.186945">
        <ele>78.892</ele>
        <time>2023-05-11T16:19:37Z</time>
      </trkpt>
      <trkpt lat="28.174062" lon="-17.187178">
        <ele>79.582</ele>
        <time>2023-05-11T16:19:57Z</time>
      </trkpt>
      <trkpt lat="28.173764" lon="-17.187245">
        <ele>78.144</ele>
        <time>2023-05-11T16:20:31Z</time>
      </trkpt>
      <trkpt lat="28.173380" lon="-17.187770">
        <ele>79.728</ele>
        <time>2023-05-11T16:21:12Z</time>
      </trkpt>
      <trkpt lat="28.171876" lon="-17.188944">
        <ele>92.089</ele>
        <time>2023-05-11T16:23:36Z</time>
      </trkpt>
      <trkpt lat="28.171508" lon="-17.189655">
        <ele>92.917</ele>
        <time>2023-05-11T16:24:33Z</time>
      </trkpt>
      <trkpt lat="28.171440" lon="-17.189848">
        <ele>93.609</ele>
        <time>2023-05-11T16:24:51Z</time>
      </trkpt>
      <trkpt lat="28.171530" lon="-17.189913">
        <ele>95.723</ele>
        <time>2023-05-11T16:37:42Z</time>
      </trkpt>
      <trkpt lat="28.171374" lon="-17.189761">
        <ele>96.795</ele>
        <time>2023-05-11T16:38:15Z</time>
      </trkpt>
      <trkpt lat="28.171443" lon="-17.189841">
        <ele>98.996</ele>
        <time>2023-05-11T16:38:28Z</time>
      </trkpt>
      <trkpt lat="28.170926" lon="-17.190380">
        <ele>90.616</ele>
        <time>2023-05-11T16:39:28Z</time>
      </trkpt>
      <trkpt lat="28.170678" lon="-17.191151">
        <ele>92.210</ele>
        <time>2023-05-11T16:40:15Z</time>
      </trkpt>
      <trkpt lat="28.170077" lon="-17.192010">
        <ele>98.972</ele>
        <time>2023-05-11T16:41:26Z</time>
      </trkpt>
      <trkpt lat="28.169927" lon="-17.192495">
        <ele>99.077</ele>
        <time>2023-05-11T16:42:00Z</time>
      </trkpt>
      <trkpt lat="28.169324" lon="-17.193040">
        <ele>101.047</ele>
        <time>2023-05-11T16:42:55Z</time>
      </trkpt>
      <trkpt lat="28.168989" lon="-17.193717">
        <ele>101.649</ele>
        <time>2023-05-11T16:43:46Z</time>
      </trkpt>
      <trkpt lat="28.168848" lon="-17.193714">
        <ele>101.583</ele>
        <time>2023-05-11T16:43:56Z</time>
      </trkpt>
      <trkpt lat="28.168487" lon="-17.194199">
        <ele>103.025</ele>
        <time>2023-05-11T16:44:33Z</time>
      </trkpt>
    </trkseg>
  </trk></gpx>