<?xml version="1.0" encoding="UTF-8"?>
<gpx creator="Wikiloc - https://www.wikiloc.com" version="1.1" xmlns="http://www.topografix.com/GPX/1/1" xmlns:xsi="http://www.w3.org/2001/XMLSchema-instance" xsi:schemaLocation="http://www.topografix.com/GPX/1/1 http://www.topografix.com/GPX/1/1/gpx.xsd">
  <metadata>
    <name>Wikiloc - Playa de Vallehermoso, Simancas, Tamargada. Circular - Wikil...</name>
    <link href="https://www.wikiloc.com/hiking-trails/playa-de-vallehermoso-simancas-tamargada-circular-52336495">
      <text>Playa de Vallehermoso, Simancas, Tamargada. Circular - Wikil... on Wikiloc</text>
    </link>
    <time>2020-07-06T13:40:21Z</time>
  </metadata>
  <trk>
    <name>Playa de Vallehermoso, Simancas, Tamargada. Circular - Wikil... - Wikiloc</name>
    <cmt></cmt>
    <desc></desc>
    <trkseg>
      <trkpt lat="28.202584" lon="-17.253179">
        <ele>-13.982</ele>
        <time>2020-07-06T09:10:28Z</time>
      </trkpt>
      <trkpt lat="28.202216" lon="-17.252849">
        <ele>-13.943</ele>
        <time>2020-07-06T08:14:17Z</time>
      </trkpt>
      <trkpt lat="28.202027" lon="-17.252784">
        <ele>-13.917</ele>
        <time>2020-07-06T08:14:52Z</time>
      </trkpt>
      <trkpt lat="28.201849" lon="-17.252552">
        <ele>-13.908</ele>
        <time>2020-07-06T08:16:18Z</time>
      </trkpt>
      <trkpt lat="28.201983" lon="-17.252271">
        <ele>-10.923</ele>
        <time>2020-07-06T08:17:21Z</time>
      </trkpt>
      <trkpt lat="28.201811" lon="-17.252397">
        <ele>-6.270</ele>
        <time>2020-07-06T08:18:08Z</time>
      </trkpt>
      <trkpt lat="28.202010" lon="-17.251943">
        <ele>5.971</ele>
        <time>2020-07-06T08:19:36Z</time>
      </trkpt>
      <trkpt lat="28.201979" lon="-17.251488">
        <ele>22.151</ele>
        <time>2020-07-06T08:22:44Z</time>
      </trkpt>
      <trkpt lat="28.202205" lon="-17.251058">
        <ele>31.334</ele>
        <time>2020-07-06T08:24:33Z</time>
      </trkpt>
      <trkpt lat="28.202146" lon="-17.250912">
        <ele>35.542</ele>
        <time>2020-07-06T08:24:59Z</time>
      </trkpt>
      <trkpt lat="28.202109" lon="-17.251008">
        <ele>38.277</ele>
        <time>2020-07-06T08:25:16Z</time>
      </trkpt>
      <trkpt lat="28.202029" lon="-17.250881">
        <ele>43.393</ele>
        <time>2020-07-06T08:25:47Z</time>
      </trkpt>
      <trkpt lat="28.201863" lon="-17.251175">
        <ele>50.022</ele>
        <time>2020-07-06T08:26:38Z</time>
      </trkpt>
      <trkpt lat="28.201865" lon="-17.250919">
        <ele>55.462</ele>
        <time>2020-07-06T08:27:19Z</time>
      </trkpt>
      <trkpt lat="28.201728" lon="-17.251092">
        <ele>61.908</ele>
        <time>2020-07-06T08:28:03Z</time>
      </trkpt>
      <trkpt lat="28.201694" lon="-17.250857">
        <ele>66.708</ele>
        <time>2020-07-06T08:29:17Z</time>
      </trkpt>
      <trkpt lat="28.201613" lon="-17.250984">
        <ele>72.627</ele>
        <time>2020-07-06T08:29:50Z</time>
      </trkpt>
      <trkpt lat="28.201512" lon="-17.250807">
        <ele>78.274</ele>
        <time>2020-07-06T08:30:28Z</time>
      </trkpt>
      <trkpt lat="28.201488" lon="-17.250961">
        <ele>81.965</ele>
        <time>2020-07-06T08:30:54Z</time>
      </trkpt>
      <trkpt lat="28.201449" lon="-17.250857">
        <ele>84.045</ele>
        <time>2020-07-06T08:31:07Z</time>
      </trkpt>
      <trkpt lat="28.201425" lon="-17.250959">
        <ele>86.168</ele>
        <time>2020-07-06T08:31:23Z</time>
      </trkpt>
      <trkpt lat="28.201358" lon="-17.250886">
        <ele>89.996</ele>
        <time>2020-07-06T08:31:43Z</time>
      </trkpt>
      <trkpt lat="28.201268" lon="-17.250970">
        <ele>96.951</ele>
        <time>2020-07-06T08:32:30Z</time>
      </trkpt>
      <trkpt lat="28.201016" lon="-17.250819">
        <ele>105.277</ele>
        <time>2020-07-06T08:33:27Z</time>
      </trkpt>
      <trkpt lat="28.201067" lon="-17.250963">
        <ele>109.278</ele>
        <time>2020-07-06T08:33:55Z</time>
      </trkpt>
      <trkpt lat="28.200713" lon="-17.250703">
        <ele>120.133</ele>
        <time>2020-07-06T08:35:11Z</time>
      </trkpt>
      <trkpt lat="28.200813" lon="-17.250941">
        <ele>125.226</ele>
        <time>2020-07-06T08:35:48Z</time>
      </trkpt>
      <trkpt lat="28.200723" lon="-17.250967">
        <ele>128.208</ele>
        <time>2020-07-06T08:36:05Z</time>
      </trkpt>
      <trkpt lat="28.200249" lon="-17.250469">
        <ele>142.482</ele>
        <time>2020-07-06T08:37:52Z</time>
      </trkpt>
      <trkpt lat="28.200296" lon="-17.250685">
        <ele>147.069</ele>
        <time>2020-07-06T08:38:34Z</time>
      </trkpt>
      <trkpt lat="28.199947" lon="-17.250291">
        <ele>160.960</ele>
        <time>2020-07-06T08:39:58Z</time>
      </trkpt>
      <trkpt lat="28.199869" lon="-17.250418">
        <ele>164.360</ele>
        <time>2020-07-06T08:40:26Z</time>
      </trkpt>
      <trkpt lat="28.199786" lon="-17.250176">
        <ele>170.623</ele>
        <time>2020-07-06T08:41:02Z</time>
      </trkpt>
      <trkpt lat="28.199727" lon="-17.250243">
        <ele>173.521</ele>
        <time>2020-07-06T08:41:24Z</time>
      </trkpt>
      <trkpt lat="28.199636" lon="-17.250077">
        <ele>178.146</ele>
        <time>2020-07-06T08:42:08Z</time>
      </trkpt>
      <trkpt lat="28.198827" lon="-17.250365">
        <ele>166.672</ele>
        <time>2020-07-06T08:47:03Z</time>
      </trkpt>
      <trkpt lat="28.198587" lon="-17.250290">
        <ele>162.251</ele>
        <time>2020-07-06T08:47:38Z</time>
      </trkpt>
      <trkpt lat="28.198241" lon="-17.249879">
        <ele>157.401</ele>
        <time>2020-07-06T08:48:37Z</time>
      </trkpt>
      <trkpt lat="28.197983" lon="-17.250178">
        <ele>151.011</ele>
        <time>2020-07-06T08:50:11Z</time>
      </trkpt>
      <trkpt lat="28.197754" lon="-17.249902">
        <ele>146.808</ele>
        <time>2020-07-06T08:50:43Z</time>
      </trkpt>
      <trkpt lat="28.197531" lon="-17.249887">
        <ele>144.490</ele>
        <time>2020-07-06T08:51:14Z</time>
      </trkpt>
      <trkpt lat="28.197474" lon="-17.249753">
        <ele>146.047</ele>
        <time>2020-07-06T08:51:31Z</time>
      </trkpt>
      <trkpt lat="28.197254" lon="-17.249668">
        <ele>143.558</ele>
        <time>2020-07-06T08:52:10Z</time>
      </trkpt>
      <trkpt lat="28.197063" lon="-17.249364">
        <ele>136.818</ele>
        <time>2020-07-06T08:52:54Z</time>
      </trkpt>
      <trkpt lat="28.196895" lon="-17.249421">
        <ele>134.181</ele>
        <time>2020-07-06T08:53:17Z</time>
      </trkpt>
      <trkpt lat="28.197053" lon="-17.249218">
        <ele>127.099</ele>
        <time>2020-07-06T08:55:04Z</time>
      </trkpt>
      <trkpt lat="28.196963" lon="-17.249208">
        <ele>125.244</ele>
        <time>2020-07-06T08:55:14Z</time>
      </trkpt>
      <trkpt lat="28.196714" lon="-17.249414">
        <ele>118.340</ele>
        <time>2020-07-06T08:56:02Z</time>
      </trkpt>
      <trkpt lat="28.196432" lon="-17.248865">
        <ele>108.126</ele>
        <time>2020-07-06T08:57:25Z</time>
      </trkpt>
      <trkpt lat="28.195610" lon="-17.248591">
        <ele>102.647</ele>
        <time>2020-07-06T09:00:01Z</time>
      </trkpt>
      <trkpt lat="28.195258" lon="-17.248820">
        <ele>97.211</ele>
        <time>2020-07-06T09:00:45Z</time>
      </trkpt>
      <trkpt lat="28.195102" lon="-17.248200">
        <ele>96.308</ele>
        <time>2020-07-06T09:01:46Z</time>
      </trkpt>
      <trkpt lat="28.194425" lon="-17.247775">
        <ele>92.387</ele>
        <time>2020-07-06T09:04:44Z</time>
      </trkpt>
      <trkpt lat="28.193730" lon="-17.247946">
        <ele>99.464</ele>
        <time>2020-07-06T09:06:36Z</time>
      </trkpt>
      <trkpt lat="28.192933" lon="-17.247834">
        <ele>101.385</ele>
        <time>2020-07-06T09:08:23Z</time>
      </trkpt>
      <trkpt lat="28.192926" lon="-17.247765">
        <ele>101.985</ele>
        <time>2020-07-06T09:10:07Z</time>
      </trkpt>
      <trkpt lat="28.192206" lon="-17.247425">
        <ele>107.868</ele>
        <time>2020-07-06T09:11:38Z</time>
      </trkpt>
      <trkpt lat="28.191891" lon="-17.247101">
        <ele>113.426</ele>
        <time>2020-07-06T09:12:35Z</time>
      </trkpt>
      <trkpt lat="28.191546" lon="-17.246926">
        <ele>118.151</ele>
        <time>2020-07-06T09:14:12Z</time>
      </trkpt>
      <trkpt lat="28.191539" lon="-17.246649">
        <ele>110.897</ele>
        <time>2020-07-06T09:17:46Z</time>
      </trkpt>
      <trkpt lat="28.191831" lon="-17.246695">
        <ele>111.032</ele>
        <time>2020-07-06T09:18:19Z</time>
      </trkpt>
      <trkpt lat="28.192011" lon="-17.246540">
        <ele>112.292</ele>
        <time>2020-07-06T09:19:05Z</time>
      </trkpt>
      <trkpt lat="28.192245" lon="-17.246686">
        <ele>114.511</ele>
        <time>2020-07-06T09:19:56Z</time>
      </trkpt>
      <trkpt lat="28.192563" lon="-17.246645">
        <ele>124.308</ele>
        <time>2020-07-06T09:21:02Z</time>
      </trkpt>
      <trkpt lat="28.192532" lon="-17.246486">
        <ele>129.958</ele>
        <time>2020-07-06T09:21:43Z</time>
      </trkpt>
      <trkpt lat="28.192600" lon="-17.246441">
        <ele>133.865</ele>
        <time>2020-07-06T09:22:20Z</time>
      </trkpt>
      <trkpt lat="28.192494" lon="-17.246339">
        <ele>137.896</ele>
        <time>2020-07-06T09:22:49Z</time>
      </trkpt>
      <trkpt lat="28.192964" lon="-17.246074">
        <ele>152.056</ele>
        <time>2020-07-06T09:28:19Z</time>
      </trkpt>
      <trkpt lat="28.193045" lon="-17.245884">
        <ele>158.699</ele>
        <time>2020-07-06T09:29:00Z</time>
      </trkpt>
      <trkpt lat="28.192720" lon="-17.245229">
        <ele>176.957</ele>
        <time>2020-07-06T09:31:39Z</time>
      </trkpt>
      <trkpt lat="28.192595" lon="-17.245066">
        <ele>181.032</ele>
        <time>2020-07-06T09:32:08Z</time>
      </trkpt>
      <trkpt lat="28.192556" lon="-17.245137">
        <ele>186.728</ele>
        <time>2020-07-06T09:32:49Z</time>
      </trkpt>
      <trkpt lat="28.192498" lon="-17.244572">
        <ele>193.975</ele>
        <time>2020-07-06T09:36:50Z</time>
      </trkpt>
      <trkpt lat="28.192139" lon="-17.243784">
        <ele>208.828</ele>
        <time>2020-07-06T09:39:33Z</time>
      </trkpt>
      <trkpt lat="28.191977" lon="-17.242679">
        <ele>217.220</ele>
        <time>2020-07-06T09:42:03Z</time>
      </trkpt>
      <trkpt lat="28.192006" lon="-17.242162">
        <ele>216.808</ele>
        <time>2020-07-06T09:46:53Z</time>
      </trkpt>
      <trkpt lat="28.191937" lon="-17.241954">
        <ele>218.082</ele>
        <time>2020-07-06T09:47:16Z</time>
      </trkpt>
      <trkpt lat="28.191587" lon="-17.241520">
        <ele>222.169</ele>
        <time>2020-07-06T09:50:35Z</time>
      </trkpt>
      <trkpt lat="28.191514" lon="-17.241181">
        <ele>232.020</ele>
        <time>2020-07-06T09:51:38Z</time>
      </trkpt>
      <trkpt lat="28.191649" lon="-17.240581">
        <ele>238.220</ele>
        <time>2020-07-06T09:54:18Z</time>
      </trkpt>
      <trkpt lat="28.191524" lon="-17.240360">
        <ele>239.823</ele>
        <time>2020-07-06T09:55:05Z</time>
      </trkpt>
      <trkpt lat="28.191438" lon="-17.240383">
        <ele>241.421</ele>
        <time>2020-07-06T09:55:22Z</time>
      </trkpt>
      <trkpt lat="28.191358" lon="-17.240830">
        <ele>244.436</ele>
        <time>2020-07-06T09:57:03Z</time>
      </trkpt>
      <trkpt lat="28.190724" lon="-17.240468">
        <ele>245.092</ele>
        <time>2020-07-06T09:58:26Z</time>
      </trkpt>
      <trkpt lat="28.190048" lon="-17.240243">
        <ele>248.219</ele>
        <time>2020-07-06T09:59:48Z</time>
      </trkpt>
      <trkpt lat="28.189752" lon="-17.239767">
        <ele>258.109</ele>
        <time>2020-07-06T10:02:20Z</time>
      </trkpt>
      <trkpt lat="28.189703" lon="-17.239439">
        <ele>261.319</ele>
        <time>2020-07-06T10:02:59Z</time>
      </trkpt>
      <trkpt lat="28.189809" lon="-17.238940">
        <ele>257.108</ele>
        <time>2020-07-06T10:04:45Z</time>
      </trkpt>
      <trkpt lat="28.189524" lon="-17.239035">
        <ele>263.286</ele>
        <time>2020-07-06T10:06:47Z</time>
      </trkpt>
      <trkpt lat="28.189430" lon="-17.239010">
        <ele>266.573</ele>
        <time>2020-07-06T10:07:38Z</time>
      </trkpt>
      <trkpt lat="28.189427" lon="-17.238908">
        <ele>269.134</ele>
        <time>2020-07-06T10:07:55Z</time>
      </trkpt>
      <trkpt lat="28.189243" lon="-17.238881">
        <ele>276.254</ele>
        <time>2020-07-06T10:08:41Z</time>
      </trkpt>
      <trkpt lat="28.189082" lon="-17.238962">
        <ele>282.117</ele>
        <time>2020-07-06T10:09:21Z</time>
      </trkpt>
      <trkpt lat="28.188964" lon="-17.238889">
        <ele>285.245</ele>
        <time>2020-07-06T10:09:44Z</time>
      </trkpt>
      <trkpt lat="28.189022" lon="-17.238806">
        <ele>287.720</ele>
        <time>2020-07-06T10:10:04Z</time>
      </trkpt>
      <trkpt lat="28.188889" lon="-17.238635">
        <ele>297.356</ele>
        <time>2020-07-06T10:11:52Z</time>
      </trkpt>
      <trkpt lat="28.189062" lon="-17.238321">
        <ele>303.324</ele>
        <time>2020-07-06T10:13:04Z</time>
      </trkpt>
      <trkpt lat="28.189070" lon="-17.238136">
        <ele>307.404</ele>
        <time>2020-07-06T10:13:38Z</time>
      </trkpt>
      <trkpt lat="28.188536" lon="-17.238297">
        <ele>316.014</ele>
        <time>2020-07-06T10:18:16Z</time>
      </trkpt>
      <trkpt lat="28.187910" lon="-17.238139">
        <ele>308.708</ele>
        <time>2020-07-06T10:21:10Z</time>
      </trkpt>
      <trkpt lat="28.187766" lon="-17.237998">
        <ele>307.777</ele>
        <time>2020-07-06T10:21:33Z</time>
      </trkpt>
      <trkpt lat="28.187629" lon="-17.238012">
        <ele>303.784</ele>
        <time>2020-07-06T10:21:58Z</time>
      </trkpt>
      <trkpt lat="28.187588" lon="-17.238303">
        <ele>305.215</ele>
        <time>2020-07-06T10:29:04Z</time>
      </trkpt>
      <trkpt lat="28.187356" lon="-17.238239">
        <ele>310.225</ele>
        <time>2020-07-06T10:32:19Z</time>
      </trkpt>
      <trkpt lat="28.187269" lon="-17.238365">
        <ele>312.778</ele>
        <time>2020-07-06T10:32:54Z</time>
      </trkpt>
      <trkpt lat="28.187327" lon="-17.239204">
        <ele>326.676</ele>
        <time>2020-07-06T10:34:55Z</time>
      </trkpt>
      <trkpt lat="28.187210" lon="-17.239563">
        <ele>328.721</ele>
        <time>2020-07-06T10:36:34Z</time>
      </trkpt>
      <trkpt lat="28.187345" lon="-17.240120">
        <ele>335.257</ele>
        <time>2020-07-06T10:37:38Z</time>
      </trkpt>
      <trkpt lat="28.187864" lon="-17.240658">
        <ele>343.744</ele>
        <time>2020-07-06T10:39:41Z</time>
      </trkpt>
      <trkpt lat="28.188076" lon="-17.241416">
        <ele>353.605</ele>
        <time>2020-07-06T10:41:16Z</time>
      </trkpt>
      <trkpt lat="28.188262" lon="-17.241662">
        <ele>356.015</ele>
        <time>2020-07-06T10:41:50Z</time>
      </trkpt>
      <trkpt lat="28.188509" lon="-17.241813">
        <ele>359.308</ele>
        <time>2020-07-06T10:42:29Z</time>
      </trkpt>
      <trkpt lat="28.188549" lon="-17.242557">
        <ele>363.749</ele>
        <time>2020-07-06T10:43:58Z</time>
      </trkpt>
      <trkpt lat="28.188305" lon="-17.242509">
        <ele>363.666</ele>
        <time>2020-07-06T10:47:50Z</time>
      </trkpt>
      <trkpt lat="28.188033" lon="-17.242611">
        <ele>363.377</ele>
        <time>2020-07-06T10:48:26Z</time>
      </trkpt>
      <trkpt lat="28.187561" lon="-17.242575">
        <ele>354.837</ele>
        <time>2020-07-06T10:49:22Z</time>
      </trkpt>
      <trkpt lat="28.187235" lon="-17.242657">
        <ele>350.560</ele>
        <time>2020-07-06T10:50:01Z</time>
      </trkpt>
      <trkpt lat="28.187093" lon="-17.243054">
        <ele>350.178</ele>
        <time>2020-07-06T10:50:48Z</time>
      </trkpt>
      <trkpt lat="28.186983" lon="-17.243153">
        <ele>348.833</ele>
        <time>2020-07-06T10:51:04Z</time>
      </trkpt>
      <trkpt lat="28.186690" lon="-17.242890">
        <ele>346.349</ele>
        <time>2020-07-06T10:51:46Z</time>
      </trkpt>
      <trkpt lat="28.186430" lon="-17.242795">
        <ele>341.143</ele>
        <time>2020-07-06T10:52:20Z</time>
      </trkpt>
      <trkpt lat="28.186154" lon="-17.242353">
        <ele>333.064</ele>
        <time>2020-07-06T10:53:20Z</time>
      </trkpt>
      <trkpt lat="28.186135" lon="-17.242053">
        <ele>331.410</ele>
        <time>2020-07-06T10:53:51Z</time>
      </trkpt>
      <trkpt lat="28.185734" lon="-17.241744">
        <ele>327.708</ele>
        <time>2020-07-06T10:54:38Z</time>
      </trkpt>
      <trkpt lat="28.185479" lon="-17.241228">
        <ele>316.899</ele>
        <time>2020-07-06T10:58:25Z</time>
      </trkpt>
      <trkpt lat="28.185199" lon="-17.241057">
        <ele>311.756</ele>
        <time>2020-07-06T10:59:11Z</time>
      </trkpt>
      <trkpt lat="28.184901" lon="-17.241177">
        <ele>305.057</ele>
        <time>2020-07-06T11:00:20Z</time>
      </trkpt>
      <trkpt lat="28.184879" lon="-17.241434">
        <ele>296.017</ele>
        <time>2020-07-06T11:04:24Z</time>
      </trkpt>
      <trkpt lat="28.184769" lon="-17.241503">
        <ele>292.250</ele>
        <time>2020-07-06T11:04:50Z</time>
      </trkpt>
      <trkpt lat="28.184731" lon="-17.241652">
        <ele>288.828</ele>
        <time>2020-07-06T11:05:20Z</time>
      </trkpt>
      <trkpt lat="28.184754" lon="-17.241816">
        <ele>286.433</ele>
        <time>2020-07-06T11:05:39Z</time>
      </trkpt>
      <trkpt lat="28.184973" lon="-17.242286">
        <ele>277.019</ele>
        <time>2020-07-06T11:07:44Z</time>
      </trkpt>
      <trkpt lat="28.185135" lon="-17.242383">
        <ele>274.393</ele>
        <time>2020-07-06T11:08:09Z</time>
      </trkpt>
      <trkpt lat="28.185100" lon="-17.242593">
        <ele>270.665</ele>
        <time>2020-07-06T11:08:39Z</time>
      </trkpt>
      <trkpt lat="28.185293" lon="-17.242752">
        <ele>263.721</ele>
        <time>2020-07-06T11:09:20Z</time>
      </trkpt>
      <trkpt lat="28.185260" lon="-17.243325">
        <ele>245.408</ele>
        <time>2020-07-06T11:11:04Z</time>
      </trkpt>
      <trkpt lat="28.185439" lon="-17.243605">
        <ele>240.474</ele>
        <time>2020-07-06T11:11:56Z</time>
      </trkpt>
      <trkpt lat="28.185384" lon="-17.243729">
        <ele>239.981</ele>
        <time>2020-07-06T11:13:09Z</time>
      </trkpt>
      <trkpt lat="28.185590" lon="-17.243831">
        <ele>238.852</ele>
        <time>2020-07-06T11:13:45Z</time>
      </trkpt>
      <trkpt lat="28.185682" lon="-17.244011">
        <ele>238.012</ele>
        <time>2020-07-06T11:14:48Z</time>
      </trkpt>
      <trkpt lat="28.185716" lon="-17.244229">
        <ele>237.635</ele>
        <time>2020-07-06T11:15:20Z</time>
      </trkpt>
      <trkpt lat="28.185638" lon="-17.244359">
        <ele>238.233</ele>
        <time>2020-07-06T11:15:37Z</time>
      </trkpt>
      <trkpt lat="28.185782" lon="-17.244980">
        <ele>237.778</ele>
        <time>2020-07-06T11:18:09Z</time>
      </trkpt>
      <trkpt lat="28.185791" lon="-17.245848">
        <ele>237.124</ele>
        <time>2020-07-06T11:22:15Z</time>
      </trkpt>
      <trkpt lat="28.185876" lon="-17.246199">
        <ele>233.529</ele>
        <time>2020-07-06T11:23:01Z</time>
      </trkpt>
      <trkpt lat="28.185296" lon="-17.246892">
        <ele>215.900</ele>
        <time>2020-07-06T11:25:17Z</time>
      </trkpt>
      <trkpt lat="28.185104" lon="-17.247053">
        <ele>212.720</ele>
        <time>2020-07-06T11:25:45Z</time>
      </trkpt>
      <trkpt lat="28.184700" lon="-17.247171">
        <ele>213.808</ele>
        <time>2020-07-06T11:26:32Z</time>
      </trkpt>
      <trkpt lat="28.184301" lon="-17.247672">
        <ele>209.777</ele>
        <time>2020-07-06T11:30:18Z</time>
      </trkpt>
      <trkpt lat="28.184700" lon="-17.247769">
        <ele>219.874</ele>
        <time>2020-07-06T11:31:52Z</time>
      </trkpt>
      <trkpt lat="28.185065" lon="-17.248445">
        <ele>236.045</ele>
        <time>2020-07-06T11:33:51Z</time>
      </trkpt>
      <trkpt lat="28.185039" lon="-17.248683">
        <ele>244.595</ele>
        <time>2020-07-06T11:34:49Z</time>
      </trkpt>
      <trkpt lat="28.185163" lon="-17.248644">
        <ele>247.358</ele>
        <time>2020-07-06T11:35:06Z</time>
      </trkpt>
      <trkpt lat="28.185388" lon="-17.248306">
        <ele>254.796</ele>
        <time>2020-07-06T11:35:58Z</time>
      </trkpt>
      <trkpt lat="28.185515" lon="-17.248242">
        <ele>257.531</ele>
        <time>2020-07-06T11:36:20Z</time>
      </trkpt>
      <trkpt lat="28.185938" lon="-17.248473">
        <ele>273.597</ele>
        <time>2020-07-06T11:38:25Z</time>
      </trkpt>
      <trkpt lat="28.186363" lon="-17.248555">
        <ele>282.278</ele>
        <time>2020-07-06T11:39:21Z</time>
      </trkpt>
      <trkpt lat="28.186402" lon="-17.248653">
        <ele>284.333</ele>
        <time>2020-07-06T11:39:35Z</time>
      </trkpt>
      <trkpt lat="28.186337" lon="-17.248732">
        <ele>287.226</ele>
        <time>2020-07-06T11:39:51Z</time>
      </trkpt>
      <trkpt lat="28.186174" lon="-17.248647">
        <ele>293.208</ele>
        <time>2020-07-06T11:40:24Z</time>
      </trkpt>
      <trkpt lat="28.186221" lon="-17.248784">
        <ele>296.492</ele>
        <time>2020-07-06T11:40:45Z</time>
      </trkpt>
      <trkpt lat="28.185961" lon="-17.248864">
        <ele>304.879</ele>
        <time>2020-07-06T11:41:32Z</time>
      </trkpt>
      <trkpt lat="28.186030" lon="-17.248933">
        <ele>307.050</ele>
        <time>2020-07-06T11:41:46Z</time>
      </trkpt>
      <trkpt lat="28.185953" lon="-17.248955">
        <ele>309.960</ele>
        <time>2020-07-06T11:42:04Z</time>
      </trkpt>
      <trkpt lat="28.185781" lon="-17.249385">
        <ele>320.333</ele>
        <time>2020-07-06T11:43:03Z</time>
      </trkpt>
      <trkpt lat="28.185855" lon="-17.249508">
        <ele>324.421</ele>
        <time>2020-07-06T11:43:24Z</time>
      </trkpt>
      <trkpt lat="28.185766" lon="-17.249510">
        <ele>326.786</ele>
        <time>2020-07-06T11:43:37Z</time>
      </trkpt>
      <trkpt lat="28.185643" lon="-17.249678">
        <ele>331.762</ele>
        <time>2020-07-06T11:44:35Z</time>
      </trkpt>
      <trkpt lat="28.185747" lon="-17.249917">
        <ele>337.962</ele>
        <time>2020-07-06T11:45:06Z</time>
      </trkpt>
      <trkpt lat="28.185738" lon="-17.250130">
        <ele>344.283</ele>
        <time>2020-07-06T11:45:36Z</time>
      </trkpt>
      <trkpt lat="28.185676" lon="-17.250144">
        <ele>349.911</ele>
        <time>2020-07-06T11:46:07Z</time>
      </trkpt>
      <trkpt lat="28.185728" lon="-17.250410">
        <ele>356.908</ele>
        <time>2020-07-06T11:46:41Z</time>
      </trkpt>
      <trkpt lat="28.185596" lon="-17.250368">
        <ele>361.631</ele>
        <time>2020-07-06T11:47:05Z</time>
      </trkpt>
      <trkpt lat="28.185602" lon="-17.250524">
        <ele>364.498</ele>
        <time>2020-07-06T11:47:24Z</time>
      </trkpt>
      <trkpt lat="28.185787" lon="-17.250761">
        <ele>368.539</ele>
        <time>2020-07-06T11:48:09Z</time>
      </trkpt>
      <trkpt lat="28.185953" lon="-17.251233">
        <ele>375.729</ele>
        <time>2020-07-06T11:49:21Z</time>
      </trkpt>
      <trkpt lat="28.186000" lon="-17.251154">
        <ele>375.832</ele>
        <time>2020-07-06T12:03:51Z</time>
      </trkpt>
      <trkpt lat="28.185954" lon="-17.251129">
        <ele>375.660</ele>
        <time>2020-07-06T12:04:24Z</time>
      </trkpt>
      <trkpt lat="28.185982" lon="-17.251263">
        <ele>367.625</ele>
        <time>2020-07-06T12:12:24Z</time>
      </trkpt>
      <trkpt lat="28.185719" lon="-17.251261">
        <ele>359.891</ele>
        <time>2020-07-06T12:13:16Z</time>
      </trkpt>
      <trkpt lat="28.185998" lon="-17.251514">
        <ele>352.294</ele>
        <time>2020-07-06T12:14:17Z</time>
      </trkpt>
      <trkpt lat="28.185734" lon="-17.251402">
        <ele>346.757</ele>
        <time>2020-07-06T12:14:55Z</time>
      </trkpt>
      <trkpt lat="28.185506" lon="-17.251427">
        <ele>340.122</ele>
        <time>2020-07-06T12:15:42Z</time>
      </trkpt>
      <trkpt lat="28.185439" lon="-17.251496">
        <ele>336.708</ele>
        <time>2020-07-06T12:16:06Z</time>
      </trkpt>
      <trkpt lat="28.185624" lon="-17.251540">
        <ele>333.354</ele>
        <time>2020-07-06T12:16:32Z</time>
      </trkpt>
      <trkpt lat="28.185120" lon="-17.251746">
        <ele>317.841</ele>
        <time>2020-07-06T12:18:16Z</time>
      </trkpt>
      <trkpt lat="28.185199" lon="-17.251861">
        <ele>314.262</ele>
        <time>2020-07-06T12:18:40Z</time>
      </trkpt>
      <trkpt lat="28.185430" lon="-17.251819">
        <ele>309.592</ele>
        <time>2020-07-06T12:19:08Z</time>
      </trkpt>
      <trkpt lat="28.185139" lon="-17.252043">
        <ele>299.115</ele>
        <time>2020-07-06T12:21:29Z</time>
      </trkpt>
      <trkpt lat="28.184839" lon="-17.251913">
        <ele>294.013</ele>
        <time>2020-07-06T12:22:07Z</time>
      </trkpt>
      <trkpt lat="28.184303" lon="-17.252113">
        <ele>282.868</ele>
        <time>2020-07-06T12:24:43Z</time>
      </trkpt>
      <trkpt lat="28.183879" lon="-17.251933">
        <ele>270.234</ele>
        <time>2020-07-06T12:26:14Z</time>
      </trkpt>
      <trkpt lat="28.183906" lon="-17.252039">
        <ele>267.923</ele>
        <time>2020-07-06T12:26:28Z</time>
      </trkpt>
      <trkpt lat="28.184306" lon="-17.252364">
        <ele>259.083</ele>
        <time>2020-07-06T12:28:57Z</time>
      </trkpt>
      <trkpt lat="28.183803" lon="-17.252337">
        <ele>248.411</ele>
        <time>2020-07-06T12:30:37Z</time>
      </trkpt>
      <trkpt lat="28.184857" lon="-17.253099">
        <ele>219.508</ele>
        <time>2020-07-06T12:35:22Z</time>
      </trkpt>
      <trkpt lat="28.185212" lon="-17.253250">
        <ele>213.367</ele>
        <time>2020-07-06T12:36:20Z</time>
      </trkpt>
      <trkpt lat="28.185240" lon="-17.253559">
        <ele>207.984</ele>
        <time>2020-07-06T12:37:13Z</time>
      </trkpt>
      <trkpt lat="28.185457" lon="-17.253974">
        <ele>197.135</ele>
        <time>2020-07-06T12:39:14Z</time>
      </trkpt>
      <trkpt lat="28.185587" lon="-17.254028">
        <ele>194.815</ele>
        <time>2020-07-06T12:40:14Z</time>
      </trkpt>
      <trkpt lat="28.186010" lon="-17.255103">
        <ele>174.348</ele>
        <time>2020-07-06T12:43:37Z</time>
      </trkpt>
      <trkpt lat="28.186109" lon="-17.255276">
        <ele>170.526</ele>
        <time>2020-07-06T12:44:32Z</time>
      </trkpt>
      <trkpt lat="28.186288" lon="-17.255318">
        <ele>172.941</ele>
        <time>2020-07-06T12:44:54Z</time>
      </trkpt>
      <trkpt lat="28.186201" lon="-17.255578">
        <ele>173.067</ele>
        <time>2020-07-06T12:45:20Z</time>
      </trkpt>
      <trkpt lat="28.186245" lon="-17.255982">
        <ele>161.446</ele>
        <time>2020-07-06T12:46:49Z</time>
      </trkpt>
      <trkpt lat="28.186533" lon="-17.256164">
        <ele>156.788</ele>
        <time>2020-07-06T12:48:06Z</time>
      </trkpt>
      <trkpt lat="28.186774" lon="-17.256476">
        <ele>142.416</ele>
        <time>2020-07-06T12:49:26Z</time>
      </trkpt>
      <trkpt lat="28.186688" lon="-17.256517">
        <ele>138.808</ele>
        <time>2020-07-06T12:50:22Z</time>
      </trkpt>
      <trkpt lat="28.186659" lon="-17.256676">
        <ele>136.679</ele>
        <time>2020-07-06T12:51:04Z</time>
      </trkpt>
      <trkpt lat="28.186776" lon="-17.256904">
        <ele>137.436</ele>
        <time>2020-07-06T12:51:30Z</time>
      </trkpt>
      <trkpt lat="28.186785" lon="-17.257182">
        <ele>138.137</ele>
        <time>2020-07-06T12:51:55Z</time>
      </trkpt>
      <trkpt lat="28.187120" lon="-17.257771">
        <ele>135.637</ele>
        <time>2020-07-06T12:53:04Z</time>
      </trkpt>
      <trkpt lat="28.187861" lon="-17.258599">
        <ele>130.120</ele>
        <time>2020-07-06T12:54:54Z</time>
      </trkpt>
      <trkpt lat="28.189273" lon="-17.259817">
        <ele>103.778</ele>
        <time>2020-07-06T12:58:59Z</time>
      </trkpt>
      <trkpt lat="28.189393" lon="-17.259982">
        <ele>101.793</ele>
        <time>2020-07-06T12:59:19Z</time>
      </trkpt>
      <trkpt lat="28.189323" lon="-17.260048">
        <ele>100.049</ele>
        <time>2020-07-06T12:59:32Z</time>
      </trkpt>
      <trkpt lat="28.189412" lon="-17.260017">
        <ele>98.438</ele>
        <time>2020-07-06T12:59:43Z</time>
      </trkpt>
      <trkpt lat="28.189364" lon="-17.260097">
        <ele>95.170</ele>
        <time>2020-07-06T13:00:01Z</time>
      </trkpt>
      <trkpt lat="28.189633" lon="-17.259929">
        <ele>84.217</ele>
        <time>2020-07-06T13:02:07Z</time>
      </trkpt>
      <trkpt lat="28.189408" lon="-17.259385">
        <ele>82.508</ele>
        <time>2020-07-06T13:03:01Z</time>
      </trkpt>
      <trkpt lat="28.189801" lon="-17.259221">
        <ele>78.798</ele>
        <time>2020-07-06T13:03:52Z</time>
      </trkpt>
      <trkpt lat="28.190103" lon="-17.259482">
        <ele>79.765</ele>
        <time>2020-07-06T13:04:42Z</time>
      </trkpt>
      <trkpt lat="28.190581" lon="-17.259507">
        <ele>79.196</ele>
        <time>2020-07-06T13:05:31Z</time>
      </trkpt>
      <trkpt lat="28.191198" lon="-17.259797">
        <ele>80.656</ele>
        <time>2020-07-06T13:06:39Z</time>
      </trkpt>
      <trkpt lat="28.191426" lon="-17.259790">
        <ele>80.489</ele>
        <time>2020-07-06T13:07:10Z</time>
      </trkpt>
      <trkpt lat="28.192052" lon="-17.259572">
        <ele>78.017</ele>
        <time>2020-07-06T13:09:02Z</time>
      </trkpt>
      <trkpt lat="28.192203" lon="-17.259316">
        <ele>78.442</ele>
        <time>2020-07-06T13:09:31Z</time>
      </trkpt>
      <trkpt lat="28.192115" lon="-17.258328">
        <ele>79.848</ele>
        <time>2020-07-06T13:11:02Z</time>
      </trkpt>
      <trkpt lat="28.192279" lon="-17.258435">
        <ele>77.954</ele>
        <time>2020-07-06T13:11:21Z</time>
      </trkpt>
      <trkpt lat="28.192718" lon="-17.259208">
        <ele>68.856</ele>
        <time>2020-07-06T13:14:04Z</time>
      </trkpt>
      <trkpt lat="28.193187" lon="-17.259678">
        <ele>50.211</ele>
        <time>2020-07-06T13:15:59Z</time>
      </trkpt>
      <trkpt lat="28.193237" lon="-17.259817">
        <ele>42.708</ele>
        <time>2020-07-06T13:16:45Z</time>
      </trkpt>
      <trkpt lat="28.193101" lon="-17.259799">
        <ele>38.530</ele>
        <time>2020-07-06T13:17:26Z</time>
      </trkpt>
      <trkpt lat="28.193199" lon="-17.259976">
        <ele>33.637</ele>
        <time>2020-07-06T13:17:59Z</time>
      </trkpt>
      <trkpt lat="28.192975" lon="-17.260183">
        <ele>32.148</ele>
        <time>2020-07-06T13:18:26Z</time>
      </trkpt>
      <trkpt lat="28.193017" lon="-17.260339">
        <ele>33.458</ele>
        <time>2020-07-06T13:18:40Z</time>
      </trkpt>
      <trkpt lat="28.193855" lon="-17.259967">
        <ele>28.711</ele>
        <time>2020-07-06T13:20:14Z</time>
      </trkpt>
      <trkpt lat="28.194133" lon="-17.259688">
        <ele>27.469</ele>
        <time>2020-07-06T13:20:50Z</time>
      </trkpt>
      <trkpt lat="28.194326" lon="-17.259651">
        <ele>25.744</ele>
        <time>2020-07-06T13:21:09Z</time>
      </trkpt>
      <trkpt lat="28.194449" lon="-17.259712">
        <ele>23.790</ele>
        <time>2020-07-06T13:21:40Z</time>
      </trkpt>
      <trkpt lat="28.195043" lon="-17.259336">
        <ele>20.221</ele>
        <time>2020-07-06T13:22:41Z</time>
      </trkpt>
      <trkpt lat="28.195434" lon="-17.258652">
        <ele>16.941</ele>
        <time>2020-07-06T13:23:49Z</time>
      </trkpt>
      <trkpt lat="28.195607" lon="-17.258758">
        <ele>20.005</ele>
        <time>2020-07-06T13:24:16Z</time>
      </trkpt>
      <trkpt lat="28.195759" lon="-17.258355">
        <ele>18.308</ele>
        <time>2020-07-06T13:25:04Z</time>
      </trkpt>
      <trkpt lat="28.196339" lon="-17.257549">
        <ele>14.317</ele>
        <time>2020-07-06T13:26:49Z</time>
      </trkpt>
      <trkpt lat="28.196930" lon="-17.256817">
        <ele>13.674</ele>
        <time>2020-07-06T13:28:16Z</time>
      </trkpt>
      <trkpt lat="28.197527" lon="-17.256248">
        <ele>12.755</ele>
        <time>2020-07-06T13:29:28Z</time>
      </trkpt>
      <trkpt lat="28.198156" lon="-17.256153">
        <ele>6.645</ele>
        <time>2020-07-06T13:30:29Z</time>
      </trkpt>
      <trkpt lat="28.198830" lon="-17.256305">
        <ele>5.338</ele>
        <time>2020-07-06T13:31:51Z</time>
      </trkpt>
      <trkpt lat="28.199836" lon="-17.256381">
        <ele>7.016</ele>
        <time>2020-07-06T13:33:21Z</time>
      </trkpt>
      <trkpt lat="28.200112" lon="-17.256289">
        <ele>5.591</ele>
        <time>2020-07-06T13:33:49Z</time>
      </trkpt>
      <trkpt lat="28.200523" lon="-17.255994">
        <ele>1.697</ele>
        <time>2020-07-06T13:34:38Z</time>
      </trkpt>
      <trkpt lat="28.201103" lon="-17.255483">
        <ele>-4.232</ele>
        <time>2020-07-06T13:35:46Z</time>
      </trkpt>
      <trkpt lat="28.201972" lon="-17.254142">
        <ele>-13.092</ele>
        <time>2020-07-06T13:38:02Z</time>
      </trkpt>
      <trkpt lat="28.202543" lon="-17.253621">
        <ele>-19.811</ele>
        <time>2020-07-06T13:39:13Z</time>
      </trkpt>
      <trkpt lat="28.202725" lon="-17.253119">
        <ele>-25.008</ele>
        <time>2020-07-06T13:40:01Z</time>
      </trkpt>
      <trkpt lat="28.202545" lon="-17.253173">
        <ele>-25.778</ele>
        <time>2020-07-06T13:40:21Z</time>
      </trkpt>
    </trkseg>
  </trk></gpx>