<?xml version="1.0" encoding="UTF-8"?>
<gpx version="1.1" creator="Aventuras en Cada Paso" xmlns="http://www.topografix.com/GPX/1/1">
  <metadata>
    <name>Valverde – Mirador de La Peña</name>
    <desc>Paseo desde Valverde al famoso Mirador de La Peña diseñado por César Manrique. Vistas aéreas al El Golfo y a toda la bahía desde 700 m de altura.</desc>
    <author><name>Aventuras en Cada Paso</name></author>
    <time>2026-07-08T08:12:58.204Z</time>
    <keywords>El Hierro, Senderismo, Fácil, senderismo Canarias</keywords>
  </metadata>
  <wpt lat="27.8139" lon="-17.9147">
    <name>Valverde – Mirador de La Peña</name>
    <desc>Paseo desde Valverde al famoso Mirador de La Peña diseñado por César Manrique. Vistas aéreas al El Golfo y a toda la bahía desde 700 m de altura. | Isla: El Hierro | Tipo: Senderismo | Dificultad: Fácil | Distancia: 4km | Duración: Menos de 2h</desc>
    <type>Senderismo</type>
    <extensions>
      <isla>El Hierro</isla>
      <dificultad>Fácil</dificultad>
      <distancia>4</distancia>
      <duracion>Menos de 2h</duracion>
    </extensions>
  </wpt>
</gpx>