<?xml version="1.0" encoding="UTF-8"?>
<gpx creator="Wikiloc - https://www.wikiloc.com" version="1.1" xmlns="http://www.topografix.com/GPX/1/1" xmlns:xsi="http://www.w3.org/2001/XMLSchema-instance" xsi:schemaLocation="http://www.topografix.com/GPX/1/1 http://www.topografix.com/GPX/1/1/gpx.xsd">
  <metadata>
    <name>Wikiloc - Corral del Niño-volcán Fasnia. Sendero 20</name>
    <link href="https://www.wikiloc.com/hiking-trails/corral-del-nino-volcan-fasnia-sendero-20-31131075">
      <text>Corral del Niño-volcán Fasnia. Sendero 20 - Wikiloc on Wikiloc</text>
    </link>
    <time>2018-12-06T13:11:36Z</time>
  </metadata>
  <trk>
    <name>Corral del Niño-volcán Fasnia. Sendero 20 - Wikiloc</name>
    <cmt></cmt>
    <desc></desc>
    <trkseg>
      <trkpt lat="28.302572" lon="-16.522017">
        <ele>2181.112</ele>
        <time>2018-12-06T10:41:55Z</time>
      </trkpt>
      <trkpt lat="28.302319" lon="-16.521766">
        <ele>2181.132</ele>
        <time>2018-12-06T10:45:08Z</time>
      </trkpt>
      <trkpt lat="28.301570" lon="-16.522175">
        <ele>2185.105</ele>
        <time>2018-12-06T10:46:37Z</time>
      </trkpt>
      <trkpt lat="28.300432" lon="-16.521936">
        <ele>2186.608</ele>
        <time>2018-12-06T10:48:28Z</time>
      </trkpt>
      <trkpt lat="28.300078" lon="-16.521979">
        <ele>2185.914</ele>
        <time>2018-12-06T10:49:01Z</time>
      </trkpt>
      <trkpt lat="28.298330" lon="-16.522623">
        <ele>2194.542</ele>
        <time>2018-12-06T10:51:57Z</time>
      </trkpt>
      <trkpt lat="28.296984" lon="-16.523478">
        <ele>2199.552</ele>
        <time>2018-12-06T10:54:18Z</time>
      </trkpt>
      <trkpt lat="28.296417" lon="-16.524093">
        <ele>2205.124</ele>
        <time>2018-12-06T10:55:28Z</time>
      </trkpt>
      <trkpt lat="28.296256" lon="-16.524383">
        <ele>2204.462</ele>
        <time>2018-12-06T10:55:55Z</time>
      </trkpt>
      <trkpt lat="28.295935" lon="-16.524646">
        <ele>2204.431</ele>
        <time>2018-12-06T10:56:29Z</time>
      </trkpt>
      <trkpt lat="28.295348" lon="-16.525541">
        <ele>2203.368</ele>
        <time>2018-12-06T10:57:55Z</time>
      </trkpt>
      <trkpt lat="28.295017" lon="-16.526397">
        <ele>2205.496</ele>
        <time>2018-12-06T10:59:06Z</time>
      </trkpt>
      <trkpt lat="28.294972" lon="-16.527090">
        <ele>2206.146</ele>
        <time>2018-12-06T11:00:53Z</time>
      </trkpt>
      <trkpt lat="28.295022" lon="-16.527434">
        <ele>2206.088</ele>
        <time>2018-12-06T11:01:20Z</time>
      </trkpt>
      <trkpt lat="28.295619" lon="-16.528846">
        <ele>2211.316</ele>
        <time>2018-12-06T11:03:18Z</time>
      </trkpt>
      <trkpt lat="28.295750" lon="-16.529269">
        <ele>2208.308</ele>
        <time>2018-12-06T11:04:56Z</time>
      </trkpt>
      <trkpt lat="28.295677" lon="-16.529385">
        <ele>2208.757</ele>
        <time>2018-12-06T11:05:08Z</time>
      </trkpt>
      <trkpt lat="28.295268" lon="-16.529487">
        <ele>2206.635</ele>
        <time>2018-12-06T11:05:45Z</time>
      </trkpt>
      <trkpt lat="28.294677" lon="-16.529766">
        <ele>2201.165</ele>
        <time>2018-12-06T11:06:41Z</time>
      </trkpt>
      <trkpt lat="28.294080" lon="-16.529803">
        <ele>2195.467</ele>
        <time>2018-12-06T11:07:39Z</time>
      </trkpt>
      <trkpt lat="28.293748" lon="-16.529931">
        <ele>2192.575</ele>
        <time>2018-12-06T11:08:13Z</time>
      </trkpt>
      <trkpt lat="28.293597" lon="-16.529887">
        <ele>2190.744</ele>
        <time>2018-12-06T11:08:28Z</time>
      </trkpt>
      <trkpt lat="28.293518" lon="-16.529754">
        <ele>2190.041</ele>
        <time>2018-12-06T11:08:41Z</time>
      </trkpt>
      <trkpt lat="28.293561" lon="-16.529260">
        <ele>2184.279</ele>
        <time>2018-12-06T11:09:23Z</time>
      </trkpt>
      <trkpt lat="28.292925" lon="-16.528445">
        <ele>2176.751</ele>
        <time>2018-12-06T11:10:45Z</time>
      </trkpt>
      <trkpt lat="28.292705" lon="-16.527609">
        <ele>2170.401</ele>
        <time>2018-12-06T11:11:58Z</time>
      </trkpt>
      <trkpt lat="28.292761" lon="-16.527346">
        <ele>2168.211</ele>
        <time>2018-12-06T11:12:18Z</time>
      </trkpt>
      <trkpt lat="28.292630" lon="-16.527221">
        <ele>2168.708</ele>
        <time>2018-12-06T11:12:34Z</time>
      </trkpt>
      <trkpt lat="28.292017" lon="-16.527576">
        <ele>2172.998</ele>
        <time>2018-12-06T11:13:36Z</time>
      </trkpt>
      <trkpt lat="28.291297" lon="-16.527777">
        <ele>2177.756</ele>
        <time>2018-12-06T11:14:47Z</time>
      </trkpt>
      <trkpt lat="28.290781" lon="-16.528223">
        <ele>2184.196</ele>
        <time>2018-12-06T11:15:51Z</time>
      </trkpt>
      <trkpt lat="28.290491" lon="-16.528323">
        <ele>2185.688</ele>
        <time>2018-12-06T11:16:18Z</time>
      </trkpt>
      <trkpt lat="28.290126" lon="-16.528137">
        <ele>2187.816</ele>
        <time>2018-12-06T11:16:56Z</time>
      </trkpt>
      <trkpt lat="28.289703" lon="-16.528266">
        <ele>2188.935</ele>
        <time>2018-12-06T11:17:38Z</time>
      </trkpt>
      <trkpt lat="28.289508" lon="-16.528239">
        <ele>2185.962</ele>
        <time>2018-12-06T11:18:43Z</time>
      </trkpt>
      <trkpt lat="28.288717" lon="-16.528581">
        <ele>2173.210</ele>
        <time>2018-12-06T11:20:18Z</time>
      </trkpt>
      <trkpt lat="28.288115" lon="-16.528487">
        <ele>2166.875</ele>
        <time>2018-12-06T11:21:11Z</time>
      </trkpt>
      <trkpt lat="28.287493" lon="-16.528823">
        <ele>2159.628</ele>
        <time>2018-12-06T11:24:45Z</time>
      </trkpt>
      <trkpt lat="28.286080" lon="-16.528840">
        <ele>2149.420</ele>
        <time>2018-12-06T11:26:57Z</time>
      </trkpt>
      <trkpt lat="28.285885" lon="-16.528757">
        <ele>2148.908</ele>
        <time>2018-12-06T11:27:14Z</time>
      </trkpt>
      <trkpt lat="28.285676" lon="-16.528775">
        <ele>2147.550</ele>
        <time>2018-12-06T11:27:31Z</time>
      </trkpt>
      <trkpt lat="28.285345" lon="-16.528619">
        <ele>2145.748</ele>
        <time>2018-12-06T11:28:00Z</time>
      </trkpt>
      <trkpt lat="28.285003" lon="-16.528285">
        <ele>2143.768</ele>
        <time>2018-12-06T11:28:36Z</time>
      </trkpt>
      <trkpt lat="28.284678" lon="-16.528129">
        <ele>2140.910</ele>
        <time>2018-12-06T11:29:06Z</time>
      </trkpt>
      <trkpt lat="28.284434" lon="-16.528145">
        <ele>2139.678</ele>
        <time>2018-12-06T11:29:41Z</time>
      </trkpt>
      <trkpt lat="28.284370" lon="-16.528271">
        <ele>2139.097</ele>
        <time>2018-12-06T11:29:55Z</time>
      </trkpt>
      <trkpt lat="28.284179" lon="-16.528335">
        <ele>2137.744</ele>
        <time>2018-12-06T11:30:13Z</time>
      </trkpt>
      <trkpt lat="28.283337" lon="-16.528108">
        <ele>2133.732</ele>
        <time>2018-12-06T11:31:27Z</time>
      </trkpt>
      <trkpt lat="28.281522" lon="-16.525946">
        <ele>2119.849</ele>
        <time>2018-12-06T11:35:04Z</time>
      </trkpt>
      <trkpt lat="28.281294" lon="-16.525855">
        <ele>2118.502</ele>
        <time>2018-12-06T11:35:26Z</time>
      </trkpt>
      <trkpt lat="28.281293" lon="-16.525261">
        <ele>2115.322</ele>
        <time>2018-12-06T11:36:12Z</time>
      </trkpt>
      <trkpt lat="28.281388" lon="-16.524991">
        <ele>2115.808</ele>
        <time>2018-12-06T11:36:35Z</time>
      </trkpt>
      <trkpt lat="28.281816" lon="-16.524998">
        <ele>2119.757</ele>
        <time>2018-12-06T11:37:17Z</time>
      </trkpt>
      <trkpt lat="28.281913" lon="-16.524800">
        <ele>2118.725</ele>
        <time>2018-12-06T11:37:36Z</time>
      </trkpt>
      <trkpt lat="28.282103" lon="-16.524704">
        <ele>2114.145</ele>
        <time>2018-12-06T11:37:55Z</time>
      </trkpt>
      <trkpt lat="28.282188" lon="-16.524565">
        <ele>2114.577</ele>
        <time>2018-12-06T11:38:08Z</time>
      </trkpt>
      <trkpt lat="28.282138" lon="-16.524130">
        <ele>2110.835</ele>
        <time>2018-12-06T11:38:42Z</time>
      </trkpt>
      <trkpt lat="28.281984" lon="-16.523906">
        <ele>2110.154</ele>
        <time>2018-12-06T11:39:06Z</time>
      </trkpt>
      <trkpt lat="28.281924" lon="-16.523225">
        <ele>2106.111</ele>
        <time>2018-12-06T11:39:57Z</time>
      </trkpt>
      <trkpt lat="28.281636" lon="-16.522544">
        <ele>2102.239</ele>
        <time>2018-12-06T11:40:51Z</time>
      </trkpt>
      <trkpt lat="28.281223" lon="-16.522297">
        <ele>2104.456</ele>
        <time>2018-12-06T11:41:34Z</time>
      </trkpt>
      <trkpt lat="28.280797" lon="-16.521884">
        <ele>2104.859</ele>
        <time>2018-12-06T11:42:21Z</time>
      </trkpt>
      <trkpt lat="28.280201" lon="-16.521463">
        <ele>2100.914</ele>
        <time>2018-12-06T11:43:17Z</time>
      </trkpt>
      <trkpt lat="28.279741" lon="-16.520179">
        <ele>2087.708</ele>
        <time>2018-12-06T11:45:01Z</time>
      </trkpt>
      <trkpt lat="28.279820" lon="-16.519464">
        <ele>2085.268</ele>
        <time>2018-12-06T11:46:02Z</time>
      </trkpt>
      <trkpt lat="28.279422" lon="-16.518906">
        <ele>2078.946</ele>
        <time>2018-12-06T11:47:00Z</time>
      </trkpt>
      <trkpt lat="28.279272" lon="-16.518482">
        <ele>2075.256</ele>
        <time>2018-12-06T11:47:35Z</time>
      </trkpt>
      <trkpt lat="28.278868" lon="-16.518167">
        <ele>2067.168</ele>
        <time>2018-12-06T11:48:34Z</time>
      </trkpt>
      <trkpt lat="28.279402" lon="-16.518083">
        <ele>2068.146</ele>
        <time>2018-12-06T11:49:52Z</time>
      </trkpt>
      <trkpt lat="28.280374" lon="-16.517785">
        <ele>2067.065</ele>
        <time>2018-12-06T11:51:17Z</time>
      </trkpt>
      <trkpt lat="28.281285" lon="-16.516409">
        <ele>2060.382</ele>
        <time>2018-12-06T11:54:27Z</time>
      </trkpt>
      <trkpt lat="28.286393" lon="-16.513227">
        <ele>2061.970</ele>
        <time>2018-12-06T12:03:29Z</time>
      </trkpt>
      <trkpt lat="28.286397" lon="-16.512713">
        <ele>2061.911</ele>
        <time>2018-12-06T12:04:22Z</time>
      </trkpt>
      <trkpt lat="28.286073" lon="-16.512459">
        <ele>2061.221</ele>
        <time>2018-12-06T12:04:59Z</time>
      </trkpt>
      <trkpt lat="28.286022" lon="-16.512240">
        <ele>2060.903</ele>
        <time>2018-12-06T12:05:18Z</time>
      </trkpt>
      <trkpt lat="28.286383" lon="-16.511566">
        <ele>2061.008</ele>
        <time>2018-12-06T12:06:20Z</time>
      </trkpt>
      <trkpt lat="28.287011" lon="-16.510833">
        <ele>2061.844</ele>
        <time>2018-12-06T12:07:48Z</time>
      </trkpt>
      <trkpt lat="28.287256" lon="-16.510268">
        <ele>2062.382</ele>
        <time>2018-12-06T12:08:39Z</time>
      </trkpt>
      <trkpt lat="28.287246" lon="-16.510167">
        <ele>2062.272</ele>
        <time>2018-12-06T12:08:48Z</time>
      </trkpt>
      <trkpt lat="28.287104" lon="-16.510125">
        <ele>2061.714</ele>
        <time>2018-12-06T12:09:08Z</time>
      </trkpt>
      <trkpt lat="28.286942" lon="-16.510227">
        <ele>2063.182</ele>
        <time>2018-12-06T12:09:39Z</time>
      </trkpt>
      <trkpt lat="28.286970" lon="-16.510330">
        <ele>2066.041</ele>
        <time>2018-12-06T12:09:53Z</time>
      </trkpt>
      <trkpt lat="28.287064" lon="-16.510339">
        <ele>2066.388</ele>
        <time>2018-12-06T12:12:11Z</time>
      </trkpt>
      <trkpt lat="28.287122" lon="-16.510499">
        <ele>2064.216</ele>
        <time>2018-12-06T12:13:36Z</time>
      </trkpt>
      <trkpt lat="28.287347" lon="-16.510589">
        <ele>2064.943</ele>
        <time>2018-12-06T12:14:07Z</time>
      </trkpt>
      <trkpt lat="28.287160" lon="-16.510549">
        <ele>2062.764</ele>
        <time>2018-12-06T12:14:48Z</time>
      </trkpt>
      <trkpt lat="28.286869" lon="-16.511065">
        <ele>2061.610</ele>
        <time>2018-12-06T12:15:39Z</time>
      </trkpt>
      <trkpt lat="28.286444" lon="-16.511109">
        <ele>2067.108</ele>
        <time>2018-12-06T12:16:43Z</time>
      </trkpt>
      <trkpt lat="28.286186" lon="-16.511356">
        <ele>2066.957</ele>
        <time>2018-12-06T12:17:27Z</time>
      </trkpt>
      <trkpt lat="28.286085" lon="-16.511595">
        <ele>2067.195</ele>
        <time>2018-12-06T12:18:04Z</time>
      </trkpt>
      <trkpt lat="28.285896" lon="-16.511669">
        <ele>2069.765</ele>
        <time>2018-12-06T12:18:58Z</time>
      </trkpt>
      <trkpt lat="28.286130" lon="-16.511949">
        <ele>2061.597</ele>
        <time>2018-12-06T12:20:34Z</time>
      </trkpt>
      <trkpt lat="28.286013" lon="-16.512374">
        <ele>2061.115</ele>
        <time>2018-12-06T12:21:23Z</time>
      </trkpt>
      <trkpt lat="28.286401" lon="-16.512714">
        <ele>2062.044</ele>
        <time>2018-12-06T12:22:09Z</time>
      </trkpt>
      <trkpt lat="28.286378" lon="-16.513118">
        <ele>2064.251</ele>
        <time>2018-12-06T12:22:43Z</time>
      </trkpt>
      <trkpt lat="28.286460" lon="-16.513188">
        <ele>2062.379</ele>
        <time>2018-12-06T12:22:53Z</time>
      </trkpt>
      <trkpt lat="28.288282" lon="-16.512093">
        <ele>2069.096</ele>
        <time>2018-12-06T12:29:58Z</time>
      </trkpt>
      <trkpt lat="28.289709" lon="-16.511742">
        <ele>2078.231</ele>
        <time>2018-12-06T12:32:11Z</time>
      </trkpt>
      <trkpt lat="28.290474" lon="-16.511615">
        <ele>2085.124</ele>
        <time>2018-12-06T12:33:22Z</time>
      </trkpt>
      <trkpt lat="28.292034" lon="-16.511979">
        <ele>2098.708</ele>
        <time>2018-12-06T12:35:47Z</time>
      </trkpt>
      <trkpt lat="28.292612" lon="-16.511773">
        <ele>2101.352</ele>
        <time>2018-12-06T12:36:45Z</time>
      </trkpt>
      <trkpt lat="28.293008" lon="-16.512180">
        <ele>2103.860</ele>
        <time>2018-12-06T12:37:33Z</time>
      </trkpt>
      <trkpt lat="28.294221" lon="-16.512995">
        <ele>2112.660</ele>
        <time>2018-12-06T12:39:37Z</time>
      </trkpt>
      <trkpt lat="28.295712" lon="-16.513796">
        <ele>2122.912</ele>
        <time>2018-12-06T12:42:18Z</time>
      </trkpt>
      <trkpt lat="28.295839" lon="-16.514021">
        <ele>2124.610</ele>
        <time>2018-12-06T12:42:38Z</time>
      </trkpt>
      <trkpt lat="28.295834" lon="-16.514542">
        <ele>2127.869</ele>
        <time>2018-12-06T12:43:18Z</time>
      </trkpt>
      <trkpt lat="28.295998" lon="-16.514651">
        <ele>2128.286</ele>
        <time>2018-12-06T12:43:35Z</time>
      </trkpt>
      <trkpt lat="28.296685" lon="-16.514202">
        <ele>2130.814</ele>
        <time>2018-12-06T12:44:46Z</time>
      </trkpt>
      <trkpt lat="28.296981" lon="-16.513893">
        <ele>2132.422</ele>
        <time>2018-12-06T12:45:22Z</time>
      </trkpt>
      <trkpt lat="28.297122" lon="-16.513867">
        <ele>2133.662</ele>
        <time>2018-12-06T12:45:36Z</time>
      </trkpt>
      <trkpt lat="28.297235" lon="-16.514022">
        <ele>2132.608</ele>
        <time>2018-12-06T12:45:54Z</time>
      </trkpt>
      <trkpt lat="28.297153" lon="-16.514576">
        <ele>2139.508</ele>
        <time>2018-12-06T12:48:38Z</time>
      </trkpt>
      <trkpt lat="28.297393" lon="-16.514608">
        <ele>2139.345</ele>
        <time>2018-12-06T12:49:03Z</time>
      </trkpt>
      <trkpt lat="28.298940" lon="-16.515292">
        <ele>2150.963</ele>
        <time>2018-12-06T12:51:31Z</time>
      </trkpt>
      <trkpt lat="28.300289" lon="-16.515466">
        <ele>2157.333</ele>
        <time>2018-12-06T12:53:32Z</time>
      </trkpt>
      <trkpt lat="28.301585" lon="-16.515118">
        <ele>2165.385</ele>
        <time>2018-12-06T12:55:33Z</time>
      </trkpt>
      <trkpt lat="28.302214" lon="-16.514678">
        <ele>2168.663</ele>
        <time>2018-12-06T12:56:40Z</time>
      </trkpt>
      <trkpt lat="28.302425" lon="-16.514447">
        <ele>2170.232</ele>
        <time>2018-12-06T12:57:30Z</time>
      </trkpt>
      <trkpt lat="28.302505" lon="-16.514500">
        <ele>2169.949</ele>
        <time>2018-12-06T12:57:41Z</time>
      </trkpt>
      <trkpt lat="28.303037" lon="-16.515338">
        <ele>2166.777</ele>
        <time>2018-12-06T12:58:59Z</time>
      </trkpt>
      <trkpt lat="28.303258" lon="-16.515948">
        <ele>2171.875</ele>
        <time>2018-12-06T12:59:48Z</time>
      </trkpt>
      <trkpt lat="28.302894" lon="-16.519436">
        <ele>2189.728</ele>
        <time>2018-12-06T13:04:02Z</time>
      </trkpt>
      <trkpt lat="28.302844" lon="-16.519340">
        <ele>2192.420</ele>
        <time>2018-12-06T13:05:24Z</time>
      </trkpt>
      <trkpt lat="28.302814" lon="-16.519378">
        <ele>2192.908</ele>
        <time>2018-12-06T13:05:30Z</time>
      </trkpt>
      <trkpt lat="28.302842" lon="-16.519336">
        <ele>2193.780</ele>
        <time>2018-12-06T13:08:15Z</time>
      </trkpt>
      <trkpt lat="28.302852" lon="-16.519921">
        <ele>2188.818</ele>
        <time>2018-12-06T13:09:10Z</time>
      </trkpt>
      <trkpt lat="28.302672" lon="-16.521511">
        <ele>2183.658</ele>
        <time>2018-12-06T13:10:58Z</time>
      </trkpt>
      <trkpt lat="28.302764" lon="-16.521778">
        <ele>2181.330</ele>
        <time>2018-12-06T13:11:21Z</time>
      </trkpt>
      <trkpt lat="28.302882" lon="-16.521877">
        <ele>2178.748</ele>
        <time>2018-12-06T13:11:36Z</time>
      </trkpt>
    </trkseg>
  </trk></gpx>