<?xml version="1.0" encoding="UTF-8"?>
<gpx version="1.1" creator="Aventuras en Cada Paso" xmlns="http://www.topografix.com/GPX/1/1">
  <metadata>
    <name>Volcán de Escanfraga</name>
    <desc>Ascenso al volcán de Escanfraga con coladas basálticas y lavas solidificadas. Vistas al norte de la isla y contraste con las extensas llanuras.</desc>
    <author><name>Aventuras en Cada Paso</name></author>
    <time>2026-07-08T08:12:58.177Z</time>
    <keywords>Fuerteventura, Senderismo, Media, senderismo Canarias</keywords>
  </metadata>
  <wpt lat="28.5722" lon="-14.0194">
    <name>Volcán de Escanfraga</name>
    <desc>Ascenso al volcán de Escanfraga con coladas basálticas y lavas solidificadas. Vistas al norte de la isla y contraste con las extensas llanuras. | Isla: Fuerteventura | Tipo: Senderismo | Dificultad: Media | Distancia: 8km | Duración: 2-4 horas</desc>
    <type>Senderismo</type>
    <extensions>
      <isla>Fuerteventura</isla>
      <dificultad>Media</dificultad>
      <distancia>8</distancia>
      <duracion>2-4 horas</duracion>
    </extensions>
  </wpt>
</gpx>